{
"type": "FeatureCollection",
"name": "al092021-012_5day_pts",
"features": [
{ "type": "Feature", "properties": { "ADVDATE": "400 AM CDT Sun Aug 29 2021", "ADVISNUM": "12", "BASIN": "AL", "DATELBL": "4:00 AM Sun", "DVLBL": "M", "FCSTPRD": 120.0, "FLDATELBL": "2021-08-29 1:00 AM Sun CDT", "GUST": 145.0, "LAT": 28.0, "LON": -89.1, "MAXWIND": 120.0, "MSLP": 946.0, "SSNUM": 4.0, "STORMNAME": "Hurricane Ida", "STORMNUM": 9.0, "STORMSRC": "Tropical Cyclone", "STORMTYPE": "MH", "TCDVLP": "Major Hurricane", "TAU": 0.0, "TCDIR": 315.0, "TCSPD": 13.0, "TIMEZONE": "CDT", "VALIDTIME": "29/0600" }, "geometry": { "type": "Point", "coordinates": [ -89.1, 28.0 ] } },
{ "type": "Feature", "properties": { "ADVDATE": "400 AM CDT Sun Aug 29 2021", "ADVISNUM": "12", "BASIN": "AL", "DATELBL": "1:00 PM Sun", "DVLBL": "M", "FCSTPRD": 120.0, "FLDATELBL": "2021-08-29 1:00 PM Sun CDT", "GUST": 150.0, "LAT": 29.1, "LON": -90.3, "MAXWIND": 125.0, "MSLP": 9999.0, "SSNUM": 4.0, "STORMNAME": "Hurricane Ida", "STORMNUM": 9.0, "STORMSRC": "Tropical Cyclone", "STORMTYPE": "MH", "TCDVLP": "Major Hurricane", "TAU": 12.0, "TCDIR": 9999.0, "TCSPD": 9999.0, "TIMEZONE": "CDT", "VALIDTIME": "29/1800" }, "geometry": { "type": "Point", "coordinates": [ -90.3, 29.1 ] } },
{ "type": "Feature", "properties": { "ADVDATE": "400 AM CDT Sun Aug 29 2021", "ADVISNUM": "12", "BASIN": "AL", "DATELBL": "1:00 AM Mon", "DVLBL": "H", "FCSTPRD": 120.0, "FLDATELBL": "2021-08-30 1:00 AM Mon CDT", "GUST": 85.0, "LAT": 30.6, "LON": -91.1, "MAXWIND": 70.0, "MSLP": 9999.0, "SSNUM": 1.0, "STORMNAME": "Hurricane Ida", "STORMNUM": 9.0, "STORMSRC": "Tropical Cyclone", "STORMTYPE": "HU", "TCDVLP": "Hurricane", "TAU": 24.0, "TCDIR": 9999.0, "TCSPD": 9999.0, "TIMEZONE": "CDT", "VALIDTIME": "30/0600" }, "geometry": { "type": "Point", "coordinates": [ -91.1, 30.6 ] } },
{ "type": "Feature", "properties": { "ADVDATE": "400 AM CDT Sun Aug 29 2021", "ADVISNUM": "12", "BASIN": "AL", "DATELBL": "1:00 PM Mon", "DVLBL": "S", "FCSTPRD": 120.0, "FLDATELBL": "2021-08-30 1:00 PM Mon CDT", "GUST": 55.0, "LAT": 32.2, "LON": -91.0, "MAXWIND": 45.0, "MSLP": 9999.0, "SSNUM": 0.0, "STORMNAME": "Hurricane Ida", "STORMNUM": 9.0, "STORMSRC": "Tropical Cyclone", "STORMTYPE": "TS", "TCDVLP": "Tropical Storm", "TAU": 36.0, "TCDIR": 9999.0, "TCSPD": 9999.0, "TIMEZONE": "CDT", "VALIDTIME": "30/1800" }, "geometry": { "type": "Point", "coordinates": [ -91.0, 32.2 ] } },
{ "type": "Feature", "properties": { "ADVDATE": "400 AM CDT Sun Aug 29 2021", "ADVISNUM": "12", "BASIN": "AL", "DATELBL": "1:00 AM Tue", "DVLBL": "D", "FCSTPRD": 120.0, "FLDATELBL": "2021-08-31 1:00 AM Tue CDT", "GUST": 40.0, "LAT": 33.8, "LON": -90.0, "MAXWIND": 30.0, "MSLP": 9999.0, "SSNUM": 0.0, "STORMNAME": "Hurricane Ida", "STORMNUM": 9.0, "STORMSRC": "Tropical Cyclone", "STORMTYPE": "TD", "TCDVLP": "Tropical Depression", "TAU": 48.0, "TCDIR": 9999.0, "TCSPD": 9999.0, "TIMEZONE": "CDT", "VALIDTIME": "31/0600" }, "geometry": { "type": "Point", "coordinates": [ -90.0, 33.8 ] } },
{ "type": "Feature", "properties": { "ADVDATE": "400 AM CDT Sun Aug 29 2021", "ADVISNUM": "12", "BASIN": "AL", "DATELBL": "1:00 PM Tue", "DVLBL": "D", "FCSTPRD": 120.0, "FLDATELBL": "2021-08-31 1:00 PM Tue CDT", "GUST": 35.0, "LAT": 35.4, "LON": -87.9, "MAXWIND": 25.0, "MSLP": 9999.0, "SSNUM": 0.0, "STORMNAME": "Hurricane Ida", "STORMNUM": 9.0, "STORMSRC": "Tropical Cyclone", "STORMTYPE": "TD", "TCDVLP": "Tropical Depression", "TAU": 60.0, "TCDIR": 9999.0, "TCSPD": 9999.0, "TIMEZONE": "CDT", "VALIDTIME": "31/1800" }, "geometry": { "type": "Point", "coordinates": [ -87.9, 35.4 ] } },
{ "type": "Feature", "properties": { "ADVDATE": "400 AM CDT Sun Aug 29 2021", "ADVISNUM": "12", "BASIN": "AL", "DATELBL": "1:00 AM Wed", "DVLBL": "D", "FCSTPRD": 120.0, "FLDATELBL": "2021-09-01 1:00 AM Wed CDT", "GUST": 30.0, "LAT": 36.7, "LON": -85.2, "MAXWIND": 20.0, "MSLP": 9999.0, "SSNUM": 0.0, "STORMNAME": "Hurricane Ida", "STORMNUM": 9.0, "STORMSRC": "Tropical Cyclone", "STORMTYPE": "TD", "TCDVLP": "Tropical Depression", "TAU": 72.0, "TCDIR": 9999.0, "TCSPD": 9999.0, "TIMEZONE": "CDT", "VALIDTIME": "01/0600" }, "geometry": { "type": "Point", "coordinates": [ -85.2, 36.7 ] } },
{ "type": "Feature", "properties": { "ADVDATE": "400 AM CDT Sun Aug 29 2021", "ADVISNUM": "12", "BASIN": "AL", "DATELBL": "1:00 AM Thu", "DVLBL": "D", "FCSTPRD": 120.0, "FLDATELBL": "2021-09-02 1:00 AM Thu CDT", "GUST": 30.0, "LAT": 38.9, "LON": -78.9, "MAXWIND": 20.0, "MSLP": 9999.0, "SSNUM": 0.0, "STORMNAME": "Hurricane Ida", "STORMNUM": 9.0, "STORMSRC": "Post-Tropical Cyclone", "STORMTYPE": "STD", "TCDVLP": "Subtropical Depression", "TAU": 96.0, "TCDIR": 9999.0, "TCSPD": 9999.0, "TIMEZONE": "CDT", "VALIDTIME": "02/0600" }, "geometry": { "type": "Point", "coordinates": [ -78.9, 38.9 ] } }
]
}
