{
"type": "FeatureCollection",
"name": "al092021_2021082909_initialradii",
"features": [
{ "type": "Feature", "properties": { "RADII": 34.0, "STORMID": "al092021", "BASIN": "al", "STORMNUM": 9.0, "ADVNUM": "12", "VALIDTIME": "2021082909", "SYNOPTIME": "2021082906", "TIMEZONE": "UTC", "TAU": 0.0, "NE": 120.0, "SE": 100.0, "SW": 80.0, "NW": 110.0 }, "geometry": { "type": "Polygon", "coordinates": [ [ [ -89.0805, 29.9121 ], [ -89.119, 29.9103 ], [ -89.1574, 29.9078 ], [ -89.1957, 29.9048 ], [ -89.2339, 29.9012 ], [ -89.2719, 29.897 ], [ -89.3099, 29.8922 ], [ -89.3477, 29.8869 ], [ -89.3853, 29.8809 ], [ -89.4228, 29.8744 ], [ -89.4601, 29.8673 ], [ -89.4972, 29.8597 ], [ -89.5341, 29.8514 ], [ -89.5708, 29.8427 ], [ -89.6073, 29.8333 ], [ -89.6435, 29.8234 ], [ -89.6795, 29.813 ], [ -89.7152, 29.802 ], [ -89.7507, 29.7905 ], [ -89.7859, 29.7785 ], [ -89.8208, 29.7659 ], [ -89.8554, 29.7528 ], [ -89.8896, 29.7392 ], [ -89.9236, 29.725 ], [ -89.9572, 29.7104 ], [ -89.9905, 29.6952 ], [ -90.0234, 29.6796 ], [ -90.0559, 29.6634 ], [ -90.0881, 29.6468 ], [ -90.1199, 29.6297 ], [ -90.1513, 29.6122 ], [ -90.1824, 29.5941 ], [ -90.213, 29.5757 ], [ -90.2431, 29.5567 ], [ -90.2729, 29.5373 ], [ -90.3022, 29.5175 ], [ -90.3311, 29.4973 ], [ -90.3595, 29.4766 ], [ -90.3875, 29.4555 ], [ -90.415, 29.434 ], [ -90.442, 29.4121 ], [ -90.4686, 29.3898 ], [ -90.4945, 29.367 ], [ -90.5195, 29.3435 ], [ -90.5437, 29.3195 ], [ -90.567, 29.2947 ], [ -90.5894, 29.2694 ], [ -90.6109, 29.2436 ], [ -90.6314, 29.2171 ], [ -90.6511, 29.1902 ], [ -90.6697, 29.1627 ], [ -90.6876, 29.1348 ], [ -90.7048, 29.1068 ], [ -90.7214, 29.0786 ], [ -90.7373, 29.0502 ], [ -90.7526, 29.0217 ], [ -90.7673, 28.993 ], [ -90.7813, 28.9642 ], [ -90.7947, 28.9352 ], [ -90.8074, 28.9061 ], [ -90.8195, 28.8769 ], [ -90.8309, 28.8477 ], [ -90.8417, 28.8183 ], [ -90.8519, 28.7889 ], [ -90.8614, 28.7593 ], [ -90.8703, 28.7298 ], [ -90.8785, 28.7002 ], [ -90.8861, 28.6705 ], [ -90.893, 28.6409 ], [ -90.8994, 28.6112 ], [ -90.9051, 28.5815 ], [ -90.9101, 28.5518 ], [ -90.9146, 28.5222 ], [ -90.9184, 28.4926 ], [ -90.9216, 28.463 ], [ -90.9242, 28.4335 ], [ -90.9261, 28.404 ], [ -90.9275, 28.3746 ], [ -90.9282, 28.3453 ], [ -90.9283, 28.316 ], [ -90.9279, 28.2869 ], [ -90.9268, 28.2578 ], [ -90.9252, 28.2289 ], [ -90.923, 28.2001 ], [ -90.9201, 28.1715 ], [ -90.9168, 28.1429 ], [ -90.9128, 28.1146 ], [ -90.9083, 28.0864 ], [ -90.9032, 28.0584 ], [ -90.8976, 28.0305 ], [ -90.8914, 28.0028 ], [ -90.8847, 27.9754 ], [ -90.8774, 27.9481 ], [ -90.8697, 27.921 ], [ -90.8614, 27.8942 ], [ -90.8525, 27.8676 ], [ -90.8432, 27.8412 ], [ -90.8334, 27.8151 ], [ -90.8231, 27.7892 ], [ -90.8123, 27.7636 ], [ -90.801, 27.7383 ], [ -90.7892, 27.7132 ], [ -90.777, 27.6884 ], [ -90.7643, 27.6639 ], [ -90.7512, 27.6396 ], [ -90.7376, 27.6157 ], [ -90.7236, 27.5921 ], [ -90.7092, 27.5688 ], [ -90.6943, 27.5458 ], [ -90.6791, 27.5231 ], [ -90.6634, 27.5008 ], [ -90.6474, 27.4788 ], [ -90.6309, 27.4571 ], [ -90.6141, 27.4358 ], [ -90.597, 27.4148 ], [ -90.5794, 27.3942 ], [ -90.5616, 27.3739 ], [ -90.5433, 27.354 ], [ -90.5248, 27.3345 ], [ -90.5059, 27.3154 ], [ -90.4867, 27.2966 ], [ -90.4672, 27.2782 ], [ -90.4474, 27.2602 ], [ -90.4274, 27.2426 ], [ -90.407, 27.2253 ], [ -90.3864, 27.2085 ], [ -90.3655, 27.1921 ], [ -90.3444, 27.176 ], [ -90.3231, 27.1604 ], [ -90.3015, 27.1452 ], [ -90.2797, 27.1303 ], [ -90.2577, 27.1159 ], [ -90.2358, 27.1016 ], [ -90.2146, 27.0869 ], [ -90.1939, 27.0718 ], [ -90.1738, 27.0563 ], [ -90.1542, 27.0405 ], [ -90.1351, 27.0242 ], [ -90.1165, 27.0075 ], [ -90.0984, 26.9903 ], [ -90.0806, 26.9726 ], [ -90.0629, 26.9547 ], [ -90.0448, 26.9372 ], [ -90.0263, 26.9198 ], [ -90.0074, 26.9027 ], [ -89.9881, 26.8859 ], [ -89.9684, 26.8693 ], [ -89.9484, 26.853 ], [ -89.928, 26.837 ], [ -89.9072, 26.8212 ], [ -89.8861, 26.8058 ], [ -89.8646, 26.7906 ], [ -89.8427, 26.7758 ], [ -89.8206, 26.7612 ], [ -89.798, 26.747 ], [ -89.7752, 26.7331 ], [ -89.752, 26.7195 ], [ -89.7285, 26.7062 ], [ -89.7046, 26.6933 ], [ -89.6805, 26.6808 ], [ -89.6561, 26.6686 ], [ -89.6313, 26.6567 ], [ -89.6063, 26.6452 ], [ -89.581, 26.6341 ], [ -89.5554, 26.6233 ], [ -89.5295, 26.613 ], [ -89.5034, 26.603 ], [ -89.477, 26.5934 ], [ -89.4504, 26.5842 ], [ -89.4235, 26.5754 ], [ -89.3964, 26.567 ], [ -89.369, 26.559 ], [ -89.3415, 26.5514 ], [ -89.3137, 26.5442 ], [ -89.2857, 26.5375 ], [ -89.2576, 26.5312 ], [ -89.2292, 26.5253 ], [ -89.2007, 26.5198 ], [ -89.172, 26.5148 ], [ -89.1431, 26.5102 ], [ -89.1141, 26.5061 ], [ -89.0849, 26.5024 ], [ -89.0556, 26.4992 ], [ -89.0262, 26.4964 ], [ -88.9966, 26.4941 ], [ -88.9669, 26.4922 ], [ -88.9372, 26.4908 ], [ -88.9073, 26.4899 ], [ -88.8774, 26.4894 ], [ -88.8473, 26.4894 ], [ -88.8172, 26.4899 ], [ -88.7871, 26.4908 ], [ -88.7569, 26.4922 ], [ -88.7267, 26.4942 ], [ -88.6964, 26.4965 ], [ -88.6661, 26.4994 ], [ -88.6358, 26.5028 ], [ -88.6055, 26.5066 ], [ -88.5752, 26.5109 ], [ -88.5449, 26.5157 ], [ -88.5147, 26.521 ], [ -88.4845, 26.5268 ], [ -88.4543, 26.533 ], [ -88.4242, 26.5398 ], [ -88.3942, 26.547 ], [ -88.3642, 26.5547 ], [ -88.3344, 26.563 ], [ -88.3046, 26.5717 ], [ -88.2749, 26.5808 ], [ -88.2453, 26.5905 ], [ -88.2159, 26.6007 ], [ -88.1866, 26.6113 ], [ -88.1574, 26.6224 ], [ -88.1284, 26.634 ], [ -88.0996, 26.6461 ], [ -88.0709, 26.6587 ], [ -88.0424, 26.6717 ], [ -88.0141, 26.6852 ], [ -87.986, 26.6992 ], [ -87.9582, 26.7136 ], [ -87.9305, 26.7286 ], [ -87.9031, 26.7439 ], [ -87.8759, 26.7598 ], [ -87.849, 26.7761 ], [ -87.8223, 26.7928 ], [ -87.7959, 26.81 ], [ -87.7698, 26.8277 ], [ -87.744, 26.8458 ], [ -87.7185, 26.8643 ], [ -87.6933, 26.8833 ], [ -87.6684, 26.9027 ], [ -87.6438, 26.9226 ], [ -87.6196, 26.9428 ], [ -87.5957, 26.9635 ], [ -87.5722, 26.9846 ], [ -87.549, 27.0061 ], [ -87.5262, 27.0281 ], [ -87.5038, 27.0504 ], [ -87.4818, 27.0731 ], [ -87.4602, 27.0962 ], [ -87.439, 27.1197 ], [ -87.4182, 27.1436 ], [ -87.3978, 27.1678 ], [ -87.3779, 27.1924 ], [ -87.3584, 27.2174 ], [ -87.3394, 27.2427 ], [ -87.3208, 27.2683 ], [ -87.3027, 27.2943 ], [ -87.2851, 27.3207 ], [ -87.2679, 27.3473 ], [ -87.2513, 27.3743 ], [ -87.2351, 27.4016 ], [ -87.2195, 27.4292 ], [ -87.2043, 27.4571 ], [ -87.1897, 27.4853 ], [ -87.1756, 27.5138 ], [ -87.1621, 27.5425 ], [ -87.1491, 27.5715 ], [ -87.1366, 27.6008 ], [ -87.1247, 27.6303 ], [ -87.1133, 27.6601 ], [ -87.1026, 27.69 ], [ -87.0924, 27.7203 ], [ -87.0827, 27.7507 ], [ -87.0737, 27.7813 ], [ -87.0653, 27.8122 ], [ -87.0574, 27.8432 ], [ -87.0502, 27.8744 ], [ -87.0435, 27.9058 ], [ -87.0375, 27.9373 ], [ -87.0321, 27.969 ], [ -87.0273, 28.0009 ], [ -87.0232, 28.0328 ], [ -87.0196, 28.0649 ], [ -87.0167, 28.0971 ], [ -87.0145, 28.1294 ], [ -87.0129, 28.1618 ], [ -87.0119, 28.1943 ], [ -87.0116, 28.2269 ], [ -87.0119, 28.2595 ], [ -87.0129, 28.2922 ], [ -87.0146, 28.3249 ], [ -87.0169, 28.3577 ], [ -87.0199, 28.3904 ], [ -87.0236, 28.4232 ], [ -87.0279, 28.456 ], [ -87.0329, 28.4888 ], [ -87.0385, 28.5216 ], [ -87.0449, 28.5543 ], [ -87.0519, 28.587 ], [ -87.0596, 28.6196 ], [ -87.0679, 28.6522 ], [ -87.077, 28.6847 ], [ -87.0867, 28.7171 ], [ -87.0971, 28.7495 ], [ -87.1082, 28.7817 ], [ -87.1199, 28.8138 ], [ -87.1323, 28.8458 ], [ -87.1454, 28.8776 ], [ -87.1592, 28.9093 ], [ -87.1737, 28.9408 ], [ -87.1888, 28.9722 ], [ -87.2046, 29.0034 ], [ -87.221, 29.0344 ], [ -87.2382, 29.0651 ], [ -87.2559, 29.0957 ], [ -87.2744, 29.126 ], [ -87.2935, 29.1562 ], [ -87.3132, 29.186 ], [ -87.3336, 29.2156 ], [ -87.3547, 29.245 ], [ -87.3764, 29.274 ], [ -87.3989, 29.3026 ], [ -87.4226, 29.3304 ], [ -87.4474, 29.3574 ], [ -87.4733, 29.3837 ], [ -87.5002, 29.4091 ], [ -87.5282, 29.4337 ], [ -87.5571, 29.4574 ], [ -87.5871, 29.4802 ], [ -87.618, 29.5021 ], [ -87.6495, 29.5233 ], [ -87.6815, 29.544 ], [ -87.7138, 29.5642 ], [ -87.7466, 29.5838 ], [ -87.7797, 29.6029 ], [ -87.8132, 29.6215 ], [ -87.847, 29.6396 ], [ -87.8811, 29.6571 ], [ -87.9156, 29.674 ], [ -87.9504, 29.6904 ], [ -87.9855, 29.7063 ], [ -88.0209, 29.7216 ], [ -88.0566, 29.7363 ], [ -88.0925, 29.7505 ], [ -88.1287, 29.7641 ], [ -88.1652, 29.7771 ], [ -88.2018, 29.7895 ], [ -88.2387, 29.8014 ], [ -88.2758, 29.8127 ], [ -88.3131, 29.8234 ], [ -88.3506, 29.8335 ], [ -88.3882, 29.843 ], [ -88.426, 29.8519 ], [ -88.464, 29.8602 ], [ -88.5021, 29.868 ], [ -88.5403, 29.8751 ], [ -88.5786, 29.8817 ], [ -88.617, 29.8876 ], [ -88.6554, 29.8929 ], [ -88.694, 29.8977 ], [ -88.7326, 29.9018 ], [ -88.7712, 29.9054 ], [ -88.8099, 29.9083 ], [ -88.8486, 29.9107 ], [ -88.8873, 29.9124 ], [ -88.926, 29.9135 ], [ -88.9647, 29.9141 ], [ -89.0034, 29.914 ], [ -89.042, 29.9134 ], [ -89.0805, 29.9121 ] ] ] } },
{ "type": "Feature", "properties": { "RADII": 50.0, "STORMID": "al092021", "BASIN": "al", "STORMNUM": 9.0, "ADVNUM": "12", "VALIDTIME": "2021082909", "SYNOPTIME": "2021082906", "TIMEZONE": "UTC", "TAU": 0.0, "NE": 70.0, "SE": 60.0, "SW": 40.0, "NW": 60.0 }, "geometry": { "type": "Polygon", "coordinates": [ [ [ -89.089, 29.0812 ], [ -89.1105, 29.0793 ], [ -89.132, 29.0772 ], [ -89.1534, 29.0746 ], [ -89.1748, 29.0718 ], [ -89.196, 29.0687 ], [ -89.2171, 29.0652 ], [ -89.2381, 29.0614 ], [ -89.259, 29.0573 ], [ -89.2798, 29.0528 ], [ -89.3004, 29.0481 ], [ -89.3209, 29.043 ], [ -89.3412, 29.0376 ], [ -89.3615, 29.0319 ], [ -89.3815, 29.026 ], [ -89.4014, 29.0197 ], [ -89.4211, 29.0131 ], [ -89.4407, 29.0062 ], [ -89.4601, 28.9991 ], [ -89.4793, 28.9916 ], [ -89.4983, 28.9839 ], [ -89.5171, 28.9759 ], [ -89.5357, 28.9676 ], [ -89.5541, 28.959 ], [ -89.5723, 28.9502 ], [ -89.5902, 28.9411 ], [ -89.608, 28.9317 ], [ -89.6255, 28.9221 ], [ -89.6428, 28.9122 ], [ -89.6599, 28.9021 ], [ -89.6767, 28.8917 ], [ -89.6933, 28.8811 ], [ -89.7096, 28.8703 ], [ -89.7257, 28.8592 ], [ -89.7415, 28.8479 ], [ -89.7571, 28.8364 ], [ -89.7724, 28.8246 ], [ -89.7874, 28.8126 ], [ -89.8022, 28.8005 ], [ -89.8166, 28.7881 ], [ -89.8308, 28.7755 ], [ -89.8447, 28.7627 ], [ -89.8583, 28.7497 ], [ -89.8713, 28.7363 ], [ -89.8839, 28.7226 ], [ -89.8961, 28.7087 ], [ -89.9077, 28.6944 ], [ -89.9189, 28.6798 ], [ -89.9295, 28.665 ], [ -89.9396, 28.6499 ], [ -89.9492, 28.6345 ], [ -89.9584, 28.619 ], [ -89.9672, 28.6034 ], [ -89.9756, 28.5878 ], [ -89.9837, 28.572 ], [ -89.9915, 28.5562 ], [ -89.9988, 28.5403 ], [ -90.0058, 28.5243 ], [ -90.0125, 28.5083 ], [ -90.0188, 28.4923 ], [ -90.0247, 28.4762 ], [ -90.0303, 28.4601 ], [ -90.0355, 28.444 ], [ -90.0404, 28.4278 ], [ -90.0449, 28.4116 ], [ -90.0491, 28.3954 ], [ -90.0529, 28.3792 ], [ -90.0563, 28.3631 ], [ -90.0594, 28.3469 ], [ -90.0622, 28.3307 ], [ -90.0645, 28.3146 ], [ -90.0666, 28.2985 ], [ -90.0683, 28.2824 ], [ -90.0697, 28.2663 ], [ -90.0707, 28.2503 ], [ -90.0714, 28.2344 ], [ -90.0718, 28.2185 ], [ -90.0718, 28.2026 ], [ -90.0715, 28.1869 ], [ -90.0709, 28.1712 ], [ -90.0699, 28.1555 ], [ -90.0686, 28.14 ], [ -90.0671, 28.1245 ], [ -90.0652, 28.1091 ], [ -90.0629, 28.0939 ], [ -90.0604, 28.0787 ], [ -90.0576, 28.0636 ], [ -90.0544, 28.0486 ], [ -90.051, 28.0338 ], [ -90.0473, 28.0191 ], [ -90.0433, 28.0045 ], [ -90.039, 27.99 ], [ -90.0344, 27.9757 ], [ -90.0295, 27.9615 ], [ -90.0244, 27.9474 ], [ -90.019, 27.9335 ], [ -90.0133, 27.9197 ], [ -90.0074, 27.9061 ], [ -90.0012, 27.8926 ], [ -89.9948, 27.8793 ], [ -89.9881, 27.8662 ], [ -89.9811, 27.8532 ], [ -89.974, 27.8404 ], [ -89.9666, 27.8278 ], [ -89.9589, 27.8154 ], [ -89.9511, 27.8031 ], [ -89.943, 27.7911 ], [ -89.9347, 27.7792 ], [ -89.9262, 27.7675 ], [ -89.9175, 27.756 ], [ -89.9086, 27.7447 ], [ -89.8995, 27.7336 ], [ -89.8902, 27.7227 ], [ -89.8807, 27.712 ], [ -89.871, 27.7015 ], [ -89.8612, 27.6912 ], [ -89.8512, 27.6811 ], [ -89.8411, 27.6713 ], [ -89.8307, 27.6616 ], [ -89.8203, 27.6522 ], [ -89.8097, 27.643 ], [ -89.7989, 27.634 ], [ -89.788, 27.6252 ], [ -89.777, 27.6167 ], [ -89.7658, 27.6084 ], [ -89.7546, 27.6003 ], [ -89.7432, 27.5924 ], [ -89.7317, 27.5848 ], [ -89.7201, 27.5774 ], [ -89.7084, 27.5702 ], [ -89.6967, 27.5633 ], [ -89.6848, 27.5565 ], [ -89.6732, 27.5498 ], [ -89.6621, 27.5426 ], [ -89.6516, 27.5351 ], [ -89.6415, 27.5271 ], [ -89.632, 27.5188 ], [ -89.623, 27.5099 ], [ -89.6144, 27.5007 ], [ -89.6062, 27.4909 ], [ -89.5985, 27.4807 ], [ -89.5908, 27.4702 ], [ -89.5829, 27.4598 ], [ -89.5747, 27.4495 ], [ -89.5662, 27.4393 ], [ -89.5575, 27.4292 ], [ -89.5486, 27.4192 ], [ -89.5393, 27.4093 ], [ -89.5299, 27.3995 ], [ -89.5201, 27.3898 ], [ -89.5102, 27.3802 ], [ -89.5, 27.3708 ], [ -89.4895, 27.3615 ], [ -89.4788, 27.3523 ], [ -89.4678, 27.3432 ], [ -89.4566, 27.3343 ], [ -89.4452, 27.3255 ], [ -89.4336, 27.3169 ], [ -89.4217, 27.3085 ], [ -89.4095, 27.3002 ], [ -89.3972, 27.2921 ], [ -89.3846, 27.2841 ], [ -89.3718, 27.2763 ], [ -89.3588, 27.2687 ], [ -89.3456, 27.2613 ], [ -89.3321, 27.2541 ], [ -89.3185, 27.247 ], [ -89.3046, 27.2402 ], [ -89.2906, 27.2335 ], [ -89.2763, 27.2271 ], [ -89.2619, 27.2209 ], [ -89.2472, 27.2148 ], [ -89.2324, 27.209 ], [ -89.2174, 27.2035 ], [ -89.2022, 27.1981 ], [ -89.1869, 27.193 ], [ -89.1714, 27.1881 ], [ -89.1557, 27.1834 ], [ -89.1398, 27.179 ], [ -89.1238, 27.1748 ], [ -89.1077, 27.1709 ], [ -89.0914, 27.1672 ], [ -89.0749, 27.1637 ], [ -89.0583, 27.1606 ], [ -89.0416, 27.1577 ], [ -89.0248, 27.155 ], [ -89.0078, 27.1526 ], [ -88.9908, 27.1505 ], [ -88.9736, 27.1486 ], [ -88.9563, 27.1471 ], [ -88.9389, 27.1458 ], [ -88.9214, 27.1447 ], [ -88.9038, 27.144 ], [ -88.8862, 27.1435 ], [ -88.8685, 27.1434 ], [ -88.8507, 27.1435 ], [ -88.8328, 27.1439 ], [ -88.8149, 27.1446 ], [ -88.7969, 27.1456 ], [ -88.7789, 27.1469 ], [ -88.7608, 27.1485 ], [ -88.7427, 27.1504 ], [ -88.7246, 27.1526 ], [ -88.7064, 27.1551 ], [ -88.6883, 27.1579 ], [ -88.6701, 27.161 ], [ -88.6519, 27.1644 ], [ -88.6337, 27.1681 ], [ -88.6156, 27.1721 ], [ -88.5974, 27.1765 ], [ -88.5793, 27.1811 ], [ -88.5612, 27.1861 ], [ -88.5431, 27.1914 ], [ -88.5251, 27.1969 ], [ -88.5071, 27.2028 ], [ -88.4892, 27.209 ], [ -88.4714, 27.2155 ], [ -88.4536, 27.2224 ], [ -88.4359, 27.2295 ], [ -88.4183, 27.237 ], [ -88.4007, 27.2447 ], [ -88.3833, 27.2528 ], [ -88.366, 27.2612 ], [ -88.3491, 27.2701 ], [ -88.3324, 27.2795 ], [ -88.316, 27.2892 ], [ -88.2999, 27.2995 ], [ -88.2842, 27.3101 ], [ -88.2688, 27.3211 ], [ -88.2538, 27.3326 ], [ -88.2391, 27.3445 ], [ -88.2247, 27.3566 ], [ -88.2105, 27.3691 ], [ -88.1965, 27.3817 ], [ -88.1828, 27.3946 ], [ -88.1693, 27.4078 ], [ -88.156, 27.4212 ], [ -88.143, 27.4348 ], [ -88.1302, 27.4486 ], [ -88.1177, 27.4626 ], [ -88.1054, 27.4769 ], [ -88.0934, 27.4914 ], [ -88.0816, 27.5061 ], [ -88.0702, 27.521 ], [ -88.059, 27.5361 ], [ -88.048, 27.5514 ], [ -88.0374, 27.5669 ], [ -88.0271, 27.5826 ], [ -88.017, 27.5984 ], [ -88.0072, 27.6145 ], [ -87.9978, 27.6307 ], [ -87.9886, 27.6471 ], [ -87.9798, 27.6637 ], [ -87.9713, 27.6805 ], [ -87.9631, 27.6974 ], [ -87.9552, 27.7144 ], [ -87.9476, 27.7316 ], [ -87.9404, 27.749 ], [ -87.9335, 27.7665 ], [ -87.9269, 27.7841 ], [ -87.9207, 27.8018 ], [ -87.9148, 27.8197 ], [ -87.9092, 27.8377 ], [ -87.9041, 27.8558 ], [ -87.8992, 27.8741 ], [ -87.8947, 27.8924 ], [ -87.8906, 27.9108 ], [ -87.8868, 27.9293 ], [ -87.8834, 27.9479 ], [ -87.8804, 27.9666 ], [ -87.8777, 27.9854 ], [ -87.8754, 28.0042 ], [ -87.8735, 28.0231 ], [ -87.8719, 28.0421 ], [ -87.8708, 28.0611 ], [ -87.87, 28.0802 ], [ -87.8695, 28.0993 ], [ -87.8695, 28.1184 ], [ -87.8699, 28.1376 ], [ -87.8706, 28.1567 ], [ -87.8717, 28.176 ], [ -87.8732, 28.1952 ], [ -87.8751, 28.2144 ], [ -87.8773, 28.2336 ], [ -87.88, 28.2528 ], [ -87.8831, 28.272 ], [ -87.8865, 28.2912 ], [ -87.8904, 28.3104 ], [ -87.8946, 28.3295 ], [ -87.8992, 28.3486 ], [ -87.9042, 28.3677 ], [ -87.9096, 28.3867 ], [ -87.9154, 28.4056 ], [ -87.9216, 28.4245 ], [ -87.9281, 28.4433 ], [ -87.9351, 28.462 ], [ -87.9424, 28.4807 ], [ -87.9502, 28.4993 ], [ -87.9583, 28.5177 ], [ -87.9668, 28.5361 ], [ -87.9757, 28.5544 ], [ -87.985, 28.5726 ], [ -87.9946, 28.5906 ], [ -88.0047, 28.6085 ], [ -88.0151, 28.6263 ], [ -88.0259, 28.644 ], [ -88.037, 28.6615 ], [ -88.0486, 28.6789 ], [ -88.0605, 28.6961 ], [ -88.0728, 28.7131 ], [ -88.0854, 28.73 ], [ -88.0984, 28.7467 ], [ -88.1119, 28.7631 ], [ -88.1261, 28.779 ], [ -88.141, 28.7944 ], [ -88.1565, 28.8093 ], [ -88.1726, 28.8237 ], [ -88.1894, 28.8375 ], [ -88.2067, 28.8507 ], [ -88.2247, 28.8634 ], [ -88.2432, 28.8755 ], [ -88.2621, 28.8872 ], [ -88.2812, 28.8985 ], [ -88.3004, 28.9095 ], [ -88.3199, 28.9202 ], [ -88.3396, 28.9306 ], [ -88.3594, 28.9407 ], [ -88.3794, 28.9504 ], [ -88.3996, 28.9598 ], [ -88.4199, 28.9689 ], [ -88.4404, 28.9777 ], [ -88.461, 28.9861 ], [ -88.4818, 28.9941 ], [ -88.5027, 29.0019 ], [ -88.5237, 29.0093 ], [ -88.5448, 29.0163 ], [ -88.566, 29.0231 ], [ -88.5874, 29.0294 ], [ -88.6088, 29.0355 ], [ -88.6303, 29.0412 ], [ -88.6519, 29.0465 ], [ -88.6735, 29.0515 ], [ -88.6953, 29.0562 ], [ -88.717, 29.0605 ], [ -88.7389, 29.0645 ], [ -88.7607, 29.0681 ], [ -88.7826, 29.0714 ], [ -88.8046, 29.0743 ], [ -88.8265, 29.0769 ], [ -88.8485, 29.0791 ], [ -88.8705, 29.081 ], [ -88.8924, 29.0826 ], [ -88.9144, 29.0838 ], [ -88.9363, 29.0847 ], [ -88.9583, 29.0852 ], [ -88.9802, 29.0854 ], [ -89.002, 29.0852 ], [ -89.0238, 29.0847 ], [ -89.0456, 29.0839 ], [ -89.0673, 29.0827 ], [ -89.089, 29.0812 ] ] ] } },
{ "type": "Feature", "properties": { "RADII": 64.0, "STORMID": "al092021", "BASIN": "al", "STORMNUM": 9.0, "ADVNUM": "12", "VALIDTIME": "2021082909", "SYNOPTIME": "2021082906", "TIMEZONE": "UTC", "TAU": 0.0, "NE": 35.0, "SE": 30.0, "SW": 20.0, "NW": 30.0 }, "geometry": { "type": "Polygon", "coordinates": [ [ [ -89.0945, 28.5406 ], [ -89.1052, 28.5397 ], [ -89.1159, 28.5386 ], [ -89.1266, 28.5373 ], [ -89.1372, 28.5359 ], [ -89.1477, 28.5343 ], [ -89.1583, 28.5326 ], [ -89.1687, 28.5307 ], [ -89.1791, 28.5287 ], [ -89.1894, 28.5264 ], [ -89.1997, 28.5241 ], [ -89.2099, 28.5215 ], [ -89.22, 28.5189 ], [ -89.2301, 28.516 ], [ -89.2401, 28.5131 ], [ -89.25, 28.5099 ], [ -89.2598, 28.5066 ], [ -89.2695, 28.5032 ], [ -89.2792, 28.4997 ], [ -89.2887, 28.4959 ], [ -89.2982, 28.4921 ], [ -89.3076, 28.4881 ], [ -89.3168, 28.484 ], [ -89.326, 28.4797 ], [ -89.3351, 28.4753 ], [ -89.344, 28.4708 ], [ -89.3529, 28.4661 ], [ -89.3616, 28.4613 ], [ -89.3703, 28.4564 ], [ -89.3788, 28.4513 ], [ -89.3871, 28.4462 ], [ -89.3954, 28.4409 ], [ -89.4036, 28.4355 ], [ -89.4116, 28.43 ], [ -89.4195, 28.4243 ], [ -89.4272, 28.4186 ], [ -89.4349, 28.4127 ], [ -89.4424, 28.4067 ], [ -89.4498, 28.4007 ], [ -89.457, 28.3945 ], [ -89.4641, 28.3882 ], [ -89.471, 28.3819 ], [ -89.4778, 28.3754 ], [ -89.4843, 28.3687 ], [ -89.4906, 28.3619 ], [ -89.4967, 28.3549 ], [ -89.5025, 28.3478 ], [ -89.5081, 28.3405 ], [ -89.5135, 28.3331 ], [ -89.5185, 28.3256 ], [ -89.5233, 28.3179 ], [ -89.528, 28.3102 ], [ -89.5324, 28.3024 ], [ -89.5366, 28.2946 ], [ -89.5407, 28.2867 ], [ -89.5446, 28.2788 ], [ -89.5483, 28.2709 ], [ -89.5518, 28.2629 ], [ -89.5552, 28.2549 ], [ -89.5583, 28.2469 ], [ -89.5613, 28.2389 ], [ -89.5642, 28.2308 ], [ -89.5668, 28.2228 ], [ -89.5693, 28.2147 ], [ -89.5715, 28.2066 ], [ -89.5737, 28.1985 ], [ -89.5756, 28.1904 ], [ -89.5773, 28.1824 ], [ -89.5789, 28.1743 ], [ -89.5803, 28.1662 ], [ -89.5816, 28.1581 ], [ -89.5826, 28.1501 ], [ -89.5835, 28.142 ], [ -89.5843, 28.134 ], [ -89.5848, 28.126 ], [ -89.5852, 28.118 ], [ -89.5854, 28.1101 ], [ -89.5854, 28.1022 ], [ -89.5853, 28.0943 ], [ -89.5851, 28.0864 ], [ -89.5846, 28.0786 ], [ -89.584, 28.0708 ], [ -89.5832, 28.0631 ], [ -89.5823, 28.0554 ], [ -89.5813, 28.0478 ], [ -89.58, 28.0402 ], [ -89.5786, 28.0326 ], [ -89.5771, 28.0252 ], [ -89.5754, 28.0177 ], [ -89.5736, 28.0104 ], [ -89.5716, 28.003 ], [ -89.5695, 27.9958 ], [ -89.5672, 27.9886 ], [ -89.5648, 27.9815 ], [ -89.5623, 27.9745 ], [ -89.5596, 27.9675 ], [ -89.5568, 27.9606 ], [ -89.5539, 27.9538 ], [ -89.5508, 27.9471 ], [ -89.5476, 27.9404 ], [ -89.5443, 27.9338 ], [ -89.5409, 27.9273 ], [ -89.5373, 27.9209 ], [ -89.5336, 27.9146 ], [ -89.5298, 27.9084 ], [ -89.5259, 27.9022 ], [ -89.5219, 27.8962 ], [ -89.5178, 27.8902 ], [ -89.5135, 27.8844 ], [ -89.5092, 27.8786 ], [ -89.5048, 27.8729 ], [ -89.5002, 27.8674 ], [ -89.4956, 27.8619 ], [ -89.4909, 27.8565 ], [ -89.4861, 27.8513 ], [ -89.4811, 27.8461 ], [ -89.4762, 27.8411 ], [ -89.4711, 27.8361 ], [ -89.466, 27.8313 ], [ -89.4607, 27.8266 ], [ -89.4554, 27.822 ], [ -89.45, 27.8174 ], [ -89.4446, 27.813 ], [ -89.4391, 27.8088 ], [ -89.4335, 27.8046 ], [ -89.4279, 27.8005 ], [ -89.4222, 27.7966 ], [ -89.4165, 27.7928 ], [ -89.4107, 27.789 ], [ -89.4048, 27.7854 ], [ -89.3989, 27.7819 ], [ -89.393, 27.7786 ], [ -89.3872, 27.7752 ], [ -89.3816, 27.7716 ], [ -89.3764, 27.7678 ], [ -89.3714, 27.7638 ], [ -89.3666, 27.7596 ], [ -89.3621, 27.7552 ], [ -89.3578, 27.7506 ], [ -89.3537, 27.7457 ], [ -89.3498, 27.7406 ], [ -89.346, 27.7353 ], [ -89.342, 27.7301 ], [ -89.3379, 27.725 ], [ -89.3337, 27.7199 ], [ -89.3294, 27.7148 ], [ -89.3249, 27.7098 ], [ -89.3203, 27.7048 ], [ -89.3155, 27.6999 ], [ -89.3107, 27.6951 ], [ -89.3057, 27.6903 ], [ -89.3006, 27.6855 ], [ -89.2953, 27.6809 ], [ -89.29, 27.6763 ], [ -89.2845, 27.6717 ], [ -89.2789, 27.6673 ], [ -89.2731, 27.6629 ], [ -89.2673, 27.6586 ], [ -89.2613, 27.6543 ], [ -89.2553, 27.6502 ], [ -89.2491, 27.6461 ], [ -89.2428, 27.6421 ], [ -89.2364, 27.6382 ], [ -89.2298, 27.6344 ], [ -89.2232, 27.6307 ], [ -89.2165, 27.6271 ], [ -89.2096, 27.6236 ], [ -89.2027, 27.6201 ], [ -89.1956, 27.6168 ], [ -89.1885, 27.6136 ], [ -89.1812, 27.6105 ], [ -89.1739, 27.6074 ], [ -89.1665, 27.6045 ], [ -89.1589, 27.6017 ], [ -89.1513, 27.5991 ], [ -89.1436, 27.5965 ], [ -89.1358, 27.594 ], [ -89.1279, 27.5917 ], [ -89.12, 27.5895 ], [ -89.112, 27.5874 ], [ -89.1038, 27.5854 ], [ -89.0957, 27.5836 ], [ -89.0874, 27.5819 ], [ -89.0791, 27.5803 ], [ -89.0707, 27.5788 ], [ -89.0622, 27.5775 ], [ -89.0537, 27.5763 ], [ -89.0452, 27.5753 ], [ -89.0365, 27.5743 ], [ -89.0279, 27.5736 ], [ -89.0191, 27.5729 ], [ -89.0104, 27.5724 ], [ -89.0015, 27.572 ], [ -88.9927, 27.5718 ], [ -88.9838, 27.5717 ], [ -88.9748, 27.5718 ], [ -88.9659, 27.572 ], [ -88.9569, 27.5724 ], [ -88.9479, 27.5729 ], [ -88.9388, 27.5735 ], [ -88.9297, 27.5744 ], [ -88.9207, 27.5753 ], [ -88.9116, 27.5764 ], [ -88.9025, 27.5777 ], [ -88.8933, 27.5791 ], [ -88.8842, 27.5807 ], [ -88.8751, 27.5824 ], [ -88.866, 27.5843 ], [ -88.8569, 27.5863 ], [ -88.8478, 27.5885 ], [ -88.8387, 27.5908 ], [ -88.8296, 27.5933 ], [ -88.8205, 27.596 ], [ -88.8115, 27.5988 ], [ -88.8025, 27.6017 ], [ -88.7935, 27.6049 ], [ -88.7846, 27.6081 ], [ -88.7756, 27.6116 ], [ -88.7668, 27.6152 ], [ -88.7579, 27.6189 ], [ -88.7492, 27.6228 ], [ -88.7404, 27.6269 ], [ -88.7318, 27.6311 ], [ -88.7233, 27.6356 ], [ -88.7149, 27.6403 ], [ -88.7067, 27.6452 ], [ -88.6987, 27.6503 ], [ -88.6908, 27.6556 ], [ -88.6831, 27.6612 ], [ -88.6756, 27.6669 ], [ -88.6682, 27.6729 ], [ -88.6611, 27.679 ], [ -88.654, 27.6852 ], [ -88.647, 27.6916 ], [ -88.6401, 27.6981 ], [ -88.6334, 27.7047 ], [ -88.6268, 27.7114 ], [ -88.6203, 27.7182 ], [ -88.6139, 27.7251 ], [ -88.6076, 27.7322 ], [ -88.6015, 27.7393 ], [ -88.5955, 27.7466 ], [ -88.5897, 27.754 ], [ -88.584, 27.7614 ], [ -88.5784, 27.769 ], [ -88.5729, 27.7767 ], [ -88.5676, 27.7845 ], [ -88.5625, 27.7923 ], [ -88.5575, 27.8003 ], [ -88.5526, 27.8083 ], [ -88.548, 27.8165 ], [ -88.5434, 27.8247 ], [ -88.539, 27.833 ], [ -88.5348, 27.8414 ], [ -88.5307, 27.8498 ], [ -88.5268, 27.8584 ], [ -88.5231, 27.867 ], [ -88.5195, 27.8757 ], [ -88.5161, 27.8845 ], [ -88.5129, 27.8933 ], [ -88.5098, 27.9022 ], [ -88.5069, 27.9111 ], [ -88.5042, 27.9201 ], [ -88.5016, 27.9292 ], [ -88.4993, 27.9383 ], [ -88.4971, 27.9475 ], [ -88.4951, 27.9567 ], [ -88.4932, 27.966 ], [ -88.4916, 27.9753 ], [ -88.4901, 27.9847 ], [ -88.4888, 27.994 ], [ -88.4877, 28.0035 ], [ -88.4868, 28.0129 ], [ -88.4861, 28.0224 ], [ -88.4856, 28.0319 ], [ -88.4852, 28.0414 ], [ -88.4851, 28.051 ], [ -88.4851, 28.0606 ], [ -88.4853, 28.0701 ], [ -88.4857, 28.0797 ], [ -88.4864, 28.0893 ], [ -88.4872, 28.0989 ], [ -88.4882, 28.1086 ], [ -88.4893, 28.1182 ], [ -88.4907, 28.1278 ], [ -88.4923, 28.1374 ], [ -88.4941, 28.1469 ], [ -88.496, 28.1565 ], [ -88.4982, 28.1661 ], [ -88.5006, 28.1756 ], [ -88.5031, 28.1851 ], [ -88.5059, 28.1946 ], [ -88.5088, 28.2041 ], [ -88.512, 28.2135 ], [ -88.5153, 28.2229 ], [ -88.5188, 28.2323 ], [ -88.5225, 28.2416 ], [ -88.5264, 28.2508 ], [ -88.5305, 28.2601 ], [ -88.5348, 28.2692 ], [ -88.5393, 28.2783 ], [ -88.544, 28.2874 ], [ -88.5489, 28.2964 ], [ -88.5539, 28.3054 ], [ -88.5591, 28.3142 ], [ -88.5646, 28.323 ], [ -88.5702, 28.3318 ], [ -88.576, 28.3404 ], [ -88.5819, 28.349 ], [ -88.5881, 28.3575 ], [ -88.5945, 28.3659 ], [ -88.601, 28.3743 ], [ -88.6077, 28.3824 ], [ -88.6148, 28.3904 ], [ -88.6223, 28.398 ], [ -88.63, 28.4055 ], [ -88.6381, 28.4126 ], [ -88.6465, 28.4195 ], [ -88.6552, 28.4261 ], [ -88.6641, 28.4324 ], [ -88.6734, 28.4384 ], [ -88.6828, 28.4442 ], [ -88.6923, 28.4499 ], [ -88.7019, 28.4554 ], [ -88.7116, 28.4607 ], [ -88.7215, 28.4658 ], [ -88.7314, 28.4708 ], [ -88.7413, 28.4757 ], [ -88.7514, 28.4804 ], [ -88.7615, 28.4849 ], [ -88.7717, 28.4892 ], [ -88.782, 28.4934 ], [ -88.7923, 28.4974 ], [ -88.8028, 28.5013 ], [ -88.8132, 28.505 ], [ -88.8237, 28.5085 ], [ -88.8343, 28.5118 ], [ -88.8449, 28.515 ], [ -88.8556, 28.518 ], [ -88.8663, 28.5208 ], [ -88.8771, 28.5235 ], [ -88.8878, 28.5259 ], [ -88.8987, 28.5283 ], [ -88.9095, 28.5304 ], [ -88.9204, 28.5324 ], [ -88.9312, 28.5342 ], [ -88.9421, 28.5358 ], [ -88.953, 28.5372 ], [ -88.964, 28.5385 ], [ -88.9749, 28.5396 ], [ -88.9858, 28.5406 ], [ -88.9967, 28.5413 ], [ -89.0077, 28.5419 ], [ -89.0186, 28.5424 ], [ -89.0295, 28.5426 ], [ -89.0404, 28.5427 ], [ -89.0513, 28.5426 ], [ -89.0621, 28.5424 ], [ -89.0729, 28.5419 ], [ -89.0837, 28.5413 ], [ -89.0945, 28.5406 ] ] ] } }
]
}
