{"type":"FeatureCollection","features":[{"type":"Feature","id":1,"geometry":{"type":"Point","coordinates":[-57.112448948160306,32.664885862292863]},"properties":{"objectid":1,"basin":"Atlantic","prob2day":"30%","risk2day":"Low","prob7day":"40%","risk7day":"Medium","idp_source":"gtwo_points_202609271131","idp_filedate":1790509085000,"idp_ingestdate":1790509140000}},{"type":"Feature","id":2,"geometry":{"type":"Point","coordinates":[-98.689989823071755,11.810249687473231]},"properties":{"objectid":2,"basin":"Pacific","prob2day":"90%","risk2day":"High","prob7day":"90%","risk7day":"High","idp_source":"gtwo_points_202609271131","idp_filedate":1790509085000,"idp_ingestdate":1790509140000}},{"type":"Feature","id":3,"geometry":{"type":"Point","coordinates":[-139.73326312779102,11.122656016362214]},"properties":{"objectid":3,"basin":"Pacific","prob2day":"40%","risk2day":"Medium","prob7day":"70%","risk7day":"High","idp_source":"gtwo_points_202609271131","idp_filedate":1790509085000,"idp_ingestdate":1790509140000}}]}