{"type":"FeatureCollection","features":[{"type":"Feature","id":1,"geometry":{"type":"Polygon","coordinates":[[[-58.763416788953521,33.308177299842669],[-58.786537013372367,33.240071318436719],[-58.807682180887809,33.174693644496244],[-58.826834000188853,33.111933062460992],[-58.843974179964334,33.051678354072919],[-58.859084429802465,32.993818302872512],[-58.872146459291571,32.938241692400311],[-58.883141977120431,32.884837304398218],[-58.892052691978051,32.833493921507397],[-58.898860314351907,32.784100327268447],[-58.903546552930948,32.736545305221796],[-58.906093117303385,32.690717637109401],[-58.906481716158169,32.646506106471804],[-58.904694058184134,32.603799495950113],[-58.90071185386887,32.562486588185664],[-58.894516811901212,32.522456165819563],[-58.886090641869487,32.483597013291671],[-58.875415052462586,32.445797911444629],[-58.862471752369345,32.408947644718182],[-58.84724245207741,32.37293499485429],[-58.829708860275559,32.337648745393437],[-58.8098526856528,32.302977678976845],[-58.787655638696663,32.268810578245734],[-58.763099427196721,32.23503622674059],[-58.73616576074113,32.20154340710269],[-58.706836349817593,32.1682209019732],[-58.675092902215567,32.134957494892603],[-58.640917127523323,32.101641967602859],[-58.604290735329073,32.068163102745132],[-58.565195434321708,32.034409685658602],[-58.523612948478672,32.00027054934651],[-58.47954374095076,31.965704565113754],[-58.433043957312691,31.930878705587929],[-58.384180039477144,31.895998414595283],[-58.333018428457592,31.861269137760644],[-58.279625565267509,31.826896320708784],[-58.224067892718949,31.793085409064531],[-58.166411850026748,31.760041847553339],[-58.10672387910364,31.727971082699469],[-58.045070422761682,31.69707855922826],[-57.981517920215708,31.667569721865334],[-57.91613281337851,31.639650017134727],[-57.848981544162825,31.613524889762004],[-57.780130552682749,31.589399786271258],[-57.709646281750395,31.567480150488677],[-57.637595171479859,31.547971428938411],[-57.564043662884615,31.531079066345967],[-57.489058197877398,31.517008508336119],[-57.412705218371002,31.505965200533694],[-57.335051164479523,31.49815458856358],[-57.256162478115755,31.493782117151113],[-57.176105600293113,31.493053231921238],[-57.094946972025014,31.496173379398101],[-57.012753035224307,31.50334800340778],[-56.929590230904296,31.514782549575159],[-56.845525000078567,31.530682464424331],[-56.760623783760479,31.551253191781541],[-56.674953024762146,31.576700178170825],[-56.588579162298402,31.607228869217067],[-56.501568639181244,31.643044709645778],[-56.413987863149259,31.684352420228151],[-56.325896355832015,31.731202903491351],[-56.237338266747486,31.783303882468317],[-56.148355667080239,31.840316641899676],[-56.058990628914273,31.901902469223728],[-55.969285223434213,31.967722650979681],[-55.879281522724,32.037438472807423],[-55.789021596169619,32.110711222145312],[-55.698547516754388,32.187202183733916],[-55.607901355662932,32.266572645011706],[-55.517125183180553,32.348483891618457],[-55.426261071391195,32.43259721099264],[-55.335351092378914,32.518573888774085],[-55.244437315529581,32.606075211501945],[-55.153561813826514,32.694762464816051],[-55.062766657555073,32.784296936154817],[-54.972093918799203,32.874339911158131],[-54.881585668743526,32.964552677264408],[-54.791283977673288,33.054596519214158],[-54.701230918571923,33.144132724445797],[-54.611468561724621,33.232822578599269],[-54.522038979215381,33.320327368213611],[-54.432984241329564,33.406308380727353],[-54.344346419251735,33.490426900880891],[-54.256167585965215,33.57234421611281],[-54.168489811755308,33.651721612062886],[-54.081355167806635,33.728220375270269],[-53.994805725303877,33.801501793173372],[-53.90888355633092,33.871227150512709],[-53.823630731173182,33.937057734726807],[-53.739088022394185,33.998656476315489],[-53.655195604393498,34.05581357603586],[-53.571723137412732,34.108534963118188],[-53.488423763845503,34.156847465238457],[-53.405050625186107,34.200777906475366],[-53.32135686472742,34.240353115404105],[-53.237095624863059,34.275599917902014],[-53.152020047986696,34.306545139846492],[-53.065883276491888,34.333215608014029],[-52.978438452772252,34.355638149181402],[-52.889438719221403,34.373839589225781],[-52.798637217333578,34.387846754923942],[-52.70578709130109,34.397686473052431],[-52.610641481718915,34.403385568589272],[-52.512953532779193,34.404970869210388],[-52.412476385077014,34.40246920169244],[-52.308963182804519,34.395907391013452],[-52.20216706745606,34.38531226484929],[-52.091841180525932,34.370710649077353],[-51.977738666206392,34.352129370474188],[-51.859612665991619,34.329595255816571],[-51.737216322275344,34.303135130082353],[-51.610302778350444,34.272775820947516],[-51.478625174811839,34.238544155188777],[-51.341936655851896,34.200466957784045],[-51.199990362964741,34.158571056409244],[-51.052539438544159,34.11288327604251],[-50.899337024983595,34.063430445258973],[-50.740136265576098,34.010239389036713],[-50.574690301815849,33.953336934152333],[-50.402758951764099,33.892753407543864],[-50.224361536455604,33.828655226957324],[-50.039854478801033,33.761385596168452],[-49.84961673512413,33.691299535145561],[-49.654027256352663,33.61875206115883],[-49.453464997011906,33.544098194176456],[-49.24830891162685,33.467692953267317],[-49.038937952924073,33.38989135660097],[-48.825731073630038,33.311048423246291],[-48.60906722916917,33.231519172272101],[-48.38932537226799,33.151658621848071],[-48.166884455652962,33.071821792841604],[-47.942123434748623,32.992363701623674],[-47.715421261382005,32.913639369061798],[-47.487156890078325,32.836003813325476],[-47.257709274463309,32.759812053483643],[-47.027457368162914,32.685419107705798],[-46.796780123903488,32.613179995960195],[-46.566056496210194,32.543449736416335],[-46.33566543780961,32.476583348143151],[-46.105985903226724,32.412935850209465],[-45.877396845188116,32.352862261684152],[-45.650277218218946,32.296717600736827],[-45.425005975944941,32.24485688643631],[-45.201962070193247,32.197635138750798],[-44.981524456388456,32.155407374950528],[-44.76407208815624,32.118528615003697],[-44.5499839173238,32.08735387797924],[-44.339638899315617,32.062238182046599],[-44.133415986858211,32.043536546274709],[-43.931687631478894,32.031592672663862],[-43.734676731046193,32.026489965239875],[-43.542456633366839,32.028051531852839],[-43.355094181451193,32.036089161485734],[-43.172656220108365,32.050414644920068],[-42.995209591449338,32.070839772037971],[-42.822821141182601,32.097176332721745],[-42.655557712318455,32.129236116853463],[-42.493486149665955,32.166830914315369],[-42.336673295336197,32.209772515889028],[-42.1851859950375,32.257872710557308],[-42.039091092679655,32.310943288202338],[-41.898455431273021,32.368796039605684],[-41.763345855626596,32.431242754649531],[-41.633829208750853,32.498095222316806],[-41.509972334555471,32.569165234288278],[-41.391842077849503,32.644264578647551],[-41.27950528254263,32.723205047075396],[-41.173028791645322,32.805798428554795],[-41.072479449966522,32.89185651296782],[-40.977924101416022,32.98119109109615],[-40.889429589004237,33.073613951922482],[-40.807062757540109,33.168936886228437],[-40.73089045093343,33.266971683896259],[-40.660979513093935,33.367530133908701],[-40.597396787031983,33.470424027946649],[-40.540209118455948,33.575465154993026],[-40.48948334947687,33.68246530493002],[-40.445286324903861,33.791236267639761],[-40.4076848886466,33.90158983390387],[-40.376750219347002,34.013339852152626],[-40.352618344860616,34.1263309833883],[-40.335475219805403,34.240431605534297],[-40.325508078534881,34.355510708052861],[-40.32290415989894,34.471437280406292],[-40.327850698250984,34.588080311157569],[-40.340534932441074,34.705308788869672],[-40.3611440968225,34.822991703004845],[-40.389865429345946,34.940998043025388],[-40.426886167062833,35.059196797494337],[-40.472393545225827,35.177456955873936],[-40.526574800886237,35.295647506727221],[-40.589617171095426,35.413637438617059],[-40.661707892005495,35.531295741005806],[-40.743034199768374,35.648491403355706],[-40.833783332334804,35.765093413330533],[-40.934142524957451,35.880970761291735],[-41.044299014687681,35.995992435802407],[-41.164440038576799,36.110027426324791],[-41.294752832776908,36.222944721421925],[-41.435424633439936,36.334613309656675],[-41.586642677617363,36.444902180491397],[-41.748594202360437,36.553680322489015],[-41.921466443821203,36.660816726011262],[-42.105446638151705,36.766180378721629],[-42.300722022403306,36.869640269183208],[-42.507479832727995,36.971065388656882],[-42.725907307076454,37.070324723907049],[-42.956191680701409,37.167287264395895],[-43.198520189754845,37.261822000485097],[-43.453024397857575,37.353800425349505],[-43.719261094823537,37.443119902061994],[-43.996447990981892,37.529693051593199],[-44.283798414265277,37.613432695462677],[-44.580525689908541,37.694251651592594],[-44.885843144945056,37.772062740603133],[-45.198964106408255,37.846778782215154],[-45.519101902230886,37.9183125952502],[-45.845469856748366,37.986577000328452],[-46.177281298792764,38.051484816271397],[-46.513749554498247,38.112948863699273],[-46.854087950898077,38.170881960534189],[-47.197509814126477,38.225196928295759],[-47.543228471216878,38.275806585805412],[-47.890457249202598,38.322623752784125],[-48.238409475117066,38.365561248952645],[-48.586298475094452,38.404531894031834],[-48.933337576168071,38.439448506843235],[-49.278740105371469,38.470223908007085],[-49.621719389737905,38.496770916344872],[-49.961488754502284,38.519002352476718],[-50.29726152849662,38.536831035224225],[-50.628251036955646,38.550169785207572],[-50.953670607812171,38.558931420348927],[-51.272733567200248,38.563028762167789],[-51.584653242153308,38.562374629485703],[-51.888642959704725,38.556881841124209],[-52.18391604598861,38.54646321860281],[-52.469685828038394,38.53103157984367],[-52.745165632887506,38.51049974546703],[-53.00966353564354,38.484801874307209],[-53.263187864028566,38.454029838406484],[-53.506060800165699,38.418346197419226],[-53.738606009159867,38.377913844648333],[-53.961147151619627,38.332895672497443],[-54.174007891750705,38.283454574269342],[-54.377511892859445,38.229753443266929],[-54.571982817353046,38.171955171893842],[-54.757744328537797,38.110222652553546],[-54.935120089720272,38.04471877944826],[-55.10443376420676,37.975606444082302],[-55.266009014404403,37.903048541557098],[-55.420169503619604,37.827207962477644],[-55.567238895158766,37.748247601046103],[-55.70754085232835,37.666330350565374],[-55.841399037535439,37.581619102539719],[-55.969137114086436,37.494276751171299],[-56.091078745287746,37.404466189763014],[-56.207547594445828,37.312350309819067],[-56.318867323967709,37.218092004642472],[-56.425361597159849,37.121854168435277],[-56.52735407732871,37.02379969360112],[-56.62516842688126,36.92409147164426],[-56.719128310023393,36.82289239766618],[-56.80955738916208,36.72036536317114],[-56.896779327603781,36.616673261461983],[-56.981117787755579,36.511978985841665],[-57.062896433823255,36.40644542871371],[-57.142438928213835,36.300235484280336],[-57.220068933334517,36.193512043146427],[-57.296069161862192,36.086431106210739],[-57.370500826152067,35.97911138038603],[-57.443350592855438,35.871659023445318],[-57.51460507466436,35.764180183268991],[-57.584250884270773,35.656781009536132],[-57.652274631668774,35.549567650127074],[-57.718662929550419,35.442646253821692],[-57.783402389708385,35.33612296850032],[-57.846479623935409,35.230103942942776],[-57.907881243124734,35.124695325029393],[-57.967593860867851,35.020003264439254],[-58.025604087158797,34.916133909052803],[-58.081898534689515,34.813193406750486],[-58.136463815252739,34.711287906311952],[-58.189286540641206,34.61052355561776],[-58.240353322647593,34.511006505246144],[-58.289650772165317,34.412842901279021],[-58.337165501886261,34.316138893395362],[-58.382884123603333,34.221000629475611],[-58.426793249109039,34.127534258299534],[-58.468879489296853,34.035845927747516],[-58.50912945685883,33.946041787498643],[-58.54752976358759,33.858227984533983],[-58.584067020376551,33.772510668532675],[-58.618727840817087,33.688995987375051],[-58.65149883490318,33.607790088941613],[-58.682366614427622,33.52899912291133],[-58.711317792082298,33.452729237164704],[-58.738338979660057,33.379086580481442],[-58.763416788953521,33.308177299842669]]]},"properties":{"objectid":1,"basin":"Atlantic","prob2day":"30%","risk2day":"Low","prob7day":"40%","risk7day":"Medium","idp_source":"gtwo_areas_202609271131","idp_filedate":1790509085000,"idp_ingestdate":1790509144000,"st_area(shape)":86.650880544283112,"st_perimeter(shape)":44.834361242715836}},{"type":"Feature","id":2,"geometry":{"type":"Polygon","coordinates":[[[-103.12653411995359,10.827055664087766],[-102.97986925965853,10.763783530585613],[-102.83433244238819,10.702448144666278],[-102.68995393572544,10.643070082818213],[-102.54676400455509,10.585669920630494],[-102.40479291556051,10.530268234591517],[-102.26407093362661,10.476885602088998],[-102.12462832633611,10.425542597812751],[-101.98649535767453,10.376259800049866],[-101.84970229432531,10.329057783490043],[-101.71427940207263,10.283957124621736],[-101.58025694670062,10.24097840083266],[-101.44766519399343,10.200142187711947],[-101.31653441063446,10.161469062647257],[-101.18689486240788,10.124979599429082],[-101.0587768141985,10.090694377243835],[-100.93221053268985,10.058633970781273],[-100.80722628366595,10.028818957429053],[-100.68385433291104,10.001269911877046],[-100.56212494620922,9.9760074124122866],[-100.44206838934457,9.9530520346238518],[-100.32371492810137,9.9324243541008173],[-100.20709482916294,9.9141449473315788],[-100.09223835831347,9.8982343917039657],[-99.979175780437799,9.8847132637063169],[-99.867937362219379,9.8736021380283887],[-99.758553368543005,9.8649215920579536],[-99.651054066991492,9.8586922022834642],[-99.54546549923333,9.8549265673073592],[-99.441784257737197,9.8535816554691564],[-99.339994391228061,9.8545907433682487],[-99.240079903464675,9.8578870203698443],[-99.142024799105116,9.8634036776377343],[-99.04581308010944,9.8710739036378641],[-98.951428751135836,9.880830887735442],[-98.858855815943059,9.8926078201948826],[-98.768078276491167,9.906337890381451],[-98.679080138337611,9.921954288559732],[-98.591845403442505,9.939390203195444],[-98.506358076463982,9.9585788245532285],[-98.422602160261363,9.9794533428976138],[-98.340561658593572,10.001946946694375],[-98.26022057521925,10.025992826208096],[-98.181562912997947,10.051524170803987],[-98.104572676587679,10.078474170746517],[-98.029233868847882,10.106776014501577],[-97.955530492638047,10.13636289233375],[-97.883446552616192,10.167167994507452],[-97.812966052541185,10.199124510388003],[-97.744072994373084,10.232165628441123],[-97.676751382770021,10.266224539830773],[-97.610985221490694,10.301234433922104],[-97.546758514293913,10.337128499181006],[-97.484055263139794,10.373839925872005],[-97.422859473585731,10.411301904259631],[-97.363155851761064,10.449451180527717],[-97.304938261591417,10.488270743100429],[-97.248206969276112,10.527775922720821],[-97.192962373214868,10.567982711133368],[-97.139204870907975,10.608907103680053],[-97.086934858956454,10.650565091206147],[-97.036152736659346,10.692972668154255],[-96.986858900617676,10.736145826269023],[-96.93905374923105,10.780100560892322],[-96.892737679100492,10.824852862869477],[-96.847911089525041,10.870418725743718],[-96.804574376206403,10.916814143058389],[-96.762727939342824,10.964055108356717],[-96.722372174636064,11.012157613383295],[-96.68350748048573,11.061137652580726],[-96.646134254392223,11.111011217693658],[-96.610252894755206,11.161794303164697],[-96.575863799074966,11.213502900738433],[-96.542967363952584,11.266153003958095],[-96.511563988687044,11.319760606367026],[-96.481654068979992,11.374341700609136],[-96.453238005029789,11.429912280227711],[-96.426316192538138,11.48648833786666],[-96.400889030804024,11.544085866169951],[-96.376956915529149,11.602720859580131],[-96.354520246012441,11.662409308942586],[-96.333579419754301,11.723167209599183],[-96.314135227258816,11.785009280753854],[-96.296199768904103,11.847913620317456],[-96.279797877669807,11.911817092285105],[-96.264955067322376,11.976654360910175],[-96.251696849829671,12.042360089546605],[-96.240048739857343,12.108868941548565],[-96.230036249373313,12.176115580269936],[-96.221684891244649,12.244034671762847],[-96.215020179237797,12.312560877582598],[-96.210067625320562,12.381628861982506],[-96.206852744158709,12.451173289216058],[-96.205401047720102,12.521128822637195],[-96.205738048871751,12.59143012559997],[-96.207889260480897,12.662011863257021],[-96.211880197213247,12.732808698063081],[-96.217736370137288,12.803755295170845],[-96.225483293019465,12.874786316135726],[-96.235146479626223,12.945836427009624],[-96.246751441925426,13.01684029024733],[-96.260323693683404,13.087732570102162],[-96.275888747767397,13.158447929928172],[-96.293472117044473,13.228921033978679],[-96.313099314381759,13.299086546507056],[-96.33479585264638,13.368879129068716],[-96.358587245604781,13.438233448614881],[-96.384499006124145,13.507084165801757],[-96.412556647071483,13.575365946681245],[-96.442785549113694,13.643013640767037],[-96.475198186746809,13.709980271972086],[-96.509783474927303,13.776252041098928],[-96.546527823999782,13.84181867429254],[-96.585417643409414,13.906669901295061],[-96.626439341702167,13.970795450050105],[-96.669579329222586,14.034185048501342],[-96.7148240154159,14.096828426390914],[-96.762159808828017,14.158715311662434],[-96.81157312070286,14.219835433158835],[-96.863050357787699,14.280178517924412],[-96.916577931326344,14.339734295701305],[-96.972142250764136,14.398492495332505],[-97.029729724646984,14.456442843862305],[-97.089326763319377,14.513575070133527],[-97.150919775327282,14.569878902989103],[-97.214495171015244,14.625344071272025],[-97.280039358029853,14.679960302925792],[-97.347538748514353,14.733717326793339],[-97.416979749215955,14.78660487081828],[-97.488348771378583,14.838612662944172],[-97.561632223548202,14.889730432913268],[-97.636816515169926,14.939947908669183],[-97.713888055689097,14.989254819054793],[-97.792833255450262,15.037640892013712],[-97.873638522100009,15.085095855489499],[-97.956290266882206,15.131609439224405],[-98.04077492262445,15.177171394544359],[-98.127121403429896,15.221813597020002],[-98.215488253480032,15.265696454228134],[-98.306058660178905,15.309004808325369],[-98.399015806434193,15.351923500569228],[-98.494542878750735,15.394637373116439],[-98.592823061834736,15.437331267224351],[-98.694039541291716,15.480190023251112],[-98.79837550182782,15.523398484252766],[-98.906014129048742,15.56714148968814],[-99.017138607660513,15.611603882613224],[-99.131932124168088,15.656970504285482],[-99.25057786237835,15.703426195063003],[-99.37325900789682,15.751155797102513],[-99.500158746328964,15.80034415256074],[-99.631460263280417,15.851176101795772],[-99.767346742558004,15.903836486065131],[-99.908001369767305,15.95851014842475],[-100.0536073314131,16.015381928333454],[-100.20434781130234,16.074636667948027],[-100.36040599593986,16.136459209425141],[-100.52196506913253,16.201034393122882],[-100.68920821648589,16.268547061198035],[-100.86231862450484,16.339182054908065],[-101.04147947609687,16.413124215510265],[-101.22687395866615,16.490558384262158],[-101.41868525601967,16.57166940332047],[-101.61709655466217,16.656642113043233],[-101.82219593869149,16.745581000263087],[-102.03357117686824,16.838167799404573],[-102.25064608524855,16.933945710626176],[-102.47284438366125,17.032457855845507],[-102.6995897946332,17.133247355181425],[-102.93030603799315,17.235857329652163],[-103.16441683446925,17.339830900275956],[-103.40134590568891,17.444711188071039],[-103.64051697148096,17.550041314055534],[-103.8813537552715,17.655364399247787],[-104.12327997509067,17.760223563766601],[-104.36571935346529,17.864161928630267],[-104.60809561112347,17.966722614856906],[-104.84983246879329,18.067448743464865],[-105.09035364720296,18.165883435472324],[-105.32908286797988,18.261569810998139],[-105.56544385185219,18.354050991959866],[-105.798860319548,18.442870098476419],[-106.02875599179549,18.527570251565976],[-106.25455458932277,18.607694572246828],[-106.47567983375723,18.68278618153721],[-106.69155544582708,18.752388200455243],[-106.90160514626041,18.816043749119842],[-107.10525265668468,18.873295948549298],[-107.30192169692867,18.923687919761846],[-107.4910359886199,18.966762784674927],[-107.67201925338571,19.002063662508135],[-107.84435084941208,19.029182672042793],[-108.00803294586365,19.04817233098845],[-108.16335416576203,19.059337414190452],[-108.31060606391861,19.062985283843886],[-108.4500801960441,19.059423296747866],[-108.58206811874857,19.048958815097365],[-108.70686138684346,19.031899197490134],[-108.824751557838,19.008551803423131],[-108.93603018564443,18.979223993292806],[-109.04098882777208,18.944223126596171],[-109.13991903813303,18.903856562830242],[-109.23311237513593,18.858431662391467],[-109.32086039269285,18.808255783877485],[-109.40345464741392,18.753636288584005],[-109.48118669411053,18.694880534209403],[-109.55434809029202,18.632295882948767],[-109.62323039076983,18.566189692500473],[-109.68812515215393,18.496869323260796],[-109.74932392925581,18.424642134726867],[-109.80711827778617,18.349815488194338],[-109.86179975525442,18.272696741361642],[-109.91365991647189,18.193593254625114],[-109.96299031625,18.112812388381144],[-110.01008251209817,18.030661502126748],[-110.05522805972709,17.947447954459676],[-110.09871851394814,17.863479106675584],[-110.14084543137147,17.779062317372166],[-110.18188746963091,17.694496504110532],[-110.22188149823245,17.609922298375523],[-110.2606496519598,17.525339762220369],[-110.29800660122356,17.440744069883067],[-110.33376701643459,17.35613039470212],[-110.36774556710412,17.27149391091541],[-110.399756923643,17.186829791861555],[-110.42961575646189,17.102133212677757],[-110.4571367350722,17.017399346702632],[-110.48213452988455,16.932623367274743],[-110.50442381130972,16.847800449531235],[-110.52381924975845,16.762925767710158],[-110.54013551384281,16.67799449425064],[-110.55318727487276,16.593001804289997],[-110.562789203259,16.507942871166733],[-110.56875596851302,16.422812870018049],[-110.57090224104547,16.337606973283357],[-110.56904269036778,16.252320356999007],[-110.56299198778993,16.166948192705092],[-110.55256480192395,16.081485656438019],[-110.53757580497933,15.995927920637143],[-110.51783966466871,15.910270160439666],[-110.4931710523021,15.824507549184204],[-110.46338463829034,15.738635261108527],[-110.42829509304403,15.652648470450686],[-110.38771708517527,15.566542350549184],[-110.34146528599405,15.480312076541225],[-110.28935730939224,15.393952875724779],[-110.23135423810749,15.30746264818282],[-110.16762230372626,15.220843108922452],[-110.09834351823866,15.134096267928555],[-110.02369989183643,15.047224136085163],[-109.94387343650982,14.960228721578403],[-109.85904616245034,14.873112036191628],[-109.76940007984973,14.785876088111138],[-109.67511720069814,14.69852288822085],[-109.57637953428798,14.611054446505648],[-109.47336909260946,14.523472772050923],[-109.36626788675346,14.435779874841501],[-109.2552579260124,14.347977764862094],[-109.14052122237644,14.260068451198208],[-109.0222397869365,14.172053945633195],[-108.900595628985,14.083936256353297],[-108.77577076141142,13.99571739334317],[-108.64794719350806,13.90739936748696],[-108.51730693546659,13.818984187870115],[-108.38403200017655,13.730473864477403],[-108.24830439693028,13.641870406394276],[-108.110306137718,13.55317582450482],[-107.970219231832,13.464392128793861],[-107.82822569126256,13.375521328346736],[-107.68450752620129,13.286565433148382],[-107.53924674773913,13.19752645408272],[-107.39262536696702,13.10840639933599],[-107.24482528975523,13.019207350838713],[-107.09600029927429,12.929950728643348],[-106.94623813248376,12.840703364069157],[-106.79561705828053,12.751538599526896],[-106.64421534196435,12.662529777427437],[-106.49211125243227,12.573750241080916],[-106.33938305588322,12.485273333797466],[-106.18610902211356,12.397172397987902],[-106.03236741642303,12.309520776962415],[-105.87823650680923,12.222391812232502],[-105.72379456126987,12.135858848007558],[-105.56911984690333,12.049995226698513],[-105.41429063170722,11.964874290716068],[-105.25938518188053,11.880569383370471],[-105.10448176632036,11.797153847072536],[-104.94965865122566,11.714701025132342],[-104.79499410549346,11.63328426086008],[-104.64056639532276,11.552976895767245],[-104.48645378871129,11.473852274063347],[-104.3327345527573,11.395983737259826],[-104.17948695635783,11.319444628666815],[-104.02678926481263,11.244308291594507],[-103.87471974701862,11.170648068453715],[-103.72335667007417,11.098537302554632],[-103.57277830107762,11.028049336307959],[-103.423062908926,10.959257512124623],[-103.274288758919,10.892235174214079],[-103.12653411995359,10.827055664087766]]]},"properties":{"objectid":2,"basin":"Pacific","prob2day":"90%","risk2day":"High","prob7day":"90%","risk7day":"High","idp_source":"gtwo_areas_202609271131","idp_filedate":1790509085000,"idp_ingestdate":1790509144000,"st_area(shape)":78.484414760542506,"st_perimeter(shape)":36.404710495652914}},{"type":"Feature","id":3,"geometry":{"type":"Polygon","coordinates":[[[-134.87221610648805,9.4956377655705637],[-134.743451488895,9.54501895995719],[-134.6132740561527,9.5961759133878104],[-134.48181704821809,9.6490532420136219],[-134.3492137104443,9.703595561086388],[-134.2155972836876,9.7597474885558881],[-134.08110101150237,9.8174536387745661],[-133.94585813654368,9.8766586305914643],[-133.81000190146648,9.9373070783591402],[-133.67366554892584,9.9993435991279398],[-133.53698232247609,10.06271280994838],[-133.4000854647723,10.127359326072167],[-133.26310821757011,10.193227763650498],[-133.12618382442389,10.260262740633095],[-132.98944552798866,10.32840887137246],[-132.85302657091944,10.397610773818315],[-132.71706019587123,10.467813064121742],[-132.58167964639847,10.53896035753462],[-132.4470181642568,10.610997272006614],[-132.31320899300056,10.683868422789601],[-132.18038537438542,10.757518426034665],[-132.04868055286511,10.831891898792207],[-131.91822776929604,10.906933457213427],[-131.78916026813175,10.982587717449348],[-131.66161129112811,11.058799295651113],[-131.53571408094001,11.13551280886918],[-131.41160188112184,11.212672873254633],[-131.28940793342929,11.290224104958611],[-131.16926548231606,11.368111121031575],[-131.05130776863854,11.446278535825911],[-130.93566800987065,11.524670991573146],[-130.82244496416365,11.603264669728844],[-130.71163499735718,11.682129471897724],[-130.60321554366232,11.761352630519639],[-130.49716403908906,11.841021376235688],[-130.3934579205465,11.921222938787707],[-130.29207462134661,12.002044549716345],[-130.19299157749919,12.083573439662644],[-130.09618622501421,12.165896839267873],[-130.00163599900208,12.249101980072453],[-129.90931833457341,12.333276091818334],[-129.81921066773805,12.418506406045935],[-129.73129043360655,12.504880153396527],[-129.64553506728942,12.592484564511153],[-129.5619220047966,12.681406870930459],[-129.48042868033923,12.771734302396283],[-129.40103253082657,12.863554089549723],[-129.32371099136907,12.95695346483069],[-129.24844149707735,13.052019657081644],[-129.17520148306193,13.148839898742494],[-129.10396838533262,13.247501419555022],[-129.03471963810074,13.348091450160439],[-128.96743267827537,13.450697222099279],[-128.90208494096714,13.555405966911962],[-128.83865386128656,13.662304913441119],[-128.77711687434419,13.771481294126545],[-128.71745141614986,13.883022338710077],[-128.65963492181407,13.997015277832929],[-128.60364482734684,14.113547343934897],[-128.54945856695923,14.232705765858555],[-128.49705376821674,14.354577314691483],[-128.44644862170645,14.479150899994181],[-128.39775182308807,14.606197102914109],[-128.35108431319043,14.735456960070792],[-128.30656703284222,14.866671508083755],[-128.26432092377155,14.99958178357258],[-128.22446692590779,15.133928824955433],[-128.18712598097915,15.269453669751215],[-128.15241902891495,15.405897353680075],[-128.12046701234266,15.543000914260915],[-128.09139087119166,15.680505389911957],[-128.06531154719005,15.818151816353407],[-128.04234998026726,15.955681231104052],[-128.02262711215144,16.092834670783589],[-128.00626388367118,16.229353174709388],[-127.99338123655474,16.364977777702393],[-127.98410011073145,16.499449518180882],[-127.97854144703007,16.632509432764266],[-127.97682618807801,16.763898558971448],[-127.97907527290545,16.89335793432133],[-127.98540964324036,17.020628595433493],[-127.99595024081088,17.14545157892735],[-128.01081800644573,17.267567922321916],[-128.0301338800744,17.386718664035243],[-128.05401880342492,17.502644839787649],[-128.08259371822544,17.615087487097981],[-128.11597956440528,17.723787643485082],[-128.15429728279327,17.828486346467855],[-128.19766781511748,17.928924631766506],[-128.24621210220664,18.024843537799143],[-128.30004972241665,18.115985612945792],[-128.35919484996225,18.202210340834711],[-128.42348298984803,18.283575420169655],[-128.49273234232362,18.360157749280859],[-128.56676110404163,18.432034226498502],[-128.64538747435239,18.499281750152761],[-128.7284296535056,18.561977218573929],[-128.8157058381538,18.620197529192751],[-128.90703422764739,18.674019581238838],[-129.00223302223611,18.723520273042311],[-129.10112041767303,18.768776502933406],[-129.20351461600666,18.809865168342981],[-129.30923381298999,18.84686316939991],[-129.41809620977216,18.879847402635676],[-129.52992000300566,18.908894766380513],[-129.64452339294013,18.93408215986392],[-129.76172457802676,18.955486481416131],[-129.88134175671661,18.973184629367267],[-130.00319312746075,18.987253501148302],[-130.12709688960967,18.997769995089357],[-130.25287124071508,19.004811010419928],[-130.38033438102678,19.008453445470252],[-130.5093045089958,19.008774197671244],[-130.63959982217398,19.005850166252287],[-130.77103852081098,18.999758248644412],[-130.90343880245865,18.990575343177682],[-131.03661886646745,18.978378349081709],[-131.17039691128832,18.963244164686614],[-131.3045911353725,18.945249687423257],[-131.43901973807039,18.924471815621928],[-131.5735031166754,18.900987063602258],[-131.70794714454502,18.874857018736577],[-131.84236873163155,18.846123872718692],[-131.97679220729447,18.814828523117967],[-132.11124190449021,18.781011869302461],[-132.24574215077956,18.74471480704284],[-132.38031727911903,18.705978233908525],[-132.51499161886801,18.664843048368141],[-132.64978950028512,18.621350147991052],[-132.7847352545283,18.575540428548095],[-132.91985321185615,18.527454789407159],[-133.05516770342666,18.477134127238344],[-133.19070305859918,18.424619339610956],[-133.32648360763227,18.369951324094473],[-133.46253368258328,18.31317097735888],[-133.59887761371084,18.254319198772123],[-133.73553973037417,18.19343688410504],[-133.87254436373132,18.130564931826257],[-134.0099158440409,18.065744238605873],[-134.14767850246085,17.999015702912516],[-134.28585666835045,17.930420221416227],[-134.42447467376707,17.859998691686428],[-134.56355684806999,17.787792012191744],[-134.70312752151784,17.713841079602275],[-134.84321102616781,17.638186791487385],[-134.98383169048003,17.56087004541638],[-135.12501384651171,17.481931738059416],[-135.2667818245215,17.401412768784382],[-135.40915995476803,17.319354033362117],[-135.5521725675099,17.235796430261189],[-135.69584027520847,17.150782500112427],[-135.84009816479841,17.064392578454886],[-135.98479579678849,16.976744795735897],[-136.12977901478962,16.887958926363524],[-136.2748936615132,16.79815474384651],[-136.41998557967065,16.707452021693598],[-136.5649006119736,16.615970534312851],[-136.70948460203266,16.523830056112331],[-136.85358339255941,16.431150359701462],[-136.99704282716465,16.338051220387626],[-137.13970874676119,16.244652411679567],[-137.2814269967584,16.151073706186708],[-137.42204341806922,16.05743488011575],[-137.56140385430433,15.963855705176798],[-137.6993541481753,15.870455956677176],[-137.83574014329287,15.777355408125743],[-137.97040768146923,15.684673833031127],[-138.10320260721448,15.592531005801391],[-138.23397076144141,15.501046699945391],[-138.36255798866017,15.410340689871077],[-138.48881013158223,15.320532749087249],[-138.61257303201972,15.231742652001913],[-138.73369253448277,15.144090171224548],[-138.85201447988425,15.057695082961857],[-138.96738471363352,14.972677158923887],[-139.07964907664348,14.889156173518757],[-139.1886534125249,14.807251901154473],[-139.2942435639892,14.727084116239098],[-139.39626537464721,14.648772591382112],[-139.49456468631115,14.572437100991579],[-139.58899676119148,14.498187213069571],[-139.67955778346487,14.425979795231513],[-139.76635242432485,14.355654161110806],[-139.84948814286344,14.287046600820133],[-139.92907239817254,14.219993408069456],[-140.00521265204219,14.154330872072251],[-140.07801636356425,14.089895283840406],[-140.14759099183073,14.026522936184676],[-140.21404399863155,13.964050118318426],[-140.27748284215937,13.902313122152975],[-140.33801498420405,13.841148239599704],[-140.39574788295835,13.780391760771295],[-140.45078900021213,13.719879977579012],[-140.50324579415798,13.659449180135709],[-140.55322572658594,13.598935660352595],[-140.60083625658791,13.538175709241727],[-140.64618484325581,13.477005618714486],[-140.68937894837967,13.415261677984176],[-140.7305260310514,13.352780179861554],[-140.76973355036296,13.289397414459245],[-140.80710896810433,13.224949673688627],[-140.84275974336737,13.159273247662384],[-140.87679333614346,13.092204429191213],[-140.90931720642385,13.023579508387741],[-140.94043881419981,12.953234775364706],[-140.97026561946268,12.881006522932807],[-140.99890508220369,12.806731042104047],[-141.02646466241413,12.730244622991108],[-141.05305182008533,12.651383557505312],[-141.07877401520852,12.569984136658718],[-141.10372580789965,12.485903883557512],[-141.12786857767264,12.399219510372234],[-141.15108513746901,12.310137042790416],[-141.17325728399635,12.21886417384269],[-141.19426681216356,12.125608599257589],[-141.21399551957745,12.030578012965066],[-141.23232520294567,11.93398011159303],[-141.24913765897571,11.836022589071376],[-141.26431468347579,11.736913140229376],[-141.27773807315344,11.6368594598963],[-141.28928962471633,11.536069243800682],[-141.29885113397256,11.434750185872531],[-141.30630439942843,11.333109981840323],[-141.3115312150934,11.231356325634067],[-141.31441337947382,11.129696913881617],[-141.31483268747849,11.028339439613603],[-141.31267093761358,10.927491598558561],[-141.3078099247881,10.827361085545817],[-141.30013144570955,10.72815559540453],[-141.28951729708552,10.630082823863347],[-141.2758492756235,10.533350464852219],[-141.25900917803108,10.438166213200304],[-141.23887880101574,10.34473776463625],[-141.21533994038583,10.253272813989327],[-141.18827439284888,10.163979055189373],[-141.15756395511238,10.077064183965035],[-141.12309042298455,9.9927358951455858],[-141.0847355940723,9.9112018835602385],[-141.04238126508324,9.8326698440382074],[-140.9959092309262,9.7573474723081404],[-140.94522431634903,9.6854189090555565],[-140.89040151761589,9.6168942293853092],[-140.83159210788938,9.5517054886175288],[-140.76894771916182,9.489784375148929],[-140.70261998342539,9.4310625764768474],[-140.63276053177304,9.3754717800987351],[-140.55952099619691,9.3229436744111922],[-140.48305300958862,9.27340994691167],[-140.40350820214172,9.2268022850975058],[-140.32103820584842,9.1830523782647901],[-140.23579465449961,9.1420919130115408],[-140.14792917738953,9.1038525768350951],[-140.05759340830906,9.0682660590315436],[-139.96493897745177,9.035264046198904],[-139.87011751770916,9.0047782267338903],[-139.77328066107356,8.9767402881339535],[-139.67458003863777,8.9510819187956372],[-139.57416728329338,8.9277348062164492],[-139.47219402523399,8.9066306378937838],[-139.36881189735112,8.8877011022242414],[-139.26417253163692,8.870877886705216],[-139.15842755918442,8.8560926797335355],[-139.05172861198577,8.8432771688064236],[-138.94422732203321,8.8323630414213881],[-138.83607532221828,8.8232819859750293],[-138.72742424273451,8.8159656899647416],[-138.61842571557423,8.8103458417872957],[-138.50923137362889,8.8063541280407094],[-138.39999284799143,8.8039222380210163],[-138.29086176975477,8.802981858326234],[-138.18196395227449,8.8034746634251064],[-138.07328555138702,8.8053963338738299],[-137.96476572166063,8.8087607291244581],[-137.85634358438881,8.8135817212195775],[-137.74795825906631,8.8198731813023983],[-137.63954886698656,8.8276489832141465],[-137.53105452764424,8.8369229962993927],[-137.42241436233286,8.8477090952986259],[-137.31356749054714,8.8600211504558501],[-137.20445303268122,8.8738730356122346],[-137.09501010912913,8.8892786201123499],[-136.98517784028502,8.9062517786967419],[-136.87489534654293,8.9248063825086774],[-136.76410174739766,8.9449563026913665],[-136.65273616504192,8.9667154130859785],[-136.54073771807117,8.9900975839364605],[-136.42804552687949,9.0151166881847757],[-136.3145987127603,9.0417865978733403],[-136.20033639520841,9.0701211850447976],[-136.08519769461782,9.1001343217416775],[-135.96912173228202,9.1318398800065665],[-135.85204762769575,9.1652517318820514],[-135.73391450035382,9.2003837494106619],[-135.61466147244892,9.2372498046349278],[-135.49422766257646,9.2758637704967555],[-135.37255219202996,9.316239517240092],[-135.24957418030408,9.3583909187060499],[-135.12523274869233,9.4023318451386899],[-134.9994670175887,9.4480761703791245],[-134.87221610648805,9.4956377655705637]]]},"properties":{"objectid":3,"basin":"Pacific","prob2day":"40%","risk2day":"Medium","prob7day":"70%","risk7day":"High","idp_source":"gtwo_areas_202609271131","idp_filedate":1790509085000,"idp_ingestdate":1790509144000,"st_area(shape)":89.13943368194802,"st_perimeter(shape)":36.759599462048101}}]}