{"type":"FeatureCollection","features":[{"type":"Feature","id":1,"geometry":{"type":"Polygon","coordinates":[[[-52.454670031296814,31.257512004375656],[-52.511929774239547,31.379809532384172],[-52.57240306554894,31.501323062009874],[-52.635994542014373,31.62196506673456],[-52.702608841324832,31.741648017342243],[-52.772150602967827,31.860284386415458],[-52.84452446373291,31.977786646536629],[-52.919635062208215,32.094067269389143],[-52.997387036082728,32.209038727555367],[-53.077685023045262,32.322613492718631],[-53.16043366078469,32.434704037461529],[-53.245537588788579,32.545222834366484],[-53.332901443846424,32.654082355116714],[-53.422429863647153,32.761195071395548],[-53.514027486778957,32.866473456684844],[-53.607598950930708,32.969829982667704],[-53.703048893791276,33.071177121027461],[-53.800281953948911,33.170427343447273],[-53.899202769092426,33.267493124308373],[-53.999715976910693,33.362286933495341],[-54.10172621599196,33.454721244489974],[-54.205138123125778,33.544708528975605],[-54.309856337799658,33.632161259534655],[-54.415785496803096,33.716991907850399],[-54.522830237825076,33.799112946505431],[-54.630895200353109,33.878436848082231],[-54.73988502117669,33.954876083364695],[-54.84970433888401,34.028343125834738],[-54.960257790264677,34.098750447175519],[-55.071450014806203,34.166010519969689],[-55.183185649298139,34.230035815900351],[-55.295369332328733,34.290738807550099],[-55.407905702486062,34.34803196660215],[-55.520699395660472,34.401827765639041],[-55.633655051339417,34.452038677243308],[-55.746677307211826,34.498577173098226],[-55.859670801865889,34.541355725786275],[-55.972540172091158,34.580286806091351],[-56.085193400155163,34.615289649497868],[-56.197583877793591,34.646375274499462],[-56.30969771587678,34.67362085192093],[-56.421521751927173,34.697105013086002],[-56.533042821668744,34.716906388419261],[-56.644247759926088,34.733103607445685],[-56.755123403322273,34.745775300589798],[-56.865656588480647,34.75500010007471],[-56.975834149326431,34.760856635425512],[-57.085642923382068,34.763423537066728],[-57.195069746371587,34.762779436322091],[-57.304101454018792,34.759002962716693],[-57.412724881148222,34.752172747574377],[-57.52092686528249,34.742367420420237],[-57.628694242145457,34.729665613477437],[-57.736013845662342,34.714145956271011],[-57.842872514255021,34.695887079225486],[-57.949257081848714,34.674967612765272],[-58.055154385066714,34.651466188214158],[-58.160551260532145,34.625461435996613],[-58.265434543069603,34.597031986537104],[-58.369791069302266,34.566256469360724],[-58.47360767405479,34.53321351669058],[-58.576871194849673,34.497981758051822],[-58.679568465612078,34.460639824768236],[-58.781686323864619,34.421266346364916],[-58.883211604431892,34.379939954165707],[-58.98413114393702,34.336739277695642],[-59.084431778103976,34.291742949177888],[-59.184100341757244,34.245029598137592],[-59.283123672419435,34.196677854999166],[-59.381488605814411,34.146766351086399],[-59.479181975867391,34.095373716823701],[-59.576190621000251,34.042578581736279],[-59.672501375138211,33.988459577147921],[-59.768101074904564,33.933095333482981],[-59.862976556922433,33.876564482065362],[-59.957114656016472,33.818945416797703],[-60.050502243883329,33.760288109408862],[-60.143126258769712,33.7005873195493],[-60.234973644318131,33.639831467548333],[-60.326031347768378,33.57800897103732],[-60.41628631456166,33.515108250345634],[-60.505725489239808,33.451117723104574],[-60.594335818143406,33.38602580874425],[-60.682104246713493,33.319820925795227],[-60.769017720391389,33.252491493687614],[-60.855063185517508,33.184025930052769],[-60.940227585734362,33.114412654320688],[-61.024497868281856,33.043640085022048],[-61.107860978601195,32.971696642486222],[-61.190303862133419,32.898570743445191],[-61.271813463420472,32.824250807329065],[-61.3523767297022,32.748725254467047],[-61.431980604621117,32.671982501591344],[-61.510612035417012,32.59401096813184],[-61.588257966631716,32.514799074417908],[-61.66490534460587,32.434335237181585],[-61.740541113881193,32.352607875852925],[-61.815152220798211,32.269605409861924],[-61.88872561079819,32.185316258638579],[-61.961248229322223,32.099728838914928],[-62.032707021811518,32.012831571020342],[-62.103088933707227,31.924612873485444],[-62.172380911349876,31.835061164841022],[-62.240569899281297,31.744164863617698],[-62.307642843842075,31.651912390144844],[-62.373586689573926,31.55829216205376],[-62.438388383716813,31.463292597875238],[-62.502034870812508,31.366902117039217],[-62.564513095402901,31.269109138076431],[-62.625810004727839,31.169902080416819],[-62.685912544228415,31.069269362591172],[-62.744807658446575,30.96719940313011],[-62.80248229372279,30.86368062056431],[-62.858919855766601,30.758710831339954],[-62.914083087464405,30.652342727634903],[-62.967927250242269,30.544648862255315],[-63.020407594734593,30.435701816785581],[-63.071479373374245,30.325574174608619],[-63.121097836795627,30.214338515510235],[-63.169218237431608,30.102067421074764],[-63.21579582501721,29.988833473785917],[-63.260785851985361,29.874709254328764],[-63.304143568970403,29.759767345186958],[-63.34582422840532,29.644080327944948],[-63.385783081823661,29.527720783287634],[-63.423975378960449,29.410761292799577],[-63.460356373147988,29.293274438064998],[-63.494881314121244,29.175332801567663],[-63.527505454313143,29.057008964891963],[-63.558184045257349,28.938375507823594],[-63.586872336688884,28.819505013745527],[-63.613525581939939,28.700470063342891],[-63.638099031644856,28.58134323820002],[-63.660547937337299,28.462197119901305],[-63.68082755055093,28.343104290930398],[-63.698893121919923,28.224137331073109],[-63.714699902978055,28.105368823712411],[-63.728203145258817,27.986871349533317],[-63.739358101195307,27.868717489220899],[-63.748120020522435,27.750979826158186],[-63.754444156572447,27.633730941030251],[-63.758285758181103,27.517043414522107],[-63.759600078680592,27.400989830016783],[-63.758342369604577,27.285642767300033],[-63.754467880688026,27.171074809754828],[-63.74793186436392,27.05735853716692],[-63.738689572165924,26.944566532019962],[-63.726696255627587,26.832771374999083],[-63.711907165383252,26.722045649487256],[-63.694277552966582,26.612461935270233],[-63.673763432536248,26.504092089078767],[-63.650338352332994,26.396991285219769],[-63.623993395578623,26.291198013777432],[-63.594720409019544,26.186750042680444],[-63.562511236704097,26.083685135360838],[-63.527357725378636,25.982041059747246],[-63.489251720890081,25.88185558107034],[-63.448185068186262,25.78316646456085],[-63.404149613114043,25.68601147724803],[-63.357137201520516,25.59042838436261],[-63.307139679252657,25.496454952933846],[-63.254148892157559,25.404128947293202],[-63.198156685182767,25.313488134469992],[-63.139154904175371,25.224570279694774],[-63.077135395881726,25.137413149097711],[-63.012090004350114,25.052054509708],[-62.944010576326946,24.968532125857053],[-62.872888957659143,24.886883763674916],[-62.798716994193796,24.80714719019079],[-62.721486529979245,24.729360170635516],[-62.641189412661163,24.653560471138974],[-62.557817486287831,24.579785856931892],[-62.471362598504982,24.508074095043582],[-62.381816592461632,24.438462950704775],[-62.289171316702777,24.370990190045404],[-62.193418614377435,24.305693579195463],[-62.094550332231961,24.24261088338568],[-61.992558317012595,24.181779868746105],[-61.887434412767846,24.123238302305936],[-61.779170465344578,24.067023948396638],[-61.667758321489259,24.013174574047468],[-61.553189826149435,23.961727945388532],[-61.435456825172253,23.912721827650387],[-61.314551163505257,23.866193986063763],[-61.190464688794236,23.822182188557292],[-61.063189244188152,23.780724198563064],[-60.932716677332678,23.741857784908973],[-60.799038895228705,23.705620689443379],[-60.662192263761824,23.672034759396752],[-60.522335986316591,23.641077920909481],[-60.379650298722197,23.612720580890254],[-60.234315435908513,23.586933143549857],[-60.086511635503484,23.563686014897826],[-59.936419133336244,23.542949600044153],[-59.784218164336721,23.52469430499832],[-59.630088966132746,23.508890533971112],[-59.474211774553623,23.495508694770592],[-59.316766825428545,23.484519190708227],[-59.1579343545867,23.47589242779344],[-58.997894598756602,23.469598812035713],[-58.836827793767554,23.465608748545037],[-58.674914175448748,23.463892642431631],[-58.512333980528638,23.464420899704919],[-58.349267444836585,23.467163926374269],[-58.185894805101043,23.472092126650466],[-58.022396297151261,23.479175906542991],[-57.858952155917166,23.48838567116195],[-57.695742619026532,23.499691827416029],[-57.532947922308665,23.513064779516128],[-57.370748301592755,23.528474932572237],[-57.209323993607313,23.545892693493158],[-57.048855233282268,23.565288466489676],[-56.889522257346187,23.586632657571215],[-56.73150530252758,23.609895671847937],[-56.57498460465564,23.635047915329153],[-56.420140399559671,23.662059793125081],[-56.267152923968126,23.690901711245147],[-56.116202412810992,23.72154407479934],[-55.967469103716041,23.75395728799856],[-55.82113323161326,23.788111758650871],[-55.677375033231101,23.823977890967058],[-55.536374744398813,23.861526090057168],[-55.398312601844964,23.900726761930684],[-55.263368841398801,23.941550312596974],[-55.131723698889459,23.983967146266934],[-55.003540977733792,24.027949993697405],[-54.878841446875185,24.073491812297448],[-54.757572229774496,24.120595975424067],[-54.639679841951022,24.169265942769186],[-54.525110797125478,24.219505173125356],[-54.413811611716369,24.271317126184556],[-54.30572879854509,24.324705262537975],[-54.200808874030201,24.379673040078899],[-54.098998351892305,24.436223919398515],[-54.00024374675138,24.494361360188748],[-53.904491574126723,24.55408882034294],[-53.811688347738936,24.615409760452224],[-53.721780584006638,24.678327639309259],[-53.634714795751108,24.742845917505235],[-53.550437498491647,24.808968053832757],[-53.468895207747551,24.876697507983749],[-53.390034437239365,24.946037738750761],[-53.313801702486444,25.016992205825773],[-53.240143517209447,25.089564368900653],[-53.169006396927557,25.163757688566591],[-53.10033685626081,25.239575621817607],[-53.034081409829071,25.317021630144268],[-52.970186572252373,25.396099172339063],[-52.90859885815064,25.476811707194656],[-52.849264783043168,25.559162695302291],[-52.792130861549879,25.643155595454516],[-52.737143607391431,25.728793867343256],[-52.684249536986442,25.816080970660437],[-52.633395163156138,25.905020364198606],[-52.584527002319192,25.995615508549008],[-52.537591568196206,26.087869861604986],[-52.492535375407158,26.18178688395767],[-52.44930493947129,26.277370035299043],[-52.407846775008522,26.374622773522333],[-52.368107395739628,26.473548560118104],[-52.330033318083053,26.574150852979642],[-52.293571055759514,26.676433112698135],[-52.258668012818418,26.780398207211647],[-52.225311890131536,26.886022255023192],[-52.193546302120012,26.99324425691708],[-52.163418981200891,27.102000478839159],[-52.134977659791048,27.212227185836127],[-52.108270070307356,27.323860644753097],[-52.083343946066122,27.436837121536087],[-52.060247019484223,27.551092882130945],[-52.039027022978587,27.666564192483634],[-52.019731689865466,27.783187318540058],[-52.002408751662415,27.900898526246124],[-51.987105941685741,28.019634081547792],[-51.973870992352317,28.139330250390913],[-51.962751636978339,28.259923299620709],[-51.953795607081474,28.381349494283882],[-51.947050636877293,28.503545100326278],[-51.942564456983973,28.626446384593123],[-51.940384801617199,28.74998961213106],[-51.940559403193788,28.874111049785256],[-51.943135994130728,28.998746963501731],[-51.948162306844893,29.123833619226275],[-51.955686074652533,29.249307282005589],[-51.965755029970524,29.375104218684896],[-51.978416904316589,29.501160695210046],[-51.993719431906129,29.627412977527058],[-52.011710344256869,29.753797331581723],[-52.032437375584323,29.880250023320059],[-52.055948256506724,30.006707318687972],[-52.082290720340382,30.133105484530631],[-52.111512501300751,30.259380785894678],[-52.143661330006239,30.385469488726073],[-52.178784939773038,30.511307858970667],[-52.216931063018023,30.636832164373004],[-52.258147433057445,30.761978668181143],[-52.302481782308291,30.886683639038836],[-52.349981844086699,31.010883341093461],[-52.400695349011016,31.134514041190187],[-52.454670031296814,31.257512004375656]]]},"properties":{"objectid":1,"basin":"Atlantic","prob2day":"20%","risk2day":"Low","prob7day":"30%","risk7day":"Low","idp_source":"gtwo_areas_202609162330","idp_filedate":1789601883000,"idp_ingestdate":1789602072000,"st_area(shape)":104.88381207523372,"st_perimeter(shape)":36.594051701307919}},{"type":"Feature","id":2,"geometry":{"type":"Polygon","coordinates":[[[-101.90003446331974,10.714036069309316],[-101.89618797839239,10.823398649228409],[-101.89518793497513,10.934078609140613],[-101.89699055946664,11.046030561161615],[-101.90155208006433,11.159209120104947],[-101.90882872316695,11.273568899884935],[-101.9187767160725,11.389064514415963],[-101.93135228697838,11.505650578511506],[-101.94651166138397,11.623281704287365],[-101.9642110674867,11.741912508355711],[-101.98440673348387,11.86149760283223],[-102.00705488487495,11.98199160163125],[-102.0321117507566,12.10334912046568],[-102.05953355662825,12.225524771451205],[-102.08927652978792,12.348473169401359],[-102.12129689933232,12.472148929129901],[-102.15555089076088,12.596506663651724],[-102.19199473137166,12.721500986881153],[-102.23058465026128,12.847086512732517],[-102.27127687202994,12.973217856019403],[-102.3140276257742,13.099849630656081],[-102.35879313789292,13.226936449657558],[-102.40552963658337,13.354432928736799],[-102.4541933482443,13.482293680009491],[-102.50474050017385,13.610473319188486],[-102.55712731966997,13.738926459288791],[-102.61131003403074,13.867607714224789],[-102.66724487055421,13.996471697910692],[-102.72488805653848,14.125473025160147],[-102.78419581838222,14.254566309887423],[-102.84512438518215,14.383706165107583],[-102.90762998243764,14.512847206533479],[-102.97166883834609,14.641944046280855],[-103.03719718020562,14.770951299163244],[-103.10417123441482,14.899823579994347],[-103.17254722917119,15.028515501789116],[-103.24228139087342,15.156981678461818],[-103.31332994681947,15.285176724826101],[-103.38564912520684,15.413055253896971],[-103.45919515243423,15.540571881387336],[-103.53392425579966,15.667681219412884],[-103.60979266350051,15.794337882787204],[-103.68675660103622,15.920496485424621],[-103.76477229750344,16.046111641239406],[-103.8437959784016,16.171137964145885],[-103.92378387282736,16.295530068957646],[-104.0046922062802,16.419242569589073],[-104.08647720695745,16.54223007815574],[-104.16909510215714,16.66444721126993],[-104.25250211827802,16.785848581946652],[-104.33665449520868,16.906388778019846],[-104.42151225898346,17.026013930998261],[-104.5070447265328,17.144649430427023],[-104.59322260963563,17.262217549700324],[-104.68001662276885,17.378640561312977],[-104.76739747861063,17.493840735961328],[-104.85533588894003,17.60774034703951],[-104.94380256823382,17.720261666143131],[-105.03276822917036,17.831326966666325],[-105.12220358442778,17.94085851930538],[-105.21207934668439,18.04877859655511],[-105.30236623041708,18.155009471809819],[-105.39303494650545,18.259473415765683],[-105.48405621032578,18.362092701816891],[-105.57540073275749,18.462789601558995],[-105.66703922827764,18.561486386587603],[-105.75894240956444,18.658105330296905],[-105.85108098929612,18.752568704282396],[-105.94342568015094,18.84479878103906],[-106.03594719660572,18.934717832162391],[-106.12861625043951,19.022248131046524],[-106.22140355433049,19.10731194838786],[-106.31427982275551,19.189831556681156],[-106.4072157674936,19.269729229320603],[-106.50018210212221,19.346927237901866],[-106.59314953931971,19.421347854020382],[-106.68608879266355,19.492913350171136],[-106.77897057483204,19.561545999748205],[-106.87176559940281,19.62716807254867],[-106.96444457815466,19.689701842865873],[-107.05697822466522,19.749069582295533],[-107.14933725251211,19.805193562433089],[-107.24149237437348,19.857996056672789],[-107.33341430292762,19.90739933661024],[-107.42507375085285,19.953325673840936],[-107.51644143262592,19.995697340859749],[-107.60748806002584,20.034436610161549],[-107.69818434663017,20.069465754241321],[-107.78850100511721,20.100707044694502],[-107.87840874906442,20.12808275401602],[-107.96787829025078,20.151515154700746],[-108.05688034315324,20.170926518344288],[-108.14538562044993,20.18623911744146],[-108.23336483481916,20.197375224487189],[-108.32078869893923,20.20425711107697],[-108.40762792638759,20.206807049705731],[-108.49385323074193,20.204947312868342],[-108.57943532378107,20.198600172160354],[-108.66434491908268,20.187687900076639],[-108.7485527293249,20.172132769112125],[-108.83202955442033,20.151858116558969],[-108.91475139056411,20.126851199923067],[-108.99670228558193,20.097198355020225],[-109.0778669806765,20.062994437843145],[-109.15823021795012,20.024334307082768],[-109.23777673860553,19.981312819631057],[-109.31649128474487,19.93402483327958],[-109.39435859757111,19.882565204021091],[-109.47136341828701,19.827028791445684],[-109.54749048899475,19.767510451546229],[-109.6227245508972,19.704105042114122],[-109.69705034519717,19.636907420940872],[-109.77045261489616,19.566012444918556],[-109.84291609939839,19.491514970939306],[-109.91442554170527,19.413509857693896],[-109.98496568301977,19.332091962074514],[-110.05452126364531,19.247356140973295],[-110.12307702748274,19.159397252181577],[-110.19061771483558,19.068310153490927],[-110.25712806600734,18.97418970269274],[-110.32259282489883,18.877130755779888],[-110.38699673181361,18.777228171443085],[-110.45032452795448,18.674576805675201],[-110.51256095452436,18.569271518066273],[-110.57369075452459,18.461407163709794],[-110.63369866915815,18.351078602195855],[-110.69256943872853,18.238380688618008],[-110.75028780623717,18.123408282566345],[-110.80683851198762,18.006256240033565],[-110.86220629808207,17.887019419710612],[-110.91637590572338,17.765792677590127],[-110.96933207701363,17.642670871463679],[-111.02105955315574,17.517748860022039],[-111.07154307625188,17.391121499257906],[-111.12076738660551,17.262883646962848],[-111.16871722721817,17.133130160028998],[-111.21537733839335,17.00195589714707],[-111.26073246223325,16.869455715209256],[-111.30476733994067,16.735724471107574],[-111.34746671271853,16.600857022633647],[-111.38881532356822,16.464948227578759],[-111.42879791279336,16.328092942835156],[-111.46739922159668,16.19038602619429],[-111.50460399297981,16.051922334548237],[-111.54039696724612,15.912796726587828],[-111.57476288649792,15.773104057406442],[-111.60768649103863,15.632939186594342],[-111.63915252476909,15.49239697104349],[-111.66914572709351,15.351572267646191],[-111.69765084011408,15.210559934193725],[-111.72465242426989,15.069453787062741],[-111.75013086085045,14.928323702676892],[-111.77406235109652,14.787215619305528],[-111.79642291728373,14.646174432004557],[-111.81718857988898,14.505245037628526],[-111.83633536028856,14.36447233213255],[-111.85383927806015,14.223901211471855],[-111.86967635547933,14.083576572500931],[-111.88382261302309,13.943543310275686],[-111.89625407116836,13.803846322549873],[-111.90694675129146,13.6645305043794],[-111.91587667386932,13.525640752618756],[-111.92301986117758,13.387221963223169],[-111.92835233189453,13.249319032147753],[-111.93185010919507,13.111976855347734],[-111.93348921265692,12.975240329677604],[-111.93324566365635,12.839154351991908],[-111.93109548267029,12.703763816447122],[-111.92701469107504,12.569113620797111],[-111.92097930934756,12.435248660997047],[-111.91296535886414,12.302213833002156],[-111.90294886100105,12.170054033666872],[-111.89090583533596,12.038814158047103],[-111.87681230324512,11.908539102997338],[-111.86064428610484,11.779273764472805],[-111.84237780529139,11.651063039327937],[-111.82198888038243,11.523951822618642],[-111.79945353365355,11.397985012098786],[-111.7747477846824,11.273207502824107],[-111.74784765484532,11.149664190749945],[-111.71872916551848,11.027399973629997],[-111.6873683371789,10.906459745620907],[-111.65374119120293,10.786888404476429],[-111.61782374806745,10.668730846151789],[-111.57959202914873,10.552031965702781],[-111.53902205492381,10.43683666088333],[-111.49608984676894,10.323189826749228],[-111.45077142426175,10.211136361054344],[-111.40304280967786,10.100721157955206],[-111.35288002439353,9.9919891143063069],[-111.30025908798643,9.8849851269621922],[-111.24515602183283,9.779754091877976],[-111.18754684730908,9.6763409050088853],[-111.12740758399269,9.5747904632094674],[-111.06471425415941,9.4751476615355159],[-110.99944287918544,9.3774573968415211],[-110.93156947864844,9.2817645650827671],[-110.86107007302536,9.1881140631136304],[-110.78792068549114,9.096550786889452],[-110.71209733472415,9.0071196323652885],[-110.63358126446371,8.9198632489898841],[-110.5524144190901,8.8347981663024484],[-110.46867790486135,8.7519240632450419],[-110.38245348274194,8.6712403372719109],[-110.29382291099847,8.5927463867365077],[-110.20286795059536,8.5164416090931354],[-110.10967035979917,8.4423254026953032],[-110.01431189957441,8.3703971640979944],[-109.91687432908691,8.3006562916546613],[-109.81743940750255,8.2331021828196072],[-109.71608889488647,8.167734235946341],[-109.61290455130393,8.1045518484891659],[-109.50796813592063,8.0435544188015342],[-109.4013614088019,7.9847413434383725],[-109.29316612911344,7.9281120207533036],[-109.18346405692057,7.8736658490997797],[-109.0723369513891,7.8214022250327844],[-108.95986657258413,7.7713205469058266],[-108.84613468057097,7.7234202121732096],[-108.73122303451532,7.6777006200877054],[-108.61521339448245,7.6341611663049207],[-108.49818751873892,7.5928012500777413],[-108.38022716914844,7.5536202679611506],[-108.26141410397764,7.5166176183086009],[-108.14183008239229,7.4817926994736581],[-108.02155686625628,7.4491449089105686],[-107.90067621293679,7.418673643174202],[-107.77926988249897,7.3903783015175577],[-107.65741963590739,7.3642582813947115],[-107.53520723232782,7.3403129793606468],[-107.41271443002682,7.3185417946682492],[-107.29002299086824,7.2989441247716513],[-107.16721467311856,7.2815193671252132],[-107.04437123684301,7.2662669191831242],[-106.92157444120738,7.2531861792988934],[-106.7989060462769,7.2422765449267672],[-106.67644781211675,7.2335374135209349],[-106.5542814978927,7.226968184334396],[-106.43248886367002,7.2225682530225868],[-106.31115166861451,7.2203370179391868],[-106.19035167279139,7.2202738783369682],[-106.07017063536642,7.2223782298715378],[-105.95069031640486,7.2266494717958381],[-105.8319924759719,7.2330870015640016],[-105.71415887323332,7.2416902157310119],[-105.59727126735498,7.2524585135496977],[-105.48141141930148,7.2653912924743054],[-105.3666610873392,7.2804879499590811],[-105.25310203153344,7.2977478834582143],[-105.14081601284863,7.3171704922245908],[-105.02987984867599,7.3387536826364794],[-104.92033751586359,7.362485469429032],[-104.81221959046161,7.3883498248846422],[-104.70555661164821,7.416330711393357],[-104.60037911500405,7.4464120931436923],[-104.49671764060651,7.4785779307270559],[-104.39460272313704,7.5128121874326439],[-104.29406490267303,7.54909882475107],[-104.19513471569445,7.5874218068710206],[-104.09784270048016,7.627765094383733],[-104.00221939351013,7.6701126505785169],[-103.90829533396237,7.7144484378452489],[-103.81610105831709,7.7607564185739761],[-103.72566710395358,7.8090205551546319],[-103.63702401004991,7.8592248099771496],[-103.55020231218685,7.9113531445321428],[-103.46523254954241,7.9653895230082412],[-103.38214525949604,8.0213179059966819],[-103.30097097852774,8.0791222576861514],[-103.22174024581557,8.1387865395672634],[-103.14448359783967,8.2002947131306314],[-103.06923157287866,8.2636307425648283],[-102.99601470831203,8.3287785893605246],[-102.92486354151913,8.3957222150083339],[-102.85580861077864,8.4644455836968859],[-102.78888045347003,8.5349326569167374],[-102.72410960607334,8.6071673979571983],[-102.66152660776663,8.6811337674095626],[-102.60116199592926,8.7568157294624598],[-102.54304630794064,8.8341972447072408],[-102.48721008118019,8.9132622773323646],[-102.43368385302728,8.9939947897278785],[-102.38249816176068,9.076378742485133],[-102.33368354386039,9.1603980997925873],[-102.28727053850446,9.2460368231410257],[-102.24328968307231,9.3332788749202678],[-102.20177151404403,9.4221082184196803],[-102.16274657059768,9.5125088151298769],[-102.12624538831392,9.6044646283400539],[-102.09229850727019,9.6979596195409385],[-102.06093646304726,9.7929777511224643],[-102.03218979392375,9.8895029863738841],[-102.00608903727914,9.9875192867858118],[-101.98266473139216,10.087010615647557],[-101.96194741364212,10.187960934449677],[-101.94396762230781,10.290354206481595],[-101.92875589297,10.394174393233811],[-101.91634276570596,10.499405457995636],[-101.90675877609652,10.606031362257681],[-101.90003446331974,10.714036069309316]]]},"properties":{"objectid":2,"basin":"Pacific","prob2day":"0%","risk2day":"Low","prob7day":"60%","risk7day":"Medium","idp_source":"gtwo_areas_202609162330","idp_filedate":1789601883000,"idp_ingestdate":1789602072000,"st_area(shape)":97.001648053345534,"st_perimeter(shape)":36.186104222975487}},{"type":"Feature","id":3,"geometry":{"type":"Polygon","coordinates":[[[-128.79028090044312,8.7442649366776095],[-128.52927616596219,8.7152820021627804],[-128.26693822431952,8.6850021409362057],[-128.00346590033092,8.6536034970039282],[-127.73905801881244,8.6212642134727844],[-127.47391340727785,8.5881624352483072],[-127.20823088874442,8.554476307235916],[-126.94220928982679,8.5203839725424473],[-126.67604743534076,8.4860635751740006],[-126.4099441510017,8.4516932600360519],[-126.14409826252472,8.417451170235438],[-125.87870859382645,8.3835154515769545],[-125.61397397242081,8.3500642471673814],[-125.35009322132504,8.3172757010129317],[-125.08726516715365,8.2853279571196481],[-124.82568863562193,8.2543991603930635],[-124.56556245154582,8.2246674548392775],[-124.30708543974117,8.1963109835651835],[-124.05045642682256,8.1695078923754636],[-123.79587423670654,8.1444363243770113],[-123.54353769600777,8.121274423575926],[-123.29364562954208,8.1002003348776839],[-123.04639686302471,8.0813922022884412],[-122.80199022127158,8.0650281689149779],[-122.56062452909862,8.0512863805621464],[-122.32249861312039,8.0403449794374069],[-122.08781129815281,8.0323821113454983],[-121.85676140991103,8.0275759202926338],[-121.62954777321107,8.0261045493855931],[-121.40636921376813,8.0281461435298525],[-121.18742455639807,8.0338788467315112],[-120.9729126268162,8.0434808038961023],[-120.76303225073769,8.0571301572310858],[-120.55798225297849,8.0750050525412576],[-120.35796145835451,8.0972836338327738],[-120.16316869437964,8.1241440451117342],[-119.97380278407115,8.1557644294849752],[-119.7900625531442,8.1923229327572926],[-119.61214682821344,8.2339976980354663],[-119.44025443409475,8.2809668693257095],[-119.27458419560406,8.3334085915333844],[-119.11533493845656,8.3915010086647612],[-118.96270548836748,8.4554222638265628],[-118.81689334904871,8.5253488597622322],[-118.67798089660101,8.6013141550243972],[-118.5458476776281,8.6830993184789236],[-118.42035258580307,8.7704598460451848],[-118.30135452019488,8.8631512336426681],[-118.18871237627508,8.9609289798886493],[-118.08228505131399,9.0635485798032391],[-117.9819314416826,9.1707655311045073],[-117.88751044465118,9.2823353306111471],[-117.79888095659078,9.3980134742425889],[-117.71590187567091,9.517555458817526],[-117.63843209646399,9.6407167820539712],[-117.56633051713953,9.7672529398714119],[-117.4994560340686,9.8969194290885412],[-117.43766754452145,10.029471746523996],[-117.38082394486906,10.164665388097319],[-117.32878413148239,10.302255852425787],[-117.28140700253107,10.441998634529511],[-117.23855145348671,10.583649231227184],[-117.20007638161962,10.726963140236876],[-117.16584068330081,10.871695858377279],[-117.13570325580054,11.017602880668562],[-117.10952299548978,11.164439705728],[-117.08715879963881,11.311961828575647],[-117.06846956551794,11.459924746929687],[-117.05331418859885,11.608083958508018],[-117.04155156615178,11.756194957431489],[-117.03304059544701,11.904013243216752],[-117.02764017285563,12.051294310883861],[-117.02520919474847,12.197793657251623],[-117.02560655929517,12.343266779138673],[-117.02869116196746,12.48746917426314],[-117.03432189913622,12.630156337645019],[-117.04235766987046,12.7710837679017],[-117.05265736874247,12.910006960053295],[-117.06507989302253,13.046681411817815],[-117.07948413998099,13.180862620014068],[-117.09572900688806,13.312306080561314],[-117.11367338921542,13.440767291177679],[-117.13317618423343,13.566001746883273],[-117.1540962892123,13.687764946295374],[-117.17629260052303,13.805812385333468],[-117.19962401543586,13.919899560816191],[-117.22395991371894,14.029793314510016],[-117.24934575879962,14.135451049126743],[-117.27597312785747,14.236988288878592],[-117.30403801554189,14.334525344169435],[-117.33373642099895,14.428182525403372],[-117.36526433977735,14.518080142984331],[-117.39881777012391,14.604338506417093],[-117.4345927084866,14.68707792700485],[-117.47278515221291,14.766418714252382],[-117.51359109775086,14.842481179462993],[-117.55720654334721,14.915385632141351],[-117.60382748544998,14.985252382691442],[-117.65364992140667,15.052201742416628],[-117.70686984766525,15.116354020821518],[-117.76368326247251,15.177829528310212],[-117.82428616137713,15.23674857438732],[-117.88887454352528,15.293231471255524],[-117.95764440446561,15.34739852841949],[-118.03079174154556,15.399370055383883],[-118.10851255211247,15.449266364351388],[-118.19100283261452,15.497207763027973],[-118.27845858219774,15.543314564515697],[-118.37107579551144,15.58770707741985],[-118.46905047080247,15.630505612144418],[-118.57257860541819,15.671830479093501],[-118.68185619580669,15.71180198957029],[-118.79707923931534,15.750540453079566],[-118.91844373329155,15.788166180025314],[-119.04614567508276,15.824799480811521],[-119.18038106113698,15.860560665842172],[-119.32134588790234,15.89557004552131],[-119.46923615452482,15.929947930252922],[-119.62424785655327,15.963814629541673],[-119.78657699133498,15.997290455590189],[-119.95641955621744,16.030495716104554],[-120.13397154854806,16.063550723287392],[-120.31942896477483,16.09657578754269],[-120.51298780314448,16.129691218375172],[-120.71484405920586,16.163017326188765],[-120.92519373120564,16.19667442138757],[-121.14423281559186,16.230782815274836],[-121.37215730971201,16.265462817355285],[-121.60916321091338,16.300834737133528],[-121.85538116370964,16.33699992640561],[-122.11053850264966,16.373942727974679],[-122.37420886274873,16.411602893558836],[-122.64596557864843,16.449920088541376],[-122.92538198049391,16.488833977406273],[-123.21203140382613,16.528284223738069],[-123.50548717968951,16.568210492920059],[-123.80532264182636,16.608552449436104],[-124.11111112218043,16.649249756870915],[-124.42242595449409,16.690242080607675],[-124.73884047071107,16.7314690851303],[-125.05992800457364,16.772870434922766],[-125.38526188892496,16.81438579446899],[-125.7144154557086,16.855954828252834],[-126.04696203866706,16.89751720075833],[-126.38247497064327,16.939012575570018],[-126.72052758358103,16.980380618970514],[-127.06069321032328,17.021560994544416],[-127.40254518461251,17.062493366775584],[-127.7456568392916,17.103117401047371],[-128.0896015063044,17.143372760044997],[-128.43395251939319,17.183199110051021],[-128.77828321050168,17.222536114650097],[-129.12216691337227,17.261323439225464],[-129.465176960848,17.299500747361719],[-129.8068866848725,17.337007703542838],[-130.14686941918825,17.373783973152001],[-130.48469849573888,17.409769219773807],[-130.81994724826683,17.44490310879155],[-131.15218900871571,17.479125303789885],[-131.4809971108279,17.512375470151937],[-131.80594488654719,17.544593272361794],[-132.12660566961586,17.575718374003884],[-132.44255279197768,17.605690440461615],[-132.75335958737497,17.634449136218791],[-133.05859938865075,17.661934125759444],[-133.35784552774879,17.688085072668116],[-133.65067133751211,17.712841643227421],[-133.93665015168307,17.73614350012258],[-134.21535530310467,17.757930308736888],[-134.48636012372066,17.778141734453641],[-134.74923794637402,17.796717439958002],[-135.00356238989229,17.813597093331339],[-135.2490516157394,17.828721636994089],[-135.48580307804951,17.842035360643536],[-135.71397569152487,17.853483095368688],[-135.93372836906889,17.863009673158047],[-136.14522002538376,17.870559925999942],[-136.34860957427236,17.876078684084121],[-136.54405592953742,17.879510781197723],[-136.73171800588119,17.88080104753044],[-136.9117547162071,17.879894315070715],[-137.08432497521733,17.876735415806934],[-137.24958769581542,17.871269181727484],[-137.40770179360283,17.86344044392149],[-137.55882618148303,17.853194033478019],[-137.70311977415815,17.840474783284776],[-137.8407414845318,17.825227524430829],[-137.97185022820537,17.807397088904679],[-138.09660491718307,17.786928308694655],[-138.21516446706642,17.763766013990505],[-138.32768779075883,17.737855038579312],[-138.43433380296256,17.709140211751503],[-138.53526141748034,17.677566367294162],[-138.63062954811505,17.643078335396979],[-138.72059710956887,17.605620948947774],[-138.80532301474523,17.565139039035557],[-138.88496617744704,17.521577437648773],[-138.95968551327576,17.474880975876488],[-139.02963993513481,17.424994485707089],[-139.0949883559278,17.371862798229699],[-139.15588969215548,17.315430746332027],[-139.21250285582204,17.255643161103137],[-139.26498676162964,17.192444874531475],[-139.31350032338111,17.125780717706107],[-139.35820245487929,17.05559552261542],[-139.39925207082632,16.981834120348537],[-139.43680808502501,16.90444134379311],[-139.47102941037889,16.823362024038317],[-139.50207496248942,16.738540992173171],[-139.53010365426013,16.64992308108549],[-139.55527439949384,16.557453120964908],[-139.57774611289273,16.461075944699246],[-139.59767770825954,16.360736383377514],[-139.6152280993972,16.256379269887532],[-139.63055335195554,16.147952853641414],[-139.64371543641818,16.035518363182064],[-139.65466292055726,15.919273179913489],[-139.66333762363234,15.799422790829283],[-139.66968136400368,15.676172682923095],[-139.67363595823281,15.549728344987273],[-139.67514322467997,15.420295262216712],[-139.67414498170547,15.288078924303079],[-139.6705830467701,15.153284816441271],[-139.66439923823418,15.016118427423635],[-139.65553537445788,14.876785243344443],[-139.64393327290213,14.735490752096666],[-139.62953475102785,14.592440441573274],[-139.61228162809459,14.447839798767859],[-139.59211572066391,14.301894309774696],[-139.56897884709605,14.154809463386187],[-139.54281282575124,14.006790746595811],[-139.51355947498968,13.858043646397277],[-139.48116061137301,13.708773649784234],[-139.44555805416076,13.559186245548915],[-139.40669362081388,13.40948691888633],[-139.36450912879315,13.259881158588712],[-139.31894639645895,13.110574451649768],[-139.26994724217138,12.961772285063034],[-139.21745348429079,12.813680146721538],[-139.16140693937865,12.666503523618871],[-139.10174942579528,12.520447902748629],[-139.03842276190085,12.375718772003836],[-138.9713687660556,12.232521618378144],[-138.90052925482115,12.091061929764408],[-138.82584604745705,11.951545192256958],[-138.74726096232348,11.814176893748765],[-138.66471581508273,11.679162521233479],[-138.578152426793,11.546707563503389],[-138.48751261221719,11.417017505753449],[-138.39273819151424,11.290297836775892],[-138.29377098214502,11.166754043564424],[-138.19055280246977,11.046591614011902],[-138.08302546905009,10.93001603331345],[-137.97113080114548,10.817232791160507],[-137.85481061531755,10.708447373647516],[-137.73400673172517,10.603865268667334],[-137.6086609660307,10.503691962314349],[-137.4787230587221,10.408111720279805],[-137.34422055333579,10.317100306733892],[-137.20522516091233,10.230515144958133],[-137.06180909701214,10.148212301156889],[-136.91404457629608,10.070047839736162],[-136.76200381702245,9.9958778269003119],[-136.6057590329529,9.9255583270552847],[-136.44538244144644,9.8589454064054962],[-136.2809462580633,9.795895129356893],[-136.11252269836376,9.7362635612145141],[-135.94018397880751,9.6799067681829456],[-135.7640023158541,9.6266808146680205],[-135.58404992506388,9.5764417659748347],[-135.40039902109788,9.5290456874087113],[-135.21312182221425,9.4843486451739523],[-135.02229054307401,9.4422067036765611],[-134.82797739923751,9.402475927322314],[-134.63025460716432,9.3650123832150598],[-134.42919438421336,9.3296721357605747],[-134.22486894414635,9.2963112502641252],[-134.0173505034229,9.2647857929301267],[-133.80671127940195,9.2349518272651494],[-133.59302348674441,9.2066654194736657],[-133.37635934191002,9.1797826339615085],[-133.156791060459,9.1541595378325269],[-132.93439085885097,9.1296521954925538],[-132.70923095354556,9.1061166713474222],[-132.48138355920378,9.0834090325009811],[-132.25092089228525,9.0613853424597437],[-132.01791516924959,9.0399016674281256],[-131.78243860565703,9.0188140718120735],[-131.54456341796725,8.9979786218160598],[-131.30436182084128,8.9772513827452372],[-131.06190603163793,8.9564884199048151],[-130.81726826591768,8.935545797700513],[-130.57052074013995,8.9142795823369738],[-130.32173566896586,8.8925458382199736],[-130.07098526975432,8.8702006315540416],[-129.81834175716625,8.847100026744954],[-129.56387734766139,8.8231000890979772],[-129.30766425859855,8.7980568857168464],[-129.0497747037395,8.7718264792088121],[-128.79028090044312,8.7442649366776095]]]},"properties":{"objectid":3,"basin":"Pacific","prob2day":"0%","risk2day":"Low","prob7day":"50%","risk7day":"Medium","idp_source":"gtwo_areas_202609162330","idp_filedate":1789601883000,"idp_ingestdate":1789602072000,"st_area(shape)":177.84771741817084,"st_perimeter(shape)":55.958564845380266}}]}