{"type":"FeatureCollection","features":[{"type":"Feature","id":1,"geometry":{"type":"Polygon","coordinates":[[[-130.14005543501025,13.216396048139245],[-130.04629799555596,13.2348938786497],[-129.95233374530602,13.254199463134853],[-129.85821951871571,13.274340631115365],[-129.76401215293839,13.29534521391065],[-129.66976848332877,13.317241040142051],[-129.5755453461407,13.340055939330284],[-129.48139957672902,13.363817742794708],[-129.38738801134758,13.388554279156779],[-129.29356748445173,13.414293378836476],[-129.19999483319492,13.441062871354575],[-129.10672689383097,13.468890587131057],[-129.01382050081537,13.497804355686583],[-128.92133249040199,13.527832006541985],[-128.82931969794561,13.559001370117301],[-128.73783896059945,13.591340276832454],[-128.64694711281891,13.624876555308902],[-128.55670099175728,13.659638035966736],[-128.46715743186991,13.695652548326564],[-128.37837326941076,13.732947922808535],[-128.29040534063387,13.771551989832631],[-128.20331047999457,13.811492577120873],[-128.11714552554548,13.852797516892053],[-128.03196731084262,13.895494638666776],[-127.94783267393865,13.939611770167176],[-127.86479844569163,13.985176731920774],[-127.78291590994121,14.032190562644473],[-127.70221902508786,14.080570750439904],[-127.62273838336961,14.130218529961326],[-127.54450457522586,14.181035136762318],[-127.46754819019674,14.232921805497085],[-127.3918998196209,14.285779770819886],[-127.31759005483707,14.339510270083053],[-127.24464948538537,14.394014536142095],[-127.17310870260445,14.449193804550589],[-127.10299829693378,14.504949311761493],[-127.034348859712,14.56118229242901],[-126.9671909804793,14.617793981207399],[-126.90155525147361,14.674685613650297],[-126.83747226133568,14.731758424411908],[-126.77497260230365,14.78891364904581],[-126.71408686481686,14.846052523105584],[-126.65484563931471,14.903076281245546],[-126.59727951713592,14.959886159019163],[-126.54141908782054,15.016383391980071],[-126.48729494180805,15.072469213883267],[-126.43493767223572,15.128044861181536],[-126.384377866845,15.183011568529196],[-126.33564611787392,15.237270570580506],[-126.28877301666131,15.290723103788366],[-126.24378912576742,15.343270590765314],[-126.20071613054489,15.394878145909843],[-126.1595539473567,15.445667017618916],[-126.12029921543638,15.495781937386653],[-126.08294857671535,15.545367637606546],[-126.04749867222586,15.594568849772713],[-126.013946143,15.643530306278763],[-125.98228763007,15.692396739518074],[-125.95251977536725,15.741312881884141],[-125.92463921902464,15.790423464871139],[-125.89864260117503,15.839873221771882],[-125.87452656554848,15.889806883181279],[-125.85228775047921,15.940369182391976],[-125.83192279879802,15.991704851797635],[-125.81342835153708,16.043958622892262],[-125.79680104792993,16.097275228069464],[-125.78203753170664,16.151799398823357],[-125.76913444210072,16.207675868446699],[-125.75808842014436,16.265049368433722],[-125.74889610776904,16.324064631177919],[-125.74155414600693,16.384866389072727],[-125.73605917589015,16.44759937361232],[-125.73240783755159,16.51240831808957],[-125.73059677292264,16.579437953099216],[-125.73062262303552,16.648833011934073],[-125.73248207029121,16.720737253021923],[-125.73617680451582,16.795176670367198],[-125.74171823630746,16.871948540592825],[-125.74911889771886,16.950823861232323],[-125.75839131720545,17.03157363071864],[-125.76954802592059,17.113968847484443],[-125.7826015523197,17.197780509063364],[-125.79756442755621,17.282779613888238],[-125.81444918188413,17.368737159492468],[-125.83326834375896,17.455424145208269],[-125.85403444343473,17.542611568569157],[-125.87676001116552,17.630070428007969],[-125.90145757720535,17.717571720158901],[-125.92813967090899,17.804886445253373],[-125.95681882253052,17.89178559992564],[-125.98750756232403,17.978040183507801],[-126.02021841874495,18.063421193533372],[-126.05496392294657,18.147699627535928],[-126.09175660518309,18.230646484847512],[-126.13060899390985,18.312032763001753],[-126.17153362028029,18.391629459532055],[-126.21454301364906,18.469207573770632],[-126.259649703371,18.54453810235168],[-126.30686622059949,18.61739204550662],[-126.3562050946893,18.687540399869704],[-126.40767841612592,18.754755828518796],[-126.46127190007803,18.818910926298372],[-126.51693037943335,18.880033172892752],[-126.57459517342841,18.938163376838531],[-126.63420759770236,18.993342343074801],[-126.69570897059242,19.045610878339517],[-126.75904060953638,19.095009788471089],[-126.82414383107283,19.141579880207473],[-126.89095995263961,19.18536195938708],[-126.95943029167455,19.226396833647073],[-127.02949616471614,19.264725307027447],[-127.1010988910009,19.300388187165254],[-127.17417978616811,19.333426280798335],[-127.24868016765555,19.363880392865951],[-127.32454135290101,19.391791330105946],[-127.40170466024176,19.417199900155424],[-127.48011140531702,19.44014690705427],[-127.55970290646388,19.460673158439647],[-127.64042048022088,19.478819460150078],[-127.72220544492524,19.494626618024142],[-127.80499911711547,19.508135439698947],[-127.88874281422937,19.519386730113638],[-127.97337785280558,19.528421296006172],[-128.05884555208047,19.535279944114279],[-128.1450872276933,19.540003479377219],[-128.2320445091467,19.542632972933518],[-128.31967001835659,19.543218796710221],[-128.40793004693404,19.541822889714751],[-128.49679174174537,19.538507913109868],[-128.586222249657,19.533336528957761],[-128.67618871483722,19.526371399320738],[-128.76665828595105,19.517675186260988],[-128.85759810716684,19.507310551840646],[-128.94897532625021,19.495340157222643],[-129.04075708826889,19.481826663569791],[-129.13291054098858,19.466832734743036],[-129.22540282947693,19.450421031005931],[-129.3182010997009,19.432654214420609],[-129.41127249942622,19.413594947948638],[-129.50458417372056,19.393305891853572],[-129.59810326945023,19.371849709096921],[-129.69179693168297,19.349289061740933],[-129.7856323081844,19.325686610049161],[-129.87957654492152,19.301105017882435],[-129.97359678696205,19.275606945504251],[-130.06766018207168,19.24925505587629],[-130.16173387621734,19.222112010161254],[-130.25578501536609,19.194240469522185],[-130.34978074458559,19.165703097819858],[-130.44368821254091,19.136562555317823],[-130.53747461196366,19.106879284551496],[-130.6311082480471,19.076662662751801],[-130.72455853664707,19.045871000946079],[-130.81779494128341,19.014460392433307],[-130.91078692457683,18.982386929613256],[-131.00350395094648,18.949606704885639],[-131.09591548301302,18.916075809750964],[-131.18799098519571,18.881750338407528],[-131.27969992101447,18.846586380557142],[-131.37101175308982,18.810540030398215],[-131.46189594584115,18.773567379431142],[-131.55232196278826,18.735624520055694],[-131.64225926655183,18.696667545570904],[-131.73167732155105,18.656652546577902],[-131.82054559130592,18.615535616375723],[-131.90883353843697,18.573272847364137],[-131.99651062646416,18.529820331942915],[-132.08354632070603,18.485134161612393],[-132.16991008288392,18.439170429671719],[-132.25557137741703,18.391885227621287],[-132.34049966692601,18.343234647860868],[-132.42466441583002,18.293174783689437],[-132.50803508764909,18.241661725708241],[-132.59058114500374,18.188651568115517],[-132.67227205231325,18.134100402411775],[-132.75307670832336,18.077969288851762],[-132.83295499068021,18.020298772470539],[-132.91185951680319,17.961193322114241],[-132.98974270086484,17.900759219662405],[-133.06655695703785,17.839102743397007],[-133.14225469859537,17.776330176096906],[-133.21678833881072,17.712547796943397],[-133.29011029185642,17.647861886916701],[-133.36217297100569,17.582378726097488],[-133.4329287895319,17.516204594566545],[-133.50233016250689,17.449445773303921],[-133.5703295014053,17.382208542390458],[-133.63687922129895,17.314599182806205],[-133.70193173546113,17.246723974631891],[-133.76543945806446,17.178689197948245],[-133.82735480148284,17.110601134634805],[-133.88763017988879,17.042566062973549],[-133.946218007455,16.974690264844014],[-134.00307069655531,16.907080021226136],[-134.05814066226168,16.839841611301438],[-134.11138031694799,16.773081315150705],[-134.16274207478682,16.706905414653306],[-134.21217834995082,16.641420189889971],[-134.25964155481381,16.576731920042221],[-134.30508410354844,16.512946887888688],[-134.34846119013173,16.450162226505711],[-134.38976032657774,16.388368770002899],[-134.42898987388349,16.327488764794793],[-134.46615854288234,16.267443315156981],[-134.50127504350837,16.208153527163688],[-134.53434808479619,16.149540504191066],[-134.56538637578052,16.091525352313283],[-134.59439862819403,16.034029174906664],[-134.62139355017212,15.976973078045262],[-134.64637985164876,15.920278165105401],[-134.66936624345726,15.863865542161193],[-134.69036143373307,15.807656313488224],[-134.7093741333095,15.751571583362022],[-134.72641305212056,15.695532456957437],[-134.74148689920094,15.639460038550055],[-134.75460438448465,15.583275433314725],[-134.76577421700642,15.526899746426295],[-134.77500510759955,15.470254081260975],[-134.78230576619808,15.413259543892991],[-134.78768490183666,15.355837238597815],[-134.79115122355006,15.297908270550408],[-134.79271344217153,15.239393743126868],[-134.79238026763517,15.180214762401476],[-134.79016040897562,15.120292432649762],[-134.78606257612688,15.059547858147255],[-134.7800950167715,14.997916740964968],[-134.77226195772306,14.935461825902678],[-134.76256555465653,14.872311270848627],[-134.75100794615969,14.808593776881423],[-134.73759127171974,14.744438043281207],[-134.72231766902513,14.679972768428684],[-134.70518927756302,14.615326653402462],[-134.68620823682056,14.550628396583363],[-134.66537668448632,14.486006698150732],[-134.64269676094665,14.421590257384594],[-134.61817060299086,14.357507774464352],[-134.5918003510053,14.293887947770713],[-134.56358814267855,14.230859477483023],[-134.53353611839708,14.168551063780683],[-134.50164641495002,14.107091405943777],[-134.46792117272383,14.046609202352954],[-134.43236253030642,13.987233154086937],[-134.39497262628561,13.929091960425751],[-134.35575359924911,13.872314319750217],[-134.3147075886842,13.817028933138886],[-134.27183673317859,13.763364498972578],[-134.22714317132022,13.711449718329959],[-134.18062904169682,13.661413288692472],[-134.13229648289627,13.613383911138726],[-134.08214763530503,13.567490284948803],[-134.03018890389473,13.523843624783581],[-133.97645506814678,13.482438906130767],[-133.92099248001887,13.443223687723162],[-133.86384752654203,13.406145387100082],[-133.80506659384815,13.371151421800789],[-133.744696068069,13.338189209364657],[-133.68278233713505,13.307206167330889],[-133.61937178717812,13.278149713238804],[-133.55451080433005,13.250967265527038],[-133.48824577562198,13.225606241734795],[-133.42062308808494,13.20201405850213],[-133.35168912785088,13.180138135166942],[-133.28149028105156,13.159925888369173],[-133.2100729356174,13.141324736547517],[-133.13748347678091,13.124282096341801],[-133.06376829247262,13.108745386190776],[-132.98897376792496,13.094662023633646],[-132.91314629106841,13.08197942710899],[-132.83633224803475,13.070645012357545],[-132.75857802585512,13.060606199616529],[-132.67993001066139,13.051810404626622],[-132.6004345885853,13.044205044927025],[-132.52013814665804,13.037737539855698],[-132.43908707281008,13.032355306952013],[-132.35732775137456,13.028005761956479],[-132.27490264833847,13.024642066378419],[-132.19183405519738,13.022246896577144],[-132.10813780181803,13.020812389780076],[-132.023829715369,13.020330688610557],[-131.93892562301897,13.02079393389306],[-131.8534413501381,13.022194268251042],[-131.76739272479432,13.024523833408296],[-131.68079557235768,13.027774771088957],[-131.59366571999686,13.031939222117558],[-131.50601899488061,13.037009330016701],[-131.41787122237889,13.042977234711771],[-131.32923823055978,13.049835078825993],[-131.24013584479331,13.057575004083333],[-131.15057989224812,13.066189153107075],[-131.06058620009298,13.075669665822545],[-130.97017059459716,13.086008685752404],[-130.87934890203013,13.097198353721183],[-130.78813694956051,13.109230811452903],[-130.69655056345766,13.122098201570907],[-130.60460556999095,13.135792664899725],[-130.51231779722849,13.150306344062642],[-130.41970307054021,13.165631379884417],[-130.32677721619547,13.18175991498822],[-130.2335560631617,13.198684090198753],[-130.14005543501025,13.216396048139245]]]},"properties":{"objectid":1,"basin":"Pacific","prob2day":"90%","risk2day":"High","prob7day":"90%","risk7day":"High","idp_source":"gtwo_areas_202609291126","idp_filedate":1790681867000,"idp_ingestdate":1790681877000,"st_area(shape)":44.061371101305049,"st_perimeter(shape)":24.629325900376639}}]}