{"type":"FeatureCollection","features":[{"type":"Feature","id":1,"geometry":{"type":"Polygon","coordinates":[[[-58.558267675113029,29.37949543646539],[-58.594961592903076,29.422970252375364],[-58.634164265768163,29.4646124001423],[-58.675773126928163,29.504445194690106],[-58.719685612301078,29.542491954540196],[-58.765799156006153,29.578775995515912],[-58.814011191263376,29.613320634339971],[-58.864219153091312,29.646149187734977],[-58.916320474710005,29.677284972423706],[-58.970212591138079,29.706751305128762],[-59.025792936494724,29.734571501673599],[-59.082958944899246,29.760768880579519],[-59.141608051370383,29.785366756770543],[-59.201637688228629,29.808388446969388],[-59.262945291391986,29.829857268798037],[-59.325428294979702,29.849796538979206],[-59.388984132211817,29.868229573336293],[-59.453510238106901,29.885179688591904],[-59.518904046784201,29.900670201468756],[-59.585062991463758,29.914724429588887],[-59.651884508063461,29.927365688775637],[-59.719266029803293,29.938617295751726],[-59.787104990802561,29.948502566340494],[-59.855298826079832,29.957044819063299],[-59.92374496885509,29.964267368844162],[-59.99234085414696,29.970193533305064],[-60.060983915175427,29.974846629168724],[-60.129571587858379,29.978249973157858],[-60.198001304516481,29.980426881095809],[-60.266170500168357,29.981400669705295],[-60.333976609832575,29.981194656608238],[-60.401317066729121,29.979832157628096],[-60.468089304977354,29.977336489487527],[-60.534190759595788,29.973730969808571],[-60.599518863804406,29.969038914414512],[-60.663971053521209,29.963283639128804],[-60.727444761066749,29.956488462472691],[-60.789837421459708,29.94867669937031],[-60.851050468104518,29.939869836423952],[-60.911039637269312,29.930064486786762],[-60.969799797422581,29.919239341922207],[-61.027326681281181,29.907372698491372],[-61.083616020662703,29.894442850457324],[-61.13866355008264,29.880428095380466],[-61.192465001358585,29.86530672722381],[-61.245016108106768,29.849057041749234],[-61.2963126030441,29.831657335617706],[-61.346350217988061,29.813085903691672],[-61.395124686554936,29.793321041732838],[-61.442631741461582,29.772341045502969],[-61.488867116324229,29.750124209864509],[-61.533826542061149,29.726648831478542],[-61.577505754087156,29.701893205207398],[-61.619900483320521,29.675835626812898],[-61.661006463377475,29.648454392056692],[-61.700819426974874,29.619727796700602],[-61.739335106829628,29.589634135607014],[-61.776549236557912,29.558151704537693],[-61.812457547977317,29.525258800153665],[-61.847055773804811,29.490933717317318],[-61.880339648555832,29.455154750891211],[-61.912304903148652,29.417900197536255],[-61.9429472711995,29.379148353014216],[-61.972262486324553,29.338877511288274],[-62.000246279442138,29.297065969918719],[-62.026894385967012,29.253692023768053],[-62.052202536817504,29.208733968597926],[-62.076166465609788,29.162170099270782],[-62.098781905060775,29.113978711548441],[-62.120044586988001,29.064138102091874],[-62.139950246806336,29.012626565763526],[-62.158494614534732,28.95942239832516],[-62.175673424688682,28.904503894639163],[-62.191482409985099,28.8478493504673],[-62.205917303140893,28.789437063369917],[-62.218973836872976,28.729245590811502],[-62.23064777717309,28.667285486336255],[-62.240934952086263,28.603629437648578],[-62.249831197751462,28.538357271271195],[-62.257332349408273,28.471548811928244],[-62.263434243195661,28.4032838879412],[-62.268132714353158,28.333642323134825],[-62.271423598120464,28.262703945830594],[-62.273302731535694,28.190548580752534],[-62.273765948939285,28.117256054423535],[-62.272809086470033,28.042906193366264],[-62.270427980266959,27.967578823204292],[-62.266618466468913,27.891353770460285],[-62.261376378516957,27.814310862556397],[-62.254697554348525,27.736529923317448],[-62.246577828303998,27.658090780165537],[-62.237013036522285,27.579073259623385],[-62.225999015142349,27.499557187314508],[-62.213531599403666,27.419622389761628],[-62.199606624545993,27.33934869258826],[-62.184219926708124,27.258815923216446],[-62.167367342029081,27.178103906370325],[-62.149044704849132,27.097292468572732],[-62.129247852206504,27.016461436346333],[-62.107972619340785,26.935690636214019],[-62.08521484149162,26.855059893799194],[-62.060970354797917,26.774649035624634],[-62.035234995398582,26.6945378873138],[-62.008004597633942,26.614806276288789],[-61.979274997642904,26.535534027273684],[-61.949042032463694,26.45680096679132],[-61.91730153553732,26.378686921364476],[-61.884049344801326,26.301271717515874],[-61.849281293696606,26.224635180869029],[-61.812993220160877,26.14885713794672],[-61.775180957634973,26.074017415271612],[-61.735840344056498,26.000195837568015],[-61.694967212866459,25.927472233157175],[-61.652563416668215,25.855917507287302],[-61.608665937382966,25.785550485466672],[-61.563324472446311,25.716371139816374],[-61.516588735481662,25.648379417276431],[-61.468508442810275,25.581575263887487],[-61.419133308055621,25.515958625690189],[-61.368513047539011,25.451529450523878],[-61.316697373984482,25.388287684429258],[-61.263736003713461,25.326233273446974],[-61.209678651248623,25.265366164517047],[-61.154575032012019,25.205686303680125],[-61.098474859626947,25.147193637876228],[-61.041427849515514,25.08988811314606],[-60.983483717099773,25.033769676429586],[-60.92469217600302,24.978838274666771],[-60.865102942546628,24.925093852999055],[-60.804765730354063,24.872536359265723],[-60.743730254847264,24.821165740406741],[-60.682046230548963,24.770981940664171],[-60.619763372881266,24.721984908776676],[-60.556931395467416,24.674174589885581],[-60.493600014628839,24.627550930930852],[-60.429818944888268,24.582113878852567],[-60.365637899869057,24.537863378792053],[-60.301106595892577,24.494799379487915],[-60.236274746582183,24.452921826081536],[-60.171192068259245,24.412230664613617],[-60.105908273647799,24.372725842923444],[-60.040473079968535,24.3344073061524],[-59.974936200844866,24.29727500213977],[-59.909347350799464,24.261328876026937],[-59.843756245254383,24.226568874753923],[-59.778212598732352,24.192994946159956],[-59.712766125755991,24.160607035386533],[-59.647466542646725,24.129405088474186],[-59.582363562128592,24.099389053262314],[-59.517506901422223,24.070558875791619],[-59.452945319970411,24.04291422691017],[-59.388705655341596,24.016448433648463],[-59.324792819632819,23.991148480118397],[-59.261210771659648,23.96700107523958],[-59.197963470237823,23.94399292703207],[-59.13505487238433,23.922110743516157],[-59.072488939612754,23.901341233611163],[-59.01026962804076,23.881671105337375],[-58.948400897383408,23.863087066714911],[-58.88688670645621,23.845575827562527],[-58.825731014074904,23.829124094101815],[-58.764937778155797,23.81371857615153],[-58.704510958413891,23.79934598173179],[-58.644454512765435,23.785993019762202],[-58.584772400026111,23.773646397363507],[-58.525468578112282,23.762292823455198],[-58.466547007638155,23.751919006956768],[-58.408011645620832,23.742511654989016],[-58.349866451775199,23.734057477370811],[-58.29211538401762,23.726543181222951],[-58.234762401163778,23.719955476364305],[-58.17781146202924,23.714281069016238],[-58.121266525429689,23.709506669897053],[-58.065131549281432,23.705618985228114],[-58.009410493299526,23.702604724828348],[-57.954107316299485,23.700450595818495],[-57.899225976197727,23.699143308017369],[-57.844770431809877,23.698669568545881],[-57.790744641951562,23.699016086323468],[-57.737152564539088,23.700169570269566],[-57.683998159287512,23.702116727505086],[-57.631285385012404,23.704844266949522],[-57.57901819963007,23.708338897522253],[-57.527200561956249,23.712587326344192],[-57.475836431705829,23.717576263234093],[-57.424929765895854,23.723292415312869],[-57.374484524241268,23.729722491499899],[-57.324504686242165,23.736853208808668],[-57.275009762690274,23.744678052550228],[-57.226062171931574,23.753209202243056],[-57.177731678873783,23.762462037193416],[-57.130088049323888,23.772451939405641],[-57.083201047290402,23.783194288185996],[-57.037140439479572,23.794704464639494],[-56.991975989899913,23.806997849871038],[-56.947777464358353,23.820089823186947],[-56.904614628662046,23.833995766591499],[-56.862557247718712,23.848731060290334],[-56.82167508643596,23.864311084489088],[-56.782037910620943,23.880751220292723],[-56.743715486080703,23.898066847906819],[-56.706777576823583,23.916273347537128],[-56.671293948656682,23.93538610118776],[-56.637334367387041,23.955420488165146],[-56.604968597922323,23.976391888674868],[-56.574266406069682,23.998315684721206],[-56.545297555837408,24.021207256509797],[-56.518131813032653,24.045081984246337],[-56.492838943462345,24.069955248136353],[-56.469488712933639,24.095842430184121],[-56.448150885454879,24.122758908796754],[-56.428895226833163,24.150720066877739],[-56.411791501976097,24.179741283733392],[-56.396909476690894,24.209837940468731],[-56.38431891678448,24.241025417289336],[-56.374089586265256,24.273319095300167],[-56.366291251839698,24.306734354706862],[-56.360993677516092,24.34128657571506],[-56.358266629101536,24.376991140328983],[-56.35817987240307,24.413863426955743],[-56.360803171429097,24.451918818498825],[-56.366206292885977,24.491172693365229],[-56.374459001681487,24.531640434458609],[-56.385631062723235,24.573337420185908],[-56.399792240919055,24.616279032551461],[-56.416997214150001,24.660477775728907],[-56.437169333198028,24.705921119464222],[-56.46016433151857,24.752583646218454],[-56.485837382289219,24.80043982873525],[-56.514043659587117,24.849464141557007],[-56.544638338388495,24.899631060125444],[-56.577476592770438,24.950915057184261],[-56.612413595910596,25.003290608175178],[-56.649304521886052,25.056732187640478],[-56.688004544773833,25.111214269223296],[-56.728368839550171,25.166711326566599],[-56.770252578493569,25.22319783511216],[-56.813510937479691,25.280648269402263],[-56.857999089686132,25.339037103079988],[-56.903572208290655,25.398338809788356],[-56.950085469168926,25.458527865868462],[-56.997394045498709,25.519578744063949],[-57.04535311045754,25.581465918017841],[-57.093817839021938,25.644163864071231],[-57.142643405268814,25.707647055867085],[-57.191684983275252,25.771889966149161],[-57.240797747118222,25.836867071258496],[-57.289836869975431,25.902552844838056],[-57.338657525923963,25.968921761430295],[-57.387114889940108,26.035948294678178],[-57.435064136100891,26.103606919124161],[-57.48236043758402,26.171872108411208],[-57.528858968466523,26.240718338880356],[-57.574414903724687,26.310120083275365],[-57.618883416536335,26.380051816138518],[-57.662119680978378,26.450488012012272],[-57.703978872027221,26.521403145438967],[-57.744316161961194,26.592771690061568],[-57.78298672665602,26.664568120422587],[-57.819845739289349,26.736766911064251],[-57.854748373938207,26.809342536528959],[-57.887549803780303,26.882269470459846],[-57.918107640954759,26.955521902314103],[-57.946389856106862,27.02906111447902],[-57.972517552842703,27.102830476645352],[-57.996623116763317,27.176772041896356],[-58.018838931671269,27.250827861516711],[-58.039297382268273,27.324939986791094],[-58.058130853256159,27.399050470802706],[-58.075471728437378,27.473101363936962],[-58.091452392513816,27.547034718377688],[-58.106205229287809,27.620792586308937],[-58.119862624360508,27.694317019015386],[-58.132556961534419,27.767550067781542],[-58.144420624611996,27.840433785690777],[-58.155585999194386,27.912910224027769],[-58.166185468184722,27.98492143407708],[-58.176351417184037,28.05640946892197],[-58.186216229994898,28.127316378048533],[-58.195912291319075,28.197584215439349],[-58.205571985858342,28.26715503147966],[-58.215327697415205,28.335970878353521],[-58.22531181069138,28.403973808244814],[-58.235656710388753,28.471105872438216],[-58.246494780309774,28.537309123117666],[-58.25795840425684,28.602525611567842],[-58.270179968730474,28.66669738997274],[-58.283291855734433,28.729766509616866],[-58.29742645176924,28.791675023583593],[-58.312716139737972,28.85236498135896],[-58.32929330524172,28.911778436925488],[-58.347290331183729,28.969857440668477],[-58.366839603165033,29.026544044771981],[-58.388073504988142,29.08178030141994],[-58.411124421354828,29.135508261896916],[-58.436124736966917,29.187669978386964],[-58.463206835626863,29.238207502174646],[-58.492503102036437,29.287062885443959],[-58.524145919998091,29.334178179479522],[-58.558267675113029,29.37949543646539]]]},"properties":{"objectid":1,"basin":"Atlantic","prob2day":"10%","risk2day":"Low","prob7day":"10%","risk7day":"Low","idp_source":"gtwo_areas_202610011751","idp_filedate":1790877168000,"idp_ingestdate":1790877194000,"st_area(shape)":24.074715217925121,"st_perimeter(shape)":19.310071606231094}},{"type":"Feature","id":2,"geometry":{"type":"Polygon","coordinates":[[[-92.82653408927672,13.46158763526131],[-92.835250960663188,13.530801065217133],[-92.845404007089144,13.599532486435237],[-92.857088643026373,13.667731756315618],[-92.870400284745244,13.735348730459691],[-92.885434346717602,13.80233326626734],[-92.90228624431461,13.868635219340035],[-92.921051392907373,13.934204447077718],[-92.941825207866941,13.998990804182426],[-92.964703103665215,14.062944148953477],[-92.989780495673244,14.126014336992171],[-93.017152799262192,14.188151225698618],[-93.046915428903844,14.249304669774801],[-93.079163800868628,14.309424526620774],[-93.113993329628329,14.368460652737099],[-93.151499430554168,14.426362904624511],[-93.191777518117874,14.483081138783689],[-93.234923008589874,14.538565211715309],[-93.281031316442011,14.592764979920048],[-93.330197857045391,14.645630298999265],[-93.382518044871745,14.6971110263529],[-93.438087296191668,14.747157017582424],[-93.497001025476834,14.795718130087778],[-93.559354647199086,14.842744220369639],[-93.625243578528227,14.888185144029308],[-93.694763233036667,14.931990757567519],[-93.768009026095569,14.974110918384326],[-93.84507637307604,15.014495481181655],[-93.926060688449923,15.053094305158197],[-94.011057388487586,15.089857244116672],[-94.100161887660875,15.124734156356396],[-94.19346960224027,15.157674896579351],[-94.291075945798184,15.188629323084911],[-94.393076333705721,15.217547290575112],[-94.499543751342969,15.244394481819995],[-94.610373051774843,15.269262254449643],[-94.725374139005226,15.292301897814468],[-94.844356395431191,15.313665071785749],[-94.967129203449872,15.333503433536748],[-95.093501945458343,15.351968642938687],[-95.223284002954244,15.369212358064033],[-95.356284759234143,15.385386238784008],[-95.492313595795736,15.400641943171252],[-95.631179895935361,15.415131130197665],[-95.772693039352191,15.429005458834979],[-95.91666241114126,15.44241658715589],[-96.062897391901004,15.455516175031619],[-96.211207364028553,15.468455881433897],[-96.36140170992087,15.481387363536157],[-96.513289811975142,15.494462281209451],[-96.666681051689068,15.507832293425736],[-96.821384812359099,15.521649059156914],[-96.977210475482934,15.536064236475454],[-97.133967422558385,15.551229484353371],[-97.291465037781165,15.567296462661773],[-97.449512701749711,15.584416828573922],[-97.60791979686104,15.602742241961039],[-97.766495705512284,15.62242436089565],[-97.925049810100575,15.643614845249033],[-98.083391493022873,15.666465352194393],[-98.241330136676368,15.691127542502215],[-98.398675121659437,15.717753074245138],[-98.555235832167796,15.74649360549563],[-98.710821648799936,15.777500795225649],[-98.865241954852252,15.810926303306417],[-99.018306132721762,15.846921787810402],[-99.169823563006901,15.885638907709563],[-99.319611141041207,15.927219314320041],[-99.467620588519253,15.971625026573861],[-99.613920257513769,16.018662679439217],[-99.758582342900695,16.068133787144689],[-99.901679039555916,16.119839862120102],[-100.04328254325469,16.173582419493187],[-100.18346505067143,16.229162971693938],[-100.32229875578287,16.286383032051447],[-100.45985585436409,16.345044114794177],[-100.59620854219037,16.404947732352127],[-100.73142901503689,16.465895398953649],[-100.86558946777961,16.527688627928001],[-100.99876209619367,16.590128932604273],[-101.13101909605433,16.653017826311782],[-101.26243266223747,16.716156822379617],[-101.3930749905183,16.779347435036243],[-101.52301827667202,16.842391176711601],[-101.65233471557457,16.905089561634099],[-101.78109650300109,16.967244103132998],[-101.90937583472692,17.028656314537443],[-102.0372449056278,17.08912770917658],[-102.16477591237833,17.148459800379612],[-102.29204104895513,17.206454102375062],[-102.41911251203271,17.262912127592756],[-102.54606249558759,17.317635390261216],[-102.67296319719372,17.370425403709532],[-102.79988681082756,17.421083680367701],[-102.92690553226441,17.469411735363451],[-103.05409155727943,17.515211081126608],[-103.18151708164788,17.55828323188581],[-103.30925430024564,17.598429699171447],[-103.43737540794859,17.635451999010684],[-103.56595260143132,17.669151642934139],[-103.69505695411505,17.699331442891889],[-103.82469218289782,17.725872020177746],[-103.95475761137459,17.748774607762073],[-104.08514357801363,17.768050812295314],[-104.21574042398129,17.783712241327009],[-104.34643849044386,17.795770502406924],[-104.47712811676905,17.804237202185277],[-104.60769964412316,17.809123948211777],[-104.73804341187383,17.810442346237437],[-104.86804976208674,17.808204005610492],[-104.99760903412954,17.80242053208201],[-105.12661156916846,17.793103533201645],[-105.25494770657133,17.780264615619672],[-105.38250778840359,17.763915387785062],[-105.50918215313374,17.744067455448828],[-105.63486114282739,17.72073242706],[-105.75943509685214,17.693921908369532],[-105.88279435727367,17.66364750782634],[-106.00482926256029,17.62992083208087],[-106.12543015477775,17.592753487783398],[-106.24448737329357,17.552157083382838],[-106.36189125837478,17.50814322463026],[-106.47753215208706,17.460723519075259],[-106.59130039289869,17.409909575166921],[-106.70308632287538,17.355712997756768],[-106.81278028138479,17.298145396193206],[-106.92027260959316,17.237218377126567],[-107.02545364776751,17.172943546307749],[-107.12821373617487,17.105332512185839],[-107.22844321598154,17.034396882310432],[-107.32603242655512,16.960148262432483],[-107.42087170816268,16.882598261001078],[-107.51285140286984,16.801758484666493],[-107.60186188331915,16.717640577850545],[-107.68782673051908,16.63029274061762],[-107.77076504786857,16.53986833345698],[-107.85071300699957,16.446539507292584],[-107.92770678044349,16.350478415746409],[-108.00178254163092,16.251857209742582],[-108.07297646219388,16.150848040205005],[-108.14132471646241,16.047623061655088],[-108.20686347606846,15.942354424117525],[-108.26962891354344,15.835214280314915],[-108.32965720231795,15.72637478117133],[-108.38698451402399,15.616008080308802],[-108.44164702299162,15.50428632865129],[-108.49368089995346,15.391381678921505],[-108.54312231923956,15.277466282043406],[-108.59000745248187,15.162712289840442],[-108.63437247221174,15.047291855934532],[-108.67625355185982,14.931377131249747],[-108.71568686485682,14.815140267609422],[-108.75270858193539,14.698753416836837],[-108.78735487742557,14.58238873165476],[-108.81966192295926,14.466218363886526],[-108.8496658910679,14.350414464456094],[-108.87740295608148,14.235149186985552],[-108.90290928873259,14.120594681499483],[-108.92622106335131,14.006923101619975],[-108.9473744515696,13.894306599170363],[-108.96640562591881,13.782917325074607],[-108.98335075982959,13.672927432954793],[-108.99824602583334,13.564509072835563],[-109.01112759646134,13.457834397439626],[-109.02203164424486,13.353075559489639],[-109.03099434261475,13.25040470990956],[-109.03805186320284,13.149994001422158],[-109.04320716567804,13.051988540538844],[-109.0462773594125,12.95638209495786],[-109.0470149428852,12.863115822937004],[-109.04517234892467,12.772130827875571],[-109.04050201215802,12.683368214971267],[-109.03275636541383,12.596769086724123],[-109.02168784331923,12.512274548331902],[-109.007048879602,12.429825704992425],[-108.98859190709072,12.349363658306345],[-108.96606935951326,12.270829514370746],[-108.93923367239597,12.194164377484185],[-108.90783727676882,12.119309350146523],[-108.87163260815822,12.046205538454956],[-108.8303721002921,11.974794044909402],[-108.78380818599891,11.905015974707624],[-108.73169329990577,11.836812432148179],[-108.67377987484127,11.770124520630247],[-108.60982034543252,11.704893344452444],[-108.539567144508,11.641060007913154],[-108.46277270669498,11.578565616210369],[-108.37918946482182,11.517351271843836],[-108.28856985351581,11.457358080011545],[-108.19066630560542,11.398527144112563],[-108.08523125481844,11.340799569344767],[-107.9720171357821,11.284116459107452],[-107.85077638132486,11.228418917699003],[-107.72126142607385,11.173648049418091],[-107.58322470285765,11.119744958563103],[-107.43641864540405,11.066650749432654],[-107.28059568834027,11.014306525425923],[-107.11550826449474,10.962653390841467],[-106.94090880849461,10.91163245087705],[-106.75654975316849,10.86118480803259],[-106.56222212485108,10.811257807901654],[-106.35816559106905,10.761871323702792],[-106.14490926255235,10.713092025776518],[-105.92298707579283,10.664987363276339],[-105.6929329672825,10.617624785355702],[-105.45528087261408,10.571071742966694],[-105.21056472738019,10.525395684363502],[-104.95931846807275,10.48066405959878],[-104.70207603028445,10.436944317826146],[-104.43937135050732,10.394303908198935],[-104.1717383634346,10.352810281669292],[-103.89971100645766,10.312530885592025],[-103.62382321516912,10.273533171818542],[-103.34460892426233,10.235884587703708],[-103.06260207202791,10.199652584199555],[-102.77833659225985,10.16490460956021],[-102.49234642145007,10.131708114737819],[-102.20516549698999,10.10013054798651],[-101.91732775267354,10.070239360258427],[-101.62936712679135,10.042101998908265],[-101.34181755313745,10.015785915787546],[-101.05521296910314,9.9913585582510223],[-100.77008730938172,9.9688873772507804],[-100.48697451136451,9.9484398219403829],[-100.20640850974485,9.9300833414731642],[-99.928923241014672,9.9138853850026294],[-99.655052641665975,9.8999134034809231],[-99.385330647291426,9.8882348451621169],[-99.120291193483695,9.8789171600989789],[-98.860468216734716,9.8720277974450141],[-98.606395651737841,9.8676342063536708],[-98.3586074367837,9.865803836877717],[-98.117637505666266,9.8666041390699206],[-97.884009832187928,9.870100734661321],[-97.657946240426554,9.8763038408496868],[-97.439319237093002,9.8851596206201293],[-97.227981870267001,9.89661066664911],[-97.023787188927543,9.9105995743110498],[-96.826588240254978,9.9270689380811632],[-96.636238074127732,9.9459613506359688],[-96.4525897377261,9.9672194082492069],[-96.275496280029188,9.990785703597453],[-96.104810749116666,10.016602831155865],[-95.940386193967583,10.044613385399543],[-95.782075662661612,10.074759959904384],[-95.629732202379159,10.10698515004475],[-95.483208863897858,10.14123154939665],[-95.342358693498795,10.177441751535753],[-95.207034740161021,10.215558351836592],[-95.077090052863525,10.255523942975742],[-94.952377679686094,10.297281121226888],[-94.832750669607606,10.340772479266661],[-94.718062069808582,10.385940611570106],[-94.608164928368637,10.432728111713118],[-94.502912296065517,10.481077575070174],[-94.402157218280877,10.530931596116432],[-94.305752745792461,10.582232767528353],[-94.213551925780621,10.634923683781096],[-94.125407807224406,10.688946940249252],[-94.041173438203487,10.744245130508489],[-93.960701866797592,10.800760849034077],[-93.883846141086451,10.858436688502536],[-93.810459310948318,10.917215245187549],[-93.740394423563714,10.977039112665068],[-93.673504527911518,11.037850884510874],[-93.609642672071573,11.099593155200068],[-93.548662094779729,11.162208554281506],[-93.490446928283006,11.225645493944512],[-93.434946092887799,11.289864512837141],[-93.382116662154147,11.354827673958141],[-93.331915713239482,11.420497041205635],[-93.284300322401862,11.486834680276388],[-93.239227565000022,11.553802655068637],[-93.196654517292018,11.621363029480392],[-93.156538254636644,11.689477867409778],[-93.118835853291898,11.758109233654352],[-93.083504389515838,11.827219192112182],[-93.050500938667255,11.896769807580711],[-93.019782577903527,11.966723144857383],[-92.991306381684069,12.03704126694106],[-92.965029426266881,12.107686238629128],[-92.940908787910132,12.178620123819769],[-92.918901542871822,12.249804988209803],[-92.898964767410007,12.321202894797921],[-92.881055535984103,12.392775908381623],[-92.865130924852224,12.464486091959714],[-92.851148011171688,12.536295512128333],[-92.839063870301288,12.60816623188623],[-92.828835578499024,12.680060315131584],[-92.820420210224427,12.751939826661783],[-92.813774842634757,12.823766830375064],[-92.808856551988185,12.895503391068758],[-92.805622413643391,12.967111572641102],[-92.804029502959111,13.038553439889483],[-92.80403489709272,13.109791056712027],[-92.805595671403012,13.180786487906232],[-92.808668902147986,13.251501796470848],[-92.813211664686492,13.32189904810275],[-92.819181035276472,13.391940305800631],[-92.82653408927672,13.46158763526131]]]},"properties":{"objectid":2,"basin":"Pacific","prob2day":"0%","risk2day":"Low","prob7day":"80%","risk7day":"High","idp_source":"gtwo_areas_202610011751","idp_filedate":1790877168000,"idp_ingestdate":1790877194000,"st_area(shape)":95.188638327961485,"st_perimeter(shape)":40.064392846701956}}]}