{"type":"FeatureCollection","features":[{"type":"Feature","id":1,"geometry":{"type":"Polygon","coordinates":[[[-70.296738107377621,19.713373654770464],[-70.19186177659958,19.729920231633514],[-70.087585771166289,19.748342734030075],[-69.984046536218557,19.768614328888304],[-69.881380516897252,19.790708187632902],[-69.779724159242448,19.814597477191967],[-69.67921390749575,19.84025536719156],[-69.579986207697232,19.867655027257854],[-69.48217750498776,19.896769625218155],[-69.385924245407466,19.927572331597958],[-69.291362872298635,19.960036313325361],[-69.198629833499922,19.994134740925688],[-69.107861571454237,20.029840782226472],[-69.019194534000405,20.067127607753037],[-68.932765165379976,20.105968385332858],[-68.848709911633023,20.146336283692676],[-68.767165217001036,20.188204472458551],[-68.68826752752426,20.231546120357336],[-68.61215328744413,20.276334396115601],[-68.538958943700209,20.322542469359632],[-68.468820940533874,20.37014350791668],[-68.40187572308605,20.419110682312294],[-68.338259738296188,20.46941716037378],[-68.278109429506458,20.521036111727312],[-68.221561242757048,20.573940705099574],[-68.168751623188768,20.628104109217418],[-68.119817016841751,20.683499492807471],[-68.074893868856861,20.740100025495906],[-68.034118623475592,20.797878876009463],[-67.997627727637393,20.856809213074882],[-67.965557624684493,20.916864205418904],[-67.938044762455718,20.978017023566906],[-67.915225583393863,21.040240834447104],[-67.897236535337697,21.103508808584763],[-67.884192028239397,21.167790916717593],[-67.876031491859749,21.233031739922978],[-67.87261090696768,21.299163751705919],[-67.873785745315786,21.3661193500281],[-67.879411474160065,21.433830931952116],[-67.889343563454588,21.502230896338915],[-67.903437482253878,21.571251641150468],[-67.921548699612686,21.640825565247781],[-67.943532685484911,21.71088506479407],[-67.969244908025985,21.781362540449038],[-67.998540837189751,21.852190388375845],[-68.031275942031016,21.923301008334988],[-68.067305691604247,21.994626796489626],[-68.106485554964252,22.066100152600086],[-68.148671001165667,22.13765347372896],[-68.193717500162393,22.209219159636632],[-68.241480521009123,22.280729606486318],[-68.291815531861175,22.352117213139024],[-68.344578002672563,22.423314377556608],[-68.399623403397243,22.494253498600244],[-68.456807202190532,22.5648669733323],[-68.515984868107068,22.635087200613953],[-68.577011871100865,22.704846578407],[-68.639743680226559,22.774077505572563],[-68.704035763639467,22.842712378273802],[-68.769743592192924,22.910683596271099],[-68.836722634042189,22.97792355752631],[-68.904828359141334,23.044364659101859],[-68.973916235645675,23.109939300758242],[-69.043841732609735,23.174579879557939],[-69.114460320886963,23.238218793462693],[-69.185627468632674,23.300788441333623],[-69.257198644002131,23.362221221132586],[-69.329036545699921,23.422452911372886],[-69.40113360503176,23.48147999390676],[-69.473594477902736,23.53935145480591],[-69.546527518230278,23.596118012236616],[-69.620041079931809,23.651830382566231],[-69.694243516924644,23.706539283061602],[-69.769243183126264,23.760295431888835],[-69.845148433353415,23.813149547213982],[-69.92206762242273,23.865152345404567],[-70.000109103352315,23.91635454372738],[-70.079381230059596,23.96680686034847],[-70.159992358260638,24.016560012534683],[-70.242050840973434,24.065664717552806],[-70.325665033014729,24.114171692669629],[-70.410943288302008,24.162131656051201],[-70.497993960752581,24.209595324065106],[-70.586925404283875,24.256613415776656],[-70.677845974611955,24.303236647553376],[-70.770864023855495,24.349515736662056],[-70.866087907730673,24.395501401268803],[-70.963625980154745,24.441244358640404],[-71.063586595045194,24.486795326043591],[-71.166078106319446,24.532205020745266],[-71.271208868794133,24.577524160012103],[-71.379087235487418,24.622803462010324],[-71.48982156301463,24.668093644006603],[-71.603520202595178,24.713445423267785],[-71.720291510844447,24.758909517960035],[-71.840243839881168,24.804536644450707],[-71.963485546320783,24.850377520906022],[-72.090124981382701,24.896482864592656],[-72.220270501682194,24.942903392777509],[-72.354030461136745,24.989689822727257],[-72.491511667729185,25.036892240384702],[-72.632728219231808,25.084522791993379],[-72.777550509848027,25.132534822524178],[-72.925836572599621,25.180876615563477],[-73.07744443960911,25.229496456496406],[-73.232232145696855,25.278342630707982],[-73.390057721186793,25.327363422683959],[-73.550779199999965,25.37650711870873],[-73.714254615158268,25.425722002368673],[-73.880341998784104,25.47495635994818],[-74.048899384798688,25.524158475933064],[-74.219784804425103,25.573276634809019],[-74.392856292483827,25.622259122860385],[-74.567971879298682,25.67105422457297],[-74.744989599690143,25.719610224432472],[-74.923767484881409,25.767875408723285],[-75.104163569692901,25.815798061931162],[-75.286035884448381,25.863326468541857],[-75.469242463968442,25.910408913940387],[-75.65364134037543,25.956993683511826],[-75.839090545791919,26.003029061741927],[-76.025448113239747,26.048463334915141],[-76.212572076639901,26.093244786617731],[-76.400320468115012,26.137321702234885],[-76.588551319787484,26.180642368050997],[-76.777122665578418,26.223155067652385],[-76.965892536711067,26.264808086424182],[-77.154718968005852,26.30554971065078],[-77.343459990685915,26.345328223918557],[-77.531973638672355,26.384091911612586],[-77.720117943188427,26.421789058218621],[-77.907750939054495,26.458367950920319],[-78.094730657493756,26.493776872404908],[-78.280915138722548,26.52796410895661],[-78.466169230825244,26.560877630298535],[-78.650377369120179,26.592464498737741],[-78.833427488187908,26.622671619199991],[-79.015207521709669,26.651445892114396],[-79.195605406064544,26.678734220607964],[-79.374509074933769,26.704483506009126],[-79.551806461998524,26.728640652344382],[-79.727385503637947,26.751152560042726],[-79.901134134432652,26.771966131332022],[-80.072940288063762,26.791028270238598],[-80.242691900011096,26.808285877191622],[-80.410276904855152,26.823685855318104],[-80.575583237176545,26.837175106845848],[-80.738498830656397,26.848700534002603],[-80.898911622573223,26.85820903901606],[-81.056709544809564,26.865647523214761],[-81.211780533744502,26.870962890625037],[-81.364012523059387,26.874102042575373],[-81.513293448233924,26.875011881293403],[-81.659511244748046,26.873639308107727],[-81.802553845383557,26.869931227044617],[-81.942309185620331,26.863834539432617],[-82.07866520003887,26.855296148398679],[-82.211509824118991,26.84426295437197],[-82.340730991541932,26.830681861378935],[-82.466216637787511,26.814499769848624],[-82.587854696536908,26.795663583807482],[-82.705533104169319,26.774120205483257],[-82.819139793466604,26.749816535305001],[-82.928562700807902,26.722699477299159],[-83.033689759874392,26.692715933693535],[-83.134408905246687,26.659812804917181],[-83.230608072404493,26.623936995895804],[-83.32218095069021,26.585054792844574],[-83.409053435967166,26.543240963599715],[-83.491162620658315,26.49860798816826],[-83.568445607978333,26.451268384328614],[-83.640839501141954,26.401334668959919],[-83.708281403363969,26.34891935984075],[-83.770708416959792,26.294134974749454],[-83.828057646942739,26.237094029665855],[-83.880266194729018,26.177909043267903],[-83.927271163533248,26.11669253243457],[-83.969009658368918,26.053557015843751],[-84.005418780652121,25.988615008575948],[-84.036435634496854,25.921979030208206],[-84.061997323117851,25.85376159761978],[-84.082040948830638,25.784075227689755],[-84.096503615749157,25.713032438196592],[-84.105322427088254,25.640745746019491],[-84.108434486062549,25.567327669836232],[-84.105776894987628,25.492890725626637],[-84.097286757078052,25.417547432068488],[-84.082901177347367,25.341410306040927],[-84.062557257211552,25.264591865322473],[-84.036192099885398,25.187204626792209],[-84.003742810382278,25.109361108228711],[-83.965146489219023,25.031173826511008],[-83.920340242308214,24.952755300316994],[-83.869261171066114,24.874218045626435],[-83.811846378707287,24.795674580217849],[-83.748032969345957,24.71723742276896],[-83.677758046196743,24.639019089259705],[-83.600958711575174,24.561132098367807],[-83.517572068695927,24.483688966073089],[-83.427535221673054,24.406802211053332],[-83.330802580274735,24.330577658332402],[-83.227529736208226,24.255043340677787],[-83.118002082130261,24.180177104190136],[-83.002507170869137,24.10595595680212],[-82.881332556152415,24.032356905546919],[-82.754765791707825,23.959356960155731],[-82.623094431262871,23.886933127661848],[-82.486606028545282,23.815062416897149],[-82.345588137282618,23.743721836693567],[-82.200328310303178,23.672888394084282],[-82.051114103133273,23.602539098800492],[-81.898233068601144,23.532650957875546],[-81.741972759535145,23.463200980141266],[-81.582620730562155,23.394166173530209],[-81.420464535409849,23.325523546874308],[-81.255791727805899,23.257250107206801],[-81.08888986057849,23.189322864258941],[-80.920046488354672,23.121718825063851],[-80.749549164861946,23.0544149993529],[-80.577685443828045,22.987388394159211],[-80.404742878081265,22.920616017415398],[-80.231009022248486,22.854074878852714],[-80.056771429158005,22.787741985504397],[-79.882317653436871,22.721594346202266],[-79.707935247913269,22.655608968878937],[-79.533911767214192,22.589762861467023],[-79.360534764167937,22.524033033697663],[-79.188091793401441,22.458396492604209],[-79.016870407742999,22.392830246119104],[-78.847158160920287,22.327311303074339],[-78.679242607560184,22.261816672301734],[-78.513411300491043,22.196323360834583],[-78.349951794339745,22.130808378404083],[-78.189146205532836,22.065249762666554],[-78.031111791276032,21.999656832397022],[-77.875775210057782,21.93407506361342],[-77.723052503869837,21.868551948613685],[-77.572859713804633,21.80313497699774],[-77.42511288185392,21.73787164196284],[-77.279728050908716,21.672809433108966],[-77.13662126116219,21.607995842734113],[-76.995708554605983,21.543478361337463],[-76.85690597323196,21.479304481216957],[-76.720129559931138,21.415521692871948],[-76.58529535489663,21.352177488600375],[-76.452319400120132,21.289319358002103],[-76.321117738492717,21.226994794274503],[-76.191606410207555,21.165251287017441],[-76.063701458155663,21.104136328528853],[-75.937318923429473,21.043697410207471],[-75.812374848020738,20.983982021653105],[-75.688785273921155,20.925037656962445],[-75.566466243122534,20.866911804836093],[-75.44533379671725,20.80965195847125],[-75.325303976697057,20.753305607467951],[-75.206292824154389,20.697920244124134],[-75.088216381980317,20.643543359838304],[-74.970990691267275,20.590222446009193],[-74.854531794006959,20.538004992236722],[-74.73875573219118,20.486938491718149],[-74.623578546912313,20.437070435852092],[-74.508916280162111,20.388448314238474],[-74.394684974831591,20.341119619175231],[-74.28080067111398,20.295131842060982],[-74.167179411000916,20.250532474294403],[-74.053737236484153,20.207369006374677],[-73.940390366721942,20.165688864949288],[-73.827083836050065,20.125528788223164],[-73.713823099756155,20.086903111389631],[-73.600621224090105,20.049823343072944],[-73.487491274402657,20.014300995494693],[-73.374446314245915,19.980347580876298],[-73.261499409869771,19.947974608741333],[-73.148663626624966,19.917193590412012],[-73.035952029862187,19.888016038109811],[-72.923377683133481,19.860453463156944],[-72.810953653588115,19.834517375076928],[-72.698693004778249,19.810219286091296],[-72.586608802953776,19.787570706622944],[-72.474714113465438,19.766583148893346],[-72.363021999865282,19.747268124224718],[-72.251545529302632,19.729637142140518],[-72.140297765329478,19.713701715761715],[-72.029291773296563,19.699473354611769],[-71.918540619453893,19.686963570912212],[-71.808057367353513,19.676183875085883],[-71.697855084144692,19.667145779354371],[-71.587946833379533,19.659860793241137],[-71.478345680408722,19.654340429867091],[-71.369064690582888,19.650596198755693],[-71.260116930152094,19.648639612128534],[-71.151515462668385,19.64848218040845],[-71.043273353482391,19.6501354149176],[-70.935403668844117,19.653610826978195],[-70.827919472305666,19.658919927912507],[-70.720833831016364,19.666074229042579],[-70.614159807628937,19.675085240791361],[-70.507910470191916,19.685964474481068],[-70.402098881358199,19.698723442333119],[-70.296738107377621,19.713373654770464]]]},"properties":{"objectid":1,"basin":"Atlantic","prob2day":"0%","risk2day":"Low","prob7day":"20%","risk7day":"Low","idp_source":"gtwo_areas_202608301141","idp_filedate":1788090180000,"idp_ingestdate":1788090230000,"st_area(shape)":66.716962514094575,"st_perimeter(shape)":37.279192987762102}},{"type":"Feature","id":2,"geometry":{"type":"Polygon","coordinates":[[[-94.192999656109123,27.749159230514238],[-94.13154051088577,27.712204398714164],[-94.067686504328606,27.676092752378736],[-94.001530153293857,27.640826014609047],[-93.933163977335596,27.60640590670738],[-93.862680492410675,27.572834150875508],[-93.79017221807328,27.540112469315147],[-93.715731670280263,27.508242584228014],[-93.639451368585696,27.477226216916506],[-93.561423828946431,27.447065089582338],[-93.481741570017334,27.417760924427284],[-93.400497109553839,27.389315442753627],[-93.317782966210814,27.36173036766246],[-93.233691655945051,27.335007420456236],[-93.148315697411419,27.309148324235935],[-93.061747608365351,27.284154799404632],[-92.974079907461658,27.260028568164046],[-92.885405110657246,27.236771353615211],[-92.795815737506189,27.214384877060581],[-92.705404303965338,27.192870859802497],[-92.61426332958888,27.172231025841313],[-92.522485330333609,27.152467095580164],[-92.430162825753712,27.133580790321332],[-92.337388332705302,27.115573834065344],[-92.244254368943871,27.098447948114483],[-92.150853452224965,27.082204853771145],[-92.057278100303961,27.066846273237047],[-91.96362083093652,27.052373928713962],[-91.869974161877963,27.038789542403606],[-91.776430611783212,27.026094836507639],[-91.683082697508382,27.014291532328514],[-91.590022935909644,27.00338135206789],[-91.497343847440504,26.993366017927542],[-91.405137947158437,26.984247251209808],[-91.313497753718252,26.976026775015782],[-91.222515785774817,26.96870631154718],[-91.132284560184189,26.962287581207022],[-91.042896594701972,26.956772307096458],[-90.954444407083599,26.95216221051777],[-90.867020515084619,26.948459014571995],[-90.780717437359726,26.945664440561643],[-90.695627690765207,26.943780209788997],[-90.611843793056494,26.94280804535515],[-90.529457918448088,26.942749610106546],[-90.44853224426754,26.943601429962143],[-90.369076100081827,26.945350977365877],[-90.291093436612698,26.947984804755095],[-90.214588204581901,26.95148946546658],[-90.139564355610446,26.955851511038531],[-90.066025838621442,26.961057494807676],[-89.993976605236014,26.967093968312156],[-89.92342060617591,26.973947483989321],[-89.854361791263557,26.981604594276746],[-89.786804111220647,26.990051851611781],[-89.720751517668305,26.999275807532626],[-89.656207960428901,27.009263016275327],[-89.593177390224298,27.020000028478648],[-89.531663757776073,27.031473397479431],[-89.471671012906825,27.04366967481576],[-89.413203107237507,27.056575413824419],[-89.356263991489925,27.070177165144173],[-89.30085761548645,27.084461483910502],[-89.246987929948887,27.099414919862795],[-89.194658885598983,27.115024026337892],[-89.143874434057807,27.131275355773198],[-89.09463852424841,27.148155460606176],[-89.04695510779186,27.165650893274233],[-89.000828134510698,27.183748205315567],[-88.956261556025879,27.202433950066904],[-88.913259322159888,27.221694679965651],[-88.871825383634416,27.241516946550007],[-88.831963692070644,27.261887302257321],[-88.793678196391568,27.28279229952517],[-88.756972848218254,27.304218491690165],[-88.721851598272565,27.326152429391243],[-88.688318397276134,27.34858066686445],[-88.656377195051391,27.371489754748552],[-88.626031942320196,27.394866246380332],[-88.597286589804185,27.418696693297875],[-88.57014508912448,27.442967649737398],[-88.544611389204135,27.467665665438233],[-88.520689441664274,27.492777295535916],[-88.498383197226644,27.518289089769837],[-88.477696605713675,27.544187601476779],[-88.458633618746376,27.570459383993523],[-88.44119818614729,27.597090988858213],[-88.425393062539683,27.624068720295327],[-88.411200917987856,27.651374725863036],[-88.398587755420465,27.678987699722711],[-88.387519072347231,27.70688623261367],[-88.377960368076401,27.735048917073982],[-88.369877140117808,27.763454342943703],[-88.363234887779754,27.792081100962207],[-88.357999108571903,27.820907783667451],[-88.354135301802614,27.84991298000017],[-88.351608964981665,27.879075282498434],[-88.350385597417301,27.908373281002241],[-88.350430696619242,27.937785568049662],[-88.351709761895904,27.967290733480695],[-88.354188290756895,27.996867368034771],[-88.35783178251063,28.026494063350469],[-88.362605735566149,28.056149410167279],[-88.368475647433058,28.085811999224518],[-88.375407016520512,28.115460422160879],[-88.383365342136699,28.145073269715795],[-88.392316122690829,28.174629132628525],[-88.402224855692452,28.20410660253782],[-88.413057039550608,28.233484269283736],[-88.42477817357377,28.262740724504965],[-88.437353756170808,28.291854559840203],[-88.450749284851497,28.320804365129504],[-88.464930258924198,28.349568732011505],[-88.479862175898575,28.378126251225638],[-88.495510534183722,28.406455513511276],[-88.511840833987208,28.434535110507113],[-88.528818571020111,28.462343632952468],[-88.546409246389487,28.489859671586714],[-88.564578355806361,28.517061818048603],[-88.583291400377732,28.543928662178132],[-88.602513875814623,28.570438796513372],[-88.622211283224033,28.596570809995001],[-88.642349118317043,28.622303296060409],[-88.662892882200651,28.647614843650274],[-88.683808071485203,28.672484044403291],[-88.705060184579736,28.696889489958153],[-88.726614720792611,28.720809770154915],[-88.748437177633548,28.744223477531591],[-88.770493054410849,28.767109201028973],[-88.792747849533498,28.78944553408428],[-88.815172754119203,28.811214853582783],[-88.837774102093022,28.83242292327941],[-88.860571617386142,28.85308441201613],[-88.883585051808609,28.873214010218533],[-88.906834154472563,28.89282640651362],[-88.930338676288784,28.911936290427604],[-88.954118369067373,28.930558349688226],[-88.978192982819792,28.948707272922434],[-89.00258226845682,28.966397750555871],[-89.027305975989918,28.983644470316221],[-89.052383857229131,29.000462122629017],[-89.077835663085295,29.016865394322622],[-89.103681142670496,29.032868975822737],[-89.129940048694209,29.048487554856933],[-89.15663213026852,29.063735821850855],[-89.183777138304208,29.07862846453213],[-89.211394824611375,29.09318017152782],[-89.239504939201481,29.107405633263511],[-89.268127232985307,29.121319537466832],[-89.297281456873634,29.134936573664106],[-89.326987360877922,29.148271429582962],[-89.357264695908896,29.161338795649044],[-89.388133212877392,29.174153360489356],[-89.419612663593455,29.186729811831469],[-89.451722797169225,29.199082840101141],[-89.48448336451554,29.211227133025886],[-89.517914117442444,29.223177380132142],[-89.552034805062078,29.234948270046743],[-89.586865180083862,29.246554492296127],[-89.622424991619937,29.258010734607865],[-89.658733991480403,29.2693316874076],[-89.695811929676722,29.280532038422962],[-89.733678557119617,29.29162647718033],[-89.772353624719926,29.302629692306596],[-89.811856882489053,29.313556372428764],[-89.852208082237098,29.324421207073215],[-89.893426973975579,29.335238884866783],[-89.93553330861522,29.346024095335849],[-89.978546837066801,29.356791526208099],[-90.022487310241047,29.367555867009798],[-90.067374478149532,29.378331806367896],[-90.113228091702979,29.389134033808773],[-90.160067878429743,29.399977226268106],[-90.20790144299707,29.410870384161058],[-90.256704587346746,29.421807606136269],[-90.306447954909061,29.432780576162827],[-90.35710219451056,29.443780980008341],[-90.408637950480909,29.454800501641955],[-90.461025868948582,29.465830826831336],[-90.514236597840636,29.476863639545456],[-90.568240781486793,29.487890624652721],[-90.62300906691479,29.498903467021535],[-90.678512100253101,29.509893851520189],[-90.734720526730825,29.520853462117714],[-90.791604994274962,29.531773984581889],[-90.84913614721529,29.542647102881631],[-90.907284632579604,29.55346450278472],[-90.96602109739564,29.56421786736081],[-91.025316185993063,29.574898883277001],[-91.085140545399724,29.585499233602889],[-91.145464821744042,29.596010604106255],[-91.20625966205364,29.60642467965539],[-91.267495710658409,29.616733144219381],[-91.32914361458603,29.626927682666576],[-91.391174020864241,29.636999980764642],[-91.453557574722197,29.646941721583346],[-91.516264922288258,29.656744591789618],[-91.579266709690785,29.666400274453224],[-91.642533583957629,29.675900454442569],[-91.706036189418512,29.685236817525265],[-91.769745174000491,29.694401048569659],[-91.833631183831983,29.703384830645575],[-91.897664864142087,29.712179850419886],[-91.961816861059162,29.720777790962416],[-92.026057820711742,29.72917033894015],[-92.090358390127506,29.737349177422743],[-92.154689215434814,29.745305991278599],[-92.21902094186288,29.753032466275442],[-92.283324215540006,29.760520286382246],[-92.347569683493987,29.767761136467414],[-92.41172799185324,29.774746701399295],[-92.475769785846865,29.781468665146917],[-92.53966571250254,29.787918714377327],[-92.603386417948741,29.794088532160174],[-92.666902547414509,29.799969803363865],[-92.730184742531719,29.80555402399915],[-92.793203465067734,29.810826411909545],[-92.855928960053348,29.81576462613674],[-92.918331460828142,29.820345874262841],[-92.980381199832379,29.824547362071257],[-93.042048411305018,29.828346298043357],[-93.103303326787,29.831719887962606],[-93.164116180517226,29.834645341209693],[-93.224457204935959,29.837099863567971],[-93.284296632483517,29.839060662619602],[-93.343604696499426,29.840504945946634],[-93.402351630323381,29.841409920231797],[-93.460507666395586,29.841752793057083],[-93.51804303805568,29.841510772004654],[-93.574927977743869,29.840661063757238],[-93.631132719699167,29.83918087589683],[-93.68662749456314,29.837047416005589],[-93.74138253747401,29.83423789076619],[-93.795368080872151,29.830729507760736],[-93.848554357197713,29.826499473671902],[-93.900911598891071,29.821524996981168],[-93.952410041090445,29.815783284371207],[-94.003019914437402,29.809251542524805],[-94.052711452271581,29.801906979024011],[-94.101454888831938,29.793726801450873],[-94.149220456558737,29.784688216488121],[-94.195978387892183,29.774768432617236],[-94.24169891617197,29.763944655621515],[-94.286352273838247,29.752194093982382],[-94.329908695130086,29.739493954382624],[-94.372338411588316,29.725821444404289],[-94.413611656552632,29.71115376983073],[-94.453698663362502,29.695468140042749],[-94.492569665357678,29.678741761723074],[-94.530194894078988,29.660951841554379],[-94.566544583765449,29.642075586219448],[-94.601588967756527,29.622090205099028],[-94.635298276694016,29.60097290307715],[-94.667642746615343,29.578700889534559],[-94.698592608162244,29.555251370254666],[-94.728118094674244,29.530601552819576],[-94.756189440390244,29.50472864481128],[-94.782776876851301,29.477609853811828],[-94.807851072668768,29.449226780591573],[-94.831386976327792,29.419604195177612],[-94.853361961785026,29.388791371424816],[-94.873753432674675,29.356837861977908],[-94.892538792631058,29.323793220380935],[-94.909695445288492,29.289707001077375],[-94.925200793381805,29.254628758510535],[-94.939032241444693,29.218608044425878],[-94.95116719131272,29.181694414166031],[-94.961583047519525,29.143937420375778],[-94.970257213699369,29.105386618397858],[-94.977167091687818,29.066091559977679],[-94.982290086018565,29.026101800457866],[-94.985603600325817,28.985466892483259],[-94.987085036445194,28.944236390497167],[-94.986711799809598,28.902459848043691],[-94.984461292254707,28.860186818666875],[-94.980310917414783,28.817466855910823],[-94.974238078924088,28.774349514218841],[-94.966220181316203,28.730884346235712],[-94.956234625527429,28.687120907304177],[-94.944258816990725,28.643108750068905],[-94.930270157541656,28.598897428073997],[-94.914246052613123,28.554536495762818],[-94.896163903141542,28.510075506679414],[-94.876001114559699,28.465564014367885],[-94.853735088703274,28.421051572372335],[-94.829343230105906,28.376587734236693],[-94.802802941502421,28.33222205530376],[-94.774091625627932,28.288004087318939],[-94.743186687915227,28.243983385624915],[-94.710065529300607,28.200209501967095],[-94.674705555217088,28.156731992587538],[-94.637084168399554,28.113600409231651],[-94.597178771582946,28.070864306342798],[-94.554966768401528,28.028573238364402],[-94.510425562489615,27.986776757941186],[-94.463532556582095,27.94552441861714],[-94.414265155212661,27.904865775735118],[-94.362600761116141,27.864850381040412],[-94.308516777926855,27.825527789875764],[-94.251990608379799,27.786947554885899],[-94.192999656109123,27.749159230514238]]]},"properties":{"objectid":2,"basin":"Atlantic","prob2day":"30%","risk2day":"Low","prob7day":"30%","risk7day":"Low","idp_source":"gtwo_areas_202608301141","idp_filedate":1788090180000,"idp_ingestdate":1788090230000,"st_area(shape)":14.706185177706915,"st_perimeter(shape)":15.737269879412271}},{"type":"Feature","id":3,"geometry":{"type":"Polygon","coordinates":[[[-118.74043779197041,20.534641483717621],[-118.84420895128198,20.423834865986407],[-118.94338890337508,20.306030269981136],[-119.03802080671477,20.181569195262284],[-119.128147817068,20.050793146786418],[-119.21381309379916,19.914043625013448],[-119.29505979447384,19.771662132201755],[-119.37193107485911,19.623990172408696],[-119.44447009521861,19.471369246093957],[-119.51272001042003,19.31414085641552],[-119.57672398072702,19.152646505631878],[-119.6365251619066,18.987227696001526],[-119.69216671242373,18.818225929782955],[-119.74369178894483,18.645982709234772],[-119.79114354993482,18.470839536615472],[-119.83456515385865,18.293137915082866],[-119.8739997564835,18.113219345996185],[-119.90949051627422,17.931425331613923],[-119.94108059079656,17.748097375093948],[-119.96881313761611,17.563576977795435],[-119.99273131429862,17.378205642876253],[-120.01287827840974,17.192324871695632],[-120.02929718841443,17.006276167411329],[-120.04203120097907,16.82040103228195],[-120.05112347366929,16.635040967666669],[-120.05661716405081,16.450537476723298],[-120.05855543058857,16.267232062609764],[-120.05698143084828,16.085466225785808],[-120.05193832059695,15.905581469409412],[-120.04346926009816,15.72791929663839],[-120.03161740511905,15.552821207932539],[-120.01642591412457,15.380628707349103],[-119.99793794378098,15.211683296247259],[-119.97619665345269,15.046326477784874],[-119.95124519890669,14.884899753321122],[-119.923126738608,14.727744625114497],[-119.89188443012227,14.575202596322924],[-119.85756143101514,14.427615169204842],[-119.82020128466144,14.285303033908008],[-119.77985277118836,14.148304344170299],[-119.73656844517751,14.01645363642632],[-119.69040094574694,13.889580947802642],[-119.64140290841738,13.767516318123739],[-119.58962697320618,13.650089788113348],[-119.5351257774326,13.537131394898097],[-119.47795195931536,13.428471178302402],[-119.41815815527457,13.323939178150681],[-119.3557970044281,13.223365432468881],[-119.29092114499474,13.12657998198074],[-119.2235832142938,13.03341286561141],[-119.15383584964468,12.943694121386727],[-119.08173169016527,12.857253789131221],[-119.00732337317504,12.773921908669308],[-118.93066353689261,12.693528518926144],[-118.85180481863739,12.615903659726257],[-118.770799856628,12.540877368196107],[-118.6877012881838,12.468279685958862],[-118.60256175242284,12.397940650141038],[-118.51543388666443,12.329690301466371],[-118.42637032822796,12.263358678860072],[-118.33542371623145,12.198775821247295],[-118.24264668709486,12.135771768452514],[-118.1480918799362,12.074176558501506],[-118.05181193207488,12.013820232118178],[-117.95385948172958,11.954532827328251],[-117.85428716711897,11.896144383956312],[-117.75314762466303,11.838484940927401],[-117.65049349437919,11.781384537166787],[-117.54637741178806,11.724673212498885],[-117.44085201690694,11.668181005848851],[-117.33396994705532,11.611737957041214],[-117.22578383955243,11.555174104101752],[-117.11634633261707,11.498319487754316],[-117.00571006356847,11.441004146024682],[-116.89392767152475,11.383058118737324],[-116.78105147814313,11.324312011390361],[-116.6670955470218,11.264665024371538],[-116.55199964336873,11.204149576441921],[-116.43569499512785,11.142813394622578],[-116.31811283024285,11.080704203236508],[-116.19918437575825,11.017869728405401],[-116.07884085961786,10.954357695351518],[-115.95701350976555,10.890215829297233],[-115.83363355504446,10.825491855464918],[-115.70863222159966,10.760233500875529],[-115.58194073827434,10.694488488952743],[-115.45349033211306,10.628304547616892],[-115.32321223105953,10.561729400291711],[-115.19103766305761,10.494810773098834],[-115.05689785605114,10.427596392159899],[-114.92072403798386,10.360133981797958],[-114.78244743590034,10.292471269033967],[-114.64199927864371,10.224655978190981],[-114.49931079325842,10.156735835390634],[-114.35431320678896,10.088758565855244],[-114.20693774897785,10.02077189480724],[-114.05711564597021,9.952823548368201],[-113.90477812570981,9.884961251760501],[-113.74985641703989,9.8172327302064559],[-113.5922817470049,9.7496857098277587],[-113.43198534354866,9.6823679158467826],[-113.26889843371566,9.6153270743851067],[-113.10295224634899,9.5486109088664648],[-112.93407800939252,9.4822671472111892],[-112.76220694899143,9.4163435137422766],[-112.58727029488813,9.3508877336821001],[-112.40919927322778,9.2859475331522958],[-112.2279251128536,9.2215706382744997],[-112.04337904170933,9.1578047733717085],[-111.85549228594016,9.094697663666409],[-111.66419607528854,9.0322970361793864],[-111.46942163679898,8.9706506152338648],[-111.27110019841535,8.9098061269513096],[-111.06919891959438,8.8498179830136223],[-110.86389478961274,8.7907796364711999],[-110.65544075088985,8.7327986741196355],[-110.44408984477042,8.6759827025398408],[-110.2300951188945,8.6204393274131803],[-110.01370961550623,8.5662761535218124],[-109.79518637954766,8.5136007883458547],[-109.57477845596088,8.462520835768089],[-109.35273888968788,8.4131439023693133],[-109.12932072477156,8.3655775947303255],[-108.90477700525452,8.3199295176332839],[-108.67936077607885,8.2763072776588729],[-108.45332508218672,8.2348184804886273],[-108.22692296762074,8.1955707309046488],[-108.00040747732311,8.1586716354877353],[-107.7740316553365,8.1242288008186279],[-107.54804854660307,8.092349830780222],[-107.32271119606474,8.0631423337518413],[-107.09827264686504,8.0367139127170617],[-106.87498594394606,8.0131721760552068],[-106.6531041331491,7.9926247276491722],[-106.43288025761768,7.9751791740797557],[-106.21456736229385,7.9609431210283219],[-105.99841849211964,7.9500241741764057],[-105.78468669113778,7.9425299401048051],[-105.57362500429042,7.9385680235955647],[-105.36548647472091,7.9382460312294825],[-105.16052414917004,7.9416715686880934],[-104.95899107078117,7.9489522407534423],[-104.76114028449643,7.9601956549057036],[-104.56722483435851,7.975509415926922],[-104.3774977653095,7.9950011294986894],[-104.19221212229149,8.0187784013023133],[-104.0116209484479,8.0469488388179684],[-103.83597729051945,8.0796200450291735],[-103.66553419075018,8.1168996283153092],[-103.50054469498161,8.1588951934585339],[-103.34125728139833,8.205709581532119],[-103.18781541524913,8.2573360476206403],[-103.0402575452494,8.3136582617195245],[-102.89861755785392,8.3745551292159917],[-102.76292933502071,8.4399055545978285],[-102.63322676320445,8.5095884432521984],[-102.50954372526263,8.5834826996670017],[-102.39191410675051,8.661467228330082],[-102.28037179142495,8.7434209355278654],[-102.1749506639419,8.8292227257483091],[-102.07568460805811,8.9187515025799371],[-101.982607509329,9.0118861732084383],[-101.8957532506119,9.1085056412225072],[-101.81515571746229,9.2084888120091932],[-101.74084879453613,9.3117145909557166],[-101.67286636469089,9.4180618816506581],[-101.61124231258253,9.5274095903804437],[-101.55601052466591,9.639636621632917],[-101.50720488289892,9.7546218807952982],[-101.46485927193777,9.8722442723554309],[-101.42900757823702,9.9923827008011585],[-101.39968368375492,10.114916072418964],[-101.3769214740467,10.239723290797372],[-101.36075483286913,10.366683262222921],[-101.35121764577764,10.495674891183398],[-101.34834379562955,10.626577082166762],[-101.35216716798033,10.75926874056006],[-101.36272164658664,10.893628770851251],[-101.38004111610451,11.029536078427441],[-101.40415946029077,11.166869568675793],[-101.43511056470072,11.305508146084208],[-101.47292831309107,11.445330716039848],[-101.5176465892186,11.586216183030558],[-101.56929927773939,11.728043451544181],[-101.62792026420874,11.870691427867257],[-101.6935434314841,12.014039015588253],[-101.76620266512077,12.157965120993651],[-101.84593175264814,12.302348669255821],[-101.93269519962365,12.447084218462066],[-102.02626609360522,12.592109510345779],[-102.12638474366088,12.737369679966889],[-102.23279145885863,12.882809864184026],[-102.34522654826651,13.028375198057063],[-102.46343032185177,13.174010819343948],[-102.58714308868252,13.319661862205294],[-102.71610515872601,13.46527346529831],[-102.85005683925164,13.610790761884289],[-102.98873844112603,13.756158890620441],[-103.13189027251798,13.901322985667377],[-103.27925264339467,14.046228184783047],[-103.43056586372353,14.190819623027323],[-103.5855702407739,14.335042436359515],[-103.74400608541242,14.478841761638137],[-103.90561370670707,14.622162734822496],[-104.07013341282664,14.764950491871843],[-104.23730551463768,14.907150169644751],[-104.40687031940962,15.048706902301831],[-104.57856813800908,15.189565828500349],[-104.75213927950404,15.329672082400805],[-104.92732405206323,15.468970801761259],[-105.10386276655333,15.607407120742153],[-105.28149573114297,15.744926177101547],[-105.45996325490017,15.88147310679858],[-105.639005646893,16.01699304489324],[-105.81836321798801,16.151431129143418],[-105.99777627545467,16.284732493709782],[-106.17698512926023,16.41684227635011],[-106.355730089372,16.547705612124446],[-106.53375146485814,16.677267637891305],[-106.71078956388715,16.805473489609994],[-106.8865846964265,16.932268304139086],[-107.06087717154412,17.057597215639134],[-107.23340729920739,17.181405361868087],[-107.40391538758496,17.303637878785196],[-107.57214174664421,17.424239901450449],[-107.73785362554429,17.543160720690821],[-107.9010527473863,17.660385771985943],[-108.06186156655798,17.775919106781487],[-108.2204035347952,17.889764926710143],[-108.37680210383394,18.001927437001768],[-108.53118072541002,18.112410839288941],[-108.6836628512595,18.221219337002935],[-108.83437193311812,18.328357135373665],[-108.98343142182256,18.43382843603365],[-109.13096477000801,18.537637442414166],[-109.27709542851113,18.639788358845806],[-109.42194684996707,18.740285386961204],[-109.56564248611176,18.839132732889425],[-109.70830578688248,18.936334597363896],[-109.85006020581375,19.031895184715154],[-109.99102919374218,19.12581869927368],[-110.1313362024037,19.218109342672165],[-110.27110468443357,19.308771319241146],[-110.41045808976895,19.39780883241184],[-110.54951987104511,19.485226085615523],[-110.68841347999802,19.57102728138409],[-110.82726236746419,19.65521662404808],[-110.96618998607892,19.737798316139504],[-111.10531978757803,19.818776561988898],[-111.2447752236975,19.898155564128103],[-111.38467974527396,19.975939525988451],[-111.52515680404315,20.052132651001159],[-111.66632985174118,20.12673914349682],[-111.80832234100313,20.199763205107956],[-111.95125772266567,20.271209041064537],[-112.09525944846467,20.341080852999085],[-112.24045097013607,20.409382846141568],[-112.38695573941573,20.476119222124566],[-112.53489720803964,20.54129418437924],[-112.68439882774362,20.604911937236238],[-112.83558405026361,20.666976684126837],[-112.9885763264362,20.727492627582819],[-113.14349646129256,20.786462571690492],[-113.30034536314787,20.843825890452649],[-113.45895757293357,20.899433951116066],[-113.6191553765193,20.953131635017087],[-113.78076106247295,21.004763826189787],[-113.94359691576494,21.054175405970341],[-114.10748522496306,21.101211257493674],[-114.2722482759371,21.145716263894599],[-114.43770835545615,21.187535308307986],[-114.60368775118866,21.226513271170688],[-114.77000874990381,21.262495037416159],[-114.93649363837062,21.29532548928006],[-115.10296470245896,21.324849508997772],[-115.26924423073655,21.350911979704222],[-115.43515450907324,21.373357783634958],[-115.60051782423812,21.392031803025418],[-115.76515646300027,21.406778921909847],[-115.92889271302818,21.417444022523739],[-116.09154886109098,21.423871986203324],[-116.25294719395777,21.42590769788211],[-116.41290999749828,21.423396038896215],[-116.5712595602804,21.416181891481244],[-116.72781816817383,21.404110139671332],[-116.88240810794775,21.387025665702026],[-117.0348516663712,21.364773351808878],[-117.18497113111272,21.337198080227381],[-117.33258878894134,21.304144734991667],[-117.47752692572692,21.265458198337342],[-117.61960782913792,21.220983352499843],[-117.75865378684267,21.170565080614097],[-117.89448708381178,21.114048264915652],[-118.02693000861291,21.051277788539267],[-118.15580484711592,20.982098533720489],[-118.2809338869892,20.906355383594246],[-118.40213941410258,20.823893221295293],[-118.51924371612449,20.734556928159861],[-118.63206907982408,20.63819138822214],[-118.74043779197041,20.534641483717621]]]},"properties":{"objectid":3,"basin":"Pacific","prob2day":"60%","risk2day":"Medium","prob7day":"90%","risk7day":"High","idp_source":"gtwo_areas_202608301141","idp_filedate":1788090180000,"idp_ingestdate":1788090230000,"st_area(shape)":165.24413480680423,"st_perimeter(shape)":50.363739439136808}},{"type":"Feature","id":4,"geometry":{"type":"Polygon","coordinates":[[[-157.52692179710317,9.4793262957720685],[-157.28365091275933,9.5411251536031045],[-157.05408525213261,9.6038061852074179],[-156.83792782221116,9.6673310722712813],[-156.63488163088249,9.7316614982796636],[-156.4446496860341,9.7967591458180436],[-156.26693499645285,9.8625856983714471],[-156.10144056822756,9.9291028394246155],[-155.94786941014507,9.9962722506639921],[-155.80592452919359,10.064055616473638],[-155.67530893415991,10.13241461943926],[-155.55572563293154,10.201310941247073],[-155.44687763159735,10.270706267180628],[-155.34846793984346,10.340562278026823],[-155.26019956465811,10.410840658170002],[-155.18177551302941,10.481503090195588],[-155.11289879464357,10.552511257588606],[-155.05327241558942,10.623826842934591],[-155.00259938375447,10.695411528819136],[-154.96058270792554,10.767226999626473],[-154.92692539509082,10.839234936143498],[-154.90133045403715,10.911397023653876],[-154.88350089085336,10.98367494384371],[-154.87313971432627,11.056030380198024],[-154.86994993234342,11.128425015302355],[-154.87363455279228,11.200820532641615],[-154.88389658266107,11.273178614801395],[-154.90043902983729,11.345460945266552],[-154.9229649031077,11.417629206622735],[-154.95117720946055,11.489645081455478],[-154.98477895678334,11.561470254149071],[-155.02347315296356,11.633066406389673],[-155.06696280498937,11.704395222561629],[-155.11495092164765,11.775418384351099],[-155.16714051082585,11.84609757524305],[-155.22323457951217,11.916394477823019],[-155.28293613649342,11.986270775575974],[-155.34594818785851,12.055688151986772],[-155.41197374329354,12.124608289641003],[-155.4807158088874,12.192992871124261],[-155.55187739342688,12.260803579022081],[-155.62516150479954,12.328002097718752],[-155.70027115089283,12.394550109799866],[-155.77690933779562,12.460409297850958],[-155.85477907609339,12.525541345356942],[-155.9335833709757,12.589907934004088],[-156.01302523122936,12.65347074907595],[-156.09280766474185,12.71619147135948],[-156.17263367940069,12.778031785238852],[-156.25220628309341,12.83895337329966],[-156.33122878228241,12.898917960395693],[-156.40950604027145,12.957901399729963],[-156.4870918625993,13.015914181894118],[-156.56407750347392,13.072972004554515],[-156.6405542144054,13.129090567176092],[-156.71661325050104,13.184285569223789],[-156.79234586237158,13.2385727101626],[-156.86784330512435,13.291967687658769],[-156.94319683026941,13.344486202076723],[-157.01849769201479,13.396143951981912],[-157.09383714276984,13.446956635940126],[-157.16930643674257,13.496939954315565],[-157.24499682454373,13.546109605673905],[-157.32099956128064,13.594481288580766],[-157.3974058993627,13.64207070250103],[-157.47430709119922,13.688893546000486],[-157.55179439099825,13.734965519443278],[-157.62995905116921,13.780302320495821],[-157.70889232502071,13.824919648623052],[-157.78868546496216,13.868833204189173],[-157.86942972430225,13.91205868396122],[-157.951216357249,13.954611789202829],[-158.03413661441314,13.996508217580299],[-158.11828175180133,14.037763669457945],[-158.20374302002426,14.078393842501953],[-158.2906116723907,14.118414436177432],[-158.37897896310858,14.157841150848583],[-158.46893614548665,14.196689683282386],[-158.56057447013561,14.234975734742477],[-158.65398519306214,14.272715003794531],[-158.74925956487695,14.30992318810479],[-158.84648884068736,14.34661598803757],[-158.94576427200346,14.382809103057809],[-159.04717711213394,14.418518230831808],[-159.15081861438748,14.453759071723937],[-159.25678003207275,14.488547324299702],[-159.36515261759914,14.522898688024156],[-159.47602762517468,14.556828861462918],[-159.5894963063094,14.590353543181607],[-159.705649914312,14.623488433544537],[-159.82457970339053,14.656249231117272],[-159.94637692505498,14.688651634465486],[-160.07113283351339,14.720711343953496],[-160.19893868207444,14.752444057247601],[-160.32988572224821,14.783865473812682],[-160.46406520824269,14.814991293113849],[-160.60156839246727,14.845837214615926],[-160.74248652912993,14.876418935985271],[-160.88691086974077,14.906752157586141],[-161.03493266850776,14.936852577984212],[-161.18664180457554,14.966735758148843],[-161.34204577469268,14.996408957407596],[-161.50102438266904,15.025866566688819],[-161.66344644619645,15.055101872553507],[-161.82918078386601,15.084108158864581],[-161.9980962142688,15.112878712182976],[-162.17006155599594,15.141406815472294],[-162.34494562763854,15.169685756192848],[-162.52261724688836,15.197708817308182],[-162.70294523233653,15.225469285379347],[-162.88579840257415,15.252960444269206],[-163.07104557709164,15.280175580538753],[-163.25855557268144,15.307107978050908],[-163.44819720883405,15.333750922467232],[-163.63983930414051,15.360097698550078],[-163.83335067629261,15.386141591061744],[-164.02860014388145,15.411875886563053],[-164.22545652549817,15.437293868917038],[-164.42378863973386,15.462388822885998],[-164.6234653042803,15.487154035030812],[-164.82435533952722,15.511582788315195],[-165.02632756136779,15.535668370199289],[-165.22925079019174,15.559404063646753],[-165.43299384459019,15.582783155218578],[-165.63742554135558,15.605798929677007],[-165.84241469907903,15.628444671784337],[-166.04783013815029,15.650713666302806],[-166.25354067536179,15.672599199793353],[-166.45941512930469,15.694094555219692],[-166.66532231857008,15.715193019142646],[-166.87113106264835,15.735887876324568],[-167.07671017833198,15.7561724115277],[-167.28192848511142,15.776039910413658],[-167.48665480067842,15.79548365774474],[-167.69075794452345,15.814496938283241],[-167.89410673433824,15.833073037690667],[-168.09656998871392,15.851205241628747],[-168.29801652624161,15.868886833061026],[-168.49831516551239,15.886111099447817],[-168.69733472421808,15.90287132375272],[-168.89494402184906,15.919160792536672],[-169.09101187609713,15.934972790561972],[-169.28540710555339,15.950300602590858],[-169.47799852880897,15.965137514285004],[-169.66865496445496,15.979476810406595],[-169.85724523018314,15.993311775718041],[-170.04363814548395,16.006635695880789],[-170.22770252894847,16.019441855657249],[-170.40930719736917,16.031723539809661],[-170.58832097113583,16.043474033999587],[-170.76461641541516,16.054685497937498],[-170.93815230798256,16.065324197154098],[-171.10897363562472,16.075330508396405],[-171.27712913350263,16.084643680661486],[-171.44266753767664,16.093202962047201],[-171.60563758330775,16.100947603349368],[-171.7660880046576,16.107816853565055],[-171.92406753868588,16.113749960792177],[-172.07962492055356,16.118686175826497],[-172.23280888452231,16.122564747665137],[-172.38366816575316,16.125324925305222],[-172.53225150120574,16.126905957743872],[-172.67860762604104,16.127247093978326],[-172.82278527452073,16.126287584804345],[-172.96483318180583,16.123966678319675],[-173.10480008485595,16.120223624420873],[-173.24273471793282,16.114997673004325],[-173.37868581619739,16.108228071268627],[-173.51270211571,16.099854070009485],[-173.64483235073232,16.089814919123341],[-173.77512525822402,16.078049865808794],[-173.90362957334605,16.064498161760923],[-174.03039402946081,16.049099055077477],[-174.15546736442724,16.031791794755691],[-174.27889831160772,16.012515630691951],[-174.40073560796185,15.991209811883436],[-174.52102798775135,15.967813588226647],[-174.63982418703654,15.942266207819387],[-174.75717294097836,15.914506921457416],[-174.87312298383856,15.88447497723854],[-174.98772305257674,15.852109625059313],[-175.1010218823539,15.817350113916746],[-175.21306820743175,15.78013569370745],[-175.32391076476989,15.740405613428436],[-175.43359828773072,15.69809912117762],[-175.54217951417317,15.653155468650084],[-175.64970317656028,15.605513903044312],[-175.75621801275102,15.555113675156122],[-175.86177275610774,15.501894033083317],[-175.96641614359007,15.445794226722342],[-176.07019691035904,15.386753505070317],[-176.17316379067631,15.324711118023799],[-176.27536552060221,15.259606314579912],[-176.37685083619706,15.191378343735721],[-176.47766847172252,15.119966455387726],[-176.5778671623396,15.045309897633786],[-176.67749564500792,14.967347921269663],[-176.7766026530899,14.886019775292539],[-176.87523692354512,14.801264708699478],[-176.97344719153458,14.713021970487659],[-177.07126645768079,14.621241691451019],[-177.16854482748172,14.52600050551905],[-177.26501440279239,14.427456658298297],[-177.36040532314706,14.325769756069519],[-177.45444772448283,14.221099406012911],[-177.54687174453531,14.113605213509913],[-177.63740752104019,14.003446786640041],[-177.72578519173314,13.890783730784676],[-177.81173489345051,13.775775653124015],[-177.89498676302861,13.658582159938874],[-177.97527094000179,13.539362858409334],[-178.05231755940775,13.418277353916892],[-178.12585675988149,13.295485253641687],[-178.19561867825931,13.171146164763854],[-178.26133345227692,13.045419692664836],[-178.32273121966998,12.91846544542409],[-178.37954211817413,12.79044302752385],[-178.43149628372643,12.661512047043459],[-178.47832385496187,12.531832110263792],[-178.51975496961609,12.401562824364987],[-178.55551976362611,12.270863793829164],[-178.58534837562695,12.139894627635101],[-178.60897094245496,12.008814930264975],[-178.62611760184578,11.877784309798187],[-178.63651849153507,11.746962372515611],[-178.63990374835922,11.616508724698008],[-178.63600351005388,11.486582972626195],[-178.62454791345536,11.357344723480367],[-178.60526709629937,11.22895358264185],[-178.57789119722091,11.101569158190216],[-178.54215035125762,10.975351056406282],[-178.49777469794387,10.850458883570752],[-178.44449437321668,10.727052245065181],[-178.382039515711,10.605290748969026],[-178.31014026226322,10.485334001563047],[-178.22852675060898,10.367341609128118],[-178.13692911758463,10.251473178844265],[-178.03507750092587,10.13788831609304],[-177.9227020383683,10.026746628054582],[-177.79953286674834,9.9182077219089706],[-177.66530012380159,9.8124312030377041],[-177.51973394636445,9.7095766786209765],[-177.3625644730719,9.6098037558388114],[-177.19352184076027,9.5132720400727067],[-177.01233618626591,9.4201411385028564],[-176.8187376473245,9.3305706574100213],[-176.61245636167169,9.2447202030750759],[-176.39322246704313,9.1627493835773066],[-176.16076610027523,9.0848178033990621],[-175.91481739910361,9.0110850706196288],[-175.65518635296775,8.9416886915799978],[-175.38221381121835,8.876619253975548],[-175.0964571835521,8.8158074128819521],[-174.79847451728506,8.7591836435104824],[-174.48882386063258,8.70667842377037],[-174.16806326181,8.6582222315708464],[-173.83675076723404,8.6137455421231834],[-173.495444427818,8.5731788324372928],[-173.14470228817999,8.5364525813217256],[-172.78508239923326,8.5034972639876969],[-172.41714280649524,8.4742433574451184],[-172.04144155997994,8.4486213405025978],[-171.65853670610403,8.4265616874720308],[-171.26898629308289,8.4079948780612881],[-170.87334837003118,8.3928513865823788],[-170.4721809833656,8.3810616918437404],[-170.06604218220087,8.3725562699560214],[-169.65549001385298,8.3672655988284532],[-169.24108252563798,8.3651201536723079],[-168.82337776756984,8.3660504132960796],[-168.40293378606529,8.369986853810417],[-167.98030862844038,8.3768599522251748],[-167.55606034470907,8.3866001855502645],[-167.13074698128807,8.3991380298962781],[-166.70492658639276,8.4144039640718233],[-166.2791572082385,8.4323284641874352],[-165.85399689414126,8.4528420063536487],[-165.43000369321578,8.4758750684797519],[-165.00773565277808,8.5013581266763367],[-164.58775082014415,8.5292216597519541],[-164.17060724442871,8.5593961429178194],[-163.75686297294777,8.591812053183844],[-163.34707605391668,8.6263998684593162],[-162.94180453465148,8.6630900648547708],[-162.54160646426683,8.7018131202794393],[-162.14703988917947,8.7424995108439134],[-161.75866285940336,8.7850797135580478],[-161.37703342045592,8.8294842054318678],[-161.00270962235112,8.875643464374491],[-160.63624951240499,8.9234879655972463],[-160.2782111379336,8.9729481879086848],[-159.92915254715226,9.0239546074193413],[-159.58963178827634,9.0764377002398078],[-159.26020690952117,9.1303279451786352],[-158.94143595820282,9.1855558174471525],[-158.63387698253663,9.2420517949545342],[-158.33808803073794,9.2997463547106349],[-158.05462715102212,9.3585699737254231],[-157.7840523907052,9.4184531281094905],[-157.52692179710317,9.4793262957720685]]]},"properties":{"objectid":4,"basin":"Pacific","prob2day":"0%","risk2day":"Low","prob7day":"30%","risk7day":"Low","idp_source":"gtwo_areas_202608301141","idp_filedate":1788090180000,"idp_ingestdate":1788090230000,"st_area(shape)":145.24773059968908,"st_perimeter(shape)":53.40809467986049}}]}