{"type":"FeatureCollection","features":[{"type":"Feature","id":1,"geometry":{"type":"Point","coordinates":[-58.055256339408402,17.02473289980361]},"properties":{"objectid":1,"basin":"Atlantic","prob2day":"0%","risk2day":"Low","prob7day":"10%","risk7day":"Low","idp_source":"gtwo_points_202608291739","idp_filedate":1788025391000,"idp_ingestdate":1788025462000}},{"type":"Feature","id":2,"geometry":{"type":"Point","coordinates":[-87.294918435537284,28.770362140600469]},"properties":{"objectid":2,"basin":"Atlantic","prob2day":"0%","risk2day":"Low","prob7day":"20%","risk7day":"Low","idp_source":"gtwo_points_202608291739","idp_filedate":1788025391000,"idp_ingestdate":1788025462000}},{"type":"Feature","id":3,"geometry":{"type":"Point","coordinates":[-98.945761018556084,10.070496783100225]},"properties":{"objectid":3,"basin":"Pacific","prob2day":"40%","risk2day":"Medium","prob7day":"90%","risk7day":"High","idp_source":"gtwo_points_202608291739","idp_filedate":1788025391000,"idp_ingestdate":1788025462000}}]}