{"type":"FeatureCollection","features":[{"type":"Feature","id":1,"geometry":{"type":"Polygon","coordinates":[[[-93.024637825175375,13.426669945062031],[-93.044940043747943,13.511663118857996],[-93.067132927742307,13.594273977761986],[-93.091246844566115,13.674537823761682],[-93.117312163425481,13.752489960643288],[-93.145359254425955,13.828165692193068],[-93.175418484975012,13.901600321297906],[-93.207520225178143,13.972829149945426],[-93.241694842442939,14.04188748282121],[-93.277972705975515,14.108810622812143],[-93.316384185881361,14.173633872805112],[-93.356959650467388,14.236392536586436],[-93.399729467141071,14.297121916143681],[-93.444724006907279,14.355857316162371],[-93.491973637173487,14.412634039529451],[-93.541508727145924,14.467487388232541],[-93.593359646030763,14.520452666957169],[-93.647556762134741,14.571565178590276],[-93.704130444664202,14.620860225119429],[-93.763111062825203,14.66837311123021],[-93.824528984025278,14.714139139809618],[-93.888414579269295,14.758193613744425],[-93.954798215964786,14.80057183592163],[-94.023710263317923,14.841309111026817],[-94.095181089635503,14.880440740148174],[-94.169241065023016,14.91800202887066],[-94.245920556888109,14.954028278282578],[-94.32524993533616,14.988554792170078],[-94.407259567774759,15.02161687431942],[-94.491979825208659,15.053249827617606],[-94.579441075045452,15.083488955850783],[-94.669673685591988,15.112369561006574],[-94.76270802695376,15.139926947770562],[-94.85857446743762,15.166196418130312],[-94.957293979233668,15.191219735702362],[-95.058812914184557,15.215089977620494],[-95.16304203526164,15.237924687074781],[-95.26989188959891,15.259841559240726],[-95.379273021632514,15.280958288394459],[-95.491095979395823,15.301392568812162],[-95.60527130642555,15.32126209566934],[-95.721709549855746,15.34068456504076],[-95.84032125592114,15.359777669404082],[-95.961016969057766,15.378659104833957],[-96.083707235500412,15.397446566506005],[-96.208302601483751,15.416257748696296],[-96.33471361324257,15.435210345681071],[-96.462850815212846,15.454422052635778],[-96.592624754528686,15.4740105638366],[-96.723945975626179,15.494093575358363],[-96.856725026538641,15.514788780577874],[-96.99087245080284,15.536213875570013],[-97.126298795552884,15.558486553711646],[-97.262914605224751,15.581724511077482],[-97.400630427851866,15.606045441044387],[-97.539356806970943,15.631567039687297],[-97.67900429061541,15.658407001282228],[-97.81948342232198,15.68668302010542],[-97.960704750124023,15.716512792231697],[-98.10257881755831,15.748014011037924],[-98.245016172658154,15.781304371699548],[-98.387927359859646,15.816501569392074],[-98.531222924498252,15.853723297492309],[-98.674813414607286,15.89308725297451],[-98.818609373723518,15.934711129215373],[-98.962521348980943,15.978712621390514],[-99.106459884815706,16.025209423776005],[-99.250337684936085,16.074309651069655],[-99.394106149079391,16.125949419929952],[-99.537750154246112,16.179916073967775],[-99.681255680005506,16.235992053690438],[-99.824608705027629,16.293959796907245],[-99.967795210680322,16.353601743226022],[-100.11080117653296,16.414700331355334],[-100.25361258125554,16.477038000903178],[-100.39621540531658,16.540397189678686],[-100.53859562828552,16.604560338189174],[-100.68073922973156,16.669309883344567],[-100.82263219012339,16.73442826655139],[-100.96426048903027,16.799697925618887],[-101.10561010602146,16.864901299255678],[-101.24666702066639,16.929820827069648],[-101.38741721253422,16.994238947769361],[-101.52784666209368,17.057938100962701],[-101.66794134891404,17.120700724459027],[-101.80768725166524,17.182309258765429],[-101.94707035261456,17.242546141691207],[-102.08607662863341,17.301193811944984],[-102.22469206108963,17.358034710033962],[-102.36290263045191,17.412851273767387],[-102.50069431449094,17.4654259427532],[-102.63805309367524,17.515541155699907],[-102.77496494937282,17.56297935131613],[-102.91141585935435,17.607522969209811],[-103.04739180318904,17.648954448089455],[-103.18287876314429,17.687056227563005],[-103.31786271609138,17.721610745439705],[-103.45232964339823,17.752400441327438],[-103.58626552463414,17.779207754834147],[-103.71965633936844,17.801815123769074],[-103.85248768585791,17.820006977040521],[-103.98472225302947,17.83368707549829],[-104.11628722187771,17.84294414715481],[-104.24710671750091,17.847882830828098],[-104.3771048685947,17.848607767134865],[-104.50620579935804,17.845223594893127],[-104.63433363668787,17.837834952021581],[-104.76141250658179,17.826546480036143],[-104.88736653593679,17.811462815956304],[-105.01211985075042,17.7926885994994],[-105.13559657702029,17.770328471282085],[-105.25772084164345,17.744487069222998],[-105.37841676971806,17.71526903303959],[-105.49760848904043,17.682779001549818],[-105.61522012470891,17.647121614471075],[-105.73117580362032,17.608401511520697],[-105.84539965177242,17.566723330617378],[-105.95781579606205,17.522191711478456],[-106.06834836158754,17.474911293821265],[-106.17692147524576,17.424986716463934],[-106.28345926393376,17.372522619123686],[-106.38788585274983,17.317623640618649],[-106.49012536859078,17.260394419766783],[-106.59010193745434,17.20093959628548],[-106.68773968623742,17.139363809892075],[-106.78296274003833,17.075771699404527],[-106.87569522665331,17.010267904540285],[-106.96586127118064,16.942957063218046],[-107.05338500051727,16.873943815155087],[-107.13819054066084,16.803332800968121],[-107.22020201760893,16.731228658575844],[-107.2993435582585,16.657736026796329],[-107.37553928770785,16.582959546246229],[-107.44871335533696,16.507003842253653],[-107.51881074781767,16.429961089932476],[-107.58583640692456,16.351887639003451],[-107.64980598625715,16.272833439611702],[-107.71073513941508,16.192848441902186],[-107.76863952089707,16.111982595120821],[-107.82353478520207,16.030285848513245],[-107.87543658592961,15.947808152224582],[-107.92436057667919,15.864599455500581],[-107.97032241374831,15.78070970848637],[-108.01333774803857,15.696188861327016],[-108.05342223674671,15.61108686146963],[-108.09059153167374,15.52545366085792],[-108.1248612882178,15.439339207838316],[-108.15624715997836,15.352793452555943],[-108.184764800555,15.265866344256494],[-108.21042986534593,15.178607833085152],[-108.23325800795061,15.09106786828761],[-108.25326488196862,15.003296399109672],[-108.27046614189885,14.915343376595672],[-108.28487744134077,14.827258749092152],[-108.29651443479321,14.739092465844749],[-108.30539277675513,14.650894477897964],[-108.31152812082604,14.562714734497547],[-108.31493612150473,14.474603183989871],[-108.31563243239077,14.386609778318757],[-108.313632707983,14.298784464931259],[-108.30895260188095,14.211177193972446],[-108.30160776948287,14.123837916486821],[-108.2916138625896,14.036816579921378],[-108.27898653749861,13.950163135320565],[-108.26374144780948,13.863927532829507],[-108.24589424622241,13.778159719895314],[-108.22546058903487,13.692909648461637],[-108.20244638299408,13.608220739595595],[-108.176803004455,13.524099890197931],[-108.1484628711645,13.440541297842742],[-108.11735838018501,13.357539148413082],[-108.08342193127703,13.275087627791947],[-108.04658592150298,13.193180922761542],[-108.00678275062336,13.111813217406223],[-107.96394481570059,13.03097869760893],[-107.91800451559584,12.950671549252718],[-107.86889424917018,12.870885958220526],[-107.81654641438541,12.791616110395296],[-107.76089341010271,12.71285619166008],[-107.7018676333845,12.634600386099066],[-107.63940148399121,12.556842881394005],[-107.57342735898533,12.479577861629139],[-107.50387765812735,12.402799513586842],[-107.43068477847964,12.326502022250679],[-107.35378111890344,12.250679573503646],[-107.27309907825975,12.175326353228741],[-107.18857105451048,12.100436547308959],[-107.10012944561731,12.026004339828546],[-107.00770665044149,11.952023918469195],[-106.9112350669447,11.878489468214525],[-106.81064709488743,11.805395174947478],[-106.70587513043284,11.732735223651787],[-106.59685157334133,11.660503800210336],[-106.48350882157473,11.588695090506178],[-106.36577927399418,11.517303280422198],[-106.24359532766215,11.446322554942071],[-106.11688938323834,11.375747100848173],[-105.98559383598666,11.305571102224746],[-105.84964108746613,11.235788745854052],[-105.70896353383989,11.166394217619199],[-105.56350601608966,11.097385155900383],[-105.41335801226234,11.028799343015407],[-105.25870231495975,10.960700458159749],[-105.09972327351016,10.893152614002076],[-104.93660523454383,10.82621992231168],[-104.76953254738908,10.759966494857963],[-104.5986895595754,10.694456445208914],[-104.42426061863256,10.629753883335184],[-104.24643007388869,10.565922922804759],[-104.06538227287348,10.503027673588406],[-103.88130156311655,10.441132250153373],[-103.6943722930468,10.380300763369689],[-103.50477881199248,10.320597325006702],[-103.31270546658391,10.262086046833758],[-103.11833660525002,10.204831041519469],[-102.92185657731909,10.148896420833296],[-102.72344972852204,10.094346297443792],[-102.52330040908652,10.041244782221042],[-102.32159296654208,9.9896559878337143],[-102.11851174841837,9.9396440251517788],[-101.91424110314432,9.8912730077432229],[-101.70896537914882,9.8446070473774512],[-101.50286892486088,9.7997102549244346],[-101.29613608691079,9.7566467439522171],[-101.08895121552609,9.7154806253307129],[-100.88149865643777,9.6762760108293833],[-100.67396275987335,9.6390970131167819],[-100.46652787246325,9.6040077448616898],[-100.25937834353562,9.5710723160347015],[-100.05269852062014,9.5403548402038609],[-99.846672751246388,9.5119194291384588],[-99.641485383843303,9.4858301955072761],[-99.437320767739152,9.4621512492808506],[-99.234362223437756,9.4409460628106672],[-99.032761968390048,9.4222586363271148],[-98.832636257057516,9.4061104663251172],[-98.634099340212288,9.3925217929465248],[-98.437265468626379,9.3815128590313748],[-98.24224889397118,9.3731039047215745],[-98.049163866119443,9.3673151719577845],[-97.858124636742502,9.3641669017812319],[-97.669245457511749,9.3636793361325772],[-97.482640578299936,9.3658727160531612],[-97.298424251677773,9.3707672816848344],[-97.116710727517955,9.3783832767669537],[-96.937614256592553,9.3887409405421067],[-96.76124909057296,9.4018605158502737],[-96.587729481130566,9.4177622437326818],[-96.417169678138009,9.4364663643314088],[-96.249683933266795,9.4579931204862646],[-96.085386497288937,9.4823627532385899],[-95.924391620976451,9.5095955036297255],[-95.766813556000727,9.5397116136002182],[-95.612766554033158,9.5727313232920892],[-95.462364864047117,9.6086748746458852],[-95.315722738613374,9.6475625105015865],[-95.172954428503942,9.6894144701018377],[-95.034174185390214,9.7342509953872423],[-94.899496259144939,9.7820923282984609],[-94.769034900540134,9.8329587098767206],[-94.64290436214651,9.8868703811633054],[-94.52121889383676,9.9438475840988758],[-94.404092748181654,10.003910559724716],[-94.291640174154622,10.067079549981372],[-94.183975423426944,10.133374795010923],[-94.081212747670065,10.202816537653234],[-93.983466010947552,10.275424672710642],[-93.890786137370242,10.351163024953792],[-93.803092073740117,10.429877834594549],[-93.720286149186336,10.511400537205191],[-93.642270689240831,10.595562568357991],[-93.56894802393208,10.682195361826643],[-93.50022047879196,10.771130353183366],[-93.435990382050363,10.862198978899869],[-93.376160062836504,10.955232672749787],[-93.320631846682261,11.05006286940602],[-93.269308062716846,11.146521005340276],[-93.222091037371399,11.244438515225454],[-93.178883099775135,11.343646832835191],[-93.139586577258626,11.443977395540514],[-93.104103796253071,11.545261637115004],[-93.072337085887682,11.647330992231616],[-93.044188773492976,11.750016897362059],[-93.019561185500208,11.853150787179231],[-92.998356651937854,11.95656409545677],[-92.980477498337791,12.060088258666326],[-92.965826052929913,12.163554712380233],[-92.954304643944056,12.266794890372012],[-92.945815598710794,12.369640228214109],[-92.940261245460022,12.471922161478687],[-92.937543910622878,12.573472124838815],[-92.937565923328577,12.674121552967449],[-92.940229610008373,12.773701882336127],[-92.945437297992783,12.872044546718598],[-92.953091317310339,12.968980981687082],[-92.963093992593599,13.064342621914591],[-92.97534765387104,13.157960903872777],[-92.989754628473236,13.249667261335162],[-93.006217242831383,13.339293129874193],[-93.024637825175375,13.426669945062031]]]},"properties":{"objectid":1,"basin":"Pacific","prob2day":"0%","risk2day":"Low","prob7day":"80%","risk7day":"High","idp_source":"gtwo_areas_202610031135","idp_filedate":1791027463000,"idp_ingestdate":1791027517000,"st_area(shape)":92.730123656733014,"st_perimeter(shape)":38.446974093438456}}]}