{
"type": "FeatureCollection",
"name": "al092021_2021083003_initialradii",
"features": [
{ "type": "Feature", "properties": { "RADII": 34.0, "STORMID": "al092021", "BASIN": "al", "STORMNUM": 9.0, "ADVNUM": "16", "VALIDTIME": "2021083003", "SYNOPTIME": "2021083000", "TIMEZONE": "UTC", "TAU": 0.0, "NE": 80.0, "SE": 120.0, "SW": 80.0, "NW": 70.0 }, "geometry": { "type": "Polygon", "coordinates": [ [ [ -90.687, 31.5474 ], [ -90.7125, 31.5455 ], [ -90.738, 31.5433 ], [ -90.7633, 31.5407 ], [ -90.7886, 31.5377 ], [ -90.8137, 31.5343 ], [ -90.8388, 31.5306 ], [ -90.8637, 31.5265 ], [ -90.8885, 31.522 ], [ -90.9131, 31.5171 ], [ -90.9377, 31.5119 ], [ -90.962, 31.5063 ], [ -90.9862, 31.5004 ], [ -91.0103, 31.4941 ], [ -91.0341, 31.4874 ], [ -91.0578, 31.4804 ], [ -91.0813, 31.4731 ], [ -91.1046, 31.4654 ], [ -91.1277, 31.4573 ], [ -91.1507, 31.449 ], [ -91.1733, 31.4403 ], [ -91.1958, 31.4312 ], [ -91.218, 31.4219 ], [ -91.24, 31.4122 ], [ -91.2618, 31.4022 ], [ -91.2833, 31.3919 ], [ -91.3046, 31.3813 ], [ -91.3256, 31.3703 ], [ -91.3463, 31.3591 ], [ -91.3668, 31.3476 ], [ -91.387, 31.3358 ], [ -91.4069, 31.3237 ], [ -91.4265, 31.3113 ], [ -91.4458, 31.2987 ], [ -91.4649, 31.2857 ], [ -91.4836, 31.2726 ], [ -91.502, 31.2591 ], [ -91.5201, 31.2454 ], [ -91.5379, 31.2314 ], [ -91.5554, 31.2172 ], [ -91.5725, 31.2028 ], [ -91.5893, 31.1881 ], [ -91.6059, 31.1733 ], [ -91.6226, 31.1586 ], [ -91.6393, 31.144 ], [ -91.656, 31.1293 ], [ -91.6727, 31.1148 ], [ -91.6895, 31.1002 ], [ -91.7064, 31.0857 ], [ -91.7233, 31.0712 ], [ -91.7402, 31.0567 ], [ -91.757, 31.0421 ], [ -91.7736, 31.0272 ], [ -91.7899, 31.012 ], [ -91.8059, 30.9965 ], [ -91.8215, 30.9808 ], [ -91.8369, 30.9648 ], [ -91.852, 30.9486 ], [ -91.8667, 30.9321 ], [ -91.8811, 30.9154 ], [ -91.8952, 30.8984 ], [ -91.909, 30.8812 ], [ -91.9224, 30.8638 ], [ -91.9355, 30.8461 ], [ -91.9482, 30.8282 ], [ -91.9606, 30.8101 ], [ -91.9726, 30.7918 ], [ -91.9842, 30.7733 ], [ -91.9955, 30.7545 ], [ -92.0064, 30.7356 ], [ -92.017, 30.7165 ], [ -92.0271, 30.6972 ], [ -92.0369, 30.6777 ], [ -92.0462, 30.658 ], [ -92.0552, 30.6382 ], [ -92.0638, 30.6182 ], [ -92.072, 30.598 ], [ -92.0798, 30.5777 ], [ -92.0871, 30.5573 ], [ -92.0941, 30.5367 ], [ -92.1006, 30.516 ], [ -92.1068, 30.4951 ], [ -92.1125, 30.4741 ], [ -92.1178, 30.453 ], [ -92.1226, 30.4318 ], [ -92.127, 30.4105 ], [ -92.131, 30.3892 ], [ -92.1346, 30.3677 ], [ -92.1377, 30.3461 ], [ -92.1404, 30.3245 ], [ -92.1427, 30.3027 ], [ -92.1445, 30.281 ], [ -92.1459, 30.2591 ], [ -92.1468, 30.2373 ], [ -92.1473, 30.2153 ], [ -92.1473, 30.1934 ], [ -92.1469, 30.1714 ], [ -92.146, 30.1494 ], [ -92.1447, 30.1273 ], [ -92.143, 30.1053 ], [ -92.1408, 30.0833 ], [ -92.1381, 30.0612 ], [ -92.135, 30.0392 ], [ -92.1315, 30.0172 ], [ -92.1275, 29.9952 ], [ -92.123, 29.9733 ], [ -92.1181, 29.9514 ], [ -92.1128, 29.9295 ], [ -92.107, 29.9077 ], [ -92.1007, 29.886 ], [ -92.094, 29.8643 ], [ -92.0869, 29.8427 ], [ -92.0793, 29.8212 ], [ -92.0713, 29.7997 ], [ -92.0628, 29.7784 ], [ -92.0539, 29.7572 ], [ -92.0446, 29.736 ], [ -92.0348, 29.715 ], [ -92.0246, 29.6941 ], [ -92.0139, 29.6734 ], [ -92.0028, 29.6527 ], [ -91.9913, 29.6322 ], [ -91.9794, 29.6119 ], [ -91.9671, 29.5917 ], [ -91.9543, 29.5717 ], [ -91.9411, 29.5518 ], [ -91.9275, 29.5322 ], [ -91.9135, 29.5127 ], [ -91.8991, 29.4934 ], [ -91.8843, 29.4743 ], [ -91.8691, 29.4554 ], [ -91.8535, 29.4367 ], [ -91.8377, 29.418 ], [ -91.8221, 29.399 ], [ -91.8065, 29.3798 ], [ -91.791, 29.3604 ], [ -91.7755, 29.3407 ], [ -91.7601, 29.3207 ], [ -91.7446, 29.3005 ], [ -91.7292, 29.28 ], [ -91.7138, 29.2592 ], [ -91.698, 29.2384 ], [ -91.6818, 29.2177 ], [ -91.665, 29.1971 ], [ -91.6478, 29.1768 ], [ -91.63, 29.1566 ], [ -91.6116, 29.1367 ], [ -91.5928, 29.1169 ], [ -91.5735, 29.0974 ], [ -91.5537, 29.0781 ], [ -91.5333, 29.059 ], [ -91.5125, 29.0402 ], [ -91.4911, 29.0216 ], [ -91.4693, 29.0033 ], [ -91.447, 28.9853 ], [ -91.4242, 28.9675 ], [ -91.401, 28.9501 ], [ -91.3772, 28.9329 ], [ -91.353, 28.9161 ], [ -91.3283, 28.8996 ], [ -91.3032, 28.8834 ], [ -91.2776, 28.8675 ], [ -91.2516, 28.852 ], [ -91.2252, 28.8369 ], [ -91.1983, 28.8221 ], [ -91.171, 28.8077 ], [ -91.1433, 28.7937 ], [ -91.1151, 28.78 ], [ -91.0866, 28.7668 ], [ -91.0576, 28.7539 ], [ -91.0283, 28.7415 ], [ -90.9986, 28.7295 ], [ -90.9686, 28.7179 ], [ -90.9381, 28.7068 ], [ -90.9073, 28.6961 ], [ -90.8762, 28.6859 ], [ -90.8447, 28.6761 ], [ -90.8129, 28.6668 ], [ -90.7807, 28.6579 ], [ -90.7483, 28.6496 ], [ -90.7155, 28.6417 ], [ -90.6825, 28.6344 ], [ -90.6491, 28.6275 ], [ -90.6155, 28.6211 ], [ -90.5817, 28.6153 ], [ -90.5476, 28.6099 ], [ -90.5132, 28.6051 ], [ -90.4786, 28.6009 ], [ -90.4438, 28.5971 ], [ -90.4087, 28.5939 ], [ -90.3735, 28.5913 ], [ -90.3381, 28.5892 ], [ -90.3025, 28.5877 ], [ -90.2667, 28.5867 ], [ -90.2308, 28.5863 ], [ -90.1947, 28.5865 ], [ -90.1585, 28.5872 ], [ -90.1221, 28.5885 ], [ -90.0857, 28.5904 ], [ -90.0492, 28.5929 ], [ -90.0125, 28.596 ], [ -89.9758, 28.5997 ], [ -89.9391, 28.604 ], [ -89.9023, 28.6088 ], [ -89.8654, 28.6143 ], [ -89.8286, 28.6204 ], [ -89.7917, 28.6271 ], [ -89.7548, 28.6344 ], [ -89.7179, 28.6423 ], [ -89.6811, 28.6508 ], [ -89.6443, 28.66 ], [ -89.6076, 28.6697 ], [ -89.5709, 28.6801 ], [ -89.5343, 28.6911 ], [ -89.4977, 28.7027 ], [ -89.4613, 28.7149 ], [ -89.4251, 28.7277 ], [ -89.3889, 28.7412 ], [ -89.3529, 28.7553 ], [ -89.317, 28.77 ], [ -89.2814, 28.7853 ], [ -89.2459, 28.8012 ], [ -89.2112, 28.8183 ], [ -89.1782, 28.8372 ], [ -89.1467, 28.8578 ], [ -89.117, 28.88 ], [ -89.089, 28.9039 ], [ -89.0627, 28.9294 ], [ -89.0384, 28.9563 ], [ -89.0159, 28.9848 ], [ -88.9954, 29.0146 ], [ -88.9762, 29.0453 ], [ -88.9577, 29.0761 ], [ -88.94, 29.1072 ], [ -88.9229, 29.1383 ], [ -88.9065, 29.1697 ], [ -88.8908, 29.2011 ], [ -88.8759, 29.2327 ], [ -88.8616, 29.2644 ], [ -88.8481, 29.2963 ], [ -88.8353, 29.3282 ], [ -88.8232, 29.3602 ], [ -88.8117, 29.3922 ], [ -88.801, 29.4243 ], [ -88.791, 29.4565 ], [ -88.7817, 29.4886 ], [ -88.7731, 29.5208 ], [ -88.7652, 29.553 ], [ -88.758, 29.5853 ], [ -88.7516, 29.6174 ], [ -88.7458, 29.6496 ], [ -88.7407, 29.6817 ], [ -88.7363, 29.7138 ], [ -88.7326, 29.7458 ], [ -88.7296, 29.7778 ], [ -88.7272, 29.8096 ], [ -88.7256, 29.8414 ], [ -88.7246, 29.8731 ], [ -88.7243, 29.9046 ], [ -88.7247, 29.936 ], [ -88.7257, 29.9673 ], [ -88.7274, 29.9985 ], [ -88.7298, 30.0295 ], [ -88.7327, 30.0603 ], [ -88.7364, 30.0909 ], [ -88.7406, 30.1214 ], [ -88.7456, 30.1516 ], [ -88.7511, 30.1817 ], [ -88.7572, 30.2115 ], [ -88.764, 30.2411 ], [ -88.7714, 30.2705 ], [ -88.7793, 30.2996 ], [ -88.7879, 30.3285 ], [ -88.797, 30.3571 ], [ -88.8067, 30.3854 ], [ -88.817, 30.4135 ], [ -88.8279, 30.4412 ], [ -88.8393, 30.4687 ], [ -88.8512, 30.4959 ], [ -88.8637, 30.5227 ], [ -88.8767, 30.5492 ], [ -88.8903, 30.5754 ], [ -88.9043, 30.6013 ], [ -88.9189, 30.6268 ], [ -88.9339, 30.652 ], [ -88.9494, 30.6768 ], [ -88.9654, 30.7013 ], [ -88.9819, 30.7254 ], [ -88.9988, 30.7491 ], [ -89.0161, 30.7724 ], [ -89.0339, 30.7953 ], [ -89.0521, 30.8179 ], [ -89.0707, 30.84 ], [ -89.0897, 30.8618 ], [ -89.1091, 30.8831 ], [ -89.1289, 30.904 ], [ -89.1491, 30.9245 ], [ -89.1696, 30.9446 ], [ -89.1905, 30.9642 ], [ -89.2117, 30.9834 ], [ -89.2332, 31.0022 ], [ -89.255, 31.0205 ], [ -89.2772, 31.0384 ], [ -89.2996, 31.0558 ], [ -89.3223, 31.0728 ], [ -89.3453, 31.0893 ], [ -89.3685, 31.1054 ], [ -89.392, 31.121 ], [ -89.4157, 31.1362 ], [ -89.4396, 31.1509 ], [ -89.4638, 31.1651 ], [ -89.4881, 31.1789 ], [ -89.5124, 31.1924 ], [ -89.5363, 31.2058 ], [ -89.56, 31.2193 ], [ -89.5833, 31.2328 ], [ -89.6063, 31.2463 ], [ -89.6291, 31.2598 ], [ -89.6515, 31.2734 ], [ -89.6737, 31.287 ], [ -89.6956, 31.3007 ], [ -89.7175, 31.3143 ], [ -89.7397, 31.3275 ], [ -89.7621, 31.3404 ], [ -89.7847, 31.3529 ], [ -89.8076, 31.365 ], [ -89.8306, 31.3768 ], [ -89.8539, 31.3882 ], [ -89.8774, 31.3992 ], [ -89.9011, 31.4099 ], [ -89.925, 31.4202 ], [ -89.9491, 31.4301 ], [ -89.9733, 31.4396 ], [ -89.9977, 31.4487 ], [ -90.0222, 31.4575 ], [ -90.0469, 31.4659 ], [ -90.0717, 31.4738 ], [ -90.0967, 31.4814 ], [ -90.1218, 31.4886 ], [ -90.147, 31.4955 ], [ -90.1723, 31.5019 ], [ -90.1977, 31.5079 ], [ -90.2232, 31.5135 ], [ -90.2487, 31.5188 ], [ -90.2743, 31.5236 ], [ -90.3, 31.5281 ], [ -90.3258, 31.5321 ], [ -90.3516, 31.5358 ], [ -90.3774, 31.539 ], [ -90.4032, 31.5419 ], [ -90.4291, 31.5444 ], [ -90.455, 31.5464 ], [ -90.4809, 31.5481 ], [ -90.5067, 31.5494 ], [ -90.5326, 31.5503 ], [ -90.5584, 31.5508 ], [ -90.5842, 31.5509 ], [ -90.61, 31.5506 ], [ -90.6357, 31.5499 ], [ -90.6614, 31.5488 ], [ -90.687, 31.5474 ] ] ] } },
{ "type": "Feature", "properties": { "RADII": 50.0, "STORMID": "al092021", "BASIN": "al", "STORMNUM": 9.0, "ADVNUM": "16", "VALIDTIME": "2021083003", "SYNOPTIME": "2021083000", "TIMEZONE": "UTC", "TAU": 0.0, "NE": 50.0, "SE": 60.0, "SW": 40.0, "NW": 40.0 }, "geometry": { "type": "Polygon", "coordinates": [ [ [ -90.6921, 31.0488 ], [ -90.7074, 31.0469 ], [ -90.7225, 31.0449 ], [ -90.7376, 31.0426 ], [ -90.7526, 31.0401 ], [ -90.7675, 31.0373 ], [ -90.7823, 31.0343 ], [ -90.797, 31.0312 ], [ -90.8116, 31.0277 ], [ -90.826, 31.0241 ], [ -90.8404, 31.0203 ], [ -90.8547, 31.0163 ], [ -90.8688, 31.012 ], [ -90.8828, 31.0076 ], [ -90.8967, 31.0029 ], [ -90.9104, 30.998 ], [ -90.924, 30.993 ], [ -90.9374, 30.9877 ], [ -90.9508, 30.9823 ], [ -90.9639, 30.9767 ], [ -90.9769, 30.9708 ], [ -90.9898, 30.9648 ], [ -91.0024, 30.9586 ], [ -91.015, 30.9523 ], [ -91.0273, 30.9457 ], [ -91.0395, 30.939 ], [ -91.0515, 30.9322 ], [ -91.0633, 30.9251 ], [ -91.075, 30.9179 ], [ -91.0865, 30.9105 ], [ -91.0977, 30.903 ], [ -91.1088, 30.8954 ], [ -91.1197, 30.8875 ], [ -91.1304, 30.8796 ], [ -91.1409, 30.8715 ], [ -91.1512, 30.8632 ], [ -91.1614, 30.8548 ], [ -91.1713, 30.8463 ], [ -91.181, 30.8377 ], [ -91.1905, 30.8289 ], [ -91.1997, 30.82 ], [ -91.2088, 30.811 ], [ -91.2177, 30.8019 ], [ -91.2266, 30.7929 ], [ -91.2355, 30.7839 ], [ -91.2443, 30.775 ], [ -91.2531, 30.766 ], [ -91.2619, 30.7571 ], [ -91.2707, 30.7482 ], [ -91.2794, 30.7393 ], [ -91.2881, 30.7304 ], [ -91.2967, 30.7215 ], [ -91.3052, 30.7125 ], [ -91.3134, 30.7033 ], [ -91.3215, 30.694 ], [ -91.3293, 30.6845 ], [ -91.337, 30.675 ], [ -91.3445, 30.6654 ], [ -91.3518, 30.6556 ], [ -91.3589, 30.6457 ], [ -91.3657, 30.6357 ], [ -91.3724, 30.6256 ], [ -91.3789, 30.6155 ], [ -91.3851, 30.6052 ], [ -91.3912, 30.5948 ], [ -91.397, 30.5844 ], [ -91.4026, 30.5738 ], [ -91.408, 30.5632 ], [ -91.4132, 30.5525 ], [ -91.4182, 30.5417 ], [ -91.4229, 30.5308 ], [ -91.4275, 30.5199 ], [ -91.4318, 30.5089 ], [ -91.4358, 30.4979 ], [ -91.4397, 30.4867 ], [ -91.4433, 30.4756 ], [ -91.4467, 30.4643 ], [ -91.4499, 30.4531 ], [ -91.4528, 30.4417 ], [ -91.4556, 30.4304 ], [ -91.458, 30.419 ], [ -91.4603, 30.4075 ], [ -91.4623, 30.3961 ], [ -91.4641, 30.3846 ], [ -91.4656, 30.373 ], [ -91.4669, 30.3615 ], [ -91.468, 30.3499 ], [ -91.4689, 30.3383 ], [ -91.4695, 30.3267 ], [ -91.4699, 30.3152 ], [ -91.47, 30.3036 ], [ -91.4699, 30.2919 ], [ -91.4696, 30.2803 ], [ -91.469, 30.2688 ], [ -91.4682, 30.2572 ], [ -91.4672, 30.2456 ], [ -91.4659, 30.2341 ], [ -91.4644, 30.2225 ], [ -91.4627, 30.211 ], [ -91.4608, 30.1995 ], [ -91.4586, 30.1881 ], [ -91.4562, 30.1767 ], [ -91.4535, 30.1653 ], [ -91.4506, 30.154 ], [ -91.4475, 30.1427 ], [ -91.4442, 30.1314 ], [ -91.4406, 30.1203 ], [ -91.4369, 30.1091 ], [ -91.4329, 30.0981 ], [ -91.4286, 30.087 ], [ -91.4242, 30.0761 ], [ -91.4195, 30.0652 ], [ -91.4146, 30.0544 ], [ -91.4095, 30.0437 ], [ -91.4042, 30.033 ], [ -91.3987, 30.0225 ], [ -91.393, 30.012 ], [ -91.387, 30.0016 ], [ -91.3809, 29.9913 ], [ -91.3745, 29.9811 ], [ -91.3679, 29.9709 ], [ -91.3612, 29.9609 ], [ -91.3542, 29.951 ], [ -91.347, 29.9412 ], [ -91.3397, 29.9315 ], [ -91.3321, 29.9219 ], [ -91.3244, 29.9125 ], [ -91.3165, 29.9031 ], [ -91.3084, 29.8939 ], [ -91.3001, 29.8848 ], [ -91.2916, 29.8758 ], [ -91.2829, 29.867 ], [ -91.2743, 29.8581 ], [ -91.2658, 29.8491 ], [ -91.2574, 29.8399 ], [ -91.2492, 29.8305 ], [ -91.241, 29.8209 ], [ -91.233, 29.8111 ], [ -91.2251, 29.8011 ], [ -91.2173, 29.791 ], [ -91.2095, 29.7806 ], [ -91.2017, 29.7701 ], [ -91.1936, 29.7597 ], [ -91.1852, 29.7494 ], [ -91.1765, 29.7392 ], [ -91.1676, 29.7291 ], [ -91.1585, 29.7191 ], [ -91.149, 29.7092 ], [ -91.1394, 29.6994 ], [ -91.1294, 29.6897 ], [ -91.1192, 29.6802 ], [ -91.1088, 29.6707 ], [ -91.0981, 29.6614 ], [ -91.0871, 29.6522 ], [ -91.0759, 29.6432 ], [ -91.0645, 29.6343 ], [ -91.0528, 29.6255 ], [ -91.0409, 29.6169 ], [ -91.0287, 29.6085 ], [ -91.0163, 29.6002 ], [ -91.0037, 29.592 ], [ -90.9909, 29.5841 ], [ -90.9778, 29.5763 ], [ -90.9645, 29.5687 ], [ -90.951, 29.5613 ], [ -90.9372, 29.5541 ], [ -90.9233, 29.547 ], [ -90.9091, 29.5402 ], [ -90.8948, 29.5335 ], [ -90.8802, 29.5271 ], [ -90.8654, 29.5209 ], [ -90.8505, 29.5148 ], [ -90.8353, 29.509 ], [ -90.82, 29.5035 ], [ -90.8045, 29.4981 ], [ -90.7888, 29.493 ], [ -90.7729, 29.4881 ], [ -90.7569, 29.4834 ], [ -90.7407, 29.479 ], [ -90.7243, 29.4748 ], [ -90.7078, 29.4709 ], [ -90.6912, 29.4672 ], [ -90.6744, 29.4638 ], [ -90.6574, 29.4606 ], [ -90.6404, 29.4577 ], [ -90.6231, 29.455 ], [ -90.6058, 29.4526 ], [ -90.5884, 29.4505 ], [ -90.5708, 29.4486 ], [ -90.5531, 29.4471 ], [ -90.5354, 29.4458 ], [ -90.5175, 29.4447 ], [ -90.4996, 29.444 ], [ -90.4815, 29.4435 ], [ -90.4634, 29.4434 ], [ -90.4452, 29.4435 ], [ -90.427, 29.4439 ], [ -90.4086, 29.4446 ], [ -90.3903, 29.4456 ], [ -90.3719, 29.4469 ], [ -90.3534, 29.4485 ], [ -90.3349, 29.4503 ], [ -90.3164, 29.4525 ], [ -90.2978, 29.455 ], [ -90.2793, 29.4578 ], [ -90.2607, 29.4609 ], [ -90.2421, 29.4643 ], [ -90.2235, 29.468 ], [ -90.205, 29.4721 ], [ -90.1864, 29.4764 ], [ -90.1679, 29.481 ], [ -90.1494, 29.486 ], [ -90.1309, 29.4913 ], [ -90.1125, 29.4968 ], [ -90.0941, 29.5027 ], [ -90.0758, 29.5089 ], [ -90.0576, 29.5154 ], [ -90.0394, 29.5222 ], [ -90.0213, 29.5294 ], [ -90.0033, 29.5368 ], [ -89.9854, 29.5445 ], [ -89.9676, 29.5526 ], [ -89.9501, 29.5612 ], [ -89.9333, 29.5705 ], [ -89.9171, 29.5805 ], [ -89.9016, 29.5913 ], [ -89.8867, 29.6027 ], [ -89.8726, 29.6147 ], [ -89.8593, 29.6275 ], [ -89.8467, 29.6408 ], [ -89.8349, 29.6548 ], [ -89.8236, 29.6691 ], [ -89.8127, 29.6835 ], [ -89.802, 29.6981 ], [ -89.7917, 29.7129 ], [ -89.7817, 29.7277 ], [ -89.772, 29.7427 ], [ -89.7627, 29.7578 ], [ -89.7536, 29.773 ], [ -89.7449, 29.7883 ], [ -89.7365, 29.8038 ], [ -89.7285, 29.8193 ], [ -89.7207, 29.8349 ], [ -89.7133, 29.8506 ], [ -89.7063, 29.8664 ], [ -89.6995, 29.8822 ], [ -89.6931, 29.8981 ], [ -89.687, 29.9141 ], [ -89.6813, 29.9301 ], [ -89.6759, 29.9462 ], [ -89.6709, 29.9624 ], [ -89.6661, 29.9786 ], [ -89.6618, 29.9948 ], [ -89.6577, 30.0111 ], [ -89.654, 30.0274 ], [ -89.6506, 30.0437 ], [ -89.6476, 30.06 ], [ -89.6449, 30.0764 ], [ -89.6425, 30.0927 ], [ -89.6405, 30.109 ], [ -89.6388, 30.1254 ], [ -89.6375, 30.1417 ], [ -89.6365, 30.1581 ], [ -89.6358, 30.1744 ], [ -89.6355, 30.1906 ], [ -89.6355, 30.2069 ], [ -89.6358, 30.2231 ], [ -89.6364, 30.2393 ], [ -89.6374, 30.2554 ], [ -89.6387, 30.2715 ], [ -89.6404, 30.2875 ], [ -89.6423, 30.3035 ], [ -89.6446, 30.3194 ], [ -89.6472, 30.3352 ], [ -89.6502, 30.351 ], [ -89.6534, 30.3667 ], [ -89.657, 30.3823 ], [ -89.6608, 30.3978 ], [ -89.665, 30.4132 ], [ -89.6695, 30.4285 ], [ -89.6743, 30.4438 ], [ -89.6794, 30.4589 ], [ -89.6848, 30.4739 ], [ -89.6905, 30.4888 ], [ -89.6965, 30.5035 ], [ -89.7027, 30.5182 ], [ -89.7093, 30.5327 ], [ -89.7162, 30.5471 ], [ -89.7233, 30.5613 ], [ -89.7307, 30.5754 ], [ -89.7384, 30.5894 ], [ -89.7463, 30.6032 ], [ -89.7546, 30.6169 ], [ -89.7631, 30.6304 ], [ -89.7718, 30.6437 ], [ -89.7808, 30.6569 ], [ -89.7901, 30.6699 ], [ -89.7996, 30.6828 ], [ -89.8094, 30.6954 ], [ -89.8194, 30.7079 ], [ -89.8296, 30.7202 ], [ -89.84, 30.7324 ], [ -89.8507, 30.7443 ], [ -89.8617, 30.7561 ], [ -89.8728, 30.7676 ], [ -89.8841, 30.779 ], [ -89.8957, 30.7901 ], [ -89.9075, 30.8011 ], [ -89.9194, 30.8118 ], [ -89.9316, 30.8224 ], [ -89.944, 30.8327 ], [ -89.9565, 30.8428 ], [ -89.9692, 30.8527 ], [ -89.9821, 30.8624 ], [ -89.9952, 30.8719 ], [ -90.0085, 30.8811 ], [ -90.0219, 30.8902 ], [ -90.0354, 30.899 ], [ -90.0491, 30.9075 ], [ -90.063, 30.9159 ], [ -90.077, 30.924 ], [ -90.0911, 30.9318 ], [ -90.1054, 30.9395 ], [ -90.1198, 30.9469 ], [ -90.1343, 30.954 ], [ -90.149, 30.961 ], [ -90.1637, 30.9677 ], [ -90.1785, 30.9741 ], [ -90.1935, 30.9803 ], [ -90.2085, 30.9863 ], [ -90.2237, 30.992 ], [ -90.2389, 30.9974 ], [ -90.2542, 31.0027 ], [ -90.2695, 31.0076 ], [ -90.2849, 31.0124 ], [ -90.3004, 31.0168 ], [ -90.316, 31.0211 ], [ -90.3316, 31.0251 ], [ -90.3472, 31.0288 ], [ -90.3629, 31.0323 ], [ -90.3786, 31.0355 ], [ -90.3944, 31.0385 ], [ -90.4102, 31.0413 ], [ -90.4259, 31.0438 ], [ -90.4417, 31.046 ], [ -90.4576, 31.048 ], [ -90.4734, 31.0498 ], [ -90.4892, 31.0513 ], [ -90.505, 31.0525 ], [ -90.5208, 31.0535 ], [ -90.5365, 31.0543 ], [ -90.5523, 31.0548 ], [ -90.568, 31.0551 ], [ -90.5837, 31.0552 ], [ -90.5993, 31.055 ], [ -90.6149, 31.0545 ], [ -90.6305, 31.0538 ], [ -90.646, 31.0529 ], [ -90.6614, 31.0518 ], [ -90.6768, 31.0504 ], [ -90.6921, 31.0488 ] ] ] } },
{ "type": "Feature", "properties": { "RADII": 64.0, "STORMID": "al092021", "BASIN": "al", "STORMNUM": 9.0, "ADVNUM": "16", "VALIDTIME": "2021083003", "SYNOPTIME": "2021083000", "TIMEZONE": "UTC", "TAU": 0.0, "NE": 30.0, "SE": 30.0, "SW": 20.0, "NW": 20.0 }, "geometry": { "type": "Polygon", "coordinates": [ [ [ -90.6955, 30.7164 ], [ -90.704, 30.7146 ], [ -90.7123, 30.7126 ], [ -90.7206, 30.7105 ], [ -90.7288, 30.7083 ], [ -90.7369, 30.7059 ], [ -90.7449, 30.7035 ], [ -90.7529, 30.7009 ], [ -90.7607, 30.6982 ], [ -90.7685, 30.6954 ], [ -90.7761, 30.6925 ], [ -90.7837, 30.6895 ], [ -90.7912, 30.6864 ], [ -90.7985, 30.6831 ], [ -90.8058, 30.6798 ], [ -90.8129, 30.6764 ], [ -90.82, 30.6728 ], [ -90.8269, 30.6692 ], [ -90.8337, 30.6654 ], [ -90.8404, 30.6616 ], [ -90.847, 30.6577 ], [ -90.8535, 30.6537 ], [ -90.8599, 30.6496 ], [ -90.8661, 30.6455 ], [ -90.8722, 30.6412 ], [ -90.8782, 30.6369 ], [ -90.8841, 30.6325 ], [ -90.8899, 30.628 ], [ -90.8955, 30.6235 ], [ -90.901, 30.6189 ], [ -90.9064, 30.6142 ], [ -90.9116, 30.6094 ], [ -90.9167, 30.6046 ], [ -90.9217, 30.5997 ], [ -90.9266, 30.5948 ], [ -90.9313, 30.5898 ], [ -90.9359, 30.5848 ], [ -90.9403, 30.5797 ], [ -90.9446, 30.5746 ], [ -90.9488, 30.5694 ], [ -90.9529, 30.5642 ], [ -90.9568, 30.559 ], [ -90.9606, 30.5538 ], [ -90.9645, 30.5486 ], [ -90.9685, 30.5436 ], [ -90.9725, 30.5387 ], [ -90.9765, 30.5339 ], [ -90.9807, 30.5292 ], [ -90.9848, 30.5246 ], [ -90.9891, 30.52 ], [ -90.9934, 30.5156 ], [ -90.9977, 30.5111 ], [ -91.0019, 30.5066 ], [ -91.0061, 30.502 ], [ -91.0101, 30.4974 ], [ -91.0141, 30.4927 ], [ -91.0179, 30.4879 ], [ -91.0216, 30.4831 ], [ -91.0253, 30.4782 ], [ -91.0288, 30.4733 ], [ -91.0323, 30.4683 ], [ -91.0356, 30.4633 ], [ -91.0389, 30.4582 ], [ -91.042, 30.453 ], [ -91.0451, 30.4479 ], [ -91.048, 30.4426 ], [ -91.0508, 30.4374 ], [ -91.0535, 30.4321 ], [ -91.0562, 30.4267 ], [ -91.0586, 30.4213 ], [ -91.0611, 30.4159 ], [ -91.0633, 30.4105 ], [ -91.0655, 30.405 ], [ -91.0676, 30.3994 ], [ -91.0695, 30.3939 ], [ -91.0713, 30.3883 ], [ -91.0731, 30.3827 ], [ -91.0747, 30.3771 ], [ -91.0761, 30.3714 ], [ -91.0775, 30.3657 ], [ -91.0788, 30.36 ], [ -91.0799, 30.3543 ], [ -91.081, 30.3486 ], [ -91.0819, 30.3428 ], [ -91.0827, 30.3371 ], [ -91.0834, 30.3313 ], [ -91.0839, 30.3255 ], [ -91.0844, 30.3197 ], [ -91.0847, 30.3139 ], [ -91.0849, 30.3081 ], [ -91.085, 30.3023 ], [ -91.085, 30.2965 ], [ -91.0848, 30.2907 ], [ -91.0846, 30.2849 ], [ -91.0842, 30.2792 ], [ -91.0837, 30.2734 ], [ -91.0831, 30.2676 ], [ -91.0824, 30.2618 ], [ -91.0815, 30.2561 ], [ -91.0806, 30.2503 ], [ -91.0795, 30.2446 ], [ -91.0783, 30.2389 ], [ -91.077, 30.2332 ], [ -91.0756, 30.2275 ], [ -91.0741, 30.2219 ], [ -91.0724, 30.2163 ], [ -91.0707, 30.2106 ], [ -91.0688, 30.2051 ], [ -91.0668, 30.1995 ], [ -91.0647, 30.194 ], [ -91.0625, 30.1885 ], [ -91.0602, 30.1831 ], [ -91.0578, 30.1777 ], [ -91.0552, 30.1723 ], [ -91.0526, 30.167 ], [ -91.0498, 30.1617 ], [ -91.047, 30.1564 ], [ -91.044, 30.1512 ], [ -91.041, 30.1461 ], [ -91.0378, 30.141 ], [ -91.0345, 30.1359 ], [ -91.0312, 30.1309 ], [ -91.0277, 30.1259 ], [ -91.0241, 30.121 ], [ -91.0204, 30.1161 ], [ -91.0167, 30.1113 ], [ -91.0128, 30.1066 ], [ -91.0089, 30.1019 ], [ -91.0048, 30.0973 ], [ -91.0007, 30.0927 ], [ -90.9964, 30.0882 ], [ -90.9921, 30.0838 ], [ -90.9878, 30.0794 ], [ -90.9835, 30.0748 ], [ -90.9794, 30.0702 ], [ -90.9752, 30.0655 ], [ -90.9712, 30.0607 ], [ -90.9672, 30.0558 ], [ -90.9632, 30.0508 ], [ -90.9593, 30.0457 ], [ -90.9554, 30.0405 ], [ -90.9515, 30.0353 ], [ -90.9474, 30.0301 ], [ -90.9433, 30.025 ], [ -90.9389, 30.0198 ], [ -90.9345, 30.0148 ], [ -90.9299, 30.0098 ], [ -90.9252, 30.0048 ], [ -90.9203, 29.9999 ], [ -90.9154, 29.995 ], [ -90.9103, 29.9903 ], [ -90.905, 29.9855 ], [ -90.8997, 29.9809 ], [ -90.8942, 29.9763 ], [ -90.8886, 29.9717 ], [ -90.8829, 29.9673 ], [ -90.877, 29.9629 ], [ -90.871, 29.9586 ], [ -90.865, 29.9543 ], [ -90.8587, 29.9502 ], [ -90.8524, 29.9461 ], [ -90.846, 29.9421 ], [ -90.8394, 29.9382 ], [ -90.8327, 29.9344 ], [ -90.826, 29.9307 ], [ -90.8191, 29.9271 ], [ -90.8121, 29.9236 ], [ -90.805, 29.9201 ], [ -90.7978, 29.9168 ], [ -90.7904, 29.9136 ], [ -90.783, 29.9105 ], [ -90.7755, 29.9074 ], [ -90.7679, 29.9045 ], [ -90.7602, 29.9017 ], [ -90.7525, 29.8991 ], [ -90.7446, 29.8965 ], [ -90.7366, 29.894 ], [ -90.7286, 29.8917 ], [ -90.7204, 29.8895 ], [ -90.7122, 29.8874 ], [ -90.7039, 29.8854 ], [ -90.6956, 29.8836 ], [ -90.6871, 29.8819 ], [ -90.6786, 29.8803 ], [ -90.6701, 29.8788 ], [ -90.6614, 29.8775 ], [ -90.6527, 29.8763 ], [ -90.644, 29.8753 ], [ -90.6351, 29.8743 ], [ -90.6263, 29.8736 ], [ -90.6173, 29.8729 ], [ -90.6084, 29.8724 ], [ -90.5993, 29.872 ], [ -90.5903, 29.8718 ], [ -90.5812, 29.8717 ], [ -90.5721, 29.8718 ], [ -90.5629, 29.872 ], [ -90.5537, 29.8724 ], [ -90.5445, 29.8729 ], [ -90.5352, 29.8735 ], [ -90.526, 29.8743 ], [ -90.5167, 29.8753 ], [ -90.5074, 29.8764 ], [ -90.4981, 29.8777 ], [ -90.4887, 29.8791 ], [ -90.4794, 29.8806 ], [ -90.4701, 29.8824 ], [ -90.4608, 29.8842 ], [ -90.4515, 29.8863 ], [ -90.4422, 29.8885 ], [ -90.4329, 29.8908 ], [ -90.4236, 29.8933 ], [ -90.4143, 29.8959 ], [ -90.4051, 29.8987 ], [ -90.3959, 29.9017 ], [ -90.3867, 29.9048 ], [ -90.3775, 29.9081 ], [ -90.3684, 29.9115 ], [ -90.3593, 29.9151 ], [ -90.3503, 29.9189 ], [ -90.3413, 29.9228 ], [ -90.3324, 29.9268 ], [ -90.3236, 29.9311 ], [ -90.3151, 29.9357 ], [ -90.3067, 29.9405 ], [ -90.2987, 29.9457 ], [ -90.2908, 29.9511 ], [ -90.2833, 29.9568 ], [ -90.276, 29.9628 ], [ -90.269, 29.969 ], [ -90.2623, 29.9755 ], [ -90.2558, 29.9821 ], [ -90.2495, 29.9888 ], [ -90.2433, 29.9957 ], [ -90.2372, 30.0026 ], [ -90.2312, 30.0096 ], [ -90.2254, 30.0167 ], [ -90.2198, 30.0239 ], [ -90.2143, 30.0312 ], [ -90.2089, 30.0386 ], [ -90.2037, 30.046 ], [ -90.1986, 30.0535 ], [ -90.1937, 30.0611 ], [ -90.189, 30.0688 ], [ -90.1844, 30.0765 ], [ -90.1799, 30.0843 ], [ -90.1756, 30.0922 ], [ -90.1715, 30.1001 ], [ -90.1675, 30.1081 ], [ -90.1637, 30.1162 ], [ -90.1601, 30.1243 ], [ -90.1566, 30.1325 ], [ -90.1532, 30.1407 ], [ -90.1501, 30.1489 ], [ -90.1471, 30.1572 ], [ -90.1443, 30.1656 ], [ -90.1416, 30.174 ], [ -90.1391, 30.1824 ], [ -90.1368, 30.1909 ], [ -90.1347, 30.1994 ], [ -90.1327, 30.2079 ], [ -90.1309, 30.2165 ], [ -90.1293, 30.2251 ], [ -90.1278, 30.2337 ], [ -90.1266, 30.2423 ], [ -90.1255, 30.251 ], [ -90.1245, 30.2596 ], [ -90.1238, 30.2683 ], [ -90.1232, 30.277 ], [ -90.1228, 30.2857 ], [ -90.1226, 30.2944 ], [ -90.1225, 30.3031 ], [ -90.1227, 30.3118 ], [ -90.1229, 30.3205 ], [ -90.1234, 30.3292 ], [ -90.1241, 30.3379 ], [ -90.1249, 30.3465 ], [ -90.1259, 30.3552 ], [ -90.1271, 30.3638 ], [ -90.1284, 30.3725 ], [ -90.13, 30.3811 ], [ -90.1317, 30.3896 ], [ -90.1335, 30.3982 ], [ -90.1356, 30.4067 ], [ -90.1378, 30.4152 ], [ -90.1402, 30.4237 ], [ -90.1428, 30.4321 ], [ -90.1455, 30.4405 ], [ -90.1484, 30.4488 ], [ -90.1515, 30.4571 ], [ -90.1547, 30.4653 ], [ -90.1581, 30.4735 ], [ -90.1617, 30.4816 ], [ -90.1654, 30.4897 ], [ -90.1693, 30.4978 ], [ -90.1734, 30.5057 ], [ -90.1776, 30.5136 ], [ -90.182, 30.5215 ], [ -90.1866, 30.5292 ], [ -90.1913, 30.5369 ], [ -90.1961, 30.5446 ], [ -90.2011, 30.5521 ], [ -90.2063, 30.5596 ], [ -90.2116, 30.567 ], [ -90.2171, 30.5743 ], [ -90.2227, 30.5816 ], [ -90.2285, 30.5887 ], [ -90.2344, 30.5958 ], [ -90.2404, 30.6027 ], [ -90.2466, 30.6096 ], [ -90.253, 30.6164 ], [ -90.2594, 30.6231 ], [ -90.2661, 30.6296 ], [ -90.2731, 30.6359 ], [ -90.2804, 30.6419 ], [ -90.2879, 30.6476 ], [ -90.2958, 30.6531 ], [ -90.3038, 30.6583 ], [ -90.3122, 30.6632 ], [ -90.3208, 30.6678 ], [ -90.3296, 30.6722 ], [ -90.3386, 30.6763 ], [ -90.3476, 30.6802 ], [ -90.3567, 30.684 ], [ -90.3658, 30.6876 ], [ -90.3749, 30.6911 ], [ -90.3841, 30.6944 ], [ -90.3934, 30.6976 ], [ -90.4027, 30.7006 ], [ -90.412, 30.7034 ], [ -90.4213, 30.7061 ], [ -90.4306, 30.7087 ], [ -90.44, 30.711 ], [ -90.4493, 30.7133 ], [ -90.4587, 30.7153 ], [ -90.4681, 30.7172 ], [ -90.4775, 30.719 ], [ -90.4869, 30.7206 ], [ -90.4963, 30.722 ], [ -90.5057, 30.7233 ], [ -90.5151, 30.7244 ], [ -90.5244, 30.7254 ], [ -90.5338, 30.7263 ], [ -90.5431, 30.7269 ], [ -90.5524, 30.7275 ], [ -90.5617, 30.7278 ], [ -90.5709, 30.7281 ], [ -90.5802, 30.7282 ], [ -90.5893, 30.7281 ], [ -90.5985, 30.7279 ], [ -90.6076, 30.7275 ], [ -90.6166, 30.727 ], [ -90.6256, 30.7264 ], [ -90.6346, 30.7256 ], [ -90.6435, 30.7247 ], [ -90.6523, 30.7237 ], [ -90.6611, 30.7225 ], [ -90.6698, 30.7212 ], [ -90.6784, 30.7197 ], [ -90.687, 30.7181 ], [ -90.6955, 30.7164 ] ] ] } }
]
}
