{
"type": "FeatureCollection",
"name": "al092021_2021083003_forecastradii",
"features": [
{ "type": "Feature", "properties": { "RADII": 34.0, "STORMID": "al092021", "BASIN": "al", "STORMNUM": 9.0, "ADVNUM": "16", "VALIDTIME": "2021083003", "SYNOPTIME": "2021083000", "TIMEZONE": "UTC", "TAU": 0.0, "NE": 80.0, "SE": 120.0, "SW": 80.0, "NW": 70.0 }, "geometry": { "type": "Polygon", "coordinates": [ [ [ -90.6864, 31.6309 ], [ -90.7119, 31.4645 ], [ -90.7357, 31.4642 ], [ -90.7596, 31.4635 ], [ -90.7833, 31.4624 ], [ -90.8071, 31.4609 ], [ -90.8309, 31.4592 ], [ -90.8545, 31.457 ], [ -90.8782, 31.4545 ], [ -90.9018, 31.4516 ], [ -90.9253, 31.4484 ], [ -90.9487, 31.4448 ], [ -90.9721, 31.4409 ], [ -90.9954, 31.4366 ], [ -91.0186, 31.432 ], [ -91.0417, 31.427 ], [ -91.0647, 31.4217 ], [ -91.0876, 31.4161 ], [ -91.1103, 31.41 ], [ -91.1329, 31.4037 ], [ -91.1554, 31.397 ], [ -91.1777, 31.39 ], [ -91.1999, 31.3826 ], [ -91.222, 31.3749 ], [ -91.2438, 31.3669 ], [ -91.2655, 31.3585 ], [ -91.287, 31.3498 ], [ -91.3084, 31.3408 ], [ -91.3295, 31.3315 ], [ -91.3505, 31.3218 ], [ -91.3712, 31.3119 ], [ -91.3917, 31.3016 ], [ -91.412, 31.291 ], [ -91.4321, 31.2802 ], [ -91.452, 31.269 ], [ -91.4716, 31.2575 ], [ -91.491, 31.2457 ], [ -91.5101, 31.2337 ], [ -91.529, 31.2213 ], [ -91.5476, 31.2087 ], [ -91.566, 31.1958 ], [ -91.584, 31.1826 ], [ -91.6018, 31.1691 ], [ -91.6194, 31.1554 ], [ -91.6366, 31.1414 ], [ -91.6535, 31.1272 ], [ -91.6702, 31.1127 ], [ -91.6865, 31.0979 ], [ -91.7026, 31.083 ], [ -91.7183, 31.0677 ], [ -91.7337, 31.0523 ], [ -91.7488, 31.0366 ], [ -91.7635, 31.0207 ], [ -91.7779, 31.0045 ], [ -91.792, 30.9882 ], [ -91.8058, 30.9716 ], [ -91.8192, 30.9549 ], [ -91.8322, 30.9379 ], [ -91.8449, 30.9207 ], [ -91.8573, 30.9034 ], [ -91.8693, 30.8859 ], [ -91.8809, 30.8682 ], [ -91.8921, 30.8503 ], [ -91.903, 30.8322 ], [ -91.9136, 30.814 ], [ -91.9237, 30.7957 ], [ -91.9334, 30.7772 ], [ -91.9428, 30.7585 ], [ -91.9518, 30.7397 ], [ -91.9604, 30.7208 ], [ -91.9687, 30.7017 ], [ -91.9765, 30.6825 ], [ -91.9839, 30.6633 ], [ -91.991, 30.6439 ], [ -91.9976, 30.6244 ], [ -92.0039, 30.6048 ], [ -92.0097, 30.5851 ], [ -92.0152, 30.5653 ], [ -92.0202, 30.5454 ], [ -92.0248, 30.5255 ], [ -92.0291, 30.5055 ], [ -92.0329, 30.4855 ], [ -92.0363, 30.4653 ], [ -92.0393, 30.4452 ], [ -92.0419, 30.425 ], [ -92.0441, 30.4047 ], [ -92.0459, 30.3845 ], [ -92.0472, 30.3642 ], [ -92.0482, 30.3439 ], [ -92.0487, 30.3236 ], [ -92.0489, 30.3032 ], [ -92.2412, 30.2794 ], [ -92.2404, 30.2561 ], [ -92.2391, 30.2329 ], [ -92.2373, 30.2098 ], [ -92.2351, 30.1866 ], [ -92.2324, 30.1635 ], [ -92.2292, 30.1404 ], [ -92.2255, 30.1174 ], [ -92.2215, 30.0945 ], [ -92.2169, 30.0716 ], [ -92.2119, 30.0488 ], [ -92.2064, 30.026 ], [ -92.2005, 30.0034 ], [ -92.1941, 29.9808 ], [ -92.1873, 29.9583 ], [ -92.18, 29.936 ], [ -92.1723, 29.9137 ], [ -92.1641, 29.8916 ], [ -92.1555, 29.8696 ], [ -92.1465, 29.8478 ], [ -92.137, 29.826 ], [ -92.1271, 29.8045 ], [ -92.1168, 29.783 ], [ -92.106, 29.7618 ], [ -92.0949, 29.7407 ], [ -92.0833, 29.7197 ], [ -92.0712, 29.699 ], [ -92.0588, 29.6784 ], [ -92.046, 29.658 ], [ -92.0328, 29.6379 ], [ -92.0191, 29.6179 ], [ -92.0051, 29.5981 ], [ -91.9907, 29.5785 ], [ -91.9759, 29.5592 ], [ -91.9607, 29.5401 ], [ -91.9452, 29.5212 ], [ -91.9293, 29.5026 ], [ -91.913, 29.4842 ], [ -91.8963, 29.466 ], [ -91.8793, 29.4481 ], [ -91.862, 29.4305 ], [ -91.8443, 29.4131 ], [ -91.8263, 29.396 ], [ -91.8079, 29.3792 ], [ -91.7892, 29.3626 ], [ -91.7702, 29.3463 ], [ -91.7508, 29.3304 ], [ -91.7312, 29.3147 ], [ -91.7112, 29.2993 ], [ -91.691, 29.2842 ], [ -91.6704, 29.2694 ], [ -91.6496, 29.255 ], [ -91.6285, 29.2408 ], [ -91.6071, 29.227 ], [ -91.5855, 29.2135 ], [ -91.5636, 29.2003 ], [ -91.5414, 29.1874 ], [ -91.519, 29.1749 ], [ -91.4963, 29.1628 ], [ -91.4734, 29.1509 ], [ -91.4503, 29.1395 ], [ -91.427, 29.1283 ], [ -91.4034, 29.1175 ], [ -91.3797, 29.1071 ], [ -91.3557, 29.0971 ], [ -91.3316, 29.0874 ], [ -91.3072, 29.078 ], [ -91.2827, 29.0691 ], [ -91.258, 29.0605 ], [ -91.2332, 29.0523 ], [ -91.2081, 29.0444 ], [ -91.183, 29.0369 ], [ -91.1577, 29.0299 ], [ -91.1323, 29.0231 ], [ -91.1067, 29.0168 ], [ -91.081, 29.0109 ], [ -91.0552, 29.0053 ], [ -91.0293, 29.0002 ], [ -91.0033, 28.9954 ], [ -90.9773, 28.991 ], [ -90.9511, 28.9871 ], [ -90.9249, 28.9835 ], [ -90.8986, 28.9803 ], [ -90.8722, 28.9775 ], [ -90.8458, 28.9751 ], [ -90.8194, 28.9731 ], [ -90.7929, 28.9715 ], [ -90.7663, 28.9703 ], [ -90.7398, 28.9695 ], [ -90.7133, 28.9691 ], [ -90.6802, 28.3036 ], [ -90.6407, 28.3042 ], [ -90.6011, 28.3054 ], [ -90.5616, 28.3072 ], [ -90.5221, 28.3096 ], [ -90.4827, 28.3126 ], [ -90.4433, 28.3162 ], [ -90.404, 28.3203 ], [ -90.3648, 28.3251 ], [ -90.3257, 28.3304 ], [ -90.2867, 28.3364 ], [ -90.2478, 28.3429 ], [ -90.2091, 28.35 ], [ -90.1705, 28.3577 ], [ -90.132, 28.3659 ], [ -90.0937, 28.3748 ], [ -90.0556, 28.3842 ], [ -90.0177, 28.3942 ], [ -89.9799, 28.4048 ], [ -89.9424, 28.4159 ], [ -89.9051, 28.4276 ], [ -89.868, 28.4399 ], [ -89.8312, 28.4527 ], [ -89.7946, 28.466 ], [ -89.7583, 28.48 ], [ -89.7222, 28.4944 ], [ -89.6864, 28.5094 ], [ -89.6509, 28.525 ], [ -89.6158, 28.541 ], [ -89.5809, 28.5576 ], [ -89.5463, 28.5748 ], [ -89.5121, 28.5924 ], [ -89.4783, 28.6106 ], [ -89.4448, 28.6292 ], [ -89.4116, 28.6484 ], [ -89.3788, 28.668 ], [ -89.3465, 28.6882 ], [ -89.3145, 28.7088 ], [ -89.2829, 28.7299 ], [ -89.2517, 28.7515 ], [ -89.2209, 28.7736 ], [ -89.1906, 28.7961 ], [ -89.1607, 28.8191 ], [ -89.1312, 28.8425 ], [ -89.1023, 28.8663 ], [ -89.0737, 28.8906 ], [ -89.0457, 28.9154 ], [ -89.0181, 28.9405 ], [ -88.9911, 28.966 ], [ -88.9645, 28.992 ], [ -88.9384, 29.0183 ], [ -88.9129, 29.0451 ], [ -88.8879, 29.0722 ], [ -88.8634, 29.0997 ], [ -88.8394, 29.1275 ], [ -88.816, 29.1557 ], [ -88.7932, 29.1843 ], [ -88.7709, 29.2132 ], [ -88.7492, 29.2424 ], [ -88.728, 29.272 ], [ -88.7075, 29.3018 ], [ -88.6875, 29.332 ], [ -88.6681, 29.3625 ], [ -88.6493, 29.3932 ], [ -88.6312, 29.4242 ], [ -88.6136, 29.4555 ], [ -88.5967, 29.4871 ], [ -88.5803, 29.5189 ], [ -88.5647, 29.551 ], [ -88.5496, 29.5833 ], [ -88.5352, 29.6158 ], [ -88.5214, 29.6485 ], [ -88.5083, 29.6814 ], [ -88.4959, 29.7145 ], [ -88.4841, 29.7478 ], [ -88.4729, 29.7813 ], [ -88.4625, 29.8149 ], [ -88.4527, 29.8487 ], [ -88.4435, 29.8826 ], [ -88.4351, 29.9167 ], [ -88.4273, 29.9509 ], [ -88.4202, 29.9852 ], [ -88.4138, 30.0195 ], [ -88.4081, 30.054 ], [ -88.4031, 30.0886 ], [ -88.3988, 30.1232 ], [ -88.3952, 30.1579 ], [ -88.3923, 30.1927 ], [ -88.39, 30.2275 ], [ -88.3885, 30.2623 ], [ -89.1584, 30.3026 ], [ -89.1585, 30.3258 ], [ -89.1591, 30.349 ], [ -89.1602, 30.3722 ], [ -89.1617, 30.3954 ], [ -89.1637, 30.4186 ], [ -89.1661, 30.4417 ], [ -89.169, 30.4648 ], [ -89.1724, 30.4879 ], [ -89.1763, 30.5108 ], [ -89.1806, 30.5338 ], [ -89.1854, 30.5566 ], [ -89.1907, 30.5794 ], [ -89.1964, 30.6021 ], [ -89.2025, 30.6247 ], [ -89.2092, 30.6472 ], [ -89.2163, 30.6696 ], [ -89.2239, 30.6919 ], [ -89.2319, 30.7141 ], [ -89.2403, 30.7362 ], [ -89.2492, 30.7581 ], [ -89.2586, 30.7799 ], [ -89.2684, 30.8015 ], [ -89.2787, 30.823 ], [ -89.2894, 30.8444 ], [ -89.3005, 30.8656 ], [ -89.312, 30.8866 ], [ -89.324, 30.9074 ], [ -89.3365, 30.928 ], [ -89.3493, 30.9485 ], [ -89.3626, 30.9687 ], [ -89.3762, 30.9888 ], [ -89.3903, 31.0086 ], [ -89.4048, 31.0282 ], [ -89.4197, 31.0476 ], [ -89.435, 31.0668 ], [ -89.4507, 31.0858 ], [ -89.4668, 31.1045 ], [ -89.4833, 31.1229 ], [ -89.5001, 31.1411 ], [ -89.5173, 31.1591 ], [ -89.5349, 31.1768 ], [ -89.5529, 31.1942 ], [ -89.5712, 31.2113 ], [ -89.5899, 31.2282 ], [ -89.6089, 31.2448 ], [ -89.6283, 31.2611 ], [ -89.648, 31.2771 ], [ -89.668, 31.2928 ], [ -89.6883, 31.3082 ], [ -89.709, 31.3233 ], [ -89.73, 31.338 ], [ -89.7513, 31.3525 ], [ -89.7729, 31.3666 ], [ -89.7947, 31.3804 ], [ -89.8169, 31.3939 ], [ -89.8393, 31.4071 ], [ -89.8621, 31.4199 ], [ -89.885, 31.4323 ], [ -89.9083, 31.4444 ], [ -89.9317, 31.4562 ], [ -89.9555, 31.4676 ], [ -89.9794, 31.4786 ], [ -90.0036, 31.4893 ], [ -90.028, 31.4996 ], [ -90.0527, 31.5095 ], [ -90.0775, 31.5191 ], [ -90.1025, 31.5283 ], [ -90.1277, 31.5371 ], [ -90.1531, 31.5455 ], [ -90.1787, 31.5536 ], [ -90.2044, 31.5612 ], [ -90.2303, 31.5685 ], [ -90.2563, 31.5754 ], [ -90.2825, 31.5819 ], [ -90.3088, 31.588 ], [ -90.3353, 31.5937 ], [ -90.3618, 31.599 ], [ -90.3885, 31.6039 ], [ -90.4152, 31.6084 ], [ -90.4421, 31.6124 ], [ -90.469, 31.6161 ], [ -90.496, 31.6194 ], [ -90.5231, 31.6223 ], [ -90.5502, 31.6247 ], [ -90.5774, 31.6268 ], [ -90.6046, 31.6284 ], [ -90.6318, 31.6297 ], [ -90.6591, 31.6305 ], [ -90.6864, 31.6309 ] ] ] } },
{ "type": "Feature", "properties": { "RADII": 50.0, "STORMID": "al092021", "BASIN": "al", "STORMNUM": 9.0, "ADVNUM": "16", "VALIDTIME": "2021083003", "SYNOPTIME": "2021083000", "TIMEZONE": "UTC", "TAU": 0.0, "NE": 50.0, "SE": 60.0, "SW": 40.0, "NW": 40.0 }, "geometry": { "type": "Polygon", "coordinates": [ [ [ -90.6915, 31.1318 ], [ -90.7068, 30.9655 ], [ -90.7203, 30.9652 ], [ -90.7339, 30.9648 ], [ -90.7474, 30.9642 ], [ -90.7609, 30.9634 ], [ -90.7744, 30.9624 ], [ -90.7878, 30.9612 ], [ -90.8013, 30.9597 ], [ -90.8147, 30.9581 ], [ -90.8281, 30.9563 ], [ -90.8414, 30.9543 ], [ -90.8547, 30.952 ], [ -90.868, 30.9496 ], [ -90.8811, 30.947 ], [ -90.8943, 30.9441 ], [ -90.9073, 30.9411 ], [ -90.9204, 30.9379 ], [ -90.9333, 30.9345 ], [ -90.9462, 30.9309 ], [ -90.959, 30.9271 ], [ -90.9717, 30.9231 ], [ -90.9843, 30.9189 ], [ -90.9968, 30.9145 ], [ -91.0093, 30.9099 ], [ -91.0216, 30.9052 ], [ -91.0339, 30.9002 ], [ -91.046, 30.8951 ], [ -91.0581, 30.8898 ], [ -91.07, 30.8843 ], [ -91.0818, 30.8786 ], [ -91.0935, 30.8728 ], [ -91.1051, 30.8668 ], [ -91.1165, 30.8606 ], [ -91.1279, 30.8542 ], [ -91.139, 30.8477 ], [ -91.1501, 30.841 ], [ -91.161, 30.8341 ], [ -91.1718, 30.8271 ], [ -91.1824, 30.8199 ], [ -91.1929, 30.8126 ], [ -91.2032, 30.8051 ], [ -91.2133, 30.7974 ], [ -91.2234, 30.7896 ], [ -91.2332, 30.7816 ], [ -91.2429, 30.7735 ], [ -91.2524, 30.7653 ], [ -91.2617, 30.7569 ], [ -91.2709, 30.7483 ], [ -91.2799, 30.7397 ], [ -91.2887, 30.7309 ], [ -91.2973, 30.7219 ], [ -91.3058, 30.7129 ], [ -91.314, 30.7037 ], [ -91.3221, 30.6944 ], [ -91.33, 30.6849 ], [ -91.3377, 30.6754 ], [ -91.3452, 30.6657 ], [ -91.3524, 30.6559 ], [ -91.3595, 30.6461 ], [ -91.3664, 30.6361 ], [ -91.3731, 30.626 ], [ -91.3796, 30.6158 ], [ -91.3858, 30.6055 ], [ -91.3919, 30.5951 ], [ -91.3977, 30.5846 ], [ -91.4033, 30.5741 ], [ -91.4088, 30.5634 ], [ -91.4139, 30.5527 ], [ -91.4189, 30.5419 ], [ -91.4237, 30.5311 ], [ -91.4282, 30.5201 ], [ -91.4325, 30.5091 ], [ -91.4366, 30.498 ], [ -91.4404, 30.4869 ], [ -91.4441, 30.4757 ], [ -91.4475, 30.4645 ], [ -91.4507, 30.4532 ], [ -91.4536, 30.4419 ], [ -91.4563, 30.4305 ], [ -91.4588, 30.4191 ], [ -91.461, 30.4076 ], [ -91.4631, 30.3961 ], [ -91.4648, 30.3846 ], [ -91.4664, 30.3731 ], [ -91.4677, 30.3615 ], [ -91.4688, 30.35 ], [ -91.4696, 30.3384 ], [ -91.4702, 30.3268 ], [ -91.4706, 30.3152 ], [ -91.4708, 30.3035 ], [ -91.4707, 30.2919 ], [ -91.4704, 30.2803 ], [ -91.4698, 30.2687 ], [ -91.469, 30.2571 ], [ -91.468, 30.2455 ], [ -91.4667, 30.234 ], [ -91.4652, 30.2224 ], [ -91.4635, 30.2109 ], [ -91.4615, 30.1994 ], [ -91.4593, 30.188 ], [ -91.4569, 30.1765 ], [ -91.4543, 30.1652 ], [ -91.4514, 30.1538 ], [ -91.4483, 30.1425 ], [ -91.4449, 30.1313 ], [ -91.4414, 30.1201 ], [ -91.4376, 30.1089 ], [ -91.4336, 30.0978 ], [ -91.4294, 30.0868 ], [ -91.4249, 30.0759 ], [ -91.4202, 30.065 ], [ -91.4153, 30.0542 ], [ -91.4102, 30.0434 ], [ -91.4049, 30.0328 ], [ -91.3994, 30.0222 ], [ -91.3937, 30.0117 ], [ -91.3877, 30.0013 ], [ -91.3815, 29.991 ], [ -91.3752, 29.9807 ], [ -91.3686, 29.9706 ], [ -91.3618, 29.9606 ], [ -91.3549, 29.9507 ], [ -91.3477, 29.9408 ], [ -91.3403, 29.9311 ], [ -91.3328, 29.9215 ], [ -91.325, 29.9121 ], [ -91.3171, 29.9027 ], [ -91.309, 29.8935 ], [ -91.3007, 29.8844 ], [ -91.2922, 29.8754 ], [ -91.2835, 29.8665 ], [ -91.2747, 29.8578 ], [ -91.2657, 29.8492 ], [ -91.2565, 29.8407 ], [ -91.2472, 29.8324 ], [ -91.2376, 29.8242 ], [ -91.228, 29.8162 ], [ -91.2181, 29.8083 ], [ -91.2082, 29.8006 ], [ -91.198, 29.793 ], [ -91.1877, 29.7856 ], [ -91.1773, 29.7783 ], [ -91.1667, 29.7712 ], [ -91.156, 29.7643 ], [ -91.1451, 29.7575 ], [ -91.1341, 29.7508 ], [ -91.123, 29.7444 ], [ -91.1118, 29.7381 ], [ -91.1004, 29.732 ], [ -91.0889, 29.726 ], [ -91.0773, 29.7203 ], [ -91.0656, 29.7147 ], [ -91.0538, 29.7092 ], [ -91.0418, 29.704 ], [ -91.0298, 29.6989 ], [ -91.0177, 29.6941 ], [ -91.0055, 29.6894 ], [ -90.9931, 29.6849 ], [ -90.9807, 29.6805 ], [ -90.9682, 29.6764 ], [ -90.9557, 29.6724 ], [ -90.943, 29.6687 ], [ -90.9303, 29.6651 ], [ -90.9175, 29.6617 ], [ -90.9046, 29.6586 ], [ -90.8917, 29.6556 ], [ -90.8788, 29.6528 ], [ -90.8657, 29.6502 ], [ -90.8527, 29.6478 ], [ -90.8395, 29.6456 ], [ -90.8264, 29.6436 ], [ -90.8132, 29.6418 ], [ -90.7999, 29.6402 ], [ -90.7867, 29.6388 ], [ -90.7734, 29.6376 ], [ -90.7601, 29.6366 ], [ -90.7467, 29.6358 ], [ -90.7334, 29.6352 ], [ -90.72, 29.6348 ], [ -90.7067, 29.6345 ], [ -90.69, 29.3018 ], [ -90.67, 29.3021 ], [ -90.6501, 29.3027 ], [ -90.6301, 29.3036 ], [ -90.6102, 29.3048 ], [ -90.5903, 29.3063 ], [ -90.5704, 29.3081 ], [ -90.5506, 29.3102 ], [ -90.5308, 29.3126 ], [ -90.5111, 29.3153 ], [ -90.4914, 29.3183 ], [ -90.4718, 29.3216 ], [ -90.4522, 29.3252 ], [ -90.4327, 29.3291 ], [ -90.4133, 29.3333 ], [ -90.394, 29.3377 ], [ -90.3748, 29.3425 ], [ -90.3557, 29.3475 ], [ -90.3366, 29.3529 ], [ -90.3177, 29.3585 ], [ -90.2989, 29.3644 ], [ -90.2802, 29.3706 ], [ -90.2616, 29.377 ], [ -90.2432, 29.3838 ], [ -90.2249, 29.3908 ], [ -90.2068, 29.3981 ], [ -90.1887, 29.4057 ], [ -90.1709, 29.4135 ], [ -90.1532, 29.4216 ], [ -90.1356, 29.43 ], [ -90.1183, 29.4386 ], [ -90.1011, 29.4475 ], [ -90.0841, 29.4567 ], [ -90.0672, 29.4661 ], [ -90.0506, 29.4757 ], [ -90.0341, 29.4857 ], [ -90.0178, 29.4958 ], [ -90.0018, 29.5062 ], [ -89.9859, 29.5168 ], [ -89.9703, 29.5277 ], [ -89.9549, 29.5388 ], [ -89.9397, 29.5502 ], [ -89.9247, 29.5618 ], [ -89.91, 29.5735 ], [ -89.8955, 29.5856 ], [ -89.8812, 29.5978 ], [ -89.8672, 29.6102 ], [ -89.8534, 29.6229 ], [ -89.8399, 29.6357 ], [ -89.8266, 29.6488 ], [ -89.8136, 29.6621 ], [ -89.8009, 29.6755 ], [ -89.7884, 29.6892 ], [ -89.7762, 29.703 ], [ -89.7643, 29.717 ], [ -89.7526, 29.7312 ], [ -89.7413, 29.7456 ], [ -89.7302, 29.7601 ], [ -89.7194, 29.7748 ], [ -89.7089, 29.7896 ], [ -89.6988, 29.8046 ], [ -89.6889, 29.8198 ], [ -89.6793, 29.8351 ], [ -89.67, 29.8506 ], [ -89.661, 29.8662 ], [ -89.6524, 29.8819 ], [ -89.644, 29.8977 ], [ -89.636, 29.9137 ], [ -89.6283, 29.9298 ], [ -89.6209, 29.946 ], [ -89.6139, 29.9623 ], [ -89.6071, 29.9787 ], [ -89.6007, 29.9952 ], [ -89.5947, 30.0118 ], [ -89.5889, 30.0285 ], [ -89.5835, 30.0453 ], [ -89.5785, 30.0622 ], [ -89.5738, 30.0791 ], [ -89.5694, 30.0961 ], [ -89.5653, 30.1132 ], [ -89.5617, 30.1303 ], [ -89.5583, 30.1475 ], [ -89.5553, 30.1647 ], [ -89.5526, 30.182 ], [ -89.5503, 30.1993 ], [ -89.5484, 30.2166 ], [ -89.5468, 30.234 ], [ -89.5455, 30.2514 ], [ -89.5446, 30.2688 ], [ -89.544, 30.2862 ], [ -89.7365, 30.3037 ], [ -89.7367, 30.3183 ], [ -89.7371, 30.3328 ], [ -89.7379, 30.3473 ], [ -89.7389, 30.3618 ], [ -89.7402, 30.3762 ], [ -89.7418, 30.3907 ], [ -89.7437, 30.4051 ], [ -89.7459, 30.4195 ], [ -89.7484, 30.4339 ], [ -89.7512, 30.4482 ], [ -89.7543, 30.4624 ], [ -89.7577, 30.4767 ], [ -89.7613, 30.4908 ], [ -89.7653, 30.505 ], [ -89.7695, 30.519 ], [ -89.774, 30.533 ], [ -89.7788, 30.5469 ], [ -89.7839, 30.5608 ], [ -89.7892, 30.5745 ], [ -89.7949, 30.5882 ], [ -89.8008, 30.6018 ], [ -89.807, 30.6153 ], [ -89.8135, 30.6287 ], [ -89.8202, 30.642 ], [ -89.8272, 30.6552 ], [ -89.8345, 30.6683 ], [ -89.842, 30.6813 ], [ -89.8499, 30.6942 ], [ -89.8579, 30.7069 ], [ -89.8663, 30.7196 ], [ -89.8749, 30.7321 ], [ -89.8837, 30.7444 ], [ -89.8928, 30.7567 ], [ -89.9022, 30.7687 ], [ -89.9118, 30.7807 ], [ -89.9216, 30.7925 ], [ -89.9317, 30.8042 ], [ -89.942, 30.8157 ], [ -89.9525, 30.827 ], [ -89.9633, 30.8382 ], [ -89.9743, 30.8492 ], [ -89.9856, 30.86 ], [ -89.997, 30.8707 ], [ -90.0087, 30.8812 ], [ -90.0206, 30.8916 ], [ -90.0327, 30.9017 ], [ -90.045, 30.9117 ], [ -90.0575, 30.9214 ], [ -90.0702, 30.931 ], [ -90.0831, 30.9404 ], [ -90.0962, 30.9496 ], [ -90.1095, 30.9586 ], [ -90.123, 30.9674 ], [ -90.1366, 30.976 ], [ -90.1504, 30.9844 ], [ -90.1644, 30.9926 ], [ -90.1786, 31.0005 ], [ -90.1929, 31.0083 ], [ -90.2074, 31.0158 ], [ -90.222, 31.0231 ], [ -90.2368, 31.0302 ], [ -90.2517, 31.0371 ], [ -90.2668, 31.0437 ], [ -90.282, 31.0501 ], [ -90.2973, 31.0563 ], [ -90.3128, 31.0623 ], [ -90.3284, 31.068 ], [ -90.3441, 31.0735 ], [ -90.3599, 31.0787 ], [ -90.3758, 31.0837 ], [ -90.3918, 31.0885 ], [ -90.4079, 31.093 ], [ -90.4241, 31.0973 ], [ -90.4404, 31.1013 ], [ -90.4568, 31.1051 ], [ -90.4732, 31.1087 ], [ -90.4897, 31.112 ], [ -90.5063, 31.115 ], [ -90.5229, 31.1178 ], [ -90.5396, 31.1203 ], [ -90.5564, 31.1226 ], [ -90.5732, 31.1247 ], [ -90.59, 31.1265 ], [ -90.6069, 31.128 ], [ -90.6238, 31.1293 ], [ -90.6407, 31.1303 ], [ -90.6576, 31.131 ], [ -90.6746, 31.1316 ], [ -90.6915, 31.1318 ] ] ] } },
{ "type": "Feature", "properties": { "RADII": 64.0, "STORMID": "al092021", "BASIN": "al", "STORMNUM": 9.0, "ADVNUM": "16", "VALIDTIME": "2021083003", "SYNOPTIME": "2021083000", "TIMEZONE": "UTC", "TAU": 0.0, "NE": 30.0, "SE": 30.0, "SW": 20.0, "NW": 20.0 }, "geometry": { "type": "Polygon", "coordinates": [ [ [ -90.6949, 30.7991 ], [ -90.7034, 30.6327 ], [ -90.7101, 30.6326 ], [ -90.7169, 30.6324 ], [ -90.7236, 30.6321 ], [ -90.7303, 30.6317 ], [ -90.7371, 30.6312 ], [ -90.7438, 30.6306 ], [ -90.7505, 30.6299 ], [ -90.7572, 30.6291 ], [ -90.7638, 30.6282 ], [ -90.7705, 30.6271 ], [ -90.7771, 30.626 ], [ -90.7837, 30.6248 ], [ -90.7903, 30.6235 ], [ -90.7968, 30.6221 ], [ -90.8033, 30.6206 ], [ -90.8098, 30.619 ], [ -90.8163, 30.6173 ], [ -90.8227, 30.6155 ], [ -90.8291, 30.6136 ], [ -90.8354, 30.6116 ], [ -90.8417, 30.6095 ], [ -90.8479, 30.6073 ], [ -90.8541, 30.6051 ], [ -90.8603, 30.6027 ], [ -90.8664, 30.6002 ], [ -90.8725, 30.5977 ], [ -90.8785, 30.595 ], [ -90.8844, 30.5923 ], [ -90.8903, 30.5895 ], [ -90.8962, 30.5865 ], [ -90.9019, 30.5835 ], [ -90.9077, 30.5805 ], [ -90.9133, 30.5773 ], [ -90.9189, 30.574 ], [ -90.9244, 30.5707 ], [ -90.9299, 30.5673 ], [ -90.9352, 30.5638 ], [ -90.9405, 30.5602 ], [ -90.9458, 30.5565 ], [ -90.9509, 30.5528 ], [ -90.956, 30.549 ], [ -90.961, 30.5451 ], [ -90.9659, 30.5411 ], [ -90.9708, 30.537 ], [ -90.9755, 30.5329 ], [ -90.9802, 30.5287 ], [ -90.9848, 30.5245 ], [ -90.9893, 30.5202 ], [ -90.9937, 30.5158 ], [ -90.998, 30.5113 ], [ -91.0022, 30.5068 ], [ -91.0064, 30.5022 ], [ -91.0104, 30.4976 ], [ -91.0144, 30.4928 ], [ -91.0182, 30.4881 ], [ -91.022, 30.4833 ], [ -91.0256, 30.4784 ], [ -91.0292, 30.4734 ], [ -91.0326, 30.4685 ], [ -91.036, 30.4634 ], [ -91.0392, 30.4583 ], [ -91.0424, 30.4532 ], [ -91.0454, 30.448 ], [ -91.0484, 30.4428 ], [ -91.0512, 30.4375 ], [ -91.0539, 30.4322 ], [ -91.0565, 30.4269 ], [ -91.059, 30.4215 ], [ -91.0614, 30.416 ], [ -91.0637, 30.4106 ], [ -91.0659, 30.4051 ], [ -91.0679, 30.3995 ], [ -91.0699, 30.394 ], [ -91.0717, 30.3884 ], [ -91.0734, 30.3828 ], [ -91.075, 30.3771 ], [ -91.0765, 30.3715 ], [ -91.0779, 30.3658 ], [ -91.0792, 30.3601 ], [ -91.0803, 30.3544 ], [ -91.0813, 30.3486 ], [ -91.0823, 30.3429 ], [ -91.0831, 30.3371 ], [ -91.0837, 30.3313 ], [ -91.0843, 30.3255 ], [ -91.0847, 30.3197 ], [ -91.0851, 30.3139 ], [ -91.0853, 30.3081 ], [ -91.0854, 30.3023 ], [ -91.0854, 30.2965 ], [ -91.0852, 30.2907 ], [ -91.085, 30.2849 ], [ -91.0846, 30.2791 ], [ -91.0841, 30.2733 ], [ -91.0835, 30.2675 ], [ -91.0828, 30.2618 ], [ -91.0819, 30.256 ], [ -91.081, 30.2503 ], [ -91.0799, 30.2445 ], [ -91.0787, 30.2388 ], [ -91.0774, 30.2331 ], [ -91.076, 30.2274 ], [ -91.0744, 30.2218 ], [ -91.0728, 30.2162 ], [ -91.071, 30.2106 ], [ -91.0692, 30.205 ], [ -91.0672, 30.1994 ], [ -91.0651, 30.1939 ], [ -91.0629, 30.1884 ], [ -91.0605, 30.183 ], [ -91.0581, 30.1776 ], [ -91.0556, 30.1722 ], [ -91.0529, 30.1668 ], [ -91.0502, 30.1615 ], [ -91.0473, 30.1563 ], [ -91.0444, 30.1511 ], [ -91.0413, 30.1459 ], [ -91.0381, 30.1408 ], [ -91.0349, 30.1357 ], [ -91.0315, 30.1307 ], [ -91.028, 30.1257 ], [ -91.0244, 30.1208 ], [ -91.0208, 30.116 ], [ -91.017, 30.1112 ], [ -91.0131, 30.1064 ], [ -91.0092, 30.1017 ], [ -91.0051, 30.0971 ], [ -91.001, 30.0925 ], [ -90.9967, 30.088 ], [ -90.9924, 30.0836 ], [ -90.988, 30.0792 ], [ -90.9835, 30.0749 ], [ -90.9789, 30.0707 ], [ -90.9742, 30.0665 ], [ -90.9695, 30.0624 ], [ -90.9646, 30.0584 ], [ -90.9597, 30.0544 ], [ -90.9547, 30.0505 ], [ -90.9496, 30.0467 ], [ -90.9445, 30.043 ], [ -90.9393, 30.0394 ], [ -90.934, 30.0358 ], [ -90.9286, 30.0323 ], [ -90.9232, 30.0289 ], [ -90.9177, 30.0256 ], [ -90.9121, 30.0224 ], [ -90.9065, 30.0192 ], [ -90.9008, 30.0161 ], [ -90.895, 30.0132 ], [ -90.8892, 30.0103 ], [ -90.8833, 30.0075 ], [ -90.8774, 30.0047 ], [ -90.8714, 30.0021 ], [ -90.8654, 29.9996 ], [ -90.8593, 29.9971 ], [ -90.8532, 29.9948 ], [ -90.847, 29.9925 ], [ -90.8408, 29.9903 ], [ -90.8345, 29.9883 ], [ -90.8282, 29.9863 ], [ -90.8219, 29.9844 ], [ -90.8155, 29.9826 ], [ -90.8091, 29.9809 ], [ -90.8027, 29.9793 ], [ -90.7962, 29.9778 ], [ -90.7897, 29.9764 ], [ -90.7831, 29.9751 ], [ -90.7766, 29.9739 ], [ -90.77, 29.9728 ], [ -90.7634, 29.9718 ], [ -90.7568, 29.9709 ], [ -90.7501, 29.9701 ], [ -90.7435, 29.9694 ], [ -90.7368, 29.9688 ], [ -90.7301, 29.9683 ], [ -90.7234, 29.9679 ], [ -90.7168, 29.9676 ], [ -90.7101, 29.9674 ], [ -90.7034, 29.9673 ], [ -90.695, 29.8009 ], [ -90.6849, 29.8011 ], [ -90.6749, 29.8014 ], [ -90.6649, 29.8018 ], [ -90.6549, 29.8024 ], [ -90.6449, 29.8032 ], [ -90.6349, 29.8041 ], [ -90.6249, 29.8051 ], [ -90.615, 29.8063 ], [ -90.6051, 29.8077 ], [ -90.5952, 29.8092 ], [ -90.5853, 29.8109 ], [ -90.5755, 29.8127 ], [ -90.5657, 29.8146 ], [ -90.556, 29.8167 ], [ -90.5463, 29.819 ], [ -90.5366, 29.8213 ], [ -90.527, 29.8239 ], [ -90.5174, 29.8266 ], [ -90.5079, 29.8294 ], [ -90.4985, 29.8323 ], [ -90.4891, 29.8355 ], [ -90.4798, 29.8387 ], [ -90.4706, 29.8421 ], [ -90.4614, 29.8456 ], [ -90.4523, 29.8493 ], [ -90.4432, 29.8531 ], [ -90.4343, 29.857 ], [ -90.4254, 29.8611 ], [ -90.4166, 29.8653 ], [ -90.4079, 29.8696 ], [ -90.3993, 29.8741 ], [ -90.3907, 29.8787 ], [ -90.3823, 29.8834 ], [ -90.3739, 29.8883 ], [ -90.3657, 29.8932 ], [ -90.3575, 29.8983 ], [ -90.3495, 29.9036 ], [ -90.3416, 29.9089 ], [ -90.3337, 29.9144 ], [ -90.326, 29.9199 ], [ -90.3184, 29.9256 ], [ -90.3109, 29.9314 ], [ -90.3035, 29.9374 ], [ -90.2963, 29.9434 ], [ -90.2891, 29.9495 ], [ -90.2821, 29.9558 ], [ -90.2753, 29.9621 ], [ -90.2685, 29.9686 ], [ -90.2619, 29.9751 ], [ -90.2554, 29.9818 ], [ -90.249, 29.9885 ], [ -90.2428, 29.9954 ], [ -90.2367, 30.0023 ], [ -90.2308, 30.0093 ], [ -90.225, 30.0164 ], [ -90.2193, 30.0237 ], [ -90.2138, 30.0309 ], [ -90.2084, 30.0383 ], [ -90.2032, 30.0457 ], [ -90.1981, 30.0533 ], [ -90.1932, 30.0609 ], [ -90.1884, 30.0685 ], [ -90.1838, 30.0763 ], [ -90.1794, 30.0841 ], [ -90.1751, 30.092 ], [ -90.1709, 30.0999 ], [ -90.167, 30.1079 ], [ -90.1632, 30.116 ], [ -90.1595, 30.1241 ], [ -90.156, 30.1323 ], [ -90.1527, 30.1405 ], [ -90.1495, 30.1488 ], [ -90.1465, 30.1571 ], [ -90.1437, 30.1654 ], [ -90.1411, 30.1738 ], [ -90.1386, 30.1823 ], [ -90.1362, 30.1908 ], [ -90.1341, 30.1993 ], [ -90.1321, 30.2078 ], [ -90.1303, 30.2164 ], [ -90.1287, 30.225 ], [ -90.1273, 30.2336 ], [ -90.126, 30.2423 ], [ -90.1249, 30.2509 ], [ -90.1239, 30.2596 ], [ -90.1232, 30.2683 ], [ -90.1226, 30.277 ], [ -90.1222, 30.2857 ], [ -90.122, 30.2944 ], [ -90.1219, 30.3031 ], [ -90.122, 30.3118 ], [ -90.1224, 30.3205 ], [ -90.1228, 30.3292 ], [ -90.1235, 30.3379 ], [ -90.1243, 30.3466 ], [ -90.1253, 30.3552 ], [ -90.1265, 30.3639 ], [ -90.1278, 30.3725 ], [ -90.1294, 30.3811 ], [ -90.1311, 30.3897 ], [ -90.133, 30.3983 ], [ -90.135, 30.4068 ], [ -90.1372, 30.4153 ], [ -90.1396, 30.4238 ], [ -90.1422, 30.4322 ], [ -90.1449, 30.4406 ], [ -90.1478, 30.4489 ], [ -90.1509, 30.4572 ], [ -90.1542, 30.4655 ], [ -90.1576, 30.4737 ], [ -90.1611, 30.4818 ], [ -90.1649, 30.4899 ], [ -90.1688, 30.4979 ], [ -90.1729, 30.5059 ], [ -90.1771, 30.5138 ], [ -90.1815, 30.5217 ], [ -90.186, 30.5295 ], [ -90.1907, 30.5372 ], [ -90.1956, 30.5448 ], [ -90.2006, 30.5524 ], [ -90.2058, 30.5599 ], [ -90.2111, 30.5673 ], [ -90.2166, 30.5746 ], [ -90.2222, 30.5818 ], [ -90.228, 30.589 ], [ -90.2339, 30.5961 ], [ -90.24, 30.603 ], [ -90.2462, 30.6099 ], [ -90.2525, 30.6167 ], [ -90.259, 30.6234 ], [ -90.2656, 30.63 ], [ -90.2723, 30.6365 ], [ -90.2792, 30.6429 ], [ -90.2862, 30.6492 ], [ -90.2933, 30.6554 ], [ -90.3006, 30.6614 ], [ -90.308, 30.6674 ], [ -90.3155, 30.6733 ], [ -90.3231, 30.679 ], [ -90.3308, 30.6846 ], [ -90.3387, 30.6901 ], [ -90.3467, 30.6955 ], [ -90.3547, 30.7008 ], [ -90.3629, 30.7059 ], [ -90.3712, 30.7109 ], [ -90.3796, 30.7158 ], [ -90.3881, 30.7206 ], [ -90.3966, 30.7252 ], [ -90.4053, 30.7297 ], [ -90.4141, 30.7341 ], [ -90.4229, 30.7383 ], [ -90.4319, 30.7424 ], [ -90.4409, 30.7464 ], [ -90.45, 30.7502 ], [ -90.4592, 30.7539 ], [ -90.4684, 30.7575 ], [ -90.4777, 30.7609 ], [ -90.4871, 30.7642 ], [ -90.4966, 30.7673 ], [ -90.5061, 30.7703 ], [ -90.5157, 30.7732 ], [ -90.5253, 30.7759 ], [ -90.535, 30.7785 ], [ -90.5447, 30.7809 ], [ -90.5545, 30.7831 ], [ -90.5644, 30.7852 ], [ -90.5743, 30.7872 ], [ -90.5842, 30.789 ], [ -90.5941, 30.7907 ], [ -90.6041, 30.7922 ], [ -90.6141, 30.7936 ], [ -90.6242, 30.7948 ], [ -90.6342, 30.7959 ], [ -90.6443, 30.7968 ], [ -90.6544, 30.7976 ], [ -90.6645, 30.7982 ], [ -90.6747, 30.7986 ], [ -90.6848, 30.7989 ], [ -90.6949, 30.7991 ] ] ] } },
{ "type": "Feature", "properties": { "RADII": 34.0, "STORMID": "al092021", "BASIN": "al", "STORMNUM": 9.0, "ADVNUM": "16", "VALIDTIME": "2021083012", "SYNOPTIME": "2021083000", "TIMEZONE": "UTC", "TAU": 12.0, "NE": 40.0, "SE": 90.0, "SW": 50.0, "NW": 40.0 }, "geometry": { "type": "Polygon", "coordinates": [ [ [ -90.7932, 32.1655 ], [ -90.8069, 32.1655 ], [ -90.8206, 32.1652 ], [ -90.8343, 32.1648 ], [ -90.848, 32.1642 ], [ -90.8617, 32.1634 ], [ -90.8754, 32.1624 ], [ -90.889, 32.1612 ], [ -90.9026, 32.1597 ], [ -90.9162, 32.1581 ], [ -90.9297, 32.1563 ], [ -90.9433, 32.1543 ], [ -90.9567, 32.152 ], [ -90.9701, 32.1496 ], [ -90.9835, 32.147 ], [ -90.9968, 32.1441 ], [ -91.01, 32.1411 ], [ -91.0232, 32.1379 ], [ -91.0363, 32.1345 ], [ -91.0494, 32.1308 ], [ -91.0623, 32.127 ], [ -91.0752, 32.123 ], [ -91.088, 32.1188 ], [ -91.1007, 32.1145 ], [ -91.1133, 32.1099 ], [ -91.1258, 32.1051 ], [ -91.1382, 32.1002 ], [ -91.1505, 32.0951 ], [ -91.1627, 32.0898 ], [ -91.1748, 32.0843 ], [ -91.1867, 32.0786 ], [ -91.1986, 32.0728 ], [ -91.2103, 32.0668 ], [ -91.2219, 32.0606 ], [ -91.2334, 32.0542 ], [ -91.2447, 32.0477 ], [ -91.2559, 32.041 ], [ -91.2669, 32.0341 ], [ -91.2778, 32.0271 ], [ -91.2886, 32.0199 ], [ -91.2992, 32.0125 ], [ -91.3097, 32.005 ], [ -91.32, 31.9974 ], [ -91.3301, 31.9895 ], [ -91.3401, 31.9816 ], [ -91.3499, 31.9735 ], [ -91.3595, 31.9652 ], [ -91.3689, 31.9568 ], [ -91.3782, 31.9483 ], [ -91.3873, 31.9396 ], [ -91.3963, 31.9308 ], [ -91.405, 31.9219 ], [ -91.4136, 31.9128 ], [ -91.4219, 31.9036 ], [ -91.4301, 31.8943 ], [ -91.4381, 31.8849 ], [ -91.4458, 31.8753 ], [ -91.4534, 31.8656 ], [ -91.4608, 31.8559 ], [ -91.468, 31.846 ], [ -91.4749, 31.836 ], [ -91.4817, 31.8259 ], [ -91.4883, 31.8157 ], [ -91.4946, 31.8054 ], [ -91.5007, 31.795 ], [ -91.5066, 31.7845 ], [ -91.5123, 31.774 ], [ -91.5178, 31.7634 ], [ -91.523, 31.7526 ], [ -91.5281, 31.7418 ], [ -91.5329, 31.731 ], [ -91.5375, 31.72 ], [ -91.5418, 31.709 ], [ -91.546, 31.698 ], [ -91.5499, 31.6868 ], [ -91.5535, 31.6756 ], [ -91.557, 31.6644 ], [ -91.5602, 31.6531 ], [ -91.5632, 31.6418 ], [ -91.5659, 31.6304 ], [ -91.5684, 31.619 ], [ -91.5707, 31.6075 ], [ -91.5727, 31.596 ], [ -91.5745, 31.5845 ], [ -91.5761, 31.573 ], [ -91.5774, 31.5614 ], [ -91.5785, 31.5499 ], [ -91.5794, 31.5383 ], [ -91.58, 31.5267 ], [ -91.5804, 31.5151 ], [ -91.5805, 31.5034 ], [ -91.7755, 31.489 ], [ -91.775, 31.4745 ], [ -91.7743, 31.46 ], [ -91.7732, 31.4455 ], [ -91.7719, 31.4311 ], [ -91.7703, 31.4166 ], [ -91.7683, 31.4022 ], [ -91.7661, 31.3878 ], [ -91.7636, 31.3734 ], [ -91.7608, 31.3591 ], [ -91.7577, 31.3448 ], [ -91.7543, 31.3306 ], [ -91.7506, 31.3164 ], [ -91.7467, 31.3023 ], [ -91.7424, 31.2883 ], [ -91.7379, 31.2743 ], [ -91.7331, 31.2604 ], [ -91.728, 31.2465 ], [ -91.7226, 31.2327 ], [ -91.7169, 31.2191 ], [ -91.711, 31.2055 ], [ -91.7048, 31.1919 ], [ -91.6983, 31.1785 ], [ -91.6915, 31.1652 ], [ -91.6845, 31.152 ], [ -91.6772, 31.1389 ], [ -91.6697, 31.1259 ], [ -91.6618, 31.113 ], [ -91.6538, 31.1002 ], [ -91.6454, 31.0876 ], [ -91.6368, 31.0751 ], [ -91.628, 31.0627 ], [ -91.6189, 31.0504 ], [ -91.6096, 31.0383 ], [ -91.6, 31.0263 ], [ -91.5902, 31.0145 ], [ -91.5801, 31.0028 ], [ -91.5698, 30.9913 ], [ -91.5593, 30.9799 ], [ -91.5486, 30.9687 ], [ -91.5376, 30.9576 ], [ -91.5264, 30.9467 ], [ -91.515, 30.936 ], [ -91.5034, 30.9255 ], [ -91.4916, 30.9151 ], [ -91.4795, 30.9049 ], [ -91.4673, 30.8949 ], [ -91.4548, 30.885 ], [ -91.4422, 30.8754 ], [ -91.4294, 30.8659 ], [ -91.4164, 30.8566 ], [ -91.4032, 30.8476 ], [ -91.3898, 30.8387 ], [ -91.3762, 30.83 ], [ -91.3625, 30.8216 ], [ -91.3486, 30.8133 ], [ -91.3345, 30.8052 ], [ -91.3203, 30.7974 ], [ -91.3059, 30.7897 ], [ -91.2914, 30.7823 ], [ -91.2767, 30.7751 ], [ -91.2619, 30.7681 ], [ -91.247, 30.7614 ], [ -91.2319, 30.7548 ], [ -91.2167, 30.7485 ], [ -91.2014, 30.7424 ], [ -91.1859, 30.7366 ], [ -91.1703, 30.7309 ], [ -91.1546, 30.7255 ], [ -91.1389, 30.7204 ], [ -91.123, 30.7155 ], [ -91.107, 30.7108 ], [ -91.0909, 30.7063 ], [ -91.0748, 30.7021 ], [ -91.0585, 30.6981 ], [ -91.0422, 30.6944 ], [ -91.0258, 30.6909 ], [ -91.0094, 30.6877 ], [ -90.9928, 30.6847 ], [ -90.9763, 30.682 ], [ -90.9596, 30.6795 ], [ -90.943, 30.6772 ], [ -90.9262, 30.6752 ], [ -90.9095, 30.6735 ], [ -90.8927, 30.6719 ], [ -90.8759, 30.6707 ], [ -90.859, 30.6697 ], [ -90.8422, 30.6689 ], [ -90.8253, 30.6684 ], [ -90.8084, 30.6682 ], [ -90.7849, 30.0027 ], [ -90.7548, 30.0032 ], [ -90.7246, 30.0041 ], [ -90.6945, 30.0054 ], [ -90.6644, 30.0072 ], [ -90.6343, 30.0095 ], [ -90.6043, 30.0122 ], [ -90.5743, 30.0153 ], [ -90.5444, 30.0189 ], [ -90.5146, 30.0229 ], [ -90.4849, 30.0274 ], [ -90.4552, 30.0323 ], [ -90.4257, 30.0376 ], [ -90.3963, 30.0434 ], [ -90.3669, 30.0496 ], [ -90.3377, 30.0563 ], [ -90.3087, 30.0634 ], [ -90.2798, 30.0709 ], [ -90.251, 30.0789 ], [ -90.2224, 30.0873 ], [ -90.194, 30.0961 ], [ -90.1657, 30.1053 ], [ -90.1377, 30.115 ], [ -90.1098, 30.125 ], [ -90.0821, 30.1355 ], [ -90.0546, 30.1464 ], [ -90.0274, 30.1577 ], [ -90.0004, 30.1694 ], [ -89.9736, 30.1815 ], [ -89.947, 30.194 ], [ -89.9207, 30.2069 ], [ -89.8947, 30.2201 ], [ -89.8689, 30.2338 ], [ -89.8434, 30.2478 ], [ -89.8182, 30.2623 ], [ -89.7932, 30.2771 ], [ -89.7686, 30.2922 ], [ -89.7442, 30.3078 ], [ -89.7202, 30.3237 ], [ -89.6965, 30.3399 ], [ -89.6731, 30.3565 ], [ -89.6501, 30.3734 ], [ -89.6273, 30.3907 ], [ -89.605, 30.4083 ], [ -89.5829, 30.4263 ], [ -89.5613, 30.4445 ], [ -89.54, 30.4631 ], [ -89.5191, 30.482 ], [ -89.4985, 30.5013 ], [ -89.4783, 30.5208 ], [ -89.4586, 30.5406 ], [ -89.4392, 30.5607 ], [ -89.4202, 30.5811 ], [ -89.4016, 30.6018 ], [ -89.3835, 30.6227 ], [ -89.3657, 30.6439 ], [ -89.3484, 30.6654 ], [ -89.3316, 30.6871 ], [ -89.3151, 30.7091 ], [ -89.2991, 30.7313 ], [ -89.2835, 30.7537 ], [ -89.2684, 30.7764 ], [ -89.2538, 30.7993 ], [ -89.2396, 30.8224 ], [ -89.2259, 30.8457 ], [ -89.2126, 30.8693 ], [ -89.1998, 30.893 ], [ -89.1875, 30.9169 ], [ -89.1757, 30.941 ], [ -89.1644, 30.9652 ], [ -89.1535, 30.9896 ], [ -89.1432, 31.0142 ], [ -89.1333, 31.0389 ], [ -89.1239, 31.0638 ], [ -89.1151, 31.0888 ], [ -89.1067, 31.114 ], [ -89.0989, 31.1392 ], [ -89.0916, 31.1646 ], [ -89.0848, 31.19 ], [ -89.0785, 31.2156 ], [ -89.0727, 31.2413 ], [ -89.0674, 31.267 ], [ -89.0627, 31.2928 ], [ -89.0585, 31.3187 ], [ -89.0548, 31.3446 ], [ -89.0517, 31.3706 ], [ -89.049, 31.3967 ], [ -89.047, 31.4227 ], [ -89.0454, 31.4488 ], [ -89.0444, 31.475 ], [ -90.0195, 31.5034 ], [ -90.0197, 31.5151 ], [ -90.02, 31.5267 ], [ -90.0206, 31.5383 ], [ -90.0215, 31.5499 ], [ -90.0226, 31.5614 ], [ -90.0239, 31.573 ], [ -90.0255, 31.5845 ], [ -90.0273, 31.596 ], [ -90.0293, 31.6075 ], [ -90.0316, 31.619 ], [ -90.0341, 31.6304 ], [ -90.0369, 31.6418 ], [ -90.0398, 31.6531 ], [ -90.043, 31.6644 ], [ -90.0465, 31.6756 ], [ -90.0502, 31.6868 ], [ -90.0541, 31.698 ], [ -90.0582, 31.709 ], [ -90.0625, 31.72 ], [ -90.0671, 31.731 ], [ -90.0719, 31.7418 ], [ -90.077, 31.7526 ], [ -90.0822, 31.7634 ], [ -90.0877, 31.774 ], [ -90.0934, 31.7846 ], [ -90.0993, 31.795 ], [ -90.1054, 31.8054 ], [ -90.1118, 31.8157 ], [ -90.1183, 31.8259 ], [ -90.1251, 31.836 ], [ -90.132, 31.846 ], [ -90.1392, 31.8559 ], [ -90.1466, 31.8656 ], [ -90.1542, 31.8753 ], [ -90.162, 31.8849 ], [ -90.1699, 31.8943 ], [ -90.1781, 31.9036 ], [ -90.1865, 31.9128 ], [ -90.195, 31.9219 ], [ -90.2038, 31.9308 ], [ -90.2127, 31.9396 ], [ -90.2218, 31.9483 ], [ -90.2311, 31.9568 ], [ -90.2405, 31.9652 ], [ -90.2502, 31.9735 ], [ -90.26, 31.9816 ], [ -90.2699, 31.9896 ], [ -90.2801, 31.9974 ], [ -90.2904, 32.005 ], [ -90.3008, 32.0125 ], [ -90.3114, 32.0199 ], [ -90.3222, 32.0271 ], [ -90.3331, 32.0341 ], [ -90.3441, 32.041 ], [ -90.3553, 32.0477 ], [ -90.3666, 32.0542 ], [ -90.3781, 32.0606 ], [ -90.3897, 32.0668 ], [ -90.4014, 32.0728 ], [ -90.4133, 32.0786 ], [ -90.4252, 32.0843 ], [ -90.4373, 32.0898 ], [ -90.4495, 32.0951 ], [ -90.4618, 32.1002 ], [ -90.4742, 32.1051 ], [ -90.4867, 32.1099 ], [ -90.4993, 32.1145 ], [ -90.512, 32.1189 ], [ -90.5248, 32.123 ], [ -90.5377, 32.127 ], [ -90.5507, 32.1308 ], [ -90.5637, 32.1345 ], [ -90.5768, 32.1379 ], [ -90.59, 32.1411 ], [ -90.6032, 32.1441 ], [ -90.6165, 32.147 ], [ -90.6299, 32.1496 ], [ -90.6433, 32.152 ], [ -90.6568, 32.1543 ], [ -90.6703, 32.1563 ], [ -90.6838, 32.1581 ], [ -90.6974, 32.1597 ], [ -90.711, 32.1612 ], [ -90.7247, 32.1624 ], [ -90.7383, 32.1634 ], [ -90.752, 32.1642 ], [ -90.7657, 32.1648 ], [ -90.7794, 32.1652 ], [ -90.7932, 32.1655 ] ] ] } },
{ "type": "Feature", "properties": { "RADII": 50.0, "STORMID": "al092021", "BASIN": "al", "STORMNUM": 9.0, "ADVNUM": "16", "VALIDTIME": "2021083012", "SYNOPTIME": "2021083000", "TIMEZONE": "UTC", "TAU": 12.0, "NE": 20.0, "SE": 30.0, "SW": 20.0, "NW": 20.0 }, "geometry": { "type": "Polygon", "coordinates": [ [ [ -90.7966, 31.8327 ], [ -90.8034, 31.8327 ], [ -90.8103, 31.8326 ], [ -90.8171, 31.8324 ], [ -90.8239, 31.8321 ], [ -90.8307, 31.8317 ], [ -90.8375, 31.8312 ], [ -90.8443, 31.8306 ], [ -90.8511, 31.8299 ], [ -90.8579, 31.8291 ], [ -90.8646, 31.8282 ], [ -90.8714, 31.8271 ], [ -90.8781, 31.826 ], [ -90.8848, 31.8248 ], [ -90.8914, 31.8235 ], [ -90.8981, 31.8221 ], [ -90.9047, 31.8206 ], [ -90.9112, 31.819 ], [ -90.9178, 31.8173 ], [ -90.9243, 31.8155 ], [ -90.9307, 31.8136 ], [ -90.9371, 31.8116 ], [ -90.9435, 31.8095 ], [ -90.9498, 31.8073 ], [ -90.9561, 31.805 ], [ -90.9624, 31.8027 ], [ -90.9686, 31.8002 ], [ -90.9747, 31.7977 ], [ -90.9808, 31.795 ], [ -90.9868, 31.7923 ], [ -90.9928, 31.7895 ], [ -90.9987, 31.7865 ], [ -91.0045, 31.7835 ], [ -91.0103, 31.7805 ], [ -91.016, 31.7773 ], [ -91.0217, 31.774 ], [ -91.0273, 31.7707 ], [ -91.0328, 31.7673 ], [ -91.0383, 31.7638 ], [ -91.0436, 31.7602 ], [ -91.0489, 31.7565 ], [ -91.0541, 31.7528 ], [ -91.0593, 31.7489 ], [ -91.0643, 31.745 ], [ -91.0693, 31.7411 ], [ -91.0742, 31.737 ], [ -91.079, 31.7329 ], [ -91.0838, 31.7287 ], [ -91.0884, 31.7245 ], [ -91.093, 31.7201 ], [ -91.0974, 31.7158 ], [ -91.1018, 31.7113 ], [ -91.1061, 31.7068 ], [ -91.1103, 31.7022 ], [ -91.1144, 31.6975 ], [ -91.1184, 31.6928 ], [ -91.1223, 31.6881 ], [ -91.1261, 31.6832 ], [ -91.1298, 31.6784 ], [ -91.1334, 31.6734 ], [ -91.1369, 31.6684 ], [ -91.1403, 31.6634 ], [ -91.1435, 31.6583 ], [ -91.1467, 31.6532 ], [ -91.1498, 31.648 ], [ -91.1528, 31.6428 ], [ -91.1556, 31.6375 ], [ -91.1584, 31.6322 ], [ -91.161, 31.6268 ], [ -91.1636, 31.6214 ], [ -91.166, 31.616 ], [ -91.1683, 31.6105 ], [ -91.1705, 31.605 ], [ -91.1726, 31.5995 ], [ -91.1746, 31.594 ], [ -91.1764, 31.5884 ], [ -91.1782, 31.5828 ], [ -91.1798, 31.5771 ], [ -91.1813, 31.5715 ], [ -91.1827, 31.5658 ], [ -91.184, 31.5601 ], [ -91.1851, 31.5543 ], [ -91.1862, 31.5486 ], [ -91.1871, 31.5428 ], [ -91.1879, 31.5371 ], [ -91.1886, 31.5313 ], [ -91.1892, 31.5255 ], [ -91.1896, 31.5197 ], [ -91.1899, 31.5139 ], [ -91.1902, 31.5081 ], [ -91.1903, 31.5023 ], [ -91.1902, 31.4965 ], [ -91.1901, 31.4907 ], [ -91.1898, 31.4849 ], [ -91.1894, 31.4791 ], [ -91.1889, 31.4733 ], [ -91.1883, 31.4675 ], [ -91.1876, 31.4617 ], [ -91.1867, 31.456 ], [ -91.1858, 31.4502 ], [ -91.1847, 31.4445 ], [ -91.1835, 31.4388 ], [ -91.1821, 31.4331 ], [ -91.1807, 31.4274 ], [ -91.1792, 31.4218 ], [ -91.1775, 31.4161 ], [ -91.1757, 31.4105 ], [ -91.1738, 31.405 ], [ -91.1718, 31.3994 ], [ -91.1697, 31.3939 ], [ -91.1674, 31.3884 ], [ -91.1651, 31.383 ], [ -91.1626, 31.3775 ], [ -91.1601, 31.3722 ], [ -91.1574, 31.3668 ], [ -91.1546, 31.3615 ], [ -91.1517, 31.3563 ], [ -91.1487, 31.3511 ], [ -91.1456, 31.3459 ], [ -91.1424, 31.3408 ], [ -91.1391, 31.3357 ], [ -91.1356, 31.3307 ], [ -91.1321, 31.3257 ], [ -91.1285, 31.3208 ], [ -91.1248, 31.3159 ], [ -91.121, 31.3111 ], [ -91.1171, 31.3064 ], [ -91.113, 31.3017 ], [ -91.1089, 31.2971 ], [ -91.1047, 31.2925 ], [ -91.1004, 31.288 ], [ -91.0961, 31.2836 ], [ -91.0916, 31.2792 ], [ -91.087, 31.2749 ], [ -91.0824, 31.2706 ], [ -91.0777, 31.2665 ], [ -91.0728, 31.2624 ], [ -91.0679, 31.2584 ], [ -91.063, 31.2544 ], [ -91.0579, 31.2505 ], [ -91.0528, 31.2467 ], [ -91.0476, 31.243 ], [ -91.0423, 31.2394 ], [ -91.0369, 31.2358 ], [ -91.0315, 31.2323 ], [ -91.026, 31.2289 ], [ -91.0204, 31.2256 ], [ -91.0148, 31.2224 ], [ -91.0091, 31.2192 ], [ -91.0033, 31.2161 ], [ -90.9975, 31.2132 ], [ -90.9916, 31.2103 ], [ -90.9856, 31.2074 ], [ -90.9796, 31.2047 ], [ -90.9736, 31.2021 ], [ -90.9675, 31.1996 ], [ -90.9613, 31.1971 ], [ -90.9551, 31.1948 ], [ -90.9489, 31.1925 ], [ -90.9426, 31.1903 ], [ -90.9362, 31.1883 ], [ -90.9298, 31.1863 ], [ -90.9234, 31.1844 ], [ -90.917, 31.1826 ], [ -90.9105, 31.1809 ], [ -90.9039, 31.1793 ], [ -90.8974, 31.1778 ], [ -90.8908, 31.1764 ], [ -90.8842, 31.1751 ], [ -90.8775, 31.1739 ], [ -90.8709, 31.1728 ], [ -90.8642, 31.1718 ], [ -90.8575, 31.1709 ], [ -90.8508, 31.1701 ], [ -90.844, 31.1694 ], [ -90.8373, 31.1688 ], [ -90.8305, 31.1683 ], [ -90.8237, 31.1679 ], [ -90.817, 31.1676 ], [ -90.8102, 31.1674 ], [ -90.8034, 31.1673 ], [ -90.7949, 31.0009 ], [ -90.7848, 31.0011 ], [ -90.7746, 31.0014 ], [ -90.7645, 31.0018 ], [ -90.7543, 31.0024 ], [ -90.7442, 31.0032 ], [ -90.7341, 31.0041 ], [ -90.724, 31.0051 ], [ -90.7139, 31.0063 ], [ -90.7039, 31.0077 ], [ -90.6939, 31.0092 ], [ -90.6839, 31.0109 ], [ -90.674, 31.0127 ], [ -90.6641, 31.0146 ], [ -90.6542, 31.0167 ], [ -90.6444, 31.019 ], [ -90.6346, 31.0213 ], [ -90.6249, 31.0239 ], [ -90.6152, 31.0266 ], [ -90.6056, 31.0294 ], [ -90.596, 31.0323 ], [ -90.5865, 31.0354 ], [ -90.5771, 31.0387 ], [ -90.5677, 31.0421 ], [ -90.5584, 31.0456 ], [ -90.5492, 31.0493 ], [ -90.5401, 31.0531 ], [ -90.531, 31.057 ], [ -90.522, 31.0611 ], [ -90.5131, 31.0653 ], [ -90.5043, 31.0696 ], [ -90.4955, 31.0741 ], [ -90.4869, 31.0787 ], [ -90.4783, 31.0834 ], [ -90.4699, 31.0882 ], [ -90.4615, 31.0932 ], [ -90.4533, 31.0983 ], [ -90.4452, 31.1035 ], [ -90.4371, 31.1089 ], [ -90.4292, 31.1143 ], [ -90.4214, 31.1199 ], [ -90.4137, 31.1256 ], [ -90.4061, 31.1314 ], [ -90.3986, 31.1373 ], [ -90.3913, 31.1434 ], [ -90.384, 31.1495 ], [ -90.3769, 31.1557 ], [ -90.37, 31.1621 ], [ -90.3631, 31.1685 ], [ -90.3564, 31.1751 ], [ -90.3499, 31.1817 ], [ -90.3434, 31.1885 ], [ -90.3371, 31.1953 ], [ -90.3309, 31.2023 ], [ -90.3249, 31.2093 ], [ -90.319, 31.2164 ], [ -90.3133, 31.2236 ], [ -90.3077, 31.2309 ], [ -90.3023, 31.2383 ], [ -90.297, 31.2457 ], [ -90.2919, 31.2532 ], [ -90.2869, 31.2608 ], [ -90.2821, 31.2685 ], [ -90.2774, 31.2762 ], [ -90.2729, 31.284 ], [ -90.2685, 31.2919 ], [ -90.2643, 31.2999 ], [ -90.2603, 31.3079 ], [ -90.2564, 31.3159 ], [ -90.2527, 31.324 ], [ -90.2492, 31.3322 ], [ -90.2458, 31.3404 ], [ -90.2426, 31.3487 ], [ -90.2396, 31.357 ], [ -90.2367, 31.3654 ], [ -90.234, 31.3738 ], [ -90.2315, 31.3822 ], [ -90.2292, 31.3907 ], [ -90.227, 31.3992 ], [ -90.225, 31.4078 ], [ -90.2232, 31.4163 ], [ -90.2215, 31.4249 ], [ -90.2201, 31.4335 ], [ -90.2188, 31.4422 ], [ -90.2176, 31.4508 ], [ -90.2167, 31.4595 ], [ -90.2159, 31.4682 ], [ -90.2153, 31.4769 ], [ -90.2149, 31.4856 ], [ -90.2147, 31.4943 ], [ -90.4098, 31.5023 ], [ -90.4099, 31.5081 ], [ -90.4101, 31.5139 ], [ -90.4104, 31.5197 ], [ -90.4109, 31.5255 ], [ -90.4114, 31.5313 ], [ -90.4121, 31.5371 ], [ -90.4129, 31.5428 ], [ -90.4138, 31.5486 ], [ -90.4149, 31.5543 ], [ -90.416, 31.5601 ], [ -90.4173, 31.5658 ], [ -90.4187, 31.5715 ], [ -90.4202, 31.5771 ], [ -90.4219, 31.5828 ], [ -90.4236, 31.5884 ], [ -90.4255, 31.594 ], [ -90.4274, 31.5995 ], [ -90.4295, 31.605 ], [ -90.4317, 31.6105 ], [ -90.434, 31.616 ], [ -90.4364, 31.6214 ], [ -90.439, 31.6268 ], [ -90.4416, 31.6322 ], [ -90.4444, 31.6375 ], [ -90.4472, 31.6428 ], [ -90.4502, 31.648 ], [ -90.4533, 31.6532 ], [ -90.4565, 31.6583 ], [ -90.4598, 31.6634 ], [ -90.4632, 31.6684 ], [ -90.4667, 31.6734 ], [ -90.4702, 31.6784 ], [ -90.4739, 31.6832 ], [ -90.4777, 31.6881 ], [ -90.4816, 31.6928 ], [ -90.4856, 31.6975 ], [ -90.4897, 31.7022 ], [ -90.4939, 31.7068 ], [ -90.4982, 31.7113 ], [ -90.5026, 31.7158 ], [ -90.507, 31.7201 ], [ -90.5116, 31.7245 ], [ -90.5162, 31.7287 ], [ -90.521, 31.7329 ], [ -90.5258, 31.737 ], [ -90.5307, 31.7411 ], [ -90.5357, 31.745 ], [ -90.5407, 31.7489 ], [ -90.5459, 31.7528 ], [ -90.5511, 31.7565 ], [ -90.5564, 31.7602 ], [ -90.5618, 31.7638 ], [ -90.5672, 31.7673 ], [ -90.5727, 31.7707 ], [ -90.5783, 31.774 ], [ -90.584, 31.7773 ], [ -90.5897, 31.7805 ], [ -90.5955, 31.7835 ], [ -90.6013, 31.7865 ], [ -90.6072, 31.7895 ], [ -90.6132, 31.7923 ], [ -90.6192, 31.795 ], [ -90.6253, 31.7977 ], [ -90.6315, 31.8002 ], [ -90.6376, 31.8027 ], [ -90.6439, 31.805 ], [ -90.6502, 31.8073 ], [ -90.6565, 31.8095 ], [ -90.6629, 31.8116 ], [ -90.6693, 31.8136 ], [ -90.6758, 31.8155 ], [ -90.6823, 31.8173 ], [ -90.6888, 31.819 ], [ -90.6954, 31.8206 ], [ -90.702, 31.8221 ], [ -90.7086, 31.8235 ], [ -90.7152, 31.8248 ], [ -90.7219, 31.826 ], [ -90.7286, 31.8272 ], [ -90.7354, 31.8282 ], [ -90.7421, 31.8291 ], [ -90.7489, 31.8299 ], [ -90.7557, 31.8306 ], [ -90.7625, 31.8312 ], [ -90.7693, 31.8317 ], [ -90.7761, 31.8321 ], [ -90.7829, 31.8324 ], [ -90.7898, 31.8326 ], [ -90.7966, 31.8327 ] ] ] } }
]
}
