{
"type": "FeatureCollection",
"name": "al092021_2021082818_initialradii",
"features": [
{ "type": "Feature", "properties": { "RADII": 34.0, "STORMID": "al092021", "BASIN": "al", "STORMNUM": 9.0, "ADVNUM": "9A", "VALIDTIME": "2021082818", "SYNOPTIME": "2021082812", "TIMEZONE": "UTC", "TAU": 0.0, "NE": 110.0, "SE": 100.0, "SW": 60.0, "NW": 100.0 }, "geometry": { "type": "Polygon", "coordinates": [ [ [ -86.5826, 27.2459 ], [ -86.6169, 27.2441 ], [ -86.6511, 27.2417 ], [ -86.6851, 27.2388 ], [ -86.7191, 27.2353 ], [ -86.753, 27.2313 ], [ -86.7867, 27.2268 ], [ -86.8204, 27.2218 ], [ -86.8538, 27.2162 ], [ -86.8872, 27.2101 ], [ -86.9203, 27.2035 ], [ -86.9533, 27.1964 ], [ -86.9861, 27.1888 ], [ -87.0187, 27.1806 ], [ -87.0511, 27.172 ], [ -87.0833, 27.1628 ], [ -87.1152, 27.1532 ], [ -87.1469, 27.143 ], [ -87.1784, 27.1324 ], [ -87.2096, 27.1213 ], [ -87.2406, 27.1097 ], [ -87.2713, 27.0976 ], [ -87.3017, 27.0851 ], [ -87.3318, 27.0721 ], [ -87.3616, 27.0587 ], [ -87.3911, 27.0447 ], [ -87.4203, 27.0304 ], [ -87.4492, 27.0156 ], [ -87.4777, 27.0003 ], [ -87.5059, 26.9847 ], [ -87.5338, 26.9686 ], [ -87.5612, 26.952 ], [ -87.5884, 26.9351 ], [ -87.6151, 26.9178 ], [ -87.6415, 26.9 ], [ -87.6674, 26.8819 ], [ -87.693, 26.8634 ], [ -87.7182, 26.8445 ], [ -87.7429, 26.8252 ], [ -87.7673, 26.8056 ], [ -87.7912, 26.7856 ], [ -87.8147, 26.7652 ], [ -87.8375, 26.7443 ], [ -87.8593, 26.7226 ], [ -87.8802, 26.7002 ], [ -87.9001, 26.6771 ], [ -87.9189, 26.6534 ], [ -87.9368, 26.6289 ], [ -87.9535, 26.6039 ], [ -87.9692, 26.5782 ], [ -87.9839, 26.5519 ], [ -87.9976, 26.5253 ], [ -88.0107, 26.4986 ], [ -88.0233, 26.4718 ], [ -88.0352, 26.4449 ], [ -88.0465, 26.418 ], [ -88.0571, 26.3909 ], [ -88.0672, 26.3638 ], [ -88.0766, 26.3367 ], [ -88.0855, 26.3095 ], [ -88.0937, 26.2823 ], [ -88.1013, 26.2551 ], [ -88.1084, 26.2279 ], [ -88.1148, 26.2007 ], [ -88.1206, 26.1735 ], [ -88.1259, 26.1464 ], [ -88.1305, 26.1192 ], [ -88.1346, 26.0922 ], [ -88.138, 26.0652 ], [ -88.1409, 26.0382 ], [ -88.1433, 26.0114 ], [ -88.145, 25.9846 ], [ -88.1462, 25.9579 ], [ -88.1469, 25.9314 ], [ -88.1469, 25.9049 ], [ -88.1465, 25.8786 ], [ -88.1454, 25.8524 ], [ -88.1439, 25.8264 ], [ -88.1418, 25.8005 ], [ -88.1391, 25.7748 ], [ -88.136, 25.7493 ], [ -88.1323, 25.7239 ], [ -88.1282, 25.6987 ], [ -88.1235, 25.6737 ], [ -88.1183, 25.649 ], [ -88.1126, 25.6244 ], [ -88.1065, 25.6001 ], [ -88.0999, 25.576 ], [ -88.0928, 25.5521 ], [ -88.0852, 25.5285 ], [ -88.0772, 25.5051 ], [ -88.0688, 25.482 ], [ -88.0599, 25.4591 ], [ -88.0506, 25.4365 ], [ -88.0408, 25.4142 ], [ -88.0307, 25.3922 ], [ -88.0201, 25.3705 ], [ -88.0092, 25.349 ], [ -87.9978, 25.3279 ], [ -87.9861, 25.3071 ], [ -87.974, 25.2866 ], [ -87.9615, 25.2664 ], [ -87.9487, 25.2465 ], [ -87.9355, 25.227 ], [ -87.922, 25.2078 ], [ -87.9082, 25.1889 ], [ -87.894, 25.1704 ], [ -87.8796, 25.1523 ], [ -87.8648, 25.1344 ], [ -87.8498, 25.117 ], [ -87.8344, 25.0999 ], [ -87.8188, 25.0832 ], [ -87.803, 25.0668 ], [ -87.7868, 25.0508 ], [ -87.7705, 25.0352 ], [ -87.7539, 25.0199 ], [ -87.737, 25.0051 ], [ -87.72, 24.9906 ], [ -87.7027, 24.9765 ], [ -87.6853, 24.9628 ], [ -87.6676, 24.9495 ], [ -87.6498, 24.9365 ], [ -87.6318, 24.924 ], [ -87.6137, 24.9118 ], [ -87.5954, 24.9001 ], [ -87.577, 24.8887 ], [ -87.5584, 24.8778 ], [ -87.5397, 24.8672 ], [ -87.5209, 24.857 ], [ -87.502, 24.8473 ], [ -87.483, 24.8379 ], [ -87.464, 24.8289 ], [ -87.4455, 24.8197 ], [ -87.4281, 24.8098 ], [ -87.4119, 24.7989 ], [ -87.3968, 24.7872 ], [ -87.3827, 24.7746 ], [ -87.3696, 24.761 ], [ -87.3575, 24.7464 ], [ -87.3463, 24.7307 ], [ -87.336, 24.7141 ], [ -87.3259, 24.6969 ], [ -87.3153, 24.6797 ], [ -87.3043, 24.6627 ], [ -87.2929, 24.6458 ], [ -87.2811, 24.629 ], [ -87.2688, 24.6123 ], [ -87.2561, 24.5957 ], [ -87.2429, 24.5792 ], [ -87.2293, 24.5629 ], [ -87.2153, 24.5468 ], [ -87.2009, 24.5308 ], [ -87.186, 24.515 ], [ -87.1708, 24.4993 ], [ -87.1551, 24.4838 ], [ -87.1389, 24.4686 ], [ -87.1224, 24.4535 ], [ -87.1054, 24.4387 ], [ -87.0881, 24.424 ], [ -87.0703, 24.4096 ], [ -87.0522, 24.3954 ], [ -87.0336, 24.3815 ], [ -87.0146, 24.3678 ], [ -86.9953, 24.3544 ], [ -86.9756, 24.3413 ], [ -86.9555, 24.3284 ], [ -86.935, 24.3158 ], [ -86.9141, 24.3036 ], [ -86.8929, 24.2916 ], [ -86.8713, 24.2799 ], [ -86.8494, 24.2685 ], [ -86.8271, 24.2575 ], [ -86.8044, 24.2468 ], [ -86.7815, 24.2365 ], [ -86.7581, 24.2265 ], [ -86.7345, 24.2168 ], [ -86.7106, 24.2075 ], [ -86.6863, 24.1986 ], [ -86.6618, 24.1901 ], [ -86.6369, 24.1819 ], [ -86.6117, 24.1741 ], [ -86.5863, 24.1668 ], [ -86.5606, 24.1598 ], [ -86.5346, 24.1532 ], [ -86.5084, 24.1471 ], [ -86.4819, 24.1414 ], [ -86.4552, 24.1361 ], [ -86.4282, 24.1312 ], [ -86.401, 24.1268 ], [ -86.3736, 24.1228 ], [ -86.346, 24.1193 ], [ -86.3181, 24.1163 ], [ -86.2901, 24.1137 ], [ -86.2619, 24.1116 ], [ -86.2336, 24.1099 ], [ -86.205, 24.1087 ], [ -86.1763, 24.108 ], [ -86.1475, 24.1078 ], [ -86.1185, 24.1081 ], [ -86.0894, 24.1089 ], [ -86.0602, 24.1102 ], [ -86.0309, 24.112 ], [ -86.0015, 24.1142 ], [ -85.972, 24.117 ], [ -85.9425, 24.1204 ], [ -85.9128, 24.1242 ], [ -85.8831, 24.1285 ], [ -85.8534, 24.1334 ], [ -85.8237, 24.1388 ], [ -85.7939, 24.1447 ], [ -85.7641, 24.1512 ], [ -85.7343, 24.1581 ], [ -85.7046, 24.1657 ], [ -85.6748, 24.1737 ], [ -85.6451, 24.1823 ], [ -85.6155, 24.1914 ], [ -85.5858, 24.2011 ], [ -85.5563, 24.2113 ], [ -85.5269, 24.222 ], [ -85.4975, 24.2333 ], [ -85.4682, 24.2451 ], [ -85.4391, 24.2575 ], [ -85.4103, 24.2706 ], [ -85.3822, 24.2847 ], [ -85.3547, 24.2997 ], [ -85.3279, 24.3157 ], [ -85.3018, 24.3325 ], [ -85.2765, 24.3503 ], [ -85.2519, 24.369 ], [ -85.2281, 24.3885 ], [ -85.2051, 24.4088 ], [ -85.1827, 24.4298 ], [ -85.1607, 24.4511 ], [ -85.1391, 24.4728 ], [ -85.1179, 24.4948 ], [ -85.097, 24.5172 ], [ -85.0766, 24.54 ], [ -85.0566, 24.5631 ], [ -85.037, 24.5865 ], [ -85.0178, 24.6103 ], [ -84.9991, 24.6344 ], [ -84.9808, 24.6588 ], [ -84.9629, 24.6835 ], [ -84.9455, 24.7086 ], [ -84.9286, 24.7339 ], [ -84.9121, 24.7595 ], [ -84.8961, 24.7855 ], [ -84.8806, 24.8116 ], [ -84.8656, 24.8381 ], [ -84.851, 24.8648 ], [ -84.837, 24.8918 ], [ -84.8234, 24.919 ], [ -84.8104, 24.9465 ], [ -84.7979, 24.9742 ], [ -84.7859, 25.0021 ], [ -84.7744, 25.0302 ], [ -84.7634, 25.0586 ], [ -84.753, 25.0871 ], [ -84.7431, 25.1158 ], [ -84.7338, 25.1447 ], [ -84.725, 25.1738 ], [ -84.7168, 25.2031 ], [ -84.7091, 25.2325 ], [ -84.702, 25.262 ], [ -84.6954, 25.2917 ], [ -84.6894, 25.3216 ], [ -84.684, 25.3515 ], [ -84.6791, 25.3816 ], [ -84.6748, 25.4117 ], [ -84.6711, 25.442 ], [ -84.668, 25.4723 ], [ -84.6655, 25.5028 ], [ -84.6636, 25.5333 ], [ -84.6622, 25.5638 ], [ -84.6614, 25.5944 ], [ -84.6613, 25.625 ], [ -84.6617, 25.6557 ], [ -84.6627, 25.6864 ], [ -84.6643, 25.7171 ], [ -84.6666, 25.7478 ], [ -84.6694, 25.7785 ], [ -84.6728, 25.8092 ], [ -84.6768, 25.8398 ], [ -84.6815, 25.8704 ], [ -84.6867, 25.901 ], [ -84.6925, 25.9315 ], [ -84.699, 25.9619 ], [ -84.706, 25.9923 ], [ -84.7137, 26.0226 ], [ -84.7219, 26.0528 ], [ -84.7307, 26.0829 ], [ -84.7402, 26.1129 ], [ -84.7502, 26.1427 ], [ -84.7609, 26.1724 ], [ -84.7721, 26.202 ], [ -84.7839, 26.2314 ], [ -84.7964, 26.2607 ], [ -84.8094, 26.2898 ], [ -84.823, 26.3187 ], [ -84.8371, 26.3474 ], [ -84.8519, 26.3759 ], [ -84.8672, 26.4043 ], [ -84.8831, 26.4324 ], [ -84.8996, 26.4602 ], [ -84.9167, 26.4879 ], [ -84.9343, 26.5153 ], [ -84.9525, 26.5424 ], [ -84.9712, 26.5693 ], [ -84.9905, 26.5958 ], [ -85.0103, 26.6222 ], [ -85.0307, 26.6482 ], [ -85.0516, 26.6739 ], [ -85.0732, 26.6992 ], [ -85.0956, 26.7238 ], [ -85.1189, 26.7479 ], [ -85.143, 26.7712 ], [ -85.1679, 26.7939 ], [ -85.1935, 26.816 ], [ -85.2199, 26.8373 ], [ -85.247, 26.8579 ], [ -85.2749, 26.8777 ], [ -85.3033, 26.897 ], [ -85.332, 26.9157 ], [ -85.3611, 26.934 ], [ -85.3905, 26.9519 ], [ -85.4202, 26.9692 ], [ -85.4502, 26.986 ], [ -85.4806, 27.0024 ], [ -85.5112, 27.0182 ], [ -85.5422, 27.0336 ], [ -85.5734, 27.0484 ], [ -85.6048, 27.0628 ], [ -85.6365, 27.0766 ], [ -85.6685, 27.0899 ], [ -85.7007, 27.1027 ], [ -85.7331, 27.1149 ], [ -85.7657, 27.1267 ], [ -85.7985, 27.1379 ], [ -85.8315, 27.1485 ], [ -85.8647, 27.1587 ], [ -85.898, 27.1683 ], [ -85.9315, 27.1773 ], [ -85.9652, 27.1859 ], [ -85.999, 27.1938 ], [ -86.0329, 27.2013 ], [ -86.0669, 27.2082 ], [ -86.101, 27.2145 ], [ -86.1352, 27.2203 ], [ -86.1695, 27.2256 ], [ -86.2038, 27.2303 ], [ -86.2382, 27.2344 ], [ -86.2726, 27.238 ], [ -86.3071, 27.2411 ], [ -86.3416, 27.2436 ], [ -86.3761, 27.2456 ], [ -86.4106, 27.247 ], [ -86.445, 27.2479 ], [ -86.4795, 27.2482 ], [ -86.5139, 27.248 ], [ -86.5483, 27.2472 ], [ -86.5826, 27.2459 ] ] ] } },
{ "type": "Feature", "properties": { "RADII": 50.0, "STORMID": "al092021", "BASIN": "al", "STORMNUM": 9.0, "ADVNUM": "9A", "VALIDTIME": "2021082818", "SYNOPTIME": "2021082812", "TIMEZONE": "UTC", "TAU": 0.0, "NE": 50.0, "SE": 40.0, "SW": 20.0, "NW": 30.0 }, "geometry": { "type": "Polygon", "coordinates": [ [ [ -86.593, 26.1666 ], [ -86.606, 26.1629 ], [ -86.6187, 26.159 ], [ -86.6314, 26.155 ], [ -86.6439, 26.1507 ], [ -86.6562, 26.1462 ], [ -86.6683, 26.1415 ], [ -86.6803, 26.1367 ], [ -86.6922, 26.1317 ], [ -86.7038, 26.1265 ], [ -86.7153, 26.1211 ], [ -86.7266, 26.1156 ], [ -86.7377, 26.1099 ], [ -86.7486, 26.104 ], [ -86.7594, 26.098 ], [ -86.77, 26.0918 ], [ -86.7803, 26.0855 ], [ -86.7905, 26.079 ], [ -86.8005, 26.0724 ], [ -86.8102, 26.0656 ], [ -86.8198, 26.0588 ], [ -86.8292, 26.0518 ], [ -86.8384, 26.0446 ], [ -86.8473, 26.0374 ], [ -86.8561, 26.03 ], [ -86.8646, 26.0225 ], [ -86.8729, 26.015 ], [ -86.881, 26.0073 ], [ -86.8889, 25.9995 ], [ -86.8966, 25.9916 ], [ -86.9041, 25.9837 ], [ -86.9113, 25.9756 ], [ -86.9183, 25.9675 ], [ -86.9251, 25.9593 ], [ -86.9317, 25.9511 ], [ -86.9381, 25.9427 ], [ -86.9442, 25.9343 ], [ -86.9501, 25.9259 ], [ -86.9558, 25.9174 ], [ -86.9613, 25.9088 ], [ -86.9666, 25.9002 ], [ -86.9716, 25.8916 ], [ -86.9765, 25.883 ], [ -86.9813, 25.8745 ], [ -86.9861, 25.8661 ], [ -86.9908, 25.8578 ], [ -86.9955, 25.8497 ], [ -87.0002, 25.8416 ], [ -87.0048, 25.8336 ], [ -87.0094, 25.8258 ], [ -87.014, 25.818 ], [ -87.0185, 25.8103 ], [ -87.0228, 25.8025 ], [ -87.027, 25.7947 ], [ -87.031, 25.7868 ], [ -87.0348, 25.7789 ], [ -87.0384, 25.771 ], [ -87.0419, 25.763 ], [ -87.0452, 25.755 ], [ -87.0483, 25.747 ], [ -87.0512, 25.739 ], [ -87.054, 25.7309 ], [ -87.0565, 25.7229 ], [ -87.059, 25.7148 ], [ -87.0612, 25.7067 ], [ -87.0633, 25.6986 ], [ -87.0652, 25.6905 ], [ -87.0669, 25.6824 ], [ -87.0684, 25.6744 ], [ -87.0698, 25.6663 ], [ -87.071, 25.6582 ], [ -87.0721, 25.6502 ], [ -87.0729, 25.6421 ], [ -87.0736, 25.6341 ], [ -87.0742, 25.6261 ], [ -87.0746, 25.6181 ], [ -87.0748, 25.6102 ], [ -87.0748, 25.6023 ], [ -87.0747, 25.5944 ], [ -87.0745, 25.5865 ], [ -87.074, 25.5787 ], [ -87.0735, 25.5709 ], [ -87.0727, 25.5632 ], [ -87.0718, 25.5555 ], [ -87.0708, 25.5479 ], [ -87.0696, 25.5403 ], [ -87.0682, 25.5327 ], [ -87.0667, 25.5252 ], [ -87.0651, 25.5178 ], [ -87.0633, 25.5104 ], [ -87.0614, 25.5031 ], [ -87.0593, 25.4959 ], [ -87.0571, 25.4887 ], [ -87.0547, 25.4816 ], [ -87.0523, 25.4746 ], [ -87.0497, 25.4676 ], [ -87.0469, 25.4607 ], [ -87.044, 25.4539 ], [ -87.041, 25.4471 ], [ -87.0379, 25.4405 ], [ -87.0347, 25.4339 ], [ -87.0313, 25.4274 ], [ -87.0278, 25.421 ], [ -87.0242, 25.4147 ], [ -87.0205, 25.4084 ], [ -87.0167, 25.4023 ], [ -87.0128, 25.3962 ], [ -87.0087, 25.3903 ], [ -87.0046, 25.3844 ], [ -87.0003, 25.3787 ], [ -86.996, 25.373 ], [ -86.9916, 25.3674 ], [ -86.987, 25.362 ], [ -86.9824, 25.3566 ], [ -86.9777, 25.3513 ], [ -86.9729, 25.3462 ], [ -86.968, 25.3411 ], [ -86.9631, 25.3362 ], [ -86.958, 25.3313 ], [ -86.9529, 25.3266 ], [ -86.9477, 25.322 ], [ -86.9425, 25.3175 ], [ -86.9372, 25.3131 ], [ -86.9318, 25.3088 ], [ -86.9263, 25.3046 ], [ -86.9208, 25.3006 ], [ -86.9153, 25.2966 ], [ -86.9096, 25.2928 ], [ -86.904, 25.2891 ], [ -86.8982, 25.2855 ], [ -86.8925, 25.282 ], [ -86.8867, 25.2786 ], [ -86.8811, 25.2751 ], [ -86.8759, 25.2713 ], [ -86.8711, 25.2672 ], [ -86.8667, 25.2626 ], [ -86.8627, 25.2577 ], [ -86.8591, 25.2524 ], [ -86.8558, 25.2468 ], [ -86.8529, 25.2406 ], [ -86.8502, 25.2341 ], [ -86.8476, 25.2274 ], [ -86.8449, 25.2206 ], [ -86.8419, 25.2139 ], [ -86.8388, 25.2071 ], [ -86.8355, 25.2004 ], [ -86.8319, 25.1937 ], [ -86.8283, 25.187 ], [ -86.8244, 25.1803 ], [ -86.8203, 25.1737 ], [ -86.816, 25.1671 ], [ -86.8116, 25.1605 ], [ -86.8069, 25.154 ], [ -86.8021, 25.1475 ], [ -86.7971, 25.1411 ], [ -86.7919, 25.1347 ], [ -86.7865, 25.1283 ], [ -86.7809, 25.1221 ], [ -86.7752, 25.1159 ], [ -86.7692, 25.1097 ], [ -86.7631, 25.1037 ], [ -86.7568, 25.0977 ], [ -86.7503, 25.0917 ], [ -86.7436, 25.0859 ], [ -86.7368, 25.0802 ], [ -86.7298, 25.0745 ], [ -86.7226, 25.069 ], [ -86.7152, 25.0635 ], [ -86.7076, 25.0582 ], [ -86.6999, 25.0529 ], [ -86.692, 25.0478 ], [ -86.684, 25.0427 ], [ -86.6758, 25.0378 ], [ -86.6674, 25.0331 ], [ -86.6588, 25.0284 ], [ -86.6501, 25.0239 ], [ -86.6413, 25.0195 ], [ -86.6322, 25.0152 ], [ -86.6231, 25.0111 ], [ -86.6138, 25.0071 ], [ -86.6043, 25.0033 ], [ -86.5947, 24.9996 ], [ -86.585, 24.996 ], [ -86.5751, 24.9927 ], [ -86.5651, 24.9894 ], [ -86.5549, 24.9864 ], [ -86.5447, 24.9835 ], [ -86.5343, 24.9808 ], [ -86.5238, 24.9782 ], [ -86.5131, 24.9759 ], [ -86.5024, 24.9737 ], [ -86.4915, 24.9717 ], [ -86.4806, 24.9698 ], [ -86.4695, 24.9682 ], [ -86.4583, 24.9667 ], [ -86.4471, 24.9655 ], [ -86.4357, 24.9644 ], [ -86.4243, 24.9635 ], [ -86.4127, 24.9628 ], [ -86.4011, 24.9624 ], [ -86.3895, 24.9621 ], [ -86.3777, 24.962 ], [ -86.3659, 24.9622 ], [ -86.354, 24.9625 ], [ -86.3421, 24.9631 ], [ -86.3301, 24.9639 ], [ -86.3181, 24.9649 ], [ -86.306, 24.9661 ], [ -86.2939, 24.9675 ], [ -86.2817, 24.9692 ], [ -86.2696, 24.9711 ], [ -86.2574, 24.9732 ], [ -86.2451, 24.9755 ], [ -86.2329, 24.978 ], [ -86.2207, 24.9808 ], [ -86.2084, 24.9838 ], [ -86.1962, 24.987 ], [ -86.1839, 24.9905 ], [ -86.1717, 24.9942 ], [ -86.1595, 24.9981 ], [ -86.1473, 25.0023 ], [ -86.1351, 25.0067 ], [ -86.1231, 25.0114 ], [ -86.1112, 25.0164 ], [ -86.0996, 25.0219 ], [ -86.0882, 25.0277 ], [ -86.077, 25.0338 ], [ -86.0661, 25.0403 ], [ -86.0554, 25.0472 ], [ -86.045, 25.0544 ], [ -86.0348, 25.0619 ], [ -86.0249, 25.0697 ], [ -86.0151, 25.0777 ], [ -86.0054, 25.0858 ], [ -85.9958, 25.0942 ], [ -85.9864, 25.1027 ], [ -85.9772, 25.1113 ], [ -85.968, 25.1202 ], [ -85.9591, 25.1292 ], [ -85.9503, 25.1384 ], [ -85.9416, 25.1477 ], [ -85.9331, 25.1572 ], [ -85.9248, 25.1669 ], [ -85.9166, 25.1767 ], [ -85.9086, 25.1867 ], [ -85.9008, 25.1968 ], [ -85.8932, 25.2071 ], [ -85.8858, 25.2176 ], [ -85.8785, 25.2281 ], [ -85.8714, 25.2388 ], [ -85.8646, 25.2497 ], [ -85.8579, 25.2607 ], [ -85.8514, 25.2718 ], [ -85.8452, 25.2831 ], [ -85.8391, 25.2945 ], [ -85.8332, 25.306 ], [ -85.8276, 25.3176 ], [ -85.8222, 25.3294 ], [ -85.817, 25.3413 ], [ -85.812, 25.3532 ], [ -85.8072, 25.3653 ], [ -85.8027, 25.3775 ], [ -85.7984, 25.3898 ], [ -85.7943, 25.4022 ], [ -85.7905, 25.4147 ], [ -85.7869, 25.4273 ], [ -85.7835, 25.4399 ], [ -85.7804, 25.4527 ], [ -85.7775, 25.4655 ], [ -85.7749, 25.4784 ], [ -85.7725, 25.4914 ], [ -85.7704, 25.5044 ], [ -85.7685, 25.5175 ], [ -85.7669, 25.5307 ], [ -85.7655, 25.5439 ], [ -85.7644, 25.5572 ], [ -85.7635, 25.5705 ], [ -85.7629, 25.5839 ], [ -85.7626, 25.5973 ], [ -85.7625, 25.6107 ], [ -85.7627, 25.6242 ], [ -85.7632, 25.6377 ], [ -85.7639, 25.6512 ], [ -85.765, 25.6647 ], [ -85.7662, 25.6783 ], [ -85.7678, 25.6918 ], [ -85.7696, 25.7054 ], [ -85.7717, 25.719 ], [ -85.774, 25.7325 ], [ -85.7767, 25.7461 ], [ -85.7796, 25.7596 ], [ -85.7828, 25.7731 ], [ -85.7862, 25.7866 ], [ -85.79, 25.8001 ], [ -85.794, 25.8135 ], [ -85.7983, 25.8269 ], [ -85.8028, 25.8403 ], [ -85.8077, 25.8536 ], [ -85.8128, 25.8669 ], [ -85.8182, 25.8801 ], [ -85.8238, 25.8933 ], [ -85.8298, 25.9063 ], [ -85.836, 25.9194 ], [ -85.8425, 25.9323 ], [ -85.8492, 25.9452 ], [ -85.8562, 25.958 ], [ -85.8635, 25.9707 ], [ -85.8711, 25.9833 ], [ -85.8789, 25.9959 ], [ -85.887, 26.0083 ], [ -85.8953, 26.0206 ], [ -85.904, 26.0328 ], [ -85.9131, 26.0447 ], [ -85.9229, 26.056 ], [ -85.9335, 26.0667 ], [ -85.9447, 26.0769 ], [ -85.9567, 26.0864 ], [ -85.9692, 26.0952 ], [ -85.9824, 26.1034 ], [ -85.9962, 26.111 ], [ -86.0106, 26.1178 ], [ -86.0253, 26.1241 ], [ -86.0401, 26.1302 ], [ -86.0549, 26.136 ], [ -86.0698, 26.1416 ], [ -86.0847, 26.1468 ], [ -86.0997, 26.1518 ], [ -86.1147, 26.1565 ], [ -86.1298, 26.1609 ], [ -86.1449, 26.1651 ], [ -86.1599, 26.169 ], [ -86.1751, 26.1726 ], [ -86.1902, 26.176 ], [ -86.2053, 26.179 ], [ -86.2204, 26.1819 ], [ -86.2355, 26.1844 ], [ -86.2505, 26.1867 ], [ -86.2656, 26.1887 ], [ -86.2806, 26.1905 ], [ -86.2956, 26.1919 ], [ -86.3105, 26.1932 ], [ -86.3255, 26.1942 ], [ -86.3403, 26.1949 ], [ -86.3551, 26.1953 ], [ -86.3698, 26.1955 ], [ -86.3845, 26.1955 ], [ -86.3991, 26.1952 ], [ -86.4136, 26.1947 ], [ -86.428, 26.1939 ], [ -86.4424, 26.1929 ], [ -86.4566, 26.1916 ], [ -86.4708, 26.1902 ], [ -86.4848, 26.1884 ], [ -86.4988, 26.1865 ], [ -86.5126, 26.1843 ], [ -86.5264, 26.1819 ], [ -86.5399, 26.1793 ], [ -86.5534, 26.1764 ], [ -86.5668, 26.1734 ], [ -86.58, 26.1701 ], [ -86.593, 26.1666 ] ] ] } },
{ "type": "Feature", "properties": { "RADII": 64.0, "STORMID": "al092021", "BASIN": "al", "STORMNUM": 9.0, "ADVNUM": "9A", "VALIDTIME": "2021082818", "SYNOPTIME": "2021082812", "TIMEZONE": "UTC", "TAU": 0.0, "NE": 25.0, "SE": 20.0, "SW": 0.0, "NW": 0.0 }, "geometry": { "type": "Polygon", "coordinates": [ [ [ -86.5974, 25.71 ], [ -86.6014, 25.7054 ], [ -86.6052, 25.7008 ], [ -86.6089, 25.696 ], [ -86.6124, 25.6913 ], [ -86.6157, 25.6864 ], [ -86.6188, 25.6816 ], [ -86.6217, 25.6767 ], [ -86.6245, 25.6717 ], [ -86.6271, 25.6667 ], [ -86.6294, 25.6617 ], [ -86.6316, 25.6567 ], [ -86.6336, 25.6517 ], [ -86.6355, 25.6466 ], [ -86.6371, 25.6415 ], [ -86.6385, 25.6365 ], [ -86.6398, 25.6314 ], [ -86.6409, 25.6263 ], [ -86.6418, 25.6212 ], [ -86.6425, 25.6162 ], [ -86.643, 25.6111 ], [ -86.6434, 25.6061 ], [ -86.6435, 25.6011 ], [ -86.6435, 25.5962 ], [ -86.6433, 25.5912 ], [ -86.643, 25.5863 ], [ -86.6424, 25.5815 ], [ -86.6417, 25.5767 ], [ -86.6408, 25.5719 ], [ -86.6398, 25.5672 ], [ -86.6385, 25.5625 ], [ -86.6372, 25.5579 ], [ -86.6356, 25.5534 ], [ -86.6339, 25.549 ], [ -86.632, 25.5446 ], [ -86.6299, 25.5403 ], [ -86.6277, 25.536 ], [ -86.6254, 25.5319 ], [ -86.6229, 25.5278 ], [ -86.6202, 25.5238 ], [ -86.6174, 25.5199 ], [ -86.6145, 25.5161 ], [ -86.6116, 25.5126 ], [ -86.609, 25.5096 ], [ -86.6067, 25.507 ], [ -86.6047, 25.5048 ], [ -86.6031, 25.503 ], [ -86.6018, 25.5017 ], [ -86.6008, 25.5007 ], [ -86.6002, 25.5002 ], [ -86.6, 25.5 ], [ -86.6, 25.5 ], [ -86.6, 25.5 ], [ -86.6, 25.5 ], [ -86.6, 25.5 ], [ -86.6, 25.5 ], [ -86.6, 25.5 ], [ -86.6, 25.5 ], [ -86.6, 25.5 ], [ -86.6, 25.5 ], [ -86.6, 25.5 ], [ -86.6, 25.5 ], [ -86.6, 25.5 ], [ -86.6, 25.5 ], [ -86.6, 25.5 ], [ -86.6, 25.5 ], [ -86.6, 25.5 ], [ -86.6, 25.5 ], [ -86.6, 25.5 ], [ -86.6, 25.5 ], [ -86.6, 25.5 ], [ -86.6, 25.5 ], [ -86.6, 25.5 ], [ -86.6, 25.5 ], [ -86.6, 25.5 ], [ -86.6, 25.5 ], [ -86.6, 25.5 ], [ -86.6, 25.5 ], [ -86.6, 25.5 ], [ -86.6, 25.5 ], [ -86.6, 25.5 ], [ -86.6, 25.5 ], [ -86.6, 25.5 ], [ -86.6, 25.5 ], [ -86.6, 25.5 ], [ -86.6, 25.5 ], [ -86.6, 25.5 ], [ -86.6, 25.5 ], [ -86.6, 25.5 ], [ -86.6, 25.5 ], [ -86.6, 25.5 ], [ -86.6, 25.5 ], [ -86.6, 25.5 ], [ -86.6, 25.5 ], [ -86.6, 25.5 ], [ -86.6, 25.5 ], [ -86.6, 25.5 ], [ -86.6, 25.5 ], [ -86.6, 25.5 ], [ -86.6, 25.5 ], [ -86.6, 25.5 ], [ -86.6, 25.5 ], [ -86.6, 25.5 ], [ -86.6, 25.5 ], [ -86.6, 25.5 ], [ -86.6, 25.5 ], [ -86.6, 25.5 ], [ -86.6, 25.5 ], [ -86.6, 25.5 ], [ -86.6, 25.5 ], [ -86.6, 25.5 ], [ -86.6, 25.5 ], [ -86.6, 25.5 ], [ -86.6, 25.5 ], [ -86.6, 25.5 ], [ -86.6, 25.5 ], [ -86.6, 25.5 ], [ -86.6, 25.5 ], [ -86.6, 25.5 ], [ -86.6, 25.5 ], [ -86.6, 25.5 ], [ -86.6, 25.5 ], [ -86.6, 25.5 ], [ -86.6, 25.5 ], [ -86.6, 25.5 ], [ -86.6, 25.5 ], [ -86.6, 25.5 ], [ -86.6, 25.5 ], [ -86.6, 25.5 ], [ -86.6, 25.5 ], [ -86.6, 25.5 ], [ -86.6, 25.5 ], [ -86.6002, 25.4999 ], [ -86.6006, 25.4994 ], [ -86.6014, 25.4986 ], [ -86.6025, 25.4976 ], [ -86.6038, 25.4962 ], [ -86.6054, 25.4944 ], [ -86.6072, 25.4923 ], [ -86.6093, 25.4899 ], [ -86.6116, 25.4871 ], [ -86.6139, 25.484 ], [ -86.6162, 25.4809 ], [ -86.6183, 25.4778 ], [ -86.6203, 25.4745 ], [ -86.6222, 25.4712 ], [ -86.6239, 25.4678 ], [ -86.6256, 25.4643 ], [ -86.6271, 25.4608 ], [ -86.6284, 25.4573 ], [ -86.6297, 25.4536 ], [ -86.6308, 25.45 ], [ -86.6318, 25.4462 ], [ -86.6326, 25.4425 ], [ -86.6333, 25.4387 ], [ -86.6339, 25.4348 ], [ -86.6343, 25.4309 ], [ -86.6346, 25.427 ], [ -86.6348, 25.4231 ], [ -86.6348, 25.4191 ], [ -86.6347, 25.4151 ], [ -86.6344, 25.4111 ], [ -86.6339, 25.407 ], [ -86.6334, 25.403 ], [ -86.6326, 25.3989 ], [ -86.6318, 25.3949 ], [ -86.6308, 25.3908 ], [ -86.6296, 25.3868 ], [ -86.6283, 25.3827 ], [ -86.6268, 25.3787 ], [ -86.6252, 25.3746 ], [ -86.6235, 25.3706 ], [ -86.6216, 25.3666 ], [ -86.6195, 25.3626 ], [ -86.6173, 25.3587 ], [ -86.615, 25.3547 ], [ -86.6125, 25.3508 ], [ -86.6099, 25.347 ], [ -86.6071, 25.3432 ], [ -86.6042, 25.3394 ], [ -86.6011, 25.3356 ], [ -86.5979, 25.332 ], [ -86.5946, 25.3283 ], [ -86.5911, 25.3248 ], [ -86.5874, 25.3212 ], [ -86.5837, 25.3178 ], [ -86.5798, 25.3144 ], [ -86.5757, 25.3111 ], [ -86.5715, 25.3078 ], [ -86.5672, 25.3046 ], [ -86.5628, 25.3015 ], [ -86.5582, 25.2985 ], [ -86.5535, 25.2956 ], [ -86.5487, 25.2928 ], [ -86.5438, 25.29 ], [ -86.5387, 25.2873 ], [ -86.5335, 25.2848 ], [ -86.5282, 25.2823 ], [ -86.5228, 25.28 ], [ -86.5172, 25.2777 ], [ -86.5116, 25.2756 ], [ -86.5059, 25.2735 ], [ -86.5, 25.2716 ], [ -86.4941, 25.2698 ], [ -86.488, 25.2681 ], [ -86.4819, 25.2666 ], [ -86.4756, 25.2651 ], [ -86.4693, 25.2638 ], [ -86.4629, 25.2626 ], [ -86.4564, 25.2616 ], [ -86.4498, 25.2607 ], [ -86.4431, 25.2599 ], [ -86.4364, 25.2592 ], [ -86.4296, 25.2587 ], [ -86.4227, 25.2584 ], [ -86.4157, 25.2582 ], [ -86.4087, 25.2581 ], [ -86.4016, 25.2582 ], [ -86.3945, 25.2584 ], [ -86.3874, 25.2588 ], [ -86.3801, 25.2593 ], [ -86.3729, 25.26 ], [ -86.3657, 25.2609 ], [ -86.3587, 25.2623 ], [ -86.352, 25.2639 ], [ -86.3455, 25.266 ], [ -86.3392, 25.2684 ], [ -86.3332, 25.2711 ], [ -86.3275, 25.2741 ], [ -86.3221, 25.2775 ], [ -86.3169, 25.2812 ], [ -86.3119, 25.2851 ], [ -86.307, 25.2891 ], [ -86.3022, 25.2932 ], [ -86.2974, 25.2974 ], [ -86.2927, 25.3016 ], [ -86.2881, 25.306 ], [ -86.2835, 25.3104 ], [ -86.279, 25.3149 ], [ -86.2747, 25.3195 ], [ -86.2703, 25.3242 ], [ -86.2661, 25.329 ], [ -86.2619, 25.3338 ], [ -86.2579, 25.3388 ], [ -86.2539, 25.3438 ], [ -86.25, 25.3488 ], [ -86.2462, 25.354 ], [ -86.2425, 25.3592 ], [ -86.2389, 25.3645 ], [ -86.2353, 25.3699 ], [ -86.2319, 25.3753 ], [ -86.2286, 25.3808 ], [ -86.2254, 25.3864 ], [ -86.2223, 25.392 ], [ -86.2192, 25.3977 ], [ -86.2163, 25.4035 ], [ -86.2135, 25.4093 ], [ -86.2108, 25.4152 ], [ -86.2082, 25.4211 ], [ -86.2058, 25.4271 ], [ -86.2034, 25.4332 ], [ -86.2011, 25.4393 ], [ -86.199, 25.4454 ], [ -86.197, 25.4517 ], [ -86.1951, 25.4579 ], [ -86.1933, 25.4642 ], [ -86.1917, 25.4705 ], [ -86.1901, 25.4769 ], [ -86.1887, 25.4833 ], [ -86.1874, 25.4898 ], [ -86.1862, 25.4963 ], [ -86.1852, 25.5028 ], [ -86.1843, 25.5093 ], [ -86.1835, 25.5159 ], [ -86.1828, 25.5225 ], [ -86.1823, 25.5292 ], [ -86.1819, 25.5358 ], [ -86.1816, 25.5425 ], [ -86.1815, 25.5492 ], [ -86.1815, 25.5559 ], [ -86.1816, 25.5627 ], [ -86.1818, 25.5694 ], [ -86.1822, 25.5762 ], [ -86.1828, 25.583 ], [ -86.1834, 25.5897 ], [ -86.1842, 25.5965 ], [ -86.1852, 25.6033 ], [ -86.1862, 25.6101 ], [ -86.1874, 25.6168 ], [ -86.1888, 25.6236 ], [ -86.1902, 25.6304 ], [ -86.1919, 25.6371 ], [ -86.1936, 25.6439 ], [ -86.1955, 25.6506 ], [ -86.1975, 25.6573 ], [ -86.1997, 25.664 ], [ -86.202, 25.6707 ], [ -86.2044, 25.6773 ], [ -86.207, 25.684 ], [ -86.2097, 25.6906 ], [ -86.2126, 25.6971 ], [ -86.2155, 25.7037 ], [ -86.2187, 25.7102 ], [ -86.2219, 25.7167 ], [ -86.2253, 25.7231 ], [ -86.2288, 25.7295 ], [ -86.2325, 25.7358 ], [ -86.2363, 25.7421 ], [ -86.2402, 25.7484 ], [ -86.2443, 25.7546 ], [ -86.2484, 25.7607 ], [ -86.2528, 25.7668 ], [ -86.2574, 25.7726 ], [ -86.2627, 25.778 ], [ -86.2686, 25.7827 ], [ -86.275, 25.787 ], [ -86.282, 25.7907 ], [ -86.2895, 25.7938 ], [ -86.2974, 25.7963 ], [ -86.3059, 25.7982 ], [ -86.3148, 25.7995 ], [ -86.3239, 25.8004 ], [ -86.333, 25.8011 ], [ -86.342, 25.8016 ], [ -86.3509, 25.8019 ], [ -86.3598, 25.8021 ], [ -86.3686, 25.802 ], [ -86.3773, 25.8017 ], [ -86.386, 25.8013 ], [ -86.3945, 25.8007 ], [ -86.403, 25.7999 ], [ -86.4114, 25.799 ], [ -86.4196, 25.7978 ], [ -86.4278, 25.7965 ], [ -86.4359, 25.7951 ], [ -86.4438, 25.7935 ], [ -86.4517, 25.7917 ], [ -86.4594, 25.7897 ], [ -86.467, 25.7876 ], [ -86.4745, 25.7854 ], [ -86.4818, 25.783 ], [ -86.4891, 25.7805 ], [ -86.4961, 25.7778 ], [ -86.5031, 25.775 ], [ -86.5099, 25.7721 ], [ -86.5165, 25.769 ], [ -86.5231, 25.7658 ], [ -86.5294, 25.7625 ], [ -86.5356, 25.759 ], [ -86.5417, 25.7555 ], [ -86.5476, 25.7518 ], [ -86.5533, 25.7481 ], [ -86.5589, 25.7442 ], [ -86.5643, 25.7402 ], [ -86.5695, 25.7362 ], [ -86.5746, 25.732 ], [ -86.5795, 25.7278 ], [ -86.5842, 25.7235 ], [ -86.5888, 25.7191 ], [ -86.5932, 25.7146 ], [ -86.5974, 25.71 ] ] ] } }
]
}
