{
"type": "FeatureCollection",
"name": "al092021-002_5day_pts",
"features": [
{ "type": "Feature", "properties": { "ADVDATE": "500 PM EDT Thu Aug 26 2021", "ADVISNUM": "2", "BASIN": "AL", "DATELBL": "5:00 PM Thu", "DVLBL": "D", "FCSTPRD": 120.0, "FLDATELBL": "2021-08-26 2:00 PM Thu EDT", "GUST": 40.0, "LAT": 18.0, "LON": -79.8, "MAXWIND": 30.0, "MSLP": 1006.0, "SSNUM": 0.0, "STORMNAME": "Tropical Depression Nine", "STORMNUM": 9.0, "STORMSRC": "Tropical Cyclone", "STORMTYPE": "TD", "TCDVLP": "Tropical Depression", "TAU": 0.0, "TCDIR": 325.0, "TCSPD": 12.0, "TIMEZONE": "EDT", "VALIDTIME": "26/1800" }, "geometry": { "type": "Point", "coordinates": [ -79.8, 18.0 ] } },
{ "type": "Feature", "properties": { "ADVDATE": "500 PM EDT Thu Aug 26 2021", "ADVISNUM": "2", "BASIN": "AL", "DATELBL": "2:00 AM Fri", "DVLBL": "S", "FCSTPRD": 120.0, "FLDATELBL": "2021-08-27 2:00 AM Fri EDT", "GUST": 55.0, "LAT": 19.7, "LON": -81.0, "MAXWIND": 45.0, "MSLP": 9999.0, "SSNUM": 0.0, "STORMNAME": "Tropical Depression Nine", "STORMNUM": 9.0, "STORMSRC": "Tropical Cyclone", "STORMTYPE": "TS", "TCDVLP": "Tropical Storm", "TAU": 12.0, "TCDIR": 9999.0, "TCSPD": 9999.0, "TIMEZONE": "EDT", "VALIDTIME": "27/0600" }, "geometry": { "type": "Point", "coordinates": [ -81.0, 19.7 ] } },
{ "type": "Feature", "properties": { "ADVDATE": "500 PM EDT Thu Aug 26 2021", "ADVISNUM": "2", "BASIN": "AL", "DATELBL": "2:00 PM Fri", "DVLBL": "S", "FCSTPRD": 120.0, "FLDATELBL": "2021-08-27 2:00 PM Fri EDT", "GUST": 65.0, "LAT": 21.7, "LON": -82.8, "MAXWIND": 55.0, "MSLP": 9999.0, "SSNUM": 0.0, "STORMNAME": "Tropical Depression Nine", "STORMNUM": 9.0, "STORMSRC": "Tropical Cyclone", "STORMTYPE": "TS", "TCDVLP": "Tropical Storm", "TAU": 24.0, "TCDIR": 9999.0, "TCSPD": 9999.0, "TIMEZONE": "EDT", "VALIDTIME": "27/1800" }, "geometry": { "type": "Point", "coordinates": [ -82.8, 21.7 ] } },
{ "type": "Feature", "properties": { "ADVDATE": "500 PM EDT Thu Aug 26 2021", "ADVISNUM": "2", "BASIN": "AL", "DATELBL": "2:00 AM Sat", "DVLBL": "S", "FCSTPRD": 120.0, "FLDATELBL": "2021-08-28 2:00 AM Sat EDT", "GUST": 75.0, "LAT": 23.7, "LON": -84.8, "MAXWIND": 60.0, "MSLP": 9999.0, "SSNUM": 0.0, "STORMNAME": "Tropical Depression Nine", "STORMNUM": 9.0, "STORMSRC": "Tropical Cyclone", "STORMTYPE": "TS", "TCDVLP": "Tropical Storm", "TAU": 36.0, "TCDIR": 9999.0, "TCSPD": 9999.0, "TIMEZONE": "EDT", "VALIDTIME": "28/0600" }, "geometry": { "type": "Point", "coordinates": [ -84.8, 23.7 ] } },
{ "type": "Feature", "properties": { "ADVDATE": "500 PM EDT Thu Aug 26 2021", "ADVISNUM": "2", "BASIN": "AL", "DATELBL": "2:00 PM Sat", "DVLBL": "H", "FCSTPRD": 120.0, "FLDATELBL": "2021-08-28 2:00 PM Sat EDT", "GUST": 85.0, "LAT": 25.6, "LON": -87.0, "MAXWIND": 70.0, "MSLP": 9999.0, "SSNUM": 1.0, "STORMNAME": "Tropical Depression Nine", "STORMNUM": 9.0, "STORMSRC": "Tropical Cyclone", "STORMTYPE": "HU", "TCDVLP": "Hurricane", "TAU": 48.0, "TCDIR": 9999.0, "TCSPD": 9999.0, "TIMEZONE": "EDT", "VALIDTIME": "28/1800" }, "geometry": { "type": "Point", "coordinates": [ -87.0, 25.6 ] } },
{ "type": "Feature", "properties": { "ADVDATE": "500 PM EDT Thu Aug 26 2021", "ADVISNUM": "2", "BASIN": "AL", "DATELBL": "2:00 AM Sun", "DVLBL": "H", "FCSTPRD": 120.0, "FLDATELBL": "2021-08-29 2:00 AM Sun EDT", "GUST": 105.0, "LAT": 27.2, "LON": -88.8, "MAXWIND": 85.0, "MSLP": 9999.0, "SSNUM": 2.0, "STORMNAME": "Tropical Depression Nine", "STORMNUM": 9.0, "STORMSRC": "Tropical Cyclone", "STORMTYPE": "HU", "TCDVLP": "Hurricane", "TAU": 60.0, "TCDIR": 9999.0, "TCSPD": 9999.0, "TIMEZONE": "EDT", "VALIDTIME": "29/0600" }, "geometry": { "type": "Point", "coordinates": [ -88.8, 27.2 ] } },
{ "type": "Feature", "properties": { "ADVDATE": "500 PM EDT Thu Aug 26 2021", "ADVISNUM": "2", "BASIN": "AL", "DATELBL": "2:00 PM Sun", "DVLBL": "H", "FCSTPRD": 120.0, "FLDATELBL": "2021-08-29 2:00 PM Sun EDT", "GUST": 115.0, "LAT": 28.9, "LON": -90.4, "MAXWIND": 95.0, "MSLP": 9999.0, "SSNUM": 2.0, "STORMNAME": "Tropical Depression Nine", "STORMNUM": 9.0, "STORMSRC": "Tropical Cyclone", "STORMTYPE": "HU", "TCDVLP": "Hurricane", "TAU": 72.0, "TCDIR": 9999.0, "TCSPD": 9999.0, "TIMEZONE": "EDT", "VALIDTIME": "29/1800" }, "geometry": { "type": "Point", "coordinates": [ -90.4, 28.9 ] } },
{ "type": "Feature", "properties": { "ADVDATE": "500 PM EDT Thu Aug 26 2021", "ADVISNUM": "2", "BASIN": "AL", "DATELBL": "2:00 PM Mon", "DVLBL": "S", "FCSTPRD": 120.0, "FLDATELBL": "2021-08-30 2:00 PM Mon EDT", "GUST": 60.0, "LAT": 31.9, "LON": -91.4, "MAXWIND": 50.0, "MSLP": 9999.0, "SSNUM": 0.0, "STORMNAME": "Tropical Depression Nine", "STORMNUM": 9.0, "STORMSRC": "Tropical Cyclone", "STORMTYPE": "TS", "TCDVLP": "Tropical Storm", "TAU": 96.0, "TCDIR": 9999.0, "TCSPD": 9999.0, "TIMEZONE": "EDT", "VALIDTIME": "30/1800" }, "geometry": { "type": "Point", "coordinates": [ -91.4, 31.9 ] } },
{ "type": "Feature", "properties": { "ADVDATE": "500 PM EDT Thu Aug 26 2021", "ADVISNUM": "2", "BASIN": "AL", "DATELBL": "2:00 PM Tue", "DVLBL": "D", "FCSTPRD": 120.0, "FLDATELBL": "2021-08-31 2:00 PM Tue EDT", "GUST": 35.0, "LAT": 34.6, "LON": -90.0, "MAXWIND": 25.0, "MSLP": 9999.0, "SSNUM": 0.0, "STORMNAME": "Tropical Depression Nine", "STORMNUM": 9.0, "STORMSRC": "Tropical Cyclone", "STORMTYPE": "TD", "TCDVLP": "Tropical Depression", "TAU": 120.0, "TCDIR": 9999.0, "TCSPD": 9999.0, "TIMEZONE": "EDT", "VALIDTIME": "31/1800" }, "geometry": { "type": "Point", "coordinates": [ -90.0, 34.6 ] } }
]
}
