{"type":"FeatureCollection","features":[{"type":"Feature","id":44,"geometry":{"type":"LineString","coordinates":[[-94.39,29.54],[-94.05,29.69],[-93.84,29.69],[-93.66,29.77],[-93.46,29.78],[-93.3,29.78],[-93.13,29.77],[-92.76,29.68],[-92.61,29.59]]},"properties":{"objectid":44,"name":"High Island, TX to Vermilion/Cameron Parish Line, LA...1-3 ft","folderpath":"Peak Storm Surge Forecast: AL052026, adv: 006, forecast cycle: 2026090118/Lines/High Island, TX to Vermilion","symbolid":0,"altmode":-1,"base":0,"clamped":0,"extruded":0,"snippet":" ","popupinfo":"{\"peak_surge_range\": \"1-3 ft\", \"color\": \"blue\"}","idp_source":"AL052026pss_polylines","idp_subset":"al052026","idp_filedate":1788297187000,"idp_ingestdate":1788297327000,"st_length(shape)":1.8648561597242255,"shape_leng":1.86485616}}]}