{"type":"FeatureCollection","features":[{"type":"Feature","id":1,"geometry":{"type":"Polygon","coordinates":[[[-55.188709071266487,39.772113220049221],[-55.145625927194658,39.799325429924806],[-55.101849706198891,39.82796191231256],[-55.057379091671635,39.858015656097791],[-55.012212768804147,39.889479644769949],[-54.966349422787516,39.922346866314967],[-54.91978773701436,39.956610306020934],[-54.872526396675767,39.992262950075258],[-54.824564086962937,40.029297784665175],[-54.775899492167696,40.067707795078832],[-54.726531295682662,40.107485968402841],[-54.676458183598186,40.148625290824668],[-54.625678840206206,40.191118748531551],[-54.574191948899227,40.234959325912314],[-54.521996195767713,40.280140010952891],[-54.469090265103546,40.326653789840691],[-54.41547284029923,40.374493646964368],[-54.361142607445288,40.423652569410706],[-54.306098250833486,40.474123543367],[-54.250338453856443,40.525899555020601],[-54.193861902604624,40.578973590558917],[-54.136667281369796,40.633338635269922],[-54.078753273544635,40.688987676240401],[-54.020118565219491,40.745913698758329],[-53.960761839786983,40.804109689011113],[-53.900681783337518,40.863568634085368],[-53.839877078364339,40.924283519269125],[-53.778346411857285,40.986247329850528],[-53.716088466309543,41.049453053815512],[-53.653101926912257,41.113893675552845],[-53.589385478856627,41.179562182149141],[-53.52493780643448,41.246451558892488],[-53.459757594837015,41.314554792869558],[-53.393843527456738,41.383864870267701],[-53.327202565945527,41.454367729287412],[-53.259907408799734,41.525993355009462],[-53.192062099486179,41.598645046032175],[-53.123770876624519,41.672225935478707],[-53.055137976136564,41.746639158270682],[-52.986267636642026,41.821787848430631],[-52.917264095861242,41.897575140880178],[-52.848231590615285,41.973904169641855],[-52.779274358624662,42.050678069637343],[-52.710496637609594,42.127799973989738],[-52.642002664391327,42.205173017620837],[-52.57389667758946,42.282700335452262],[-52.506282914025121,42.360285060607225],[-52.439265611418705,42.437830328906728],[-52.372949007490604,42.515239273473867],[-52.307437339061835,42.592415029230381],[-52.242834844752167,42.669260730198687],[-52.179245761382674,42.74567951040126],[-52.116774326673749,42.821574505659044],[-52.055524777446408,42.89684884819593],[-51.995601352320421,42.971405673832919],[-51.93710828811686,43.045148116592429],[-51.880149823455497,43.117979311396255],[-51.82483019425797,43.189802391367436],[-51.771253638244673,43.260520490528336],[-51.719524394035432,43.33003674470018],[-51.669746699350583,43.398254287905218],[-51.62202479011188,43.465076254165922],[-51.576462904938978,43.530405777504768],[-51.533165280653066,43.594145991944117],[-51.492236155873798,43.656200033305026],[-51.453779767422191,43.716471034710651],[-51.417900352119432,43.774862131082614],[-51.384698872354932,43.831280276763493],[-51.354217456870003,43.885701012891559],[-51.326447350764511,43.938159206182547],[-51.301378120104062,43.988691678478347],[-51.278999331853583,44.037335253419371],[-51.259300552078685,44.084126751048871],[-51.242271347744406,44.129102995906692],[-51.227901284016923,44.172300808935347],[-51.216179928760596,44.213757013775307],[-51.207096848040976,44.253508431369141],[-51.200641607923728,44.291591886256697],[-51.196803775373837,44.328044198481109],[-51.195572915557477,44.362902190783643],[-51.19693859633901,44.396202686804713],[-51.200890383784042,44.427982508386208],[-51.20741784395824,44.458278478269278],[-51.216510543826416,44.48712741739655],[-51.228158049454294,44.514566149408438],[-51.242349927806799,44.540631497046093],[-51.259075744050222,44.56536028125214],[-51.278325066048865,44.588789324767674],[-51.30008745896896,44.610955451233224],[-51.324352490674812,44.631895481591357],[-51.351109727232028,44.651646239482488],[-51.380348733806898,44.670244545849243],[-51.412059078263724,44.687727224332093],[-51.446230326668115,44.704131096772869],[-51.482852045085679,44.719492985912723],[-51.52191379958208,44.733849712694223],[-51.56340515802151,44.747238101657217],[-51.607315685570313,44.759694973744217],[-51.653634950092737,44.771257151696318],[-51.702352515855807,44.781961458254841],[-51.75345750915659,44.791844262003224],[-51.806912555070255,44.800914763905382],[-51.862639201238039,44.809140052371674],[-51.920555464562938,44.816483590645362],[-51.980579361048569,44.822908844667609],[-52.042628905799234,44.828379278580996],[-52.106622114818606,44.832858359226066],[-52.172477005009682,44.836309550745341],[-52.240111591476648,44.838696318180666],[-52.309443890223235,44.83998212567468],[-52.380391917253064,44.840130439168604],[-52.452873687670433,44.839104724603487],[-52.526807219277657,44.836868445222706],[-52.60211052538034,44.833385066967423],[-52.678701623780796,44.828618053980165],[-52.756498530482702,44.822530873101471],[-52.83541925969098,44.815086987574546],[-52.915381829207945,44.806249864239987],[-52.996304253238577,44.795982966341001],[-53.078104548685872,44.784249759818692],[-53.160700731553391,44.771013708815758],[-53.244010816945547,44.756238280172624],[-53.327952821765223,44.73988693713261],[-53.412444761116717,44.721923145636822],[-53.497404651003706,44.702310369827842],[-53.582750507429864,44.681012076546267],[-53.668400346398755,44.657991729035189],[-53.754272183914054,44.633212793235941],[-53.84028403508006,44.606638734190369],[-53.926353916799712,44.578233016040997],[-54.012399844177367,44.547959104729046],[-54.098339834115961,44.515780465296359],[-54.184091900820476,44.481660561885576],[-54.269574071985744,44.445562889216092],[-54.354714032226696,44.407479378570599],[-54.439467257907495,44.367483764464282],[-54.523794191448644,44.325664401690915],[-54.607655275270645,44.282109642346256],[-54.691010949995245,44.236907840324704],[-54.773821658942268,44.190147349520714],[-54.856047842733631,44.141916523828684],[-54.937649944689099,44.092303716243634],[-55.018588406329798,44.041397281559455],[-55.098823670076172,43.98928557187179],[-55.178316177449517,43.936056941075094],[-55.257026370870221,43.881799743963143],[-55.33491469185941,43.826602332631694],[-55.411941582837642,43.770553060975146],[-55.488067485326098,43.713740283787217],[-55.563252841745111,43.656252353163723],[-55.637458093616033,43.59817762389838],[-55.710643684258514,43.539604448986267],[-55.782770054294474,43.48062118232184],[-55.853797647043677,43.421316176900177],[-55.923686903127987,43.361777786615733],[-55.992398265867166,43.302094365362791],[-56.059892175883078,43.242354266136601],[-56.126129076495545,43.182645843730825],[-56.191069408326427,43.123057450241276],[-56.254673614695434,43.063677440461674],[-56.316902137123805,43.00459416738704],[-56.377715418031983,42.945895984911942],[-56.437073898941151,42.887671246031346],[-56.49493802227181,42.830008305539025],[-56.55126822954503,42.772995515530738],[-56.606024962282049,42.716721230800317],[-56.659168663802689,42.661273804342727],[-56.71066711499526,42.60672670267536],[-56.760529162490741,42.553070088114225],[-56.808777929657595,42.500265161208347],[-56.855436556052098,42.44827309462778],[-56.900528178532511,42.397055061042408],[-56.944075935755734,42.346572232222911],[-56.986102966378667,42.296785781738606],[-57.026632407259683,42.247656881360115],[-57.065687397954946,42.199146702858172],[-57.103291075322772,42.151216419802097],[-57.139466578919382,42.103827203063133],[-57.174237046502355,42.056940227109919],[-57.207625614930066,42.01051666281387],[-57.239655423758677,41.964517681945608],[-57.270349610745825,41.91890445897377],[-57.29973131364909,41.873638164769659],[-57.327823671125429,41.828679972003272],[-57.354649820932366,41.783991053344607],[-57.380232901726913,41.739532581463607],[-57.404596051266651,41.695265727231686],[-57.42776240730916,41.651151665117425],[-57.44975510851134,41.607151565992126],[-57.470597293530147,41.563226603425164],[-57.490312100123219,41.519337949187161],[-57.508922666048079,41.475446775048795],[-57.52645212906242,41.431514254579326],[-57.542923628722349,41.387501558650172],[-57.558360301886296,41.343369861729855],[-57.572785288110424,41.299080334689847],[-57.586221723353731,41.254594150200035],[-57.598692748071755,41.209872480930414],[-57.610221499122758,41.164876498651665],[-57.620831115163696,41.119567376933048],[-57.630543418244031,41.073911008986045],[-57.639364948233663,41.027928176344403],[-57.647292381238287,40.981675071347638],[-57.654322229687011,40.935208478088953],[-57.660451005109678,40.888585179762401],[-57.665675220834657,40.841861959561925],[-57.669991389291056,40.795095599782258],[-57.673396022008717,40.74834288541598],[-57.675885632315953,40.70166059695913],[-57.677456731742666,40.655105520303664],[-57.678105833617224,40.608734436844941],[-57.677829448570094,40.562604129776901],[-57.676624090829023,40.516771383192918],[-57.674486271923797,40.471292980286933],[-57.671412505182843,40.42622570335368],[-57.667399301236628,40.381626336486363],[-57.662443173413635,40.337551661979774],[-57.656540634142857,40.294058463927115],[-57.649688195853457,40.251203524623122],[-57.641882370974542,40.209043628161055],[-57.6331196710359,40.167635556835648],[-57.623396609365898,40.127036094740106],[-57.612709698393758,40.087302023269899],[-57.601055449649152,40.048490128316928],[-57.588430376460565,40.010657190377174],[-57.574830989458462,39.97385999444333],[-57.560253803769911,39.938155322810019],[-57.544695329126,39.903599958671293],[-57.528152079754591,39.870250686120414],[-57.510620566285979,39.838164287452059],[-57.492097302948082,39.807397545860226],[-57.472578801270572,39.778007244538856],[-57.452061572783236,39.750050167581321],[-57.430542717172557,39.723581646675825],[-57.408037111923079,39.698613034863797],[-57.384580185826792,39.675104836619084],[-57.360208517009312,39.653014727148104],[-57.334958679099657,39.632300378959485],[-57.308867248424633,39.612919464561799],[-57.281970801311331,39.594829659161576],[-57.254305913187238,39.577988634368126],[-57.225909159480011,39.562354063589282],[-57.19681711561725,39.547883621132371],[-57.167066357026613,39.534534980405169],[-57.136693460934339,39.522265813916306],[-57.105735001868709,39.511033795073729],[-57.07422755525738,39.500796598184593],[-57.042207697427159,39.491511894858206],[-57.009712003805816,39.4831373603011],[-56.976777049820896,39.47563066702179],[-56.943439411799318,39.468949488428279],[-56.909735665168682,39.463051497029085],[-56.875702385356703,39.457894368030793],[-56.841376148690188,39.453435773042656],[-56.806793529697529,39.449633386371829],[-56.771991105604911,39.44644488142626],[-56.737005450041352,39.443827930714576],[-56.701873141132467,39.441740207644614],[-56.666630752507103,39.44013938652364],[-56.631314861391616,39.43898313986017],[-56.595962042314284,39.438229141961472],[-56.560608871602028,39.437835064436797],[-56.525291923783129,39.437758582492734],[-56.490047776983204,39.437957368637797],[-56.454913004831212,39.438389096279934],[-56.419924182754698,39.439011437927661],[-56.385117771967487,39.439782218075038],[-56.350511297558228,39.440683593273377],[-56.316082585842537,39.441748747606766],[-56.2818044656035,39.443017290815476],[-56.24764976292613,39.444528831740342],[-56.213591306593401,39.446322981920218],[-56.179601921791118,39.448439349296677],[-56.145654437302312,39.450917543609876],[-56.111721680111316,39.453797175499403],[-56.077776477202519,39.457117854705359],[-56.043791656459689,39.460919189169374],[-56.009740045766364,39.4652407904303],[-55.975594470308465,39.470122266429598],[-55.941327759768171,39.475603228706177],[-55.906912740230666,39.48172328520161],[-55.872322239579603,39.488522046555374],[-55.837529084799314,39.496039121608305],[-55.802506103773567,39.50431412100005],[-55.767226122587374,39.513386653571331],[-55.731661970023765,39.523296329961795],[-55.695786472167867,39.534082758112959],[-55.659572456903277,39.545785549563618],[-55.622992752113703,39.558444312255347],[-55.586020183884273,39.572098657726997],[-55.548627580997959,39.586788193020823],[-55.510787770439151,39.602552530574997],[-55.472473578292863,39.619431278330978],[-55.433657833342238,39.637464046029038],[-55.394313361672175,39.656690444308708],[-55.354412992065818,39.677150082010826],[-55.313929550608179,39.698882568875604],[-55.272835865182913,39.721927513743935],[-55.231104762774464,39.746324528154616],[-55.188709071266487,39.772113220049221]]]},"properties":{"objectid":1,"basin":"Atlantic","prob2day":"20%","risk2day":"Low","prob7day":"20%","risk7day":"Low","idp_source":"gtwo_areas_202608252333","idp_filedate":1787701385000,"idp_ingestdate":1787701443000,"st_area(shape)":19.645235984996667,"st_perimeter(shape)":18.178065558397442}},{"type":"Feature","id":2,"geometry":{"type":"Polygon","coordinates":[[[-26.324356467976486,10.271215067621426],[-26.190319139616463,10.280036545450344],[-26.056096785638033,10.289847041008272],[-25.921842677497466,10.300712845121836],[-25.787710090248368,10.312700245919757],[-25.653852296246328,10.325875533329338],[-25.520422570545065,10.34030499817726],[-25.387574184600794,10.356054929491563],[-25.255460412567857,10.373191616300176],[-25.124234528600482,10.391781349429891],[-24.994049805054317,10.4118904188079],[-24.865059515184328,10.433585112563037],[-24.7374169331448,10.456931722421189],[-24.61127533309002,10.481996536511076],[-24.486787986476259,10.50884584476006],[-24.364108168357177,10.537545937994764],[-24.243389150188989,10.568163105243229],[-24.124784207924733,10.600763636432816],[-24.008446613020624,10.635413820591509],[-23.89452963963106,10.672179947646612],[-23.783186561010837,10.711128308424804],[-23.674570651314355,10.752325191054865],[-23.56883518289726,10.795836887262681],[-23.466133429014405,10.841729684277652],[-23.366618663820134,10.89006987382578],[-23.270444160569411,10.940923744934992],[-23.177763192517205,10.994357587532761],[-23.088729032918422,11.050437690647016],[-23.003494955028032,11.109230345104493],[-22.922214233000318,11.170801839933119],[-22.84504015627806,11.235218436281968],[-22.772148286014442,11.302508610284292],[-22.703780353680258,11.372588564910473],[-22.640190326022605,11.445353745878833],[-22.58163217068801,11.520699598907527],[-22.528359854423627,11.59852156791618],[-22.480627343976607,11.678715099522378],[-22.438688605194841,11.761175637645692],[-22.4027976057248,11.845798628903765],[-22.373208312313636,11.932479518115429],[-22.350174690809183,12.02111375009963],[-22.333950709757346,12.111596770574636],[-22.324790335005844,12.203824025258712],[-22.322947533301885,12.297690958970691],[-22.328676271392681,12.393093017428953],[-22.342230516025381,12.489925644553011],[-22.36386423394714,12.588084287859715],[-22.39383139190511,12.687464391268804],[-22.432385957545762,12.787961399599055],[-22.479781897616363,12.889470759468111],[-22.536273177065368,12.991887915694917],[-22.60211376443857,13.095108313098308],[-22.677557626483122,13.199027397396605],[-22.762858729046968,13.3035406134087],[-22.858271039776525,13.408543407752177],[-22.964048525419003,13.513931224346663],[-23.080445151822175,13.619599508910369],[-23.207714886632573,13.725443707161503],[-23.346111696597404,13.831359263019692],[-23.495889548463765,13.937241624001899],[-23.657301416127325,14.042986274497082],[-23.830389721508311,14.148497233460716],[-24.01472712295822,14.253697563891592],[-24.209822715645657,14.358512902648499],[-24.415185592940645,14.462868886590002],[-24.630324850910995,14.566691154373416],[-24.854749583826106,14.669905342857419],[-25.087968886854526,14.772437090699327],[-25.329491854265541,14.874212034757761],[-25.578827581227756,14.975155811891341],[-25.835485162010514,15.075194061656759],[-26.098973691782305,15.174252420013318],[-26.368802265711849,15.272256524718955],[-26.644479978068432,15.369132014431045],[-26.925515924020544,15.464804526008209],[-27.211419198736905,15.559199697208385],[-27.501698895587424,15.652243165789628],[-27.795864110640082,15.743860568610501],[-28.093423939063427,15.83397754432832],[-28.393887474227427,15.92251972980182],[-28.696763811300741,16.00941276368826],[-29.001562046351239,16.094582281946884],[-29.307791272748887,16.177953923235123],[-29.614960585662402,16.259453325310858],[-29.922579080260221,16.339006125032768],[-30.230155850811741,16.416537961058168],[-30.537199993384888,16.491974470245736],[-30.843220601349572,16.565241290353413],[-31.147726769874396,16.636264059139137],[-31.450227593228703,16.704968413461643],[-31.750234402295689,16.771280651181257],[-32.047431366863975,16.835178065315574],[-32.341795643254216,16.896724391717441],[-32.633332764994975,16.955991738927764],[-32.922048266514139,17.013052217286145],[-33.207947682239649,17.067977934434282],[-33.491036545699899,17.120841001611097],[-33.771320392222208,17.171713526458234],[-34.048804755335084,17.220667618415973],[-34.323495169466355,17.267775387824031],[-34.59539716904402,17.313108942323993],[-34.864516288495793,17.35674039315478],[-35.130858061350352,17.398741847058716],[-35.39442802203547,17.439185415274835],[-35.655231705878407,17.478143206344043],[-35.913274646407672,17.515687328807303],[-36.168562378051206,17.551889893004272],[-36.421100434337461,17.586823007475971],[-36.670894350593699,17.620558781662567],[-36.917949660348427,17.653169325004512],[-37.16227189802953,17.684726746042656],[-37.403866598964271,17.715303154217338],[-37.64273929578178,17.744970659868216],[-37.878895522909943,17.773801370636875],[-38.112340815675964,17.801867396863031],[-38.343080708507784,17.82924084708759],[-38.571120734034537,17.855993830750833],[-38.796466427583425,17.8821984572931],[-39.019123323582392,17.90792683525541],[-39.239096956459264,17.93325107497725],[-39.456392675381551,17.958241268719689],[-39.671008664618057,17.982889130129365],[-39.882933800454396,18.007084556107543],[-40.092156335946015,18.030710639284734],[-40.298664525047684,18.053650469593663],[-40.502446620814794,18.075787140564216],[-40.703490877202114,18.097003743028438],[-40.901785548164412,18.117183369616953],[-41.09731888585776,18.136209111161691],[-41.290079146035623,18.153964060293276],[-41.480054579954754,18.170331308743016],[-41.667233442469296,18.185193948242272],[-41.85160398663453,18.198435071421557],[-42.033154466405392,18.209937769112912],[-42.211873135736482,18.219585133047588],[-42.387748246784042,18.227260254956946],[-42.560768054402047,18.232846228370875],[-42.730920811646001,18.236226143222098],[-42.898194772470674,18.237283092141126],[-43.062578189931401,18.2359001677587],[-43.224059317083686,18.231960460007372],[-43.382626408781618,18.225347062417143],[-43.53826771808059,18.215943066719319],[-43.690971498935426,18.20363156374583],[-43.840726003502141,18.188295645227981],[-43.987519486634881,18.169818404695775],[-44.131340201389037,18.14808293298114],[-44.272176400820115,18.122972320916006],[-44.410016339782146,18.094369662030431],[-44.544848271330522,18.062158048055608],[-44.676659694888883,18.026225313747375],[-44.805420773649644,17.986568405008029],[-44.931084330977001,17.943293377987118],[-45.053602438401697,17.896511032758099],[-45.172927168354022,17.846332168494939],[-45.289010590566193,17.792867584371663],[-45.401804776569065,17.736228080461672],[-45.511261796994233,17.676524457737685],[-45.617333723372496,17.61386751357503],[-45.719972627234824,17.548368049845749],[-45.819130579212754,17.480136864824601],[-45.914759649937764,17.409284758584874],[-46.006811910940826,17.335922531199969],[-46.095239433752738,17.260160981843967],[-46.179994288105775,17.182110909690891],[-46.261028546430168,17.101883115713349],[-46.338294279357399,17.019588399085478],[-46.41174355841838,16.935337558981303],[-46.481328453345327,16.849241395474166],[-46.547001036568474,16.761410708637413],[-46.608713378719358,16.671956297645181],[-46.666417550429514,16.5809889625707],[-46.72006562412912,16.488619502588108],[-46.769609669550505,16.394958717770749],[-46.815001758224469,16.300117407292646],[-46.856193960782548,16.204206371227201],[-46.893138349654976,16.107336409647701],[-46.925786994574025,16.009618321728283],[-46.954091967070497,15.911162906642971],[-46.978005337775983,15.812080965364373],[-46.997481073092956,15.712481823077837],[-47.012501477061392,15.612452744598613],[-47.023070671274354,15.512064016441343],[-47.029193337602351,15.411385485352014],[-47.030874157915946,15.310486999875309],[-47.02811781678372,15.209438407656535],[-47.02092899427754,15.108309557240432],[-47.009312374066667,15.007170296272307],[-46.993272637122402,14.906090473296842],[-46.972814468013155,14.805139935959403],[-46.947942547710284,14.704388531905352],[-46.918661558983615,14.603906110578691],[-46.88497618370377,14.50376251782609],[-46.846891104640633,14.404027603091549],[-46.804411004564088,14.304771214020434],[-46.757540564445378,14.206063199157427],[-46.706284468853028,14.107973405248572],[-46.650647397859018,14.010571681737872],[-46.590634036031815,13.913927876270634],[-46.526249063443402,13.818111835592902],[-46.4574971646623,13.723193409148678],[-46.384383020659754,13.629242445482589],[-46.306911314205649,13.536328790441473],[-46.225086728069925,13.444522294368539],[-46.13891394412309,13.353892803110512],[-46.048397645135083,13.264510166111393],[-45.953542512976469,13.176444231016603],[-45.854353230417132,13.089764846370713],[-45.750834480226956,13.004541859819085],[-45.642990943377242,12.920845118107877],[-45.53082351019674,12.838739792407637],[-45.414293906438502,12.758242750402758],[-45.293340755171585,12.67934236475844],[-45.167902379990721,12.602026639418],[-45.037917104490646,12.526283580123277],[-44.903323254064787,12.452101190817416],[-44.764059152307937,12.379467477242429],[-44.62006312281477,12.308370442442083],[-44.471273490079398,12.23879809305771],[-44.317628578595929,12.170738432133078],[-44.159066711059722,12.104179465410141],[-43.995526211965,12.039109195932781],[-43.826945406705022,11.975515630342215],[-43.653262617075995,11.913386772581646],[-43.474416169370613,11.852710627493593],[-43.290344386284289,11.793475199021373],[-43.100985593210453,11.735668492007449],[-42.906278111945198,11.679278512193719],[-42.706160268781275,11.624293262624121],[-42.500570386414097,11.570700749040498],[-42.289446789337717,11.518488976285369],[-42.072727802046302,11.467645948301993],[-41.850351748134528,11.418159669932948],[-41.622256951197244,11.370018146920074],[-41.388381735728387,11.323209382307311],[-41.148664427121503,11.277721381836443],[-40.903043347172627,11.233542149450784],[-40.65145682127519,11.190659689992856],[-40.393843173023868,11.149062008305179],[-40.130140726013565,11.108737110129653],[-39.860332733968391,11.069671879753571],[-39.584734500996319,11.031844935795277],[-39.303810156413476,10.995231192565598],[-39.018024531906519,10.959805543691004],[-38.727842460960687,10.925542884596609],[-38.433728775262637,10.89241811160673],[-38.136148305599704,10.860406120146479],[-37.835565886356449,10.829481803842327],[-37.532446348320207,10.79962005991797],[-37.227254523177578,10.77079578199988],[-36.920455244413859,10.74298386731175],[-36.612513343715705,10.716159209480054],[-36.303893652769716,10.690296704829223],[-35.995061004161869,10.665371247884934],[-35.686480229578819,10.641357734971621],[-35.378616161606431,10.618231060615074],[-35.071933631931472,10.595966120240405],[-34.766897474039069,10.574537810171933],[-34.463972518716616,10.553921024036185],[-34.163623597650769,10.534090658157481],[-33.866315544326767,10.515021607061669],[-33.572513190431266,10.496688767073067],[-33.282681367650866,10.479067033616843],[-32.997284909470864,10.462131301218733],[-32.716788645779275,10.445856465303791],[-32.441657410960602,10.430217421297073],[-32.172356035802295,10.415189064623746],[-31.909349353789537,10.400746290708867],[-31.653102194810344,10.386863994078226],[-31.404079393249276,10.373517071056142],[-31.162656494301643,10.360685153796965],[-30.928726114418509,10.348373490744166],[-30.702018345470151,10.336595955738915],[-30.482263154321004,10.325366427119036],[-30.26919050873488,10.314698782323092],[-30.062530374676953,10.304606901487432],[-29.862012721709618,10.295104662050676],[-29.667367515798105,10.286205943249797],[-29.478324725605489,10.277924623422791],[-29.294614317096944,10.270274580907312],[-29.11596625983492,10.263269694940618],[-28.942110518885215,10.2569238429611],[-28.772777064709658,10.251250905105337],[-28.607695862374044,10.246264759711039],[-28.446596879642129,10.241979284216711],[-28.28921008517716,10.238408357859555],[-28.135265445843515,10.235565858977338],[-27.984492929405064,10.233465666807206],[-27.836622502726186,10.232121659686982],[-27.691384134470127,10.231547715954491],[-27.548507790601946,10.231757714846822],[-27.407723439784775,10.232765533802478],[-27.268761048883164,10.234585052957982],[-27.131350585660869,10.237230149751724],[-26.995222017881702,10.240714702521643],[-26.860105312410099,10.24505259050477],[-26.725730437009929,10.250257692938305],[-26.591827360344269,10.256343887260698],[-26.45812604747897,10.263325052709149],[-26.324356467976486,10.271215067621426]]]},"properties":{"objectid":2,"basin":"Atlantic","prob2day":"70%","risk2day":"High","prob7day":"70%","risk7day":"High","idp_source":"gtwo_areas_202608252333","idp_filedate":1787701385000,"idp_ingestdate":1787701443000,"st_area(shape)":142.06323845738945,"st_perimeter(shape)":55.220938558645059}},{"type":"Feature","id":3,"geometry":{"type":"Polygon","coordinates":[[[-114.6965212064884,18.383650787653892],[-114.85064875083907,18.427666914496626],[-115.0015150180036,18.466996245180724],[-115.14916340296855,18.501739885087773],[-115.29363730162009,18.531998940498852],[-115.43498011074342,18.557874519493623],[-115.5732352262246,18.579467728353109],[-115.70844604305034,18.596879672459067],[-115.84065595800598,18.610211460790424],[-115.96990836697745,18.619564198728938],[-116.09624666495154,18.625038992555574],[-116.21971424961282,18.626736949450788],[-116.34035451504872,18.624759176594864],[-116.45821085894391,18.619206780268826],[-116.57332667538566,18.610180867653071],[-116.6857453620587,18.597782544129245],[-116.79551031394976,18.582112917777067],[-116.90266492694474,18.563273093978239],[-117.00725259692973,18.541364180812423],[-117.10931672069,18.516487284560696],[-117.20890069321234,18.488743511503969],[-117.30604791128201,18.458233967923434],[-117.40080177078499,18.425059761898638],[-117.49320566670804,18.38932199881134],[-117.5833029958365,18.351121786741203],[-117.67113715315702,18.310560231069928],[-117.7567515354549,18.267738438977915],[-117.84018953951556,18.222757516746128],[-117.92148944678047,18.175711211503369],[-118.00065388147135,18.126641937975194],[-118.07767028545521,18.075570251066381],[-118.15252604124373,18.022516625641913],[-118.22520853314717,17.967501536566772],[-118.29570514457669,17.91054545960543],[-118.36400325894317,17.851668868723436],[-118.43009026055699,17.790892237886624],[-118.49395353282921,17.728236043758557],[-118.55558046007008,17.663720760305011],[-118.6149584256907,17.597366861491594],[-118.67207481310203,17.529194823082776],[-118.72691700661449,17.459225119943483],[-118.77947238963895,17.387478226938754],[-118.82972834648592,17.313974618034308],[-118.87767226056627,17.238734768994505],[-118.92329151529111,17.161779153785062],[-118.9665734949707,17.083128248170283],[-119.00750558391547,17.002802526115829],[-119.04607516373773,16.920822462486797],[-119.08226962054647,16.837208533047487],[-119.11607633685338,16.751981210864301],[-119.14748269696878,16.665160972600916],[-119.17647608430377,16.576768292223051],[-119.20304388226924,16.486823644595688],[-119.227173476075,16.395347503684491],[-119.24885224733328,16.302360346153193],[-119.26806711990156,16.207889162455047],[-119.28479900836743,16.112045681663005],[-119.29902462658515,16.015000891877776],[-119.31072060477197,15.916926997982728],[-119.3198635704473,15.817996204861117],[-119.32643015292911,15.718380716496995],[-119.33039698063607,15.618252736874467],[-119.33174068198679,15.517784469977471],[-119.33043788539999,15.417148121588696],[-119.32646522019365,15.316515894792872],[-119.31979931478645,15.216059994473312],[-119.31041679759704,15.115952625513387],[-119.29829429794341,15.016365991897146],[-119.28340844334491,14.917472296709263],[-119.26573586311952,14.819443746631748],[-119.2452531856859,14.722452543849954],[-119.22193703946272,14.626670894146571],[-119.19576405376796,14.532271002404968],[-119.16671085702035,14.439425070810501],[-119.13475407763849,14.348305305145857],[-119.09987034404105,14.259083910294351],[-119.06203628464675,14.171933089340712],[-119.02122852967284,14.08702504806763],[-118.97742370573934,14.00453198866046],[-118.9305984421643,13.924626117801211],[-118.88072936826563,13.847479639473931],[-118.82779311246207,13.77326475676324],[-118.77176678161157,13.702145881927038],[-118.7126412341056,13.634063233431618],[-118.65042281466106,13.568704598138822],[-118.58511869357278,13.505744292864961],[-118.51673604293393,13.444856637124246],[-118.44528203124065,13.385715950430892],[-118.37076383058621,13.327996550500529],[-118.29318861036597,13.27137275594805],[-118.21256354177393,13.215518885388406],[-118.12889579510477,13.160109258335751],[-118.04219254065316,13.104818193405038],[-117.95246094961306,13.049320008311895],[-117.85970819227913,12.993289023469799],[-117.76394143804686,12.936399555695061],[-117.66516785811007,12.878325925401271],[-117.56339462366287,12.818742449404681],[-117.4586289049999,12.757323448118768],[-117.35087787241577,12.69374323925922],[-117.24014869620527,12.627676142340249],[-117.12644854666303,12.558796475077429],[-117.00978459498299,12.486778556984973],[-116.89016401145989,12.411296706677831],[-116.76759396638835,12.332025242770897],[-116.6420816300631,12.248638483879063],[-116.5136341736781,12.16081074861728],[-116.38225876752801,12.068216355600441],[-116.24796258280685,11.970529623443497],[-116.11075340224761,11.867427381668449],[-115.97069900685358,11.758831485484791],[-115.8279766682885,11.645110999573092],[-115.68277531163125,11.526682577139354],[-115.53528386375922,11.403962873188163],[-115.38569124975129,11.277368544522858],[-115.2341863955856,11.147316244349327],[-115.08095822634095,11.014222628571588],[-114.92619566889493,10.878504352194227],[-114.77008764742692,10.740578070221886],[-114.61282308881442,10.600860437659207],[-114.45459091813626,10.459768109510776],[-114.29558006047131,10.317717741680553],[-114.13597944269702,10.175125987374543],[-113.97597798989221,10.032409503396025],[-113.81576462803508,9.889984942950889],[-113.65552828220439,9.7482689637417934],[-113.49545787927764,9.6076782180754208],[-113.33574234343433,9.4686293636543724],[-113.17657060065261,9.3315390527852173],[-113.01813157780998,9.196823943170557],[-112.86061419908594,9.0649006880164507],[-112.70420739135795,8.9361859423275405],[-112.54910007970483,8.8110963629069374],[-112.39548118920544,8.6900486029608146],[-112.24353964673719,8.5734593183929633],[-112.09346437737901,8.4617451642080823],[-111.94544427833068,8.3553227288609833],[-111.79961930838425,8.2544943023702899],[-111.65598008041627,8.1592133762964068],[-111.51448882290077,8.0693671432791803],[-111.37510776251315,7.9848427968577198],[-111.2377991259288,7.9055275296718719],[-111.10252514072255,7.831308534361483],[-110.96924803356978,7.7620730044657194],[-110.83793003294454,7.6977081317250509],[-110.70853336462301,7.6381011105779066],[-110.58102025617978,7.5831391318656074],[-110.45535293518969,7.5327093909257883],[-110.33149362832819,7.4866990785997132],[-110.20940456316998,7.444995389325868],[-110.08904796639047,7.4074855157440993],[-109.97038606556436,7.3740566495948201],[-109.85338108826653,7.34459598531663],[-109.73799526027295,7.3189907146498854],[-109.62419081005777,7.297128031133866],[-109.51192996339699,7.2788951274083615],[-109.4011749496641,7.2641791961131617],[-109.29188799373583,7.2528674307874326],[-109.18403132408622,7.2448470240710208],[-109.07756716739078,7.2400051686037727],[-108.97245775122417,7.2382290579247979],[-108.86866530136246,7.2394058846739995],[-108.76615204717916,7.2434228423903733],[-108.66488021445025,7.2501671219152968],[-108.5648244989514,7.2595360458519735],[-108.46602519390746,7.2714802126418476],[-108.36854408723974,7.2859676819630863],[-108.27244298035913,7.3029665242858073],[-108.17778367287809,7.3224448073821122],[-108.08462796710688,7.3443706026213249],[-107.99303766265791,7.368711979574357],[-107.90307456184144,7.3954370060131396],[-107.81480046426992,7.4245137524079041],[-107.72827717135425,7.4559102892285978],[-107.64356648450558,7.4895946851467556],[-107.56073020423543,7.525535009733062],[-107.4798301301563,7.5636993316589383],[-107.40092806457841,7.6040557222938787],[-107.32408580891286,7.6465722503092479],[-107.24936516187262,7.691216985275787],[-107.17682792666739,7.737957996764294],[-107.10653590290951,7.7867633543454531],[-107.03855089111062,7.8376011275901192],[-106.97293469358112,7.8904393860689197],[-106.90974910993339,7.9452461993527663],[-106.84905594157834,8.0019896361129668],[-106.79091698902772,8.0606377677189585],[-106.73539405369252,8.1211586619428431],[-106.68254893608446,8.1835203892546815],[-106.63244343761448,8.2476910192252717],[-106.58513935789495,8.3136386214253548],[-106.54069410964536,8.3813312222582113],[-106.4991238617767,8.450736442532957],[-106.46042218323709,8.5218216827246351],[-106.42458241364739,8.5945543397111237],[-106.39159789172925,8.668901811269734],[-106.36146195710353,8.7448314933788538],[-106.33416794939126,8.8223107847150573],[-106.30970920641465,8.9013070821562792],[-106.28807906779463,8.9817877834795468],[-106.26927087225283,9.0637202846635319],[-106.25327795941018,9.147071984384695],[-106.24009366798828,9.2318102795209143],[-106.2297113367087,9.3179025669500675],[-106.22212430519244,9.4053162453485584],[-106.21732591216102,9.4940187097957391],[-106.21530949633609,9.5839773589680703],[-106.21606839733857,9.6751595906427497],[-106.21959595478938,9.7675328007982785],[-106.22588550651079,9.8610643881111741],[-106.23493039122445,9.9557217485599949],[-106.24672395034992,10.051472280821258],[-106.26125951991082,10.148283380873465],[-106.27853044132672,10.246122446493871],[-106.29853005241989,10.344956875459559],[-106.3212516928113,10.444754065547841],[-106.34668870122249,10.545481411837841],[-106.37483441637511,10.647106313905397],[-106.40567957525212,10.749595068757571],[-106.4391661239174,10.85289335644336],[-106.47519267730013,10.956928547714426],[-106.51365634486433,11.061627375702983],[-106.55445423337608,11.166916576239146],[-106.59748345319872,11.272722882455184],[-106.64264111289697,11.378973028382688],[-106.68982432103547,11.485593747153871],[-106.73893018617906,11.592511774598847],[-106.78985581779165,11.699653842950624],[-106.84249832263936,11.806946687140055],[-106.89675481198486,11.914317041198615],[-106.95252239259423,12.021691638258631],[-107.00969817483082,12.128997214150274],[-107.06817926635995,12.236160501106383],[-107.12786277574639,12.343108234057866],[-107.18864581245418,12.449767147036368],[-107.25042548504803,12.556063973173934],[-107.31309890119326,12.661925447401586],[-107.37656317125328,12.767278302851537],[-107.44071540379275,12.872049274454582],[-107.50545270647712,12.976165096242312],[-107.57067218787108,13.079552501346996],[-107.63627095833795,13.182138224699429],[-107.70214612554315,13.283848999431939],[-107.76819479805141,13.384611559575944],[-107.8343140853267,13.484352640961731],[-107.9004034233792,13.583000207893406],[-107.96647569409788,13.680542298488433],[-108.03270600178047,13.777052846911488],[-108.09928192342193,13.87261239464641],[-108.16639104051399,13.967301481378399],[-108.23422093005178,14.061200648591182],[-108.30295917082896,14.154390435969958],[-108.37279334343793,14.246951384099248],[-108.44391102487378,14.338964035362096],[-108.51649979572892,14.430508927645008],[-108.5907472329983,14.521666604230518],[-108.66684091727444,14.61251760390445],[-108.74496842735095,14.703142468150531],[-108.82531734112229,14.793621736653961],[-108.90807523828153,14.884035950898578],[-108.99342969672301,14.97446565146879],[-109.08156829703915,15.064991378949117],[-109.1726786171244,15.155693673924077],[-109.26694823577236,15.246653076978077],[-109.36456473177685,15.337950127796319],[-109.46571568483091,15.429665368761903],[-109.57058867282888,15.52187933866071],[-109.67937127636321,15.614672579875787],[-109.79225107242894,15.70812563119307],[-109.90941564071915,15.802319034995605],[-110.03105256002755,15.897333330968593],[-110.15734941004712,15.993249059696495],[-110.28849327404527,16.090146465886846],[-110.42453754926839,16.188025757283015],[-110.56522169132791,16.286699188716739],[-110.71024014116949,16.385952068633173],[-110.85928733883952,16.485569700081726],[-111.01205772708232,16.585337391507551],[-111.168245745045,16.685040447758581],[-111.32754583367318,16.784464174582126],[-111.4896524330133,16.883393878624759],[-111.65425998580957,16.981614864734354],[-111.82106293120921,17.078912440456918],[-111.98975571015779,17.175071910640327],[-112.16003276360107,17.269878581031833],[-112.33158853248472,17.363117759177385],[-112.50411745775438,17.454574749025596],[-112.67731397855715,17.544034858122359],[-112.85087253763743,17.631283391315606],[-113.02448757504146,17.716105655251909],[-113.19785353081568,17.798286955678577],[-113.37066484590582,17.877612599242184],[-113.54261596215684,17.953867889891342],[-113.71340131961512,18.026838136071262],[-113.882715358327,18.096308642629879],[-114.05025252013758,18.16206471441518],[-114.21570724419388,18.223891659872322],[-114.37877397324019,18.281574782950031],[-114.53914714732292,18.334899390294765],[-114.6965212064884,18.383650787653892]]]},"properties":{"objectid":3,"basin":"Pacific","prob2day":"60%","risk2day":"Medium","prob7day":"90%","risk7day":"High","idp_source":"gtwo_areas_202608252333","idp_filedate":1787701385000,"idp_ingestdate":1787701443000,"st_area(shape)":89.292250190476594,"st_perimeter(shape)":37.277068067069877}},{"type":"Feature","id":4,"geometry":{"type":"Polygon","coordinates":[[[-105.98487533612774,7.8565703296571314],[-105.86693203048873,7.8551543129213428],[-105.75078599657638,7.8545690224425471],[-105.6364311702622,7.8548575330488575],[-105.52386148921624,7.856062922266176],[-105.41307088751137,7.8582282649226158],[-105.30405330281758,7.861396637644873],[-105.19680267100637,7.8656111161602098],[-105.09131292704984,7.8709147761961162],[-104.98757800771881,7.8773506952784942],[-104.88559184978396,7.8849619482354569],[-104.78534838911679,7.8937916107943238],[-104.6868415606894,7.9038827595818475],[-104.59006530217187,7.9152784703252905],[-104.49501354763703,7.9280218196514056],[-104.40168023565423,7.9421558832875121],[-104.31005930119568,7.957723736961043],[-104.22014467923344,7.9747684572985804],[-104.13193030833696,7.9933331191282946],[-104.04541012167965,8.0134607999760874],[-103.96057805783101,8.0351945746700153],[-103.87742805266242,8.058577519836831],[-103.79595404024667,8.0836527121031168],[-103.71614995825388,8.1104632262969858],[-103.6380097434548,8.139052139045134],[-103.56152732992223,8.1694625260748808],[-103.4866966562256,8.2017374640128651],[-103.41351165643772,8.2359200285865768],[-103.34196626732927,8.2720532955232784],[-103.2720544247718,8.3101803405504029],[-103.20377006553599,8.3503442411939091],[-103.13710712459402,8.3925880722818533],[-103.07205953961596,8.436954909541555],[-103.00862124557392,8.4834878304990866],[-102.9467861792387,8.5322299099825045],[-102.88654827558236,8.5832242237190712],[-102.82790147227502,8.6365138492349161],[-102.77083970428885,8.6921418613579249],[-102.71535673392606,8.7501458490518189],[-102.66144395467467,8.8104889113343461],[-102.60909105310952,8.8730804630930606],[-102.55828767983246,8.9378287330097805],[-102.50902348364673,9.0046419515649632],[-102.46128811515428,9.0734283465411067],[-102.41507122315835,9.1440961493179884],[-102.37036245646209,9.2165535867787298],[-102.32715146656682,9.2907088903031649],[-102.28542790137647,9.3664702894724314],[-102.24518141059355,9.4437460111695941],[-102.20640164481995,9.5224442876738635],[-102.16907825285898,9.6024733467676811],[-102.13320088351384,9.6837414180321275],[-102.09875918828584,9.7661567310484543],[-102.06574281507875,9.8496275144983088],[-102.03414141359525,9.9340619988623189],[-102.00394463443723,10.019368412822132],[-101.97514212640789,10.105454985959],[-101.94772353920985,10.192229947853946],[-101.92167852254568,10.279601527188845],[-101.89699672611789,10.367477954444155],[-101.87366779872985,10.455767458301693],[-101.85168139008397,10.544378267443221],[-101.83102714988297,10.633218612349197],[-101.81169472872864,10.722196722600813],[-101.79367377452496,10.811220825980456],[-101.77695393787383,10.900199153868016],[-101.76152486847781,10.989039934045877],[-101.74737621514009,11.077651396095177],[-101.73449762756337,11.165941770496431],[-101.7228787554501,11.253819285931456],[-101.7125092485029,11.341192171081957],[-101.70337875642434,11.427968656428504],[-101.69547692801774,11.514056970652803],[-101.68879341388487,11.599365343336046],[-101.68331786282903,11.683802004958693],[-101.67904037960972,11.76727557450829],[-101.67600618573681,11.849742130894754],[-101.67436754362711,11.931249915551291],[-101.67428901572538,12.01185775852889],[-101.67593516267749,12.091624492576386],[-101.67947054602877,12.170608945946242],[-101.68505972822379,12.248869952286611],[-101.6928672699085,12.326466340749164],[-101.70305773352749,12.403456942284208],[-101.71579567972674,12.479900589640636],[-101.73124567005152,12.555856111970115],[-101.74957226784579,12.631382341122276],[-101.77094003285612,12.706538107148049],[-101.79551352662787,12.781382242796383],[-101.82345731250484,12.855973576319627],[-101.85493595023382,12.930370941365993],[-101.89011400225928,13.00463316708715],[-101.92915603012659,13.078819085332668],[-101.97222659448164,13.152987527052858],[-102.01949025866838,13.227197322298707],[-102.0711115824335,13.301507302919845],[-102.12725512912084,13.375976299866466],[-102.18808545847702,13.450663144088992],[-102.25376713384605,13.525626665638242],[-102.32446471587383,13.600925696363959],[-102.40034276610567,13.676619067216336],[-102.48156584608682,13.752765608246364],[-102.56829851736256,13.82942415130367],[-102.66070534237753,13.906653527338563],[-102.75895088177765,13.984512567301294],[-102.86319969710826,14.063060101242797],[-102.97361635081381,14.142354961012757],[-103.09036540354043,14.222455977561481],[-103.21361141683332,14.303421980939788],[-103.34351895313711,14.385311802997421],[-103.48025257399701,14.468184274684688],[-103.62397684005902,14.552098226951728],[-103.77485631376777,14.637112490748962],[-103.93299720056024,14.723260757378171],[-104.0981649338645,14.810429921803575],[-104.27000159969396,14.898453739848378],[-104.44814911409026,14.987165897188561],[-104.63224939489356,15.076400078600898],[-104.8219443572462,15.165989967962787],[-105.01687591808906,15.255769249151683],[-105.21668599436305,15.345571608742887],[-105.42101650121049,15.435230728815213],[-105.62950935737086,15.5245802950447],[-105.84180647798649,15.613453991308802],[-106.05754977909891,15.7016855032835],[-106.27638117854843,15.789108514846248],[-106.49794259147734,15.875556710773708],[-106.72187593572573,15.960863774943391],[-106.94782312643605,16.044863391232639],[-107.17542608144839,16.127389246216865],[-107.40432671680446,16.208275022874147],[-107.63416694854573,16.287354405981205],[-107.8645886936132,16.364461079415435],[-108.09523386804847,16.439428729752194],[-108.32574438879243,16.512091039070356],[-108.55576217188661,16.582281693045843],[-108.78492913517135,16.649834376455431],[-109.01288719378886,16.714582773176573],[-109.23927826468008,16.776360567086613],[-109.46374426478587,16.835001444761019],[-109.68592710924861,16.890339089177758],[-109.9054687159084,16.94220718421434],[-110.12201100170626,16.990439415546746],[-110.33519588088512,17.034869467951751],[-110.54466527218449,17.075331025306696],[-110.75006109164599,17.111657771489092],[-110.95102525531121,17.143683392174921],[-111.14719967922173,17.171241571241637],[-111.33822628121783,17.194165993465958],[-111.52374697644171,17.212290342725282],[-111.70341370837582,17.225454292381812],[-111.87710901476913,17.233635236177349],[-112.04494602943561,17.236948292729664],[-112.20704791183158,17.235514566544168],[-112.36353782321186,17.229455163025477],[-112.51453892123413,17.218891187578379],[-112.66017436805254,17.203943745607489],[-112.80056732132471,17.184733942517596],[-112.93584094230556,17.161382882813939],[-113.06611839045127,17.134011672800625],[-113.19152282431878,17.102741416982951],[-113.31217740606235,17.067693220765648],[-113.42820529423886,17.028988190452765],[-113.53972964830456,16.986747430549599],[-113.64687362861497,16.941092045561618],[-113.74976039462643,16.892143141792701],[-113.84851310669444,16.840021824647636],[-113.94325492337595,16.784849198631775],[-114.03410900592581,16.726746370049057],[-114.12119851380027,16.665834443405004],[-114.20464660645564,16.602234524104119],[-114.28457644424742,16.536067718450568],[-114.36111118663189,16.467455130050325],[-114.43437399306521,16.396517865207443],[-114.50448802390309,16.323377028427274],[-114.57157643860165,16.248153726913131],[-114.63576239661722,16.170969063371729],[-114.69716905920461,16.091944145006437],[-114.75591958492083,16.011200076322609],[-114.81213713322205,15.928857962724919],[-114.86594486536313,15.845038910517474],[-114.91746593990109,15.759864023306193],[-114.96682351719147,15.673454406495807],[-115.01414075758981,15.585931166390367],[-115.05954081965302,15.497415408394545],[-115.1031468637367,15.408028237013639],[-115.14508205019638,15.317890757652492],[-115.18546947823376,15.227124044239361],[-115.22438869738039,15.135825982583185],[-115.26179894136794,15.044030396185974],[-115.2976388395607,14.951760141317607],[-115.33184701952422,14.85903807154989],[-115.36436211242147,14.765887041354006],[-115.39512274581796,14.672329906100401],[-115.42406754997734,14.578389520260316],[-115.45113515336453,14.484088738304763],[-115.47626418534378,14.389450414705038],[-115.49939327617864,14.294497404831532],[-115.52046105343476,14.199252562256106],[-115.5394061473757,14.103738743248527],[-115.55616718646638,14.007978800481396],[-115.57068280097042,13.911995589325102],[-115.58289161935267,13.815811965150203],[-115.5927322700781,13.719450781528508],[-115.60014338341034,13.622934893830404],[-115.60506358871356,13.526287156527189],[-115.60743151445274,13.429530424089933],[-115.60718578999212,13.332687550989817],[-115.60426504469598,13.235781392597346],[-115.59860790792851,13.138834803383588],[-115.59015300905401,13.041870636920521],[-115.57883897563812,12.944911748578477],[-115.56460443884367,12.847980993728015],[-115.54738802713564,12.751101225940943],[-115.52712836987826,12.654295300587762],[-115.5037640955365,12.557586071240337],[-115.47723383437386,12.460996394168376],[-115.44747621485533,12.36454912204448],[-115.41442986634519,12.268267111138414],[-115.37803341820756,12.172173215921305],[-115.33822549980687,12.076290289965073],[-115.29494473960796,11.980641188640107],[-115.24812976697507,11.88524876641759],[-115.19771921217182,11.790135878668025],[-115.1436517027638,11.695325378963219],[-115.08587590364994,11.600841508528958],[-115.0244278137925,11.506720581989384],[-114.95938840095386,11.41300512648553],[-114.89083900611513,11.319737721318916],[-114.81886096755949,11.226960947589816],[-114.74353562626806,11.134717383700433],[-114.66494432142321,11.043049609851778],[-114.58316839400607,10.952000205345314],[-114.4982891822998,10.86161175038211],[-114.41038802728553,10.771926825163007],[-114.31954626904496,10.682988008090263],[-114.22584524586131,10.594837879364775],[-114.12936629871564,10.507519019187498],[-114.0301907676897,10.421074006860067],[-113.92839999196599,10.335545421684003],[-113.82407531162625,10.25097584386026],[-113.71729806585296,10.16740785269036],[-113.60814959562725,10.08488402837537],[-113.49671124103088,10.003446951116018],[-113.38306434034695,9.9231391984154129],[-113.26729023455658,9.8440033522730346],[-113.14947026284227,9.7660819919904611],[-113.02968576528576,9.6894176959700076],[-112.90801808196881,9.6140530444126284],[-112.78454855297326,9.5400306184184274],[-112.65935851748151,9.4673929954905134],[-112.53252931557535,9.3961827567289902],[-112.40414228733658,9.3264424814354925],[-112.27427877194765,9.2582147498109748],[-112.14302010949035,9.1915421411570151],[-112.01044764094576,9.1264672347751912],[-111.87664270459703,9.0630326099671379],[-111.74168664142525,9.0012808478330157],[-111.60566079061289,8.9412545276744595],[-111.46864649134238,8.8829962287930471],[-111.33072508549418,8.8265485304904132],[-111.19197791045212,8.7719540138667753],[-111.0524861803928,8.719254615208456],[-110.91232532055699,8.6684632370888721],[-110.77156273063542,8.6195524861584545],[-110.63026521766557,8.5724920013049655],[-110.48849958778567,8.52725142321475],[-110.34633265073114,8.4838003907755706],[-110.20383121264024,8.4421085428750757],[-110.06106208055047,8.4021455201997242],[-109.91809206239867,8.3638809616372214],[-109.77498796612161,8.3272845069745358],[-109.63181659785761,8.2923257950994866],[-109.48864476554337,8.2589744657990991],[-109.34553927711585,8.2272001597597182],[-109.2025669396125,8.1969725149697297],[-109.05979456007077,8.1682611712162156],[-108.9172889455283,8.1410357682862013],[-108.77511690482118,8.1152659459667689],[-108.63334524498697,8.0909213440449435],[-108.49204077216382,8.0679716014084306],[-108.35127029518787,8.0463863569449359],[-108.2111006210967,8.0261352513409179],[-108.07159855692777,8.0071879234840253],[-107.93283090971863,7.9895140131613402],[-107.79486448740607,7.9730831601598311],[-107.65776609792698,7.9578650033673739],[-107.52160254741955,7.9438291825708802],[-107.38644064471987,7.9309453375574321],[-107.25234719596625,7.9191831072147352],[-107.11938900999473,7.908512132229248],[-106.98763289204425,7.8989020505892995],[-106.85714565185026,7.8903225029812916],[-106.72799409555097,7.8827431282928728],[-106.60024503018388,7.8761335663111822],[-106.4739652636859,7.8704634568231882],[-106.34922160399373,7.8657024387167098],[-106.226080858145,7.8618201517787156],[-106.10460983317716,7.8587862357962877],[-105.98487533612774,7.8565703296571314]]]},"properties":{"objectid":4,"basin":"Pacific","prob2day":"0%","risk2day":"Low","prob7day":"50%","risk7day":"Medium","idp_source":"gtwo_areas_202608252333","idp_filedate":1787701385000,"idp_ingestdate":1787701443000,"st_area(shape)":98.345880025155992,"st_perimeter(shape)":37.263241548306596}},{"type":"Feature","id":5,"geometry":{"type":"Polygon","coordinates":[[[-129.03762244821735,14.967973410544573],[-129.12392126045773,15.033119088175511],[-129.21255779920295,15.096622171176421],[-129.30346928278107,15.158508735389944],[-129.39659293041933,15.218804854860309],[-129.491865958647,15.277536604530837],[-129.58922558669138,15.334730060244226],[-129.68860903198117,15.39041129694391],[-129.78995351284425,15.44460638957338],[-129.89319624670935,15.497341413075901],[-129.99827445190436,15.548642442394964],[-130.10512534585791,15.598535552473891],[-130.21368614779738,15.647046819155491],[-130.32389407515137,15.694202316483882],[-130.43568634624779,15.740028120301645],[-130.54900017851531,15.784550305552273],[-130.66377279028194,15.8277949471792],[-130.77994139987561,15.869788119226484],[-130.89744322472495,15.910555898436087],[-131.01621548315791,15.950124357952916],[-131.13619539350253,15.988519575418195],[-131.25732017318734,16.025767623077456],[-131.37952704054038,16.061894577672774],[-131.5027532138896,16.096926514147469],[-131.62693591066363,16.130889507444977],[-131.75201234919047,16.163809631609354],[-131.87791974689873,16.195712963382675],[-132.00459532301568,16.226625576809056],[-132.13197629496995,16.256573546831874],[-132.25999988019021,16.285582948394506],[-132.38860329790379,16.313679857339707],[-132.51772376553924,16.340890347711536],[-132.64729850052527,16.367240496252066],[-132.77726472118985,16.392756376106036],[-132.90756078979854,16.417460580041848],[-133.03813415266893,16.44134804307788],[-133.16893658815292,16.464400509875759],[-133.29991990068277,16.486599642359749],[-133.43103589469069,16.507927106051227],[-133.56223637640755,16.528364562874401],[-133.69347314936624,16.547893676552064],[-133.82469801979767,16.566496110807009],[-133.95586279213404,16.584153528462707],[-134.08691927170696,16.600847594141271],[-134.2178192620492,16.616559970666231],[-134.3485145693918,16.631272321760378],[-134.47895699906616,16.644966309347865],[-134.60909835460529,16.657623598950067],[-134.73889044134069,16.669225853390572],[-134.86828506460398,16.679754735492793],[-134.9972340297266,16.689191908979581],[-135.12568914114087,16.69751903757367],[-135.25360220327894,16.704717784997911],[-135.38092502147248,16.710769813176455],[-135.50760940105295,16.715656787630792],[-135.63360714645256,16.719360370285017],[-135.75887006300292,16.721862224861923],[-135.88334995513623,16.723144015084358],[-136.0069986290834,16.723187404675116],[-136.12976788747795,16.721974056457668],[-136.25160953745012,16.719485635054127],[-136.3724753825328,16.715703801489383],[-136.49231722805752,16.71061022218413],[-136.61108687935592,16.704186558163258],[-136.72873614086012,16.696414474048879],[-136.84521681790176,16.687275633563786],[-136.96048071491299,16.676751699531451],[-137.07448061119118,16.664824416613669],[-137.18718675986099,16.651476994467885],[-137.29858453075138,16.636693908996847],[-137.40865979281511,16.620459676572978],[-137.51739841410546,16.602758814467848],[-137.6247862626758,16.583575841751838],[-137.73080920657952,16.562895272998617],[-137.83545311387002,16.540701627278395],[-137.93870385439925,16.51697942186297],[-138.04054729442203,16.491713173124595],[-138.14096930379026,16.464887398334895],[-138.23995574965801,16.436486615664933],[-138.33749250187736,16.406495341486959],[-138.43356542670301,16.374898093971979],[-138.5281603930876,16.341679389492356],[-138.62126326998384,16.306823746219038],[-138.71285992544512,16.270315680524391],[-138.80293622752481,16.232139709679984],[-138.89147804427625,16.19228035185688],[-138.97847124465216,16.150722124326705],[-139.06390169670584,16.107449542562506],[-139.14775526759144,16.062447126533812],[-139.23001782716091,16.015699390814348],[-139.31067524346764,15.967190855373815],[-139.38971338366565,15.916906034785825],[-139.46711811670764,15.864829448120645],[-139.54287531064699,15.810945611750697],[-139.61697083443636,15.755239043846927],[-139.68939055612918,15.697694260781645],[-139.76012034377874,15.638295780725855],[-139.82914606543847,15.577028120051864],[-139.89645359006107,15.51387579693062],[-139.96202878480051,15.448823326835225],[-140.02585728838307,15.381855766630451],[-140.0879108701904,15.312990407581367],[-140.14813981210256,15.242294509983765],[-140.20649254339605,15.169839632892888],[-140.26291749514621,15.095697335363866],[-140.31736309752887,15.019939176451942],[-140.36977778251855,14.942636715212359],[-140.42010998119059,14.863861510700303],[-140.4683081228215,14.783685121071642],[-140.51432063848659,14.7021791071802],[-140.55809595926104,14.619415025383262],[-140.59958251622004,14.535464437433973],[-140.63872874043892,14.450398899689617],[-140.67548306119426,14.364289973003963],[-140.70979391135984,14.277209215532991],[-140.74160971931303,14.189228186331889],[-140.77087891792763,14.100418444455784],[-140.79754993737964,14.010851548959977],[-140.8215712078449,13.920599058000278],[-140.84289116039866,13.829732532430569],[-140.86145822521684,13.738323529507397],[-140.877220834274,13.646443608286006],[-140.89012741774604,13.554164328720958],[-140.90012640670824,13.461557248968006],[-140.90716623223574,13.36869392898177],[-140.91119532360523,13.275645926018797],[-140.91216211279118,13.182484800932968],[-140.91001502996954,13.089282111880095],[-140.90470250711491,12.9961094170161],[-140.89617297350384,12.903038276295547],[-140.88437486111087,12.810140248773621],[-140.86925659921258,12.717486893505452],[-140.85076662068292,12.62514976864702],[-140.82885338087874,12.533200423360995],[-140.80349178241971,12.441700704024413],[-140.77473279168493,12.350684542058104],[-140.74264097100394,12.260180880343512],[-140.70728088000851,12.170218662661284],[-140.6687170819277,12.080826831892921],[-140.62701413549388,11.99203433271839],[-140.58223660393605,11.903870107119872],[-140.53444904688592,11.816363098878071],[-140.4837160257739,11.729542252672957],[-140.43010210203028,11.643436509587389],[-140.37367183708551,11.558074815200712],[-140.31448979236995,11.473486112394312],[-140.25262052751526,11.389699343150312],[-140.18812860485116,11.306743453048057],[-140.12107858490867,11.224647384069669],[-140.05153502911821,11.143440079995855],[-139.97956249891013,11.063150483708],[-139.90522555481539,10.983807539886186],[-139.82858875826452,10.905440190512536],[-139.74971667068769,10.828077380267018],[-139.66867385261611,10.751748051131813],[-139.58552486548007,10.676481147786888],[-139.50033427070991,10.602305614013005],[-139.41316662883679,10.529250391792289],[-139.32408650129094,10.457344424905443],[-139.23315844860343,10.386616657133175],[-139.14044703310401,10.317096031356925],[-139.0460168153237,10.248811492256721],[-138.94993235669284,10.181791981814627],[-138.85225821774247,10.116066443811462],[-138.753058959903,10.051663822927196],[-138.65239914460477,9.9886130602446883],[-138.55034333237882,9.9269431013431699],[-138.44694992699743,9.8666815985770313],[-138.34224287740676,9.8078489908384086],[-138.23623415178457,9.7504632079108546],[-138.12893570841612,9.6945421759807573],[-138.02035950648593,9.6401038239324635],[-137.91051750158135,9.5871660770529274],[-137.79942165198759,9.5357468633272333],[-137.68708391598983,9.485864109840918],[-137.57351625097414,9.4375357436797458],[-137.45873061522565,9.3907796919293673],[-137.34273896523098,9.3456138816754333],[-137.22555326017471,9.3020562400035942],[-137.1071854565435,9.2601246939995576],[-136.98764751262252,9.2198371707489741],[-136.86695138579773,9.1812115973374944],[-136.74510903435436,9.1442659017500887],[-136.622132414779,9.1090180101731448],[-136.4980334862563,9.0754858496923703],[-136.37282420617208,9.0436873473933019],[-136.24651653191233,9.0136404312610239],[-136.11912242086294,8.985363027481867],[-135.9906538313092,8.9588730640408016],[-135.86112272063696,8.9341884671242155],[-135.73054104623219,8.9113271647170222],[-135.59892076727948,8.8903070830056095],[-135.46627383936612,8.8711461499750044],[-135.3326122225759,8.8538622918114811],[-135.19794787249623,8.8384734365000099],[-135.0622927474123,8.8249975111263552],[-134.92565880560932,8.8134524427761676],[-134.78805800447321,8.803856157635721],[-134.64950230228931,8.7962265845893626],[-134.51000365554415,8.7905816489241033],[-134.36957858568309,8.7869378181259208],[-134.22829665256836,8.7852945849772368],[-134.08626163526617,8.7856404912158155],[-133.9435778839121,8.7879638951177981],[-133.80034974774259,8.7922531558585888],[-133.65668157779248,8.7984966317143289],[-133.51267772239891,8.8066826818604227],[-133.3684425325967,8.8167996645730113],[-133.22408035852163,8.8288359399268188],[-133.07969554851064,8.8427798643993469],[-132.93539245269943,8.8586197989646962],[-132.79127542212296,8.8763441018988942],[-132.64744880601751,8.895941131478196],[-132.50401695272012,8.917399246877892],[-132.36108421416509,8.9407068063741235],[-132.21875493958868,8.9658521700417282],[-132.077133477328,8.9928236952574707],[-131.93632417931735,9.0216097411967553],[-131.79643139389361,9.0521986670349861],[-131.65755947209186,9.0845788310483613],[-131.5198127622491,9.1187385924122282],[-131.38329561540024,9.1546663103021046],[-131.24811238078166,9.1923503429940752],[-131.11436740852901,9.2317790487642242],[-130.98216504787854,9.2729407876873324],[-130.85160964986534,9.3158239171402215],[-130.72280556282635,9.3604167971975585],[-130.59585713689728,9.4067077852362218],[-130.47086872311297,9.4546852413309352],[-130.3479446698106,9.50433752465716],[-130.22718932712564,9.5556529916923409],[-130.10870704609323,9.6086200043098984],[-129.99260217505025,9.6632269180879575],[-129.87897796336222,9.7194616893056605],[-129.76790428475482,9.777299964322026],[-129.65941242214546,9.8367031694158982],[-129.55353151176973,9.8976319358652631],[-129.45029068806474,9.9600468949483911],[-129.34971908726595,10.023908680641227],[-129.25184584470986,10.089177923322666],[-129.15670009573273,10.155815255170012],[-129.06431097477156,10.223781308360856],[-128.97470761716272,10.293036715971823],[-128.8879191591418,10.36354210838175],[-128.80397473604512,10.435258118667377],[-128.72290348141047,10.50814537900618],[-128.64473453237269,10.582164519776882],[-128.56949702336885,10.657276174955655],[-128.49722008973526,10.733440975820542],[-128.42793286770757,10.810619554548964],[-128.3616644908235,10.888772542419019],[-128.29844409531864,10.967860571608242],[-128.23830081742869,11.047844275193256],[-128.18126379069128,11.128684284452277],[-128.12736215134214,11.210341231562722],[-128.07662503471749,11.292775748701956],[-128.02908157615371,11.375948467148191],[-127.98476091008786,11.459820019078734],[-127.9436921727555,11.544351037570493],[-127.90590449859366,11.629502153901399],[-127.87142702383801,11.715233999349721],[-127.84028888382483,11.801507206992142],[-127.81251921299122,11.888282409006081],[-127.7881471466734,11.975520236669752],[-127.76720182110705,12.063181322160403],[-127.74971237072924,12.151226298554946],[-127.73570781666234,12.239615758460616],[-127.72519862971291,12.328304268127624],[-127.71815638321044,12.417233742143651],[-127.71454775097783,12.506344505094944],[-127.71433940593874,12.595576880668659],[-127.71749802281539,12.684871193450931],[-127.72399027633008,12.774167767128915],[-127.73378283850712,12.863406925389427],[-127.7468423858673,12.952528991919564],[-127.76313559133439,13.041474291305633],[-127.78262912783191,13.130183146335298],[-127.80528967188076,13.218595882494128],[-127.83108389550529,13.306652822569845],[-127.85997847252838,13.394294291148753],[-127.891940079471,13.48146061101852],[-127.92693538745806,13.568092107664768],[-127.9649310721112,13.654129103875164],[-128.0058938072533,13.739511924236069],[-128.04979026760668,13.824180892434356],[-128.09658712519558,13.908076331257803],[-128.14625105654096,13.991138567091355],[-128.19874873366706,14.0733079218233],[-128.25404683129614,14.154524720039944],[-128.31211202415051,14.23472928542833],[-128.37291098605306,14.313861942574704],[-128.43641038992746,14.391863014266846],[-128.50257691139524,14.468672825990268],[-128.57137722248075,14.544231700532691],[-128.64277799970483,14.618479961581102],[-128.71674591509179,14.691357933721804],[-128.79324764426326,14.762805941541103],[-128.87224986014286,14.832764306927345],[-128.95371923655341,14.901173355366211],[-129.03762244821735,14.967973410544573]]]},"properties":{"objectid":5,"basin":"Pacific","prob2day":"40%","risk2day":"Medium","prob7day":"70%","risk7day":"High","idp_source":"gtwo_areas_202608252333","idp_filedate":1787701385000,"idp_ingestdate":1787701443000,"st_area(shape)":82.611060391364134,"st_perimeter(shape)":33.888299313290297}},{"type":"Feature","id":6,"geometry":{"type":"Polygon","coordinates":[[[-159.10596738248864,10.123424852375194],[-158.97812681290202,10.140480164927794],[-158.85563285227423,10.160057239450168],[-158.73837568349091,10.18209271150954],[-158.62624549213567,10.206523219371206],[-158.51913246379209,10.23328539950171],[-158.41692678134581,10.262315889267029],[-158.31951863127972,10.293551326033025],[-158.22679819737883,10.3269283462663],[-158.13865566432736,10.362383587332829],[-158.05498121770896,10.399853686598476],[-157.97566504130853,10.439275280529898],[-157.90059731981037,10.480585007392335],[-157.82966823969741,10.52371950365233],[-157.76276798295598,10.568615406675804],[-157.69978673696826,10.615209352929412],[-157.64061468461992,10.663437979779076],[-157.58514201149455,10.713237925490034],[-157.53325890137711,10.764545825629511],[-157.48485554075052,10.817298317563427],[-157.43982211250042,10.871432038657815],[-157.3980488031097,10.926883627177801],[-157.35942579636333,10.983589717791403],[-157.32384327604626,11.041486949663124],[-157.29119142864144,11.100511960158997],[-157.26136043883309,11.160601383946869],[-157.2342404895069,11.221691861090676],[-157.20972176714577,11.283720026258322],[-157.18769445643395,11.346622518614481],[-157.16804874025706,11.410335973726319],[-157.15067480599743,11.47479702895987],[-157.1354628365406,11.539942322580259],[-157.12230301747019,11.605708490154825],[-157.1110855325712,11.672032169948807],[-157.10170056742717,11.738849998428805],[-157.09403830672241,11.806098612960739],[-157.08798893514117,11.873714650910529],[-157.08344263736774,11.941634748744775],[-157.08028959808641,12.009795544728718],[-157.07842000198141,12.078133674429694],[-157.0777240337371,12.146585776112829],[-157.07809187893699,12.215088487144101],[-157.07941372046673,12.283578443090789],[-157.08157974480929,12.351992282218191],[-157.08448013664889,12.420266641892169],[-157.08800507977054,12.488338158579268],[-157.09204475885846,12.556143469645519],[-157.09648935949627,12.623619212456845],[-157.10122906546891,12.69070202347973],[-157.10615406236002,12.757328540080209],[-157.11115469403381,12.823435457180722],[-157.11617513687298,12.888978878872308],[-157.12129153467652,12.95396249327456],[-157.12659988018024,13.018397142614162],[-157.13219616612008,13.082293671815648],[-157.1381763852319,13.145662924004853],[-157.14463653205024,13.208515745005741],[-157.15167259841161,13.270862977044885],[-157.15938057795123,13.332715465046817],[-157.16785646250565,13.39408405213743],[-157.17719624750873,13.454979583241311],[-157.1874959238977,13.515412901484353],[-157.19885148530773,13.575394851791089],[-157.21135892537401,13.634936277287522],[-157.2251142368325,13.694048021998753],[-157.24021341331829,13.752740930849427],[-157.25675244576868,13.811025846965379],[-157.27482732961749,13.868913614371934],[-157.2945340576006,13.926415077094248],[-157.31596862155456,13.98354107915759],[-157.33922701511457,14.040302464587228],[-157.36440523191584,14.096710077408261],[-157.39159926469424,14.152774761646072],[-157.42090510528629,14.208507361325815],[-157.45241874912588,14.263918720472702],[-157.48623618715024,14.319019682212684],[-157.52245341389386,14.373821091470347],[-157.56116642209261,14.428333792270848],[-157.60247120358309,14.482568628639456],[-157.64646375289979,14.536536442802742],[-157.69324006277859,14.590248081483935],[-157.74289612595535,14.643714386909551],[-157.79552793516601,14.696946203104915],[-157.851231484945,14.749954374095239],[-157.91010276622958,14.802749744804998],[-157.97223777445365,14.855343158360199],[-158.03773250055437,14.907745458786053],[-158.1066829390663,14.959967491007035],[-158.17918508182598,15.012020097249831],[-158.25533492246862,15.063914123338236],[-158.3352284546294,15.115660411498936],[-158.4189616710442,15.167269806656407],[-158.5066305644489,15.218753153735179],[-158.59833112847872,15.270121294961939],[-158.69415935497017,15.321385075261162],[-158.79421123845782,15.372555337758797],[-158.89858277077818,15.423642927379319],[-159.00736994556647,15.474658688148054],[-159.12066875645786,15.525613464090213],[-159.23857519618826,15.57651809743237],[-159.36118351640607,15.627383061679097],[-159.48848351250402,15.678196415632215],[-159.6203030713296,15.728911490772816],[-159.75645615282912,15.779478626537525],[-159.89675671694886,15.829848164161604],[-160.04101872183645,15.879970445779577],[-160.18905612833757,15.929795810828125],[-160.34068289549916,15.97927460144183],[-160.49571298326748,16.028357157956634],[-160.65396034979022,16.076993822507063],[-160.815238955913,16.12513493452974],[-160.97936276068279,16.172730836159303],[-161.14614572314653,16.219731867731639],[-161.31540180414987,16.266088370482066],[-161.48694496184044,16.311750685645791],[-161.66058915616455,16.356669154458075],[-161.83614834706847,16.400794117254861],[-162.01343649359922,16.444075915271412],[-162.19226755480372,16.48646489064231],[-162.37245549062831,16.527911382804234],[-162.55381426191857,16.568365732992334],[-162.73615782592285,16.607778283341247],[-162.91930014348677,16.646099374186917],[-163.10305517365725,16.68327934586523],[-163.28723687638066,16.719268540510882],[-163.47165921070393,16.754017298459701],[-163.65613613567405,16.787475960947006],[-163.84048161213661,16.819594869208004],[-164.02450959913861,16.850324363578636],[-164.20803405572701,16.879614786193542],[-164.39086894184811,16.907416477388665],[-164.57282821654888,16.93367977749989],[-164.7537258397756,16.958355028661799],[-164.93337577057528,16.981392572109655],[-165.11159196889417,17.002742747280081],[-165.28818839377928,17.022355897207035],[-165.46297900517686,17.040182361327027],[-165.63577776303325,17.056172480875432],[-165.80639862549609,17.0702765970874],[-165.97465555341097,17.082445052097626],[-166.14036250492558,17.092628185342619],[-166.30333344178484,17.100776338057699],[-166.46338232123705,17.106839852377448],[-166.62032310322854,17.110769067738431],[-166.77396974860494,17.112514326275289],[-166.92413621551387,17.112025969223225],[-167.07063646390162,17.109254336018921],[-167.21328445281517,17.104149769696278],[-167.35189414220082,17.096662610591125],[-167.48627949200488,17.086743199039518],[-167.61626004246691,17.074344096702816],[-167.74178367877369,17.059468938640748],[-167.86292663735435,17.042172430613334],[-167.9797707313341,17.022511501504709],[-168.09239777743539,17.000543078400483],[-168.20088958878341,16.976324088386093],[-168.30532798120129,16.949911459446412],[-168.40579476961284,16.921362118666991],[-168.50237176894191,16.89073299313327],[-168.59514079321295,16.858081011729439],[-168.68418365824914,16.823463101541051],[-168.76958217717566,16.786936188754225],[-168.85141816761427,16.74855720225321],[-168.92977344179084,16.708383070022819],[-169.00472981552849,16.666470717349853],[-169.07636910375106,16.622877074017879],[-169.14477312138237,16.577659066213073],[-169.21002368334624,16.53087362281957],[-169.27220260456647,16.482577669124282],[-169.33139169906758,16.432828134910665],[-169.38767278267269,16.381681946364893],[-169.44112766940634,16.329196031471838],[-169.49183817419231,16.275427317316996],[-169.53988611285374,16.220432731885182],[-169.58535329851583,16.164269202262005],[-169.62832154790104,16.106993656432223],[-169.66887267503384,16.048663022380708],[-169.70708849393876,15.989334226293636],[-169.74305082043892,15.929064196155878],[-169.77684146945816,15.867909859952192],[-169.80854225592029,15.805928144768188],[-169.83823499384982,15.743175978588681],[-169.86600149817053,15.679710288499166],[-169.89192358470558,15.615588001585138],[-169.91608306658017,15.550866046730789],[-169.93856176051676,15.485601350122352],[-169.95944148053982,15.419850839744583],[-169.97880404157317,15.353671443582414],[-169.99673125854068,15.287120087821961],[-170.01330494546679,15.22025370134736],[-170.02860691817466,15.15312921124422],[-170.04271899158812,15.085803544598036],[-170.05572297973166,15.018333629393624],[-170.06770069752909,14.950776393615797],[-170.07873396080356,14.883188763450789],[-170.08890458268027,14.815627666883472],[-170.09829437988165,14.748150032797923],[-170.1069851664322,14.680812786481056],[-170.11505875725575,14.613672857716324],[-170.12259696727614,14.546787171790697],[-170.12967276208823,14.480209713207842],[-170.13625624642856,14.413960240073152],[-170.14225116226126,14.348036426739839],[-170.14756014358568,14.282435582436335],[-170.15208582619985,14.217155014592379],[-170.15573084500241,14.15219203153714],[-170.15839783579142,14.08754394159979],[-170.15998943256619,14.023208051310633],[-170.16040827202406,13.959181670797591],[-170.15955698816438,13.895462106591083],[-170.15733821588589,13.832046667020222],[-170.15365459188584,13.768932660414066],[-170.14840875106293,13.706117394202522],[-170.14150332741656,13.643598176714647],[-170.13284095674467,13.581372317178818],[-170.12232427484534,13.519437121226304],[-170.10985591571787,13.457789898984799],[-170.09533851516028,13.39642795698478],[-170.07867470897057,13.33534860445468],[-170.05976713114811,13.274549147924972],[-170.03851841839023,13.214026897523468],[-170.01483120379694,13.153779158881207],[-169.98860812496491,13.093803242126057],[-169.95975181499418,13.034096453788436],[-169.92816491058207,12.974656102197514],[-169.89375004572796,12.915479496581668],[-169.85640985622982,12.856563942572052],[-169.81604697698631,12.79790675119574],[-169.77256404379551,12.739505228083942],[-169.72586369155604,12.681356681565717],[-169.67584855516662,12.623458420869554],[-169.62242127042521,12.56580775252587],[-169.56548447133122,12.508401985763157],[-169.50494079458193,12.451238428011209],[-169.44069287417673,12.394314387599024],[-169.37264334591362,12.337627171956569],[-169.30069484469126,12.281174090312163],[-169.22475000540834,12.224952449196337],[-169.14471146476222,12.168959556938148],[-169.06048185585288,12.113192722766087],[-168.97196381537771,12.057649253210627],[-168.87905997823532,12.002326456600827],[-168.78167297842515,11.947221642165175],[-168.67970545354376,11.892332116434147],[-168.57306003579194,11.837655188636177],[-168.46163936276631,11.783188165301738],[-168.3453460684662,11.728928355659207],[-168.22408278868966,11.674873067138492],[-168.09775215833537,11.621019608967913],[-167.96625681230196,11.567365286778681],[-167.82952955414552,11.513912294916622],[-167.68770373983565,11.46069529055535],[-167.54099454116508,11.407762176083679],[-167.38961737094485,11.355160896158566],[-167.23378764108668,11.302939391839573],[-167.073720765301,11.251145605985073],[-166.90963215549951,11.199827479654573],[-166.74173722449325,11.149032956605822],[-166.57025138419394,11.098809978797647],[-166.39539004921133,11.049206488189043],[-166.21736863055779,11.00027042763827],[-166.03640254104437,10.952049740003645],[-165.85270719438142,10.904592366344787],[-165.66649800248075,10.857946249519955],[-165.47799037725403,10.81215933148809],[-165.28739973331096,10.767279556006827],[-165.09494148076465,10.723354864135786],[-164.9008310351241,10.680433198733283],[-164.70528380650239,10.638562501758202],[-164.50851520860991,10.597790716068801],[-164.31074065515702,10.558165783624133],[-164.11217555715615,10.519735647282459],[-163.91303532741836,10.482548249002605],[-163.71353537965396,10.446651530743679],[-163.51389112577476,10.412093435363886],[-163.31431797859176,10.378921905721484],[-163.11503135091604,10.347184882876206],[-162.91624665555864,10.316930310585519],[-162.71817930443129,10.288206129909099],[-162.52104471124434,10.261060283705262],[-162.32505828790957,10.235540714832268],[-162.13043544633871,10.211695365249057],[-161.9373916011414,10.189572177813886],[-161.74614216333009,10.169219093586435],[-161.55690254661516,10.150684055424961],[-161.36988816290832,10.134015007087044],[-161.18531442591993,10.11925988873304],[-161.00339674666245,10.106466644120474],[-160.8243505388462,10.095683216107659],[-160.64839121528229,10.086957544854954],[-160.4757341887817,10.0803375750192],[-160.30659487035689,10.075871247660075],[-160.14118867461755,10.073606505635837],[-159.9797310134754,10.073591290905483],[-159.82243729974152,10.075873545427896],[-159.66952294622692,10.080501212960769],[-159.52120336484333,10.087522235462927],[-159.37769396840184,10.096984553994105],[-159.23921016971349,10.108936112311881],[-159.10596738248864,10.123424852375194]]]},"properties":{"objectid":6,"basin":"Pacific","prob2day":"0%","risk2day":"Low","prob7day":"20%","risk7day":"Low","idp_source":"gtwo_areas_202608252333","idp_filedate":1787701385000,"idp_ingestdate":1787701443000,"st_area(shape)":71.629369891736602,"st_perimeter(shape)":33.288369749864806}}]}