{"type":"FeatureCollection","features":[{"type":"Feature","id":1,"geometry":{"type":"Polygon","coordinates":[[[-101.91988534183497,9.9335728800845118],[-101.74705357616153,9.8737607748400364],[-101.57757065646052,9.8169702414836024],[-101.41135981210556,9.7631469681581962],[-101.24834427426873,9.7122366448054436],[-101.0884472741223,9.664184959568388],[-100.93159204103978,9.6189376023885984],[-100.77770180619331,9.5764402623083811],[-100.62669980165441,9.5366386274708361],[-100.47850925679666,9.4994783878174758],[-100.33305340189287,9.4649052323907199],[-100.19025546901457,9.4328648493334413],[-100.05003868933397,9.4033029285874363],[-99.912326291325201,9.3761651582955778],[-99.777041507959098,9.3513972292988115],[-99.644107567709966,9.3289448279415979],[-99.513447703548593,9.3087536459641456],[-99.384985145747805,9.2907693706101213],[-99.258643123681111,9.2749376909218313],[-99.13434486942009,9.2612042968409582],[-99.012013613237571,9.2495148774098084],[-98.891572585406379,9.2398151216706879],[-98.772945017098777,9.2320507177665263],[-98.656054139486855,9.2261673556390633],[-98.540823182843496,9.2221107234312854],[-98.427175378340962,9.2198265110847615],[-98.315033955352646,9.2192604076418547],[-98.204322146849506,9.2203581012454947],[-98.094963181305673,9.223065281837421],[-97.986880290792669,9.227327638459883],[-97.879996726267791,9.2330908664504818],[-97.774263235459841,9.2403104691529734],[-97.669712265908231,9.2489710870461863],[-97.56639137196413,9.2590627457492474],[-97.464348107079388,9.2705754726800365],[-97.363630023806479,9.2834992952564335],[-97.264284675597196,9.2978242399968281],[-97.166359616802765,9.3135403334197804],[-97.069902399076341,9.3306376029431704],[-96.974960577668412,9.3491060750854444],[-96.881581705131509,9.3689357772644257],[-96.789813334917369,9.3901167359987312],[-96.699703020477898,9.4126389778066937],[-96.611298315264946,9.4364925310056265],[-96.52464677183093,9.4616674212146563],[-96.439795944527134,9.4881536758516063],[-96.356793386805236,9.5159413214349797],[-96.275686652117201,9.5450203853825997],[-96.196523293015446,9.5753808942130263],[-96.119350862951876,9.6070128744447629],[-96.044216916277549,9.6399063543948955],[-95.97116900554505,9.6740513596826645],[-95.900254684206232,9.7094379177258361],[-95.831521506612148,9.7460560550430273],[-95.765017025315387,9.7838957999513241],[-95.700788793767742,9.8229471771706471],[-95.638884364521687,9.8632002150180256],[-95.579351292827823,9.9046449400121332],[-95.522237131238512,9.9472713795706227],[-95.46758943230634,9.991069559312848],[-95.415455663148236,10.036029518347732],[-95.365864850282492,10.082143544089433],[-95.318804876243917,10.129408949363665],[-95.274258055864493,10.177823725084977],[-95.232206707573368,10.227385862167921],[-95.192633145303319,10.278093351527104],[-95.155519686584171,10.329944185875604],[-95.120848646247907,10.382936355228765],[-95.088602341824526,10.437067850501023],[-95.058763088145895,10.492336664405684],[-95.031313200943373,10.548740787857184],[-95.006234996847525,10.606278211770189],[-94.983510792488971,10.664946927059191],[-94.963122903599015,10.724744925538005],[-94.945053645908956,10.785670198121295],[-94.929285335149984,10.847720735723499],[-94.915800287952834,10.91089453105792],[-94.904580820048693,10.975189574139677],[-94.89560924806824,11.040603857682015],[-94.88886788774272,11.107135370800847],[-94.884339053904114,11.174782106209364],[-94.882005064981684,11.243542054822115],[-94.881848234908034,11.313413207553651],[-94.883850881213107,11.384393557117107],[-94.887995318728883,11.456481092628451],[-94.894263864085929,11.529673806800872],[-94.902638833914978,11.603969691448242],[-94.913102543047842,11.679366735686415],[-94.925637309014519,11.755862933128014],[-94.940225445747615,11.833456273788158],[-94.956849838249354,11.91214439874517],[-94.975537233256603,11.991897856101332],[-94.9963887307552,12.072641270078691],[-95.019512634300554,12.154294814154468],[-95.045017245649262,12.236778664503902],[-95.073010868356789,12.320012995503475],[-95.103601804179846,12.403917981529787],[-95.136898356673726,12.488413798757961],[-95.173008828494517,12.573420620665274],[-95.212041522298307,12.658858622527532],[-95.25410474074107,12.744647979620709],[-95.299306786478894,12.830708867220608],[-95.347755963067129,12.916961458804394],[-95.399560571363168,13.003325930547419],[-95.454828915821679,13.089722456826053],[-95.513669298199432,13.17607121291627],[-95.576190022051776,13.262292373194612],[-95.642499389135423,13.348306112936882],[-95.712705702106348,13.434032605620416],[-95.78691726541939,13.519392028319601],[-95.865242379931772,13.604304554511714],[-95.947789349199013,13.688690360371993],[-96.034666475877032,13.772469619377546],[-96.125982062621972,13.855562505905084],[-96.221844411190546,13.937889197028937],[-96.322361826037366,14.019369866226498],[-96.427642609818463,14.099924688773513],[-96.537795063391343,14.17947383904658],[-96.652927491210676,14.25793749232156],[-96.773148195033059,14.335235823874314],[-96.898562252545844,14.411290950617001],[-97.02914931928558,14.486100510030667],[-97.164726129607118,14.559760241242259],[-97.305098527075245,14.632372441235304],[-97.450072357053557,14.704039406093841],[-97.599453463106727,14.77486343280134],[-97.753047690598351,14.844946815643141],[-97.910660883093158,14.914391852502149],[-98.072098885055425,14.983300839462288],[-98.237167542747784,15.051776072607822],[-98.405672697936552,15.119919847123413],[-98.577420197783795,15.187834459992473],[-98.752215884955035,15.255622208198474],[-98.929865604813699,15.323385386926191],[-99.110175200924687,15.391226293159036],[-99.292950519550743,15.459247222081785],[-99.477997403357392,15.527550470677795],[-99.665121697708059,15.596238335031273],[-99.854129246167702,15.665413111226258],[-100.04482589499895,15.735177096246161],[-100.23701748686744,15.805632585275703],[-100.43050986713655,15.876881875298466],[-100.62510888116981,15.949027261499054],[-100.82062037163274,16.022171041760316],[-101.01685018388878,16.096415511266969],[-101.21360416240208,16.171862966103163],[-101.4106881516368,16.248615702352936],[-101.60790799605707,16.326776016999702],[-101.80506954012708,16.406446206127669],[-102.00197862921027,16.487728564921497],[-102.19844288393188,16.570718301008924],[-102.39431081709046,16.655347550649083],[-102.5894718300608,16.741385379631708],[-102.78381710217741,16.828593766189499],[-102.9772378118754,16.916734685857193],[-103.16962513848927,17.005570115968226],[-103.36087026045408,17.094862033855918],[-103.55086435890297,17.184372415055066],[-103.73949861047242,17.273863237798309],[-103.92666419629552,17.363096478519822],[-104.11225229480743,17.451834113653547],[-104.29615408444334,17.539838120532977],[-104.47826074453764,17.626870474692794],[-104.65846345532412,17.712693154365695],[-104.83665339523787,17.797068135985853],[-105.01272174271418,17.879757396886475],[-105.18655967798668,17.960522912602471],[-105.3580583794905,18.039126660467161],[-105.52710902656025,18.115330617813925],[-105.69360279763089,18.188896761076819],[-105.85743087293633,18.259587066689903],[-106.01848443181098,18.327163511986612],[-106.17665465179067,18.391388074300323],[-106.33183271310912,18.452022729165776],[-106.48390979510089,18.508829454815611],[-106.6327770753017,18.561570226784681],[-106.77832573484471,18.610007022406307],[-106.92044695216504,18.653901819013868],[-107.05903190569779,18.693016592142158],[-107.19397177477748,18.727113320023818],[-107.32516306182572,18.755966380744042],[-107.45258190153345,18.779535735585853],[-107.57626573447595,18.797924203139587],[-107.696253576841,18.811238278423957],[-107.81258444571552,18.819584455558299],[-107.92529735728709,18.82306922956144],[-108.03443132864282,18.821799094552716],[-108.14002537507088,18.815880545550897],[-108.24211851455772,18.805420076675318],[-108.34074976239151,18.790524182944807],[-108.43595813565935,18.771299359378077],[-108.52778265144809,18.747852099195143],[-108.61626232594551,18.720288897414832],[-108.7014361753391,18.688716249955121],[-108.78334321671599,18.653240649136762],[-108.86202246626368,18.613968591777223],[-108.93751294016994,18.571006571096518],[-109.00985365552168,18.524461082113362],[-109.07908362940589,18.474438618947261],[-109.14524187711083,18.421045675717494],[-109.20836741662288,18.364388749241527],[-109.2684992632303,18.304574331840058],[-109.32567643402012,18.241708918531913],[-109.37993794607922,18.175899004335747],[-109.43132281469605,18.107251084270274],[-109.47987005695745,18.035871651555624],[-109.52561868995048,17.961867202109829],[-109.56860772986272,17.88534422915302],[-109.60887619378121,17.806409228603172],[-109.64646309699424,17.725168694579736],[-109.68140670925214,17.641730518748602],[-109.71373757153162,17.556217015203231],[-109.74348166794454,17.46875901012038],[-109.77066492414684,17.379487436695968],[-109.7953132657945,17.288533229924781],[-109.81745261854343,17.196027323002681],[-109.83710890625093,17.102100650924456],[-109.8543080554723,17.006884147785343],[-109.8690759900648,16.910508748580014],[-109.88143863748303,16.813105386504503],[-109.89142192158431,16.714804996553482],[-109.89905176802461,16.615738511922928],[-109.90435410156044,16.516036868506831],[-109.90735484874716,16.415831000400487],[-109.90807993344208,16.315251839900611],[-109.90655528130111,16.214430323800514],[-109.90280681887947,16.113497384396908],[-109.89686047003454,16.012583957583729],[-109.88874216042228,15.911820976556953],[-109.87847781569855,15.811339376311309],[-109.86609336062003,15.711270090942094],[-109.8516147217419,15.611744054544602],[-109.83506782292159,15.512892200314923],[-109.81647858981495,15.414845465046312],[-109.79587294717868,15.317734781035483],[-109.77327682246727,15.221691083276994],[-109.74871613863877,15.126845305866311],[-109.72221682134915,15.033328382898674],[-109.69380479715358,14.94127124936881],[-109.66350599080874,14.850804838472641],[-109.6313335288192,14.76203970836599],[-109.59720594429882,14.674935808640782],[-109.56099937721939,14.589385589373592],[-109.52258976430608,14.505281181381577],[-109.48185304408264,14.422514717280535],[-109.43866515417341,14.340978326988363],[-109.39290203400157,14.26056414132222],[-109.3444396193928,14.181164291998641],[-109.29315385066957,14.102670910734105],[-109.23892066455693,14.02497612834577],[-109.18161600047796,13.94797207565091],[-109.1211157942584,13.871550884365945],[-109.05729598532139,13.795604685308092],[-108.99003251219057,13.720025610193886],[-108.91920131249049,13.644705788941167],[-108.84467832384547,13.569537354165675],[-108.76633948387996,13.494412435785421],[-108.68406073291641,13.419223165516826],[-108.59771800588118,13.343861675076369],[-108.50718724399604,13.268220095281322],[-108.41234438308669,13.192190556948788],[-108.31306536167699,13.115665191795301],[-108.20922611829064,13.038536130638079],[-108.10070259055203,12.960695504294222],[-107.98737071698491,12.882035444480323],[-107.86910643521372,12.802448082912861],[-107.74578568376222,12.721825549509617],[-107.61728440025479,12.640059975987242],[-107.48347852321518,12.557043494062157],[-107.34424399026784,12.47266823455152],[-107.19950834753212,12.386857936744548],[-107.04947827540201,12.299707305547827],[-106.89445439745236,12.211368581794773],[-106.73473740740531,12.12199405038524],[-106.57062799808352,12.031735997118687],[-106.40242686320909,11.940746705096501],[-106.23043469740327,11.849178461017289],[-106.0549521925895,11.757183547982493],[-105.87628004338922,11.664914252690721],[-105.69471894352432,11.572522857344154],[-105.51056958581762,11.480161649540605],[-105.32413266399118,11.387982912381631],[-105.13570887266621,11.296138930767199],[-104.94559890376632,11.204781990496599],[-104.75410345281199,11.114064374671273],[-104.56152321172675,11.024138369989942],[-104.36815887423256,10.935156260453198],[-104.17431113495081,10.847270330061804],[-103.98028068670425,10.760632865514481],[-103.78636822411414,10.675396149912501],[-103.59287443910398,10.591712469055324],[-103.40010002539577,10.509734106943597],[-103.20834567851017,10.429613349376723],[-103.01791208947128,10.351502479455974],[-102.82909995379975,10.275553784779504],[-102.64220996431828,10.20191954754921],[-102.45754281474899,10.130752053564549],[-102.27539919881389,10.062203587725548],[-102.09607981023498,9.9964264349321752],[-101.91988534183497,9.9335728800845118]]]},"properties":{"objectid":1,"basin":"Pacific","prob2day":"60%","risk2day":"Medium","prob7day":"90%","risk7day":"High","idp_source":"gtwo_areas_202609252343","idp_filedate":1790380060000,"idp_ingestdate":1790380069000,"st_area(shape)":86.036679559096285,"st_perimeter(shape)":38.48357407451654}},{"type":"Feature","id":2,"geometry":{"type":"Polygon","coordinates":[[[-140.78289271472693,15.382726259109688],[-140.8954759863276,15.31217777298599],[-141.00621241736906,15.243004601181553],[-141.11510819428764,15.175132393145589],[-141.22216950531833,15.108486802823847],[-141.32740253869611,15.042993480564803],[-141.43081348085735,14.978578078515625],[-141.53240852003711,14.915166247924162],[-141.63219384357092,14.852683640937414],[-141.73017563879461,14.791055908803287],[-141.82636009394309,14.730208702769573],[-141.9207533963521,14.670067674983329],[-142.01336173425653,14.610558477591781],[-142.10419129409286,14.5516067609434],[-142.19324826319672,14.493138177185244],[-142.28053883070237,14.435078378464539],[-142.36606918304625,14.377353016928339],[-142.44984550846334,14.319887742025799],[-142.5318739942893,14.262608207702783],[-142.61216082785984,14.205440064307652],[-142.69071219740988,14.148308963987631],[-142.76753428937587,14.091140557990514],[-142.84263329199274,14.033860497564035],[-142.91601539349551,13.976394435754742],[-142.98768678032059,13.918668022911049],[-143.05765364070288,13.860606912079447],[-143.12592216197811,13.802136752709089],[-143.19249853238125,13.743183198745783],[-143.2573865785277,13.683680109549528],[-143.32057366943923,13.623618601617295],[-143.38204016482166,13.563014168469238],[-143.44176639740124,13.501882398054363],[-143.49973270170273,13.4402388747244],[-143.55591941135168,13.378099185529152],[-143.61030685907423,13.315478915719495],[-143.66287537939513,13.252393650546651],[-143.71360530504069,13.188858977060306],[-143.76247696963634,13.124890480511397],[-143.80947070860623,13.060503746151085],[-143.85456685287789,12.995714361029059],[-143.89774573787543,12.930537909497048],[-143.93898769722438,12.86498997860474],[-143.97827306365087,12.799086154502561],[-144.01558217078048,12.732842021542183],[-144.05089535313795,12.666273166773351],[-144.08419294344949,12.599395175447114],[-144.11545527623991,12.53222363461316],[-144.14466268333609,12.464774127723956],[-144.17179550016212,12.397062242728452],[-144.19683406034352,12.329103564877755],[-144.21975869570716,12.260913679422913],[-144.24054974167714,12.192508173413614],[-144.25918753097969,12.123902632100908],[-144.27565239724026,12.055112640735899],[-144.28992467498367,11.986153785468957],[-144.30198523652936,11.917042065239229],[-144.31182198149915,11.847798850636593],[-144.31942772161199,11.77844926871893],[-144.32479536841143,11.709018522087263],[-144.3279178343405,11.639531815141311],[-144.32878803094277,11.57001435138136],[-144.32739887156058,11.500491334307753],[-144.32374326863686,11.43098796742089],[-144.3178141328159,11.361529455120376],[-144.30960437654065,11.292141000906611],[-144.29910691315342,11.22284780827988],[-144.28631465419784,11.153675081639847],[-144.27122051211686,11.084648022688214],[-144.25381739845409,11.01579183762334],[-144.23409822655182,10.947131728146871],[-144.21205590705438,10.878692899557791],[-144.18768335330404,10.810500554457178],[-144.16097347684439,10.742579896345262],[-144.13191919101777,10.674956129621819],[-144.10051340646845,10.607654458686454],[-144.06674903653871,10.540700085240871],[-144.03061899277222,10.474118214584053],[-143.9921161885112,10.407934049317078],[-143.95123353439999,10.342172793839495],[-143.90796394288157,10.276859652551082],[-143.86230032729816,10.212019827153426],[-143.81423559829415,10.147678522945625],[-143.76376014391542,10.083862406624917],[-143.71079169148328,10.020640229563071],[-143.65516615789181,9.9581281302091611],[-143.59671509472577,9.8964447759058203],[-143.53527005626802,9.8357088348949446],[-143.47066259410337,9.7760389718212082],[-143.40272425981664,9.7175538558259404],[-143.33128660679137,9.6603721524530215],[-143.25618118751169,9.6046125281458217],[-143.17723955356246,9.5503936520455568],[-143.09429325832713,9.4978341887969009],[-143.00717385339055,9.4470528066418638],[-142.91571289213618,9.3981681720236452],[-142.81974192614888,9.3512989522849352],[-142.71909250881214,9.3065638138690474],[-142.61359619081145,9.2640814241185581],[-142.50308452642969,9.2239704503761004],[-142.38738906635223,9.1863495581857251],[-142.266341364862,9.1513374148898947],[-142.13977297354381,9.1190526878314131],[-142.00751544488179,9.0896140443527997],[-141.86940033046079,9.0631401508973681],[-141.72525918366432,9.0397496748078083],[-141.5749235569765,9.0195612825273201],[-141.41822500288151,9.0026936404992739],[-141.25499507296416,8.9892654169655657],[-141.08506532060795,8.9793952774701893],[-140.90826930738257,8.9732010206107589],[-140.72463690426963,8.9707156200299778],[-140.53455625866434,8.9718172301811592],[-140.33845365011575,8.9763675308370239],[-140.13675535457588,8.9842282026695557],[-139.92988765159373,8.9952609254514755],[-139.71827681891995,9.0093273789555042],[-139.50234913520433,9.0262892438536824],[-139.28253087729809,9.0460081990192975],[-139.05924832475029,9.0683459242251843],[-138.83292775441225,9.0931641001432695],[-138.60399544493373,9.1203244065462741],[-138.37287767406531,9.1496885223075992],[-138.14000072045678,9.1811181289986052],[-137.90579086185869,9.2144749054926365],[-137.67067437602157,9.2496205324617335],[-137.43507754159521,9.2864166887792976],[-137.19942663722946,9.3247250551173124],[-136.9641479397755,9.3644073112485557],[-136.72966772698391,9.4053251369456348],[-136.49641227930317,9.4473402119813272],[-136.26480787178576,9.4903142170276169],[-136.03528078488023,9.534108830957905],[-135.80825729543773,9.5785857335449123],[-135.58416368300749,9.6236066063599424],[-135.3634262235413,9.6690331273770767],[-135.14647119658838,9.7147269781676187],[-134.93372481694666,9.7605498636854122],[-134.72550568024286,9.8064081402236525],[-134.52180396228295,9.8523444248554597],[-134.322547415131,9.8984272306323078],[-134.12766378905252,9.9447250751022693],[-133.93708083701091,9.9913064713167614],[-133.75072630837235,10.038239935924423],[-133.56852795520086,10.085593982876162],[-133.39041352956065,10.133437127921241],[-133.21631078171714,10.181837886809149],[-133.04614746463369,10.230864773490623],[-132.87985132767653,10.280586303715097],[-132.71735012290975,10.33107099233257],[-132.5585716014981,10.382387354193156],[-132.40344351550573,10.434603905945664],[-132.25189361609739,10.487789161540718],[-132.10384965353859,10.542011635828487],[-131.95923938079272,10.597339844558292],[-131.81799054722586,10.653842303479678],[-131.68003090580157,10.711587526543269],[-131.54528820768456,10.770644029498499],[-131.41369020314028,10.83108032719548],[-131.28516464423285,10.892964934484269],[-131.15963928302642,10.956366368013619],[-131.03704186888706,11.021353140834947],[-130.91730015477822,11.087993769596949],[-130.80034189186472,11.156356769149738],[-130.68609483131132,11.226510654343372],[-130.57449110847779,11.298514279510528],[-130.46548592633434,11.372375672899125],[-130.35904204755235,11.44808620641345],[-130.25512223750115,11.525637242964535],[-130.15368926424804,11.60502014636279],[-130.05470589136371,11.686226278619984],[-129.95813488781471,11.769247002647205],[-129.86393901897048,11.85407368135543],[-129.7720810502002,11.940697677655862],[-129.682523748672,12.029110355358739],[-129.59522988065436,12.119303075576624],[-129.51016221241611,12.211267202119814],[-129.42728351022572,12.304994097899453],[-129.34655654035197,12.400475125826517],[-129.26794406996277,12.497701647912834],[-129.19140886352812,12.596665028868131],[-129.11691368911539,12.697356628905425],[-129.04442131209379,12.799767813633821],[-128.97389449873202,12.903889944165712],[-128.90529601619812,13.009714383412188],[-128.83858862986131,13.117232495183657],[-128.77373510599028,13.226435641491776],[-128.71069821175297,13.337315186147066],[-128.64944071341807,13.449862490261864],[-128.58992537635493,13.5640689185459],[-128.5321149677315,13.679925833010941],[-128.47597225291707,13.797424596568021],[-128.42147412922759,13.916545683136917],[-128.36873025909409,14.037167249868844],[-128.31792305200713,14.159111391977319],[-128.26923566209604,14.282199630908394],[-128.22285124259071,14.40625348900744],[-128.17895294851968,14.531094487720566],[-128.13772393401223,14.656544147594502],[-128.09934735229837,14.782423991873884],[-128.06400635750731,14.9085555411055],[-128.03188410286896,15.034760316735344],[-128.00316374431128,15.160859841108902],[-127.97802843506412,15.286675634772848],[-127.95666132835754,15.412029220971931],[-127.93924557922003,15.536742119353448],[-127.92596434088154,15.660635853162205],[-127.91700076747134,15.783531943844253],[-127.91253801311871,15.905251911946323],[-127.91275923195292,16.02561727891441],[-127.91784757810314,16.14444956799332],[-127.92798620569874,16.261570299729669],[-127.94335826796959,16.376800995569624],[-127.96414691994431,16.489963177858499],[-127.99053531485282,16.600878367143082],[-128.02270660682433,16.709368085768688],[-128.06084394908891,16.815253855181425],[-128.10513049757429,16.918357197726607],[-128.15574940551056,17.018499633051761],[-128.21287487607458,17.115507100072762],[-128.27651333582168,17.209288310407317],[-128.34652220713406,17.299825487156625],[-128.42275372960086,17.387103411093676],[-128.50506014640854,17.471106861192823],[-128.59329369804561,17.551820619126431],[-128.68730662500064,17.629229463868796],[-128.78695117046004,17.703318175293703],[-128.89207957401305,17.774071532375444],[-129.00254407794677,17.841474316786446],[-129.11819692454833,17.905511308400321],[-129.23889035250767,17.966167285292101],[-129.36447660591057,18.023427029134211],[-129.49480792434616,18.077275318901002],[-129.6297365501016,18.127696934466087],[-129.76911472456482,18.174676656602571],[-129.91279468822421,18.218199265184069],[-130.06062868336693,18.258249539185044],[-130.21246895048159,18.294812258479112],[-130.36816773185524,18.327872204738583],[-130.52757726797643,18.357414156038601],[-130.69054980023299,18.383422893152158],[-130.85693757091207,18.405883195053548],[-131.02659282140149,18.424779843415195],[-131.19936779129046,18.440097617211393],[-131.37511472376542,18.451821295416607],[-131.55368585931484,18.459935659703092],[-131.7349330166453,18.464426187818447],[-131.91868737861955,18.465312435520616],[-132.10475062494129,18.462662684735278],[-132.29292216632484,18.456548964862975],[-132.48300141078641,18.447043304405099],[-132.67478776904022,18.434217732762306],[-132.86808065090122,18.418144280234458],[-133.06267946618431,18.398894974423683],[-133.25838362380512,18.376541846529108],[-133.45499253537713,18.35115692415286],[-133.65230560891661,18.322812236695484],[-133.85012225513788,18.291579814457009],[-134.04824188385578,18.257531685938716],[-134.2464639039859,18.220739879641883],[-134.44458772714182,18.181276426765805],[-134.64241276133976,18.139213354912556],[-134.83973841729403,18.094622694381997],[-135.03636410392016,18.047576473675463],[-135.23208923193243,17.99814672219361],[-135.42671321114568,17.946405469337094],[-135.6200354504756,17.892424743607194],[-135.81185536063629,17.836276576203147],[-136.00197235054344,17.778032993827765],[-136.19018583091128,17.71776602768017],[-136.37629521155469,17.655547706261757],[-136.56009990138926,17.59145005897318],[-136.74139931022989,17.525545115215039],[-136.91999308801053,17.457904946656129],[-137.09574540292789,17.388613276581566],[-137.26867194455451,17.31778118475404],[-137.43881012468739,17.245523674677997],[-137.60619735692239,17.171955748958794],[-137.77087105485521,17.097192412000368],[-137.93286863208164,17.02134866550864],[-138.09222750129805,16.944539513887605],[-138.24898507610027,16.866879959742505],[-138.40317876918476,16.788485007477277],[-138.55484599504655,16.709469657898524],[-138.70402416548274,16.629948916309559],[-138.85075069498851,16.550037785315681],[-138.99506299626017,16.469851267522131],[-139.1369984828936,16.389504367332847],[-139.27659456848448,16.309112087353071],[-139.41388866482993,16.228789430188215],[-139.54891818732438,16.148651399342725],[-139.681720547765,16.068812998321334],[-139.81233315974742,15.989389230628603],[-139.94079343686752,15.910495098869831],[-140.06713879272104,15.832245606549634],[-140.19140664000435,15.754755757172575],[-140.31363439231325,15.678140553344008],[-140.43385946234423,15.602514997669118],[-140.55211926369299,15.527994095451277],[-140.66845120995526,15.454692847497029],[-140.78289271472693,15.382726259109688]]]},"properties":{"objectid":2,"basin":"Pacific","prob2day":"20%","risk2day":"Low","prob7day":"60%","risk7day":"Medium","idp_source":"gtwo_areas_202609252343","idp_filedate":1790380060000,"idp_ingestdate":1790380069000,"st_area(shape)":109.44083381272608,"st_perimeter(shape)":41.306766404923771}}]}