{"type":"FeatureCollection","features":[{"type":"Feature","id":1,"geometry":{"type":"Point","coordinates":[-96.267012417588887,21.588771129783936]},"properties":{"objectid":1,"basin":"Atlantic","prob2day":"30%","risk2day":"Low","prob7day":"70%","risk7day":"High","idp_source":"gtwo_points_202610051138","idp_filedate":1791200860000,"idp_ingestdate":1791200864000}},{"type":"Feature","id":2,"geometry":{"type":"Point","coordinates":[-94.815269890492971,12.980695572243008]},"properties":{"objectid":2,"basin":"Pacific","prob2day":"50%","risk2day":"Medium","prob7day":"90%","risk7day":"High","idp_source":"gtwo_points_202610051138","idp_filedate":1791200860000,"idp_ingestdate":1791200864000}}]}