{
"type": "FeatureCollection",
"name": "al092021-003A_5day_pgn",
"features": [
{ "type": "Feature", "properties": { "STORMNAME": "Ida", "STORMTYPE": "TS", "ADVDATE": "200 AM EDT Fri Aug 27 2021", "ADVISNUM": "3A", "STORMNUM": 9.0, "FCSTPRD": 120.0, "BASIN": "AL" }, "geometry": { "type": "Polygon", "coordinates": [ [ [ -81.0436, 19.16 ], [ -81.0152, 19.1563 ], [ -80.9846, 19.1538 ], [ -80.9516, 19.1526 ], [ -80.9171, 19.1526 ], [ -80.8822, 19.154 ], [ -80.848, 19.157 ], [ -80.8157, 19.1623 ], [ -80.7861, 19.1702 ], [ -80.7594, 19.1811 ], [ -80.7355, 19.1947 ], [ -80.7045, 19.22 ], [ -80.6785, 19.2504 ], [ -80.6637, 19.2729 ], [ -80.6511, 19.2971 ], [ -80.6407, 19.3225 ], [ -80.6331, 19.3488 ], [ -80.6287, 19.3759 ], [ -80.6286, 19.4161 ], [ -80.6326, 19.4432 ], [ -80.64, 19.4695 ], [ -80.6505, 19.4949 ], [ -80.6632, 19.5191 ], [ -80.6781, 19.5418 ], [ -80.6946, 19.563 ], [ -80.7123, 19.583 ], [ -80.7405, 19.6111 ], [ -80.7603, 19.6288 ], [ -80.7813, 19.6454 ], [ -80.8032, 19.661 ], [ -80.8379, 19.6827 ], [ -80.8497, 19.6896 ], [ -80.8867, 19.709 ], [ -80.9114, 19.7217 ], [ -80.9365, 19.7342 ], [ -80.9615, 19.7467 ], [ -80.9864, 19.7593 ], [ -81.0115, 19.7718 ], [ -81.0366, 19.7843 ], [ -81.0615, 19.7969 ], [ -81.0865, 19.8094 ], [ -81.0991, 19.8155 ], [ -81.1365, 19.8345 ], [ -81.1616, 19.847 ], [ -81.1866, 19.8594 ], [ -81.2114, 19.8722 ], [ -81.236, 19.8851 ], [ -81.2603, 19.8984 ], [ -81.2723, 19.9051 ], [ -81.2957, 19.9193 ], [ -81.3188, 19.9337 ], [ -81.3416, 19.9484 ], [ -81.3641, 19.9635 ], [ -81.3863, 19.9788 ], [ -81.4083, 19.9944 ], [ -81.4296, 20.0106 ], [ -81.4503, 20.0275 ], [ -81.4701, 20.0452 ], [ -81.4798, 20.0542 ], [ -81.499, 20.0726 ], [ -81.5274, 20.1005 ], [ -81.546, 20.1195 ], [ -81.5555, 20.1288 ], [ -81.5835, 20.1571 ], [ -81.593, 20.1664 ], [ -81.6117, 20.1852 ], [ -81.64, 20.2133 ], [ -81.6493, 20.2227 ], [ -81.668, 20.2415 ], [ -81.6868, 20.2603 ], [ -81.715, 20.2884 ], [ -81.7243, 20.2979 ], [ -81.743, 20.3167 ], [ -81.7618, 20.3355 ], [ -81.7806, 20.3543 ], [ -81.7993, 20.3731 ], [ -81.8275, 20.4012 ], [ -81.8368, 20.4106 ], [ -81.865, 20.4388 ], [ -81.8743, 20.4482 ], [ -81.8929, 20.4672 ], [ -81.9113, 20.4864 ], [ -81.938, 20.516 ], [ -81.9548, 20.5368 ], [ -81.9629, 20.5474 ], [ -81.9789, 20.5689 ], [ -81.9948, 20.5906 ], [ -82.0109, 20.6121 ], [ -82.0274, 20.6331 ], [ -82.0447, 20.6534 ], [ -82.0715, 20.6829 ], [ -82.0808, 20.6923 ], [ -82.1087, 20.7207 ], [ -82.1273, 20.7397 ], [ -82.1453, 20.7592 ], [ -82.1631, 20.7791 ], [ -82.1799, 20.7998 ], [ -82.188, 20.8105 ], [ -82.204, 20.832 ], [ -82.2279, 20.8644 ], [ -82.236, 20.8751 ], [ -82.2609, 20.9065 ], [ -82.2786, 20.9264 ], [ -82.2966, 20.9459 ], [ -82.3149, 20.9652 ], [ -82.3329, 20.9847 ], [ -82.3506, 21.0045 ], [ -82.359, 21.0149 ], [ -82.3755, 21.036 ], [ -82.3996, 21.0683 ], [ -82.4075, 21.0791 ], [ -82.4236, 21.1006 ], [ -82.4485, 21.132 ], [ -82.4659, 21.1521 ], [ -82.4833, 21.1723 ], [ -82.5007, 21.1924 ], [ -82.5175, 21.2132 ], [ -82.5256, 21.2238 ], [ -82.5496, 21.2562 ], [ -82.5655, 21.2778 ], [ -82.5736, 21.2885 ], [ -82.5901, 21.3095 ], [ -82.6162, 21.3397 ], [ -82.6343, 21.3593 ], [ -82.6526, 21.3785 ], [ -82.6706, 21.3981 ], [ -82.6883, 21.4179 ], [ -82.7051, 21.4387 ], [ -82.7132, 21.4493 ], [ -82.7292, 21.4708 ], [ -82.7451, 21.4925 ], [ -82.7612, 21.514 ], [ -82.7861, 21.5454 ], [ -82.8035, 21.5655 ], [ -82.8209, 21.5857 ], [ -82.8383, 21.6058 ], [ -82.8551, 21.6265 ], [ -82.8632, 21.6372 ], [ -82.8793, 21.6587 ], [ -82.8952, 21.6804 ], [ -82.9113, 21.7019 ], [ -82.9362, 21.7333 ], [ -82.9539, 21.7531 ], [ -82.9629, 21.7629 ], [ -82.9902, 21.7919 ], [ -83.0082, 21.8114 ], [ -83.017, 21.8214 ], [ -83.0427, 21.852 ], [ -83.0589, 21.8734 ], [ -83.0669, 21.8842 ], [ -83.0828, 21.9058 ], [ -83.0988, 21.9273 ], [ -83.1153, 21.9484 ], [ -83.1414, 21.9786 ], [ -83.1595, 21.9981 ], [ -83.1778, 22.0174 ], [ -83.1958, 22.0369 ], [ -83.2135, 22.0567 ], [ -83.2303, 22.0775 ], [ -83.2384, 22.0882 ], [ -83.2544, 22.1096 ], [ -83.2703, 22.1313 ], [ -83.2864, 22.1528 ], [ -83.3113, 22.1842 ], [ -83.3287, 22.2044 ], [ -83.3461, 22.2245 ], [ -83.3635, 22.2446 ], [ -83.3719, 22.255 ], [ -83.3884, 22.2761 ], [ -83.4125, 22.3084 ], [ -83.4204, 22.3192 ], [ -83.4364, 22.3407 ], [ -83.4614, 22.3721 ], [ -83.4791, 22.392 ], [ -83.4971, 22.4115 ], [ -83.5154, 22.4307 ], [ -83.5334, 22.4503 ], [ -83.5511, 22.4701 ], [ -83.5595, 22.4805 ], [ -83.5841, 22.5122 ], [ -83.5921, 22.523 ], [ -83.608, 22.5447 ], [ -83.6321, 22.5768 ], [ -83.6405, 22.5872 ], [ -83.6664, 22.6177 ], [ -83.6838, 22.6379 ], [ -83.7012, 22.658 ], [ -83.718, 22.6788 ], [ -83.7261, 22.6894 ], [ -83.7421, 22.7109 ], [ -83.758, 22.7326 ], [ -83.7741, 22.7541 ], [ -83.799, 22.7855 ], [ -83.8077, 22.7956 ], [ -83.8338, 22.8258 ], [ -83.8425, 22.8358 ], [ -83.868, 22.8667 ], [ -83.8761, 22.8773 ], [ -83.8922, 22.8988 ], [ -83.9081, 22.9205 ], [ -83.9242, 22.9419 ], [ -83.9491, 22.9734 ], [ -83.9665, 22.9935 ], [ -83.9839, 23.0137 ], [ -84.0013, 23.0338 ], [ -84.0097, 23.0442 ], [ -84.0343, 23.0759 ], [ -84.0423, 23.0867 ], [ -84.0582, 23.1084 ], [ -84.0823, 23.1405 ], [ -84.0991, 23.1613 ], [ -84.108, 23.1712 ], [ -84.1348, 23.2007 ], [ -84.1531, 23.2199 ], [ -84.1711, 23.2394 ], [ -84.1889, 23.2593 ], [ -84.2057, 23.28 ], [ -84.2138, 23.2907 ], [ -84.2378, 23.323 ], [ -84.2457, 23.3338 ], [ -84.2699, 23.366 ], [ -84.2867, 23.3867 ], [ -84.3041, 23.4069 ], [ -84.3215, 23.427 ], [ -84.3389, 23.4472 ], [ -84.3473, 23.4575 ], [ -84.3719, 23.4892 ], [ -84.3799, 23.5001 ], [ -84.4038, 23.5326 ], [ -84.4119, 23.5432 ], [ -84.4368, 23.5746 ], [ -84.4545, 23.5945 ], [ -84.4725, 23.614 ], [ -84.4908, 23.6333 ], [ -84.5088, 23.6528 ], [ -84.5265, 23.6726 ], [ -84.5433, 23.6934 ], [ -84.5595, 23.7147 ], [ -84.5675, 23.7255 ], [ -84.5834, 23.7472 ], [ -84.5994, 23.7687 ], [ -84.6243, 23.8001 ], [ -84.642, 23.82 ], [ -84.66, 23.8395 ], [ -84.6783, 23.8587 ], [ -84.6964, 23.8783 ], [ -84.7141, 23.8981 ], [ -84.7309, 23.9189 ], [ -84.739, 23.9295 ], [ -84.763, 23.9618 ], [ -84.7709, 23.9727 ], [ -84.787, 23.9942 ], [ -84.8119, 24.0256 ], [ -84.8208, 24.0355 ], [ -84.8476, 24.065 ], [ -84.8662, 24.0839 ], [ -84.8848, 24.1028 ], [ -84.9034, 24.1218 ], [ -84.9214, 24.1413 ], [ -84.9303, 24.1513 ], [ -84.956, 24.1819 ], [ -84.9722, 24.2033 ], [ -84.9801, 24.2141 ], [ -85.004, 24.2466 ], [ -85.0121, 24.2572 ], [ -85.037, 24.2886 ], [ -85.0547, 24.3085 ], [ -85.0727, 24.328 ], [ -85.0913, 24.347 ], [ -85.1099, 24.3659 ], [ -85.1288, 24.3845 ], [ -85.1474, 24.4035 ], [ -85.1663, 24.4221 ], [ -85.1849, 24.4411 ], [ -85.2039, 24.4597 ], [ -85.2225, 24.4786 ], [ -85.2319, 24.488 ], [ -85.26, 24.5162 ], [ -85.2789, 24.5349 ], [ -85.2975, 24.5538 ], [ -85.3161, 24.5727 ], [ -85.3341, 24.5923 ], [ -85.3518, 24.6121 ], [ -85.3686, 24.6329 ], [ -85.3767, 24.6435 ], [ -85.3928, 24.665 ], [ -85.4087, 24.6867 ], [ -85.4329, 24.7188 ], [ -85.4497, 24.7396 ], [ -85.4585, 24.7495 ], [ -85.4854, 24.779 ], [ -85.504, 24.7979 ], [ -85.5226, 24.8168 ], [ -85.5415, 24.8355 ], [ -85.5508, 24.845 ], [ -85.579, 24.8731 ], [ -85.5976, 24.892 ], [ -85.6165, 24.9106 ], [ -85.6351, 24.9296 ], [ -85.654, 24.9482 ], [ -85.6726, 24.9672 ], [ -85.6915, 24.9858 ], [ -85.7102, 25.0047 ], [ -85.7291, 25.0234 ], [ -85.7477, 25.0423 ], [ -85.7666, 25.061 ], [ -85.7759, 25.0704 ], [ -85.8041, 25.0985 ], [ -85.8227, 25.1175 ], [ -85.8416, 25.1361 ], [ -85.8602, 25.1551 ], [ -85.8791, 25.1737 ], [ -85.8977, 25.1926 ], [ -85.9166, 25.2113 ], [ -85.9352, 25.2302 ], [ -85.9542, 25.2489 ], [ -85.9728, 25.2678 ], [ -85.9917, 25.2864 ], [ -86.0103, 25.3054 ], [ -86.0292, 25.324 ], [ -86.0478, 25.3429 ], [ -86.0667, 25.3616 ], [ -86.0853, 25.3805 ], [ -86.1042, 25.3992 ], [ -86.1228, 25.4181 ], [ -86.1417, 25.4368 ], [ -86.1603, 25.4557 ], [ -86.1792, 25.4743 ], [ -86.1979, 25.4933 ], [ -86.2168, 25.5119 ], [ -86.2354, 25.5308 ], [ -86.2543, 25.5495 ], [ -86.2729, 25.5684 ], [ -86.2918, 25.5871 ], [ -86.3104, 25.606 ], [ -86.3293, 25.6246 ], [ -86.3386, 25.6341 ], [ -86.3668, 25.6622 ], [ -86.3761, 25.6717 ], [ -86.3949, 25.6905 ], [ -86.4136, 25.7093 ], [ -86.4418, 25.7374 ], [ -86.4511, 25.7468 ], [ -86.4794, 25.775 ], [ -86.498, 25.7939 ], [ -86.5169, 25.8125 ], [ -86.5355, 25.8315 ], [ -86.5449, 25.8408 ], [ -86.573, 25.8691 ], [ -86.5825, 25.8784 ], [ -86.6012, 25.8972 ], [ -86.62, 25.916 ], [ -86.6387, 25.9348 ], [ -86.6669, 25.9629 ], [ -86.6762, 25.9723 ], [ -86.7045, 26.0004 ], [ -86.7231, 26.0194 ], [ -86.7325, 26.0287 ], [ -86.7606, 26.057 ], [ -86.7795, 26.0756 ], [ -86.7888, 26.0851 ], [ -86.817, 26.1132 ], [ -86.8263, 26.1226 ], [ -86.8451, 26.1414 ], [ -86.8731, 26.1697 ], [ -86.8826, 26.179 ], [ -86.9106, 26.2073 ], [ -86.9199, 26.2167 ], [ -86.9382, 26.236 ], [ -86.965, 26.2656 ], [ -86.9734, 26.276 ], [ -86.9899, 26.297 ], [ -87.0059, 26.3185 ], [ -87.0218, 26.3402 ], [ -87.0379, 26.3616 ], [ -87.0544, 26.3827 ], [ -87.0715, 26.4031 ], [ -87.0889, 26.4233 ], [ -87.1063, 26.4434 ], [ -87.1234, 26.4639 ], [ -87.148, 26.4956 ], [ -87.156, 26.5064 ], [ -87.1798, 26.5389 ], [ -87.1879, 26.5495 ], [ -87.2045, 26.5706 ], [ -87.2303, 26.6011 ], [ -87.239, 26.6112 ], [ -87.2564, 26.6313 ], [ -87.2819, 26.6621 ], [ -87.2981, 26.6835 ], [ -87.306, 26.6943 ], [ -87.322, 26.7159 ], [ -87.338, 26.7374 ], [ -87.3545, 26.7585 ], [ -87.3803, 26.789 ], [ -87.3977, 26.8091 ], [ -87.4064, 26.8192 ], [ -87.432, 26.85 ], [ -87.44, 26.8607 ], [ -87.4561, 26.8822 ], [ -87.472, 26.9038 ], [ -87.4879, 26.9255 ], [ -87.504, 26.947 ], [ -87.5286, 26.9787 ], [ -87.5367, 26.9894 ], [ -87.5527, 27.0109 ], [ -87.5763, 27.0436 ], [ -87.584, 27.0548 ], [ -87.5991, 27.0771 ], [ -87.6141, 27.0997 ], [ -87.6291, 27.1222 ], [ -87.6519, 27.1558 ], [ -87.6675, 27.1777 ], [ -87.6755, 27.1885 ], [ -87.6915, 27.21 ], [ -87.7162, 27.2417 ], [ -87.7243, 27.2524 ], [ -87.7403, 27.2739 ], [ -87.7561, 27.2957 ], [ -87.7715, 27.3178 ], [ -87.7867, 27.3402 ], [ -87.8017, 27.3628 ], [ -87.8167, 27.3853 ], [ -87.8317, 27.4078 ], [ -87.8467, 27.4304 ], [ -87.8692, 27.4642 ], [ -87.8767, 27.4755 ], [ -87.8992, 27.5093 ], [ -87.9067, 27.5206 ], [ -87.9292, 27.5544 ], [ -87.9367, 27.5657 ], [ -87.9516, 27.5884 ], [ -87.9662, 27.6114 ], [ -87.9804, 27.6347 ], [ -87.9944, 27.6583 ], [ -88.008, 27.6822 ], [ -88.0217, 27.7061 ], [ -88.0356, 27.7297 ], [ -88.0499, 27.753 ], [ -88.0643, 27.7761 ], [ -88.0787, 27.7993 ], [ -88.093, 27.8226 ], [ -88.1068, 27.8463 ], [ -88.12, 27.8707 ], [ -88.1329, 27.8953 ], [ -88.1456, 27.9201 ], [ -88.1581, 27.9452 ], [ -88.1705, 27.9703 ], [ -88.1833, 27.9951 ], [ -88.1962, 28.0198 ], [ -88.2094, 28.0441 ], [ -88.2232, 28.0679 ], [ -88.2375, 28.0912 ], [ -88.2519, 28.1143 ], [ -88.2663, 28.1375 ], [ -88.2805, 28.1608 ], [ -88.2943, 28.1845 ], [ -88.3075, 28.2089 ], [ -88.3204, 28.2335 ], [ -88.3332, 28.2583 ], [ -88.3456, 28.2834 ], [ -88.3581, 28.3085 ], [ -88.3707, 28.3335 ], [ -88.3832, 28.3586 ], [ -88.3956, 28.3837 ], [ -88.4082, 28.4086 ], [ -88.4207, 28.4337 ], [ -88.4331, 28.4589 ], [ -88.4457, 28.4838 ], [ -88.4582, 28.5089 ], [ -88.4707, 28.534 ], [ -88.4833, 28.559 ], [ -88.4956, 28.5842 ], [ -88.5076, 28.6098 ], [ -88.5194, 28.6355 ], [ -88.5307, 28.6618 ], [ -88.5412, 28.6888 ], [ -88.5514, 28.7162 ], [ -88.5613, 28.7438 ], [ -88.5707, 28.772 ], [ -88.58, 28.8002 ], [ -88.5893, 28.8285 ], [ -88.5982, 28.8572 ], [ -88.6063, 28.8867 ], [ -88.6138, 28.9167 ], [ -88.6207, 28.9474 ], [ -88.627, 28.9786 ], [ -88.633, 29.0099 ], [ -88.6387, 29.0406 ], [ -88.6435, 29.0706 ], [ -88.6468, 29.1001 ], [ -88.648, 29.129 ], [ -88.6468, 29.1578 ], [ -88.6437, 29.1874 ], [ -88.6395, 29.2181 ], [ -88.6351, 29.2501 ], [ -88.6315, 29.2838 ], [ -88.6291, 29.319 ], [ -88.6278, 29.3552 ], [ -88.6272, 29.3922 ], [ -88.627, 29.4296 ], [ -88.627, 29.4672 ], [ -88.627, 29.5047 ], [ -88.627, 29.5423 ], [ -88.627, 29.5799 ], [ -88.627, 29.6175 ], [ -88.627, 29.6551 ], [ -88.627, 29.6926 ], [ -88.627, 29.7302 ], [ -88.627, 29.7678 ], [ -88.627, 29.8054 ], [ -88.627, 29.843 ], [ -88.627, 29.8805 ], [ -88.627, 29.9181 ], [ -88.6269, 29.9555 ], [ -88.6263, 29.9925 ], [ -88.6249, 30.0288 ], [ -88.6225, 30.0639 ], [ -88.6188, 30.0977 ], [ -88.6138, 30.1304 ], [ -88.6083, 30.1624 ], [ -88.6025, 30.1942 ], [ -88.597, 30.2263 ], [ -88.5917, 30.2586 ], [ -88.5862, 30.2906 ], [ -88.579, 30.321 ], [ -88.5691, 30.3486 ], [ -88.5557, 30.3728 ], [ -88.5481, 30.3839 ], [ -88.5286, 30.402 ], [ -88.5055, 30.4164 ], [ -88.4927, 30.4224 ], [ -88.4662, 30.4334 ], [ -88.4379, 30.4427 ], [ -88.4088, 30.4511 ], [ -88.3793, 30.4591 ], [ -88.3495, 30.4669 ], [ -88.32, 30.4749 ], [ -88.2907, 30.4832 ], [ -88.2618, 30.4917 ], [ -88.2333, 30.5007 ], [ -88.2051, 30.5101 ], [ -88.1768, 30.5194 ], [ -88.1486, 30.5287 ], [ -88.1206, 30.5382 ], [ -88.0925, 30.5476 ], [ -88.0643, 30.557 ], [ -88.0361, 30.5663 ], [ -88.008, 30.5757 ], [ -87.98, 30.5852 ], [ -87.9517, 30.5945 ], [ -87.9235, 30.6039 ], [ -87.8955, 30.6133 ], [ -87.8674, 30.6228 ], [ -87.8392, 30.6321 ], [ -87.811, 30.6414 ], [ -87.7829, 30.6509 ], [ -87.7549, 30.6604 ], [ -87.7267, 30.6697 ], [ -87.6984, 30.679 ], [ -87.6704, 30.6885 ], [ -87.6423, 30.698 ], [ -87.6141, 30.7073 ], [ -87.5859, 30.7166 ], [ -87.5578, 30.7261 ], [ -87.5298, 30.7355 ], [ -87.5016, 30.7449 ], [ -87.4735, 30.7543 ], [ -87.4459, 30.7642 ], [ -87.4186, 30.7745 ], [ -87.3914, 30.7848 ], [ -87.3647, 30.7957 ], [ -87.3383, 30.8068 ], [ -87.3116, 30.8176 ], [ -87.2844, 30.828 ], [ -87.2571, 30.8382 ], [ -87.2295, 30.8481 ], [ -87.2014, 30.8576 ], [ -87.1734, 30.8671 ], [ -87.1458, 30.877 ], [ -87.1185, 30.8872 ], [ -87.0915, 30.8977 ], [ -87.0652, 30.909 ], [ -87.0395, 30.9209 ], [ -87.014, 30.9329 ], [ -86.9888, 30.9452 ], [ -86.9639, 30.9579 ], [ -86.9388, 30.9703 ], [ -86.9138, 30.9828 ], [ -86.8889, 30.9954 ], [ -86.8638, 31.0079 ], [ -86.8388, 31.0204 ], [ -86.8138, 31.033 ], [ -86.7762, 31.0517 ], [ -86.7637, 31.058 ], [ -86.7388, 31.0706 ], [ -86.7138, 31.0831 ], [ -86.6887, 31.0955 ], [ -86.6638, 31.1082 ], [ -86.6261, 31.1268 ], [ -86.6137, 31.1331 ], [ -86.5766, 31.1524 ], [ -86.5643, 31.1588 ], [ -86.54, 31.1721 ], [ -86.5046, 31.1929 ], [ -86.4815, 31.2074 ], [ -86.4587, 31.2221 ], [ -86.4362, 31.2371 ], [ -86.4136, 31.2522 ], [ -86.3911, 31.2672 ], [ -86.3686, 31.2822 ], [ -86.3574, 31.2898 ], [ -86.3236, 31.3123 ], [ -86.3011, 31.3273 ], [ -86.2786, 31.3424 ], [ -86.2561, 31.3574 ], [ -86.2336, 31.3724 ], [ -86.2223, 31.3799 ], [ -86.2, 31.3951 ], [ -86.1669, 31.4184 ], [ -86.1453, 31.4344 ], [ -86.124, 31.4506 ], [ -86.103, 31.4671 ], [ -86.0817, 31.4834 ], [ -86.0601, 31.4993 ], [ -86.0385, 31.5152 ], [ -86.0169, 31.5312 ], [ -85.9956, 31.5474 ], [ -85.9749, 31.5642 ], [ -85.9551, 31.582 ], [ -85.9356, 31.6 ], [ -85.9166, 31.6186 ], [ -85.8977, 31.6373 ], [ -85.8791, 31.6562 ], [ -85.8509, 31.6843 ], [ -85.8416, 31.6938 ], [ -85.8227, 31.7124 ], [ -85.8041, 31.7314 ], [ -85.7852, 31.75 ], [ -85.7666, 31.769 ], [ -85.7477, 31.7876 ], [ -85.7291, 31.8065 ], [ -85.7102, 31.8252 ], [ -85.6821, 31.8534 ], [ -85.6727, 31.8628 ], [ -85.6446, 31.891 ], [ -85.6351, 31.9003 ], [ -85.6165, 31.9193 ], [ -85.5889, 31.948 ], [ -85.5799, 31.9578 ], [ -85.5622, 31.9776 ], [ -85.5373, 32.009 ], [ -85.5212, 32.0305 ], [ -85.5053, 32.0522 ], [ -85.4974, 32.063 ], [ -85.4812, 32.0843 ], [ -85.4644, 32.1051 ], [ -85.447, 32.1252 ], [ -85.4295, 32.1453 ], [ -85.4121, 32.1655 ], [ -85.3953, 32.1862 ], [ -85.3713, 32.2186 ], [ -85.3559, 32.2407 ], [ -85.3407, 32.263 ], [ -85.3332, 32.2743 ], [ -85.3182, 32.2969 ], [ -85.2957, 32.3307 ], [ -85.2882, 32.342 ], [ -85.2657, 32.3758 ], [ -85.2508, 32.3985 ], [ -85.2435, 32.4099 ], [ -85.2291, 32.433 ], [ -85.215, 32.4565 ], [ -85.195, 32.4929 ], [ -85.1821, 32.5175 ], [ -85.1693, 32.5423 ], [ -85.1569, 32.5674 ], [ -85.1444, 32.5925 ], [ -85.1318, 32.6175 ], [ -85.1194, 32.6426 ], [ -85.1069, 32.6677 ], [ -85.1006, 32.6802 ], [ -85.0819, 32.7178 ], [ -85.0694, 32.7429 ], [ -85.0568, 32.7678 ], [ -85.0445, 32.7931 ], [ -85.0325, 32.8186 ], [ -85.0206, 32.8443 ], [ -85.0094, 32.8706 ], [ -84.9989, 32.8977 ], [ -84.9887, 32.925 ], [ -84.9788, 32.9527 ], [ -84.9693, 32.9808 ], [ -84.96, 33.0091 ], [ -84.9506, 33.0372 ], [ -84.9411, 33.0653 ], [ -84.9318, 33.0935 ], [ -84.9225, 33.1218 ], [ -84.9132, 33.1501 ], [ -84.9042, 33.1786 ], [ -84.8956, 33.2076 ], [ -84.8874, 33.2369 ], [ -84.8794, 33.2666 ], [ -84.8718, 33.2965 ], [ -84.8644, 33.3267 ], [ -84.8575, 33.3573 ], [ -84.8512, 33.3886 ], [ -84.8455, 33.4205 ], [ -84.8404, 33.4529 ], [ -84.8356, 33.4857 ], [ -84.8305, 33.5182 ], [ -84.825, 33.5502 ], [ -84.8193, 33.5821 ], [ -84.8137, 33.6141 ], [ -84.8088, 33.6467 ], [ -84.805, 33.6805 ], [ -84.8026, 33.7157 ], [ -84.8013, 33.7519 ], [ -84.8006, 33.7889 ], [ -84.8005, 33.8263 ], [ -84.8005, 33.8639 ], [ -84.8005, 33.9015 ], [ -84.8005, 33.9391 ], [ -84.8005, 33.9766 ], [ -84.8005, 34.0142 ], [ -84.8005, 34.0518 ], [ -84.8005, 34.0894 ], [ -84.8005, 34.127 ], [ -84.8006, 34.1644 ], [ -84.8013, 34.2014 ], [ -84.8026, 34.2376 ], [ -84.805, 34.2728 ], [ -84.8088, 34.3066 ], [ -84.8137, 34.3392 ], [ -84.8194, 34.3711 ], [ -84.8256, 34.4025 ], [ -84.8319, 34.4338 ], [ -84.838, 34.4652 ], [ -84.8442, 34.4966 ], [ -84.8506, 34.5277 ], [ -84.8574, 34.5585 ], [ -84.8644, 34.589 ], [ -84.8718, 34.6192 ], [ -84.8794, 34.6492 ], [ -84.8874, 34.6788 ], [ -84.8956, 34.7081 ], [ -84.9042, 34.7371 ], [ -84.9132, 34.7657 ], [ -84.9225, 34.7939 ], [ -84.9318, 34.8222 ], [ -84.9411, 34.8504 ], [ -84.9506, 34.8785 ], [ -84.96, 34.9067 ], [ -84.9693, 34.9349 ], [ -84.9788, 34.963 ], [ -84.9887, 34.9907 ], [ -84.9989, 35.018 ], [ -85.0094, 35.0451 ], [ -85.0206, 35.0714 ], [ -85.0325, 35.0971 ], [ -85.0445, 35.1227 ], [ -85.0568, 35.1479 ], [ -85.0694, 35.1729 ], [ -85.0819, 35.198 ], [ -85.0943, 35.2231 ], [ -85.1069, 35.248 ], [ -85.1194, 35.2731 ], [ -85.1318, 35.2982 ], [ -85.1446, 35.323 ], [ -85.1575, 35.3477 ], [ -85.1707, 35.372 ], [ -85.1845, 35.3958 ], [ -85.1988, 35.4191 ], [ -85.2133, 35.4421 ], [ -85.2282, 35.4648 ], [ -85.2432, 35.4873 ], [ -85.2582, 35.5099 ], [ -85.2732, 35.5324 ], [ -85.2882, 35.555 ], [ -85.3032, 35.5775 ], [ -85.3184, 35.5999 ], [ -85.3338, 35.622 ], [ -85.3496, 35.6438 ], [ -85.3656, 35.6653 ], [ -85.382, 35.6865 ], [ -85.3983, 35.7077 ], [ -85.4144, 35.7292 ], [ -85.4303, 35.7508 ], [ -85.4462, 35.7725 ], [ -85.4623, 35.794 ], [ -85.4788, 35.815 ], [ -85.496, 35.8353 ], [ -85.5139, 35.855 ], [ -85.5322, 35.8742 ], [ -85.5508, 35.8932 ], [ -85.5696, 35.912 ], [ -85.5883, 35.9308 ], [ -85.6071, 35.9495 ], [ -85.6258, 35.9683 ], [ -85.6446, 35.9871 ], [ -85.6633, 36.0059 ], [ -85.6821, 36.0247 ], [ -85.7009, 36.0435 ], [ -85.7196, 36.0623 ], [ -85.7384, 36.0811 ], [ -85.7571, 36.0999 ], [ -85.7759, 36.1186 ], [ -85.7947, 36.1374 ], [ -85.8134, 36.1562 ], [ -85.8322, 36.175 ], [ -85.8511, 36.1937 ], [ -85.8703, 36.212 ], [ -85.8899, 36.2299 ], [ -85.9205, 36.2556 ], [ -85.9419, 36.2718 ], [ -85.9527, 36.2798 ], [ -85.9851, 36.3037 ], [ -86.0067, 36.3196 ], [ -86.028, 36.3359 ], [ -86.0385, 36.3441 ], [ -86.0597, 36.3605 ], [ -86.0919, 36.3846 ], [ -86.1029, 36.3924 ], [ -86.136, 36.4155 ], [ -86.1585, 36.4305 ], [ -86.1698, 36.4381 ], [ -86.1923, 36.4531 ], [ -86.2261, 36.4756 ], [ -86.2486, 36.4907 ], [ -86.2711, 36.5057 ], [ -86.2936, 36.5207 ], [ -86.3048, 36.5283 ], [ -86.3386, 36.5508 ], [ -86.3611, 36.5658 ], [ -86.3724, 36.5734 ], [ -86.395, 36.5882 ], [ -86.4295, 36.61 ], [ -86.4412, 36.6171 ], [ -86.4893, 36.6442 ], [ -86.5139, 36.6571 ], [ -86.5262, 36.6635 ], [ -86.5511, 36.6762 ], [ -86.5888, 36.6948 ], [ -86.6012, 36.7011 ], [ -86.6261, 36.7138 ], [ -86.6513, 36.7261 ], [ -86.6762, 36.7387 ], [ -86.7011, 36.7513 ], [ -86.7264, 36.7637 ], [ -86.7513, 36.7763 ], [ -86.7762, 36.7889 ], [ -86.8017, 36.8009 ], [ -86.8272, 36.813 ], [ -86.853, 36.8247 ], [ -86.8932, 36.8408 ], [ -86.9067, 36.846 ], [ -86.947, 36.8621 ], [ -86.9605, 36.8674 ], [ -86.9875, 36.8779 ], [ -87.0271, 36.8946 ], [ -87.0403, 36.9001 ], [ -87.081, 36.9158 ], [ -87.0946, 36.9209 ], [ -87.1359, 36.9359 ], [ -87.1498, 36.9407 ], [ -87.178, 36.95 ], [ -87.2202, 36.9642 ], [ -87.2483, 36.9736 ], [ -87.2765, 36.983 ], [ -87.3047, 36.9923 ], [ -87.3328, 37.0018 ], [ -87.3467, 37.0066 ], [ -87.389, 37.0205 ], [ -87.4172, 37.0299 ], [ -87.4454, 37.0392 ], [ -87.474, 37.0482 ], [ -87.5029, 37.0568 ], [ -87.5175, 37.061 ], [ -87.5617, 37.073 ], [ -87.5766, 37.0769 ], [ -87.6066, 37.0844 ], [ -87.6522, 37.0951 ], [ -87.683, 37.1019 ], [ -87.7141, 37.1083 ], [ -87.7454, 37.1145 ], [ -87.7768, 37.1207 ], [ -87.808, 37.127 ], [ -87.8394, 37.1331 ], [ -87.871, 37.139 ], [ -87.903, 37.1446 ], [ -87.9354, 37.1497 ], [ -87.9681, 37.1545 ], [ -88.0005, 37.1596 ], [ -88.0325, 37.1651 ], [ -88.0643, 37.1709 ], [ -88.0963, 37.1764 ], [ -88.1288, 37.1814 ], [ -88.1624, 37.1853 ], [ -88.197, 37.1883 ], [ -88.2318, 37.191 ], [ -88.2663, 37.194 ], [ -88.2999, 37.1979 ], [ -88.3324, 37.2029 ], [ -88.3644, 37.2084 ], [ -88.3964, 37.214 ], [ -88.4289, 37.219 ], [ -88.4627, 37.2227 ], [ -88.4978, 37.2251 ], [ -88.534, 37.2265 ], [ -88.5709, 37.2271 ], [ -88.6083, 37.2272 ], [ -88.6458, 37.2272 ], [ -88.6833, 37.2272 ], [ -88.7208, 37.2272 ], [ -88.7583, 37.2272 ], [ -88.7958, 37.2272 ], [ -88.8333, 37.2272 ], [ -88.8709, 37.2272 ], [ -88.9084, 37.2272 ], [ -88.9459, 37.2272 ], [ -88.9834, 37.2272 ], [ -89.0208, 37.2271 ], [ -89.0577, 37.2265 ], [ -89.0938, 37.2251 ], [ -89.129, 37.2227 ], [ -89.1455, 37.2205 ], [ -89.1953, 37.214 ], [ -89.2273, 37.2084 ], [ -89.2592, 37.2029 ], [ -89.2918, 37.1979 ], [ -89.3255, 37.1942 ], [ -89.3605, 37.1916 ], [ -89.3961, 37.1896 ], [ -89.4316, 37.1877 ], [ -89.4666, 37.1851 ], [ -89.5004, 37.1814 ], [ -89.5329, 37.1764 ], [ -89.5647, 37.1707 ], [ -89.5961, 37.1645 ], [ -89.6273, 37.1582 ], [ -89.6587, 37.1521 ], [ -89.69, 37.1459 ], [ -89.7212, 37.1396 ], [ -89.7525, 37.1333 ], [ -89.7837, 37.127 ], [ -89.8149, 37.1206 ], [ -89.8462, 37.1145 ], [ -89.8776, 37.1083 ], [ -89.9087, 37.1019 ], [ -89.9394, 37.0951 ], [ -89.9699, 37.088 ], [ -90.0001, 37.0807 ], [ -90.0299, 37.073 ], [ -90.0595, 37.065 ], [ -90.0887, 37.0568 ], [ -90.1177, 37.0482 ], [ -90.1464, 37.0393 ], [ -90.175, 37.0305 ], [ -90.204, 37.0219 ], [ -90.2333, 37.0136 ], [ -90.2627, 37.0055 ], [ -90.2919, 36.9972 ], [ -90.3207, 36.9885 ], [ -90.349, 36.9792 ], [ -90.3764, 36.9691 ], [ -90.4033, 36.9585 ], [ -90.4301, 36.9478 ], [ -90.4573, 36.9374 ], [ -90.4846, 36.9272 ], [ -90.5122, 36.9173 ], [ -90.5403, 36.9078 ], [ -90.5683, 36.8983 ], [ -90.5959, 36.8884 ], [ -90.6233, 36.8782 ], [ -90.6503, 36.8677 ], [ -90.6765, 36.8564 ], [ -90.7022, 36.8445 ], [ -90.7277, 36.8325 ], [ -90.7529, 36.8202 ], [ -90.7778, 36.8075 ], [ -90.8029, 36.7951 ], [ -90.8279, 36.7826 ], [ -90.8528, 36.77 ], [ -90.8779, 36.7575 ], [ -90.903, 36.745 ], [ -90.9279, 36.7324 ], [ -90.9529, 36.7199 ], [ -90.978, 36.7074 ], [ -91.0029, 36.6948 ], [ -91.0406, 36.6762 ], [ -91.053, 36.6698 ], [ -91.0778, 36.6571 ], [ -91.1024, 36.6441 ], [ -91.1267, 36.6309 ], [ -91.1621, 36.61 ], [ -91.1852, 36.5956 ], [ -91.2083, 36.5812 ], [ -91.2199, 36.574 ], [ -91.2549, 36.5526 ], [ -91.2667, 36.5457 ], [ -91.2906, 36.532 ], [ -91.326, 36.5111 ], [ -91.3488, 36.4964 ], [ -91.371, 36.4811 ], [ -91.3926, 36.4651 ], [ -91.4136, 36.4486 ], [ -91.4349, 36.4324 ], [ -91.4565, 36.4164 ], [ -91.489, 36.3925 ], [ -91.4997, 36.3846 ], [ -91.5214, 36.3686 ], [ -91.5427, 36.3524 ], [ -91.5637, 36.3359 ], [ -91.585, 36.3196 ], [ -91.6066, 36.3037 ], [ -91.6174, 36.2957 ], [ -91.6498, 36.2718 ], [ -91.6711, 36.2556 ], [ -91.7017, 36.2299 ], [ -91.7116, 36.221 ], [ -91.7406, 36.1937 ], [ -91.7595, 36.175 ], [ -91.769, 36.1657 ], [ -91.797, 36.1374 ], [ -91.8158, 36.1186 ], [ -91.8345, 36.0999 ], [ -91.8533, 36.0811 ], [ -91.872, 36.0623 ], [ -91.8815, 36.053 ], [ -91.9096, 36.0247 ], [ -91.919, 36.0154 ], [ -91.9376, 35.9964 ], [ -91.9658, 35.9683 ], [ -91.9751, 35.9589 ], [ -92.0033, 35.9308 ], [ -92.0221, 35.912 ], [ -92.0316, 35.9026 ], [ -92.0502, 35.8837 ], [ -92.0784, 35.8556 ], [ -92.0877, 35.8461 ], [ -92.1063, 35.8272 ], [ -92.1332, 35.7977 ], [ -92.142, 35.7878 ], [ -92.1588, 35.7671 ], [ -92.175, 35.7457 ], [ -92.1909, 35.7241 ], [ -92.2148, 35.6916 ], [ -92.2227, 35.6808 ], [ -92.2472, 35.6489 ], [ -92.2554, 35.6384 ], [ -92.2796, 35.6062 ], [ -92.2954, 35.5844 ], [ -92.3108, 35.5623 ], [ -92.326, 35.5399 ], [ -92.3335, 35.5287 ], [ -92.3554, 35.4942 ], [ -92.3696, 35.4709 ], [ -92.3767, 35.4592 ], [ -92.3966, 35.4228 ], [ -92.4096, 35.3982 ], [ -92.4225, 35.3735 ], [ -92.4354, 35.3489 ], [ -92.4418, 35.3366 ], [ -92.4624, 35.3008 ], [ -92.4694, 35.2891 ], [ -92.4838, 35.2659 ], [ -92.506, 35.2318 ], [ -92.5212, 35.2094 ], [ -92.5289, 35.1983 ], [ -92.5524, 35.1655 ], [ -92.5604, 35.1547 ], [ -92.5766, 35.1333 ], [ -92.6012, 35.1016 ], [ -92.6172, 35.0801 ], [ -92.6332, 35.0585 ], [ -92.6491, 35.0368 ], [ -92.657, 35.026 ], [ -92.6732, 35.0047 ], [ -92.6987, 34.9738 ], [ -92.7161, 34.9537 ], [ -92.7335, 34.9335 ], [ -92.7422, 34.9235 ], [ -92.759, 34.9027 ], [ -92.7832, 34.8706 ], [ -92.7991, 34.8489 ], [ -92.815, 34.8273 ], [ -92.823, 34.8165 ], [ -92.8392, 34.7951 ], [ -92.8638, 34.7634 ], [ -92.8798, 34.7419 ], [ -92.8958, 34.7203 ], [ -92.9117, 34.6986 ], [ -92.9196, 34.6878 ], [ -92.9355, 34.6661 ], [ -92.96, 34.6343 ], [ -92.9763, 34.6131 ], [ -92.9844, 34.6024 ], [ -93.0082, 34.5698 ], [ -93.016, 34.5588 ], [ -93.0388, 34.5253 ], [ -93.0538, 34.5028 ], [ -93.0688, 34.4802 ], [ -93.0763, 34.4689 ], [ -93.0988, 34.4351 ], [ -93.1138, 34.4126 ], [ -93.1288, 34.39 ], [ -93.1438, 34.3675 ], [ -93.1513, 34.3562 ], [ -93.1738, 34.3224 ], [ -93.1813, 34.3111 ], [ -93.2038, 34.2773 ], [ -93.2188, 34.2547 ], [ -93.2338, 34.2322 ], [ -93.2488, 34.2096 ], [ -93.2638, 34.1871 ], [ -93.2787, 34.1644 ], [ -93.2861, 34.153 ], [ -93.3075, 34.1181 ], [ -93.3146, 34.1064 ], [ -93.3345, 34.07 ], [ -93.3474, 34.0453 ], [ -93.3603, 34.0207 ], [ -93.3668, 34.0084 ], [ -93.3864, 33.9717 ], [ -93.4003, 33.9479 ], [ -93.4145, 33.9246 ], [ -93.4289, 33.9015 ], [ -93.4361, 33.8899 ], [ -93.4505, 33.8668 ], [ -93.4714, 33.8313 ], [ -93.4846, 33.8069 ], [ -93.4975, 33.7823 ], [ -93.5102, 33.7575 ], [ -93.5225, 33.7322 ], [ -93.5346, 33.7067 ], [ -93.5464, 33.681 ], [ -93.5577, 33.6547 ], [ -93.5683, 33.6278 ], [ -93.579, 33.6009 ], [ -93.5896, 33.5739 ], [ -93.6001, 33.5469 ], [ -93.6109, 33.5201 ], [ -93.622, 33.4937 ], [ -93.6328, 33.4669 ], [ -93.6433, 33.4399 ], [ -93.654, 33.413 ], [ -93.6647, 33.3861 ], [ -93.6752, 33.359 ], [ -93.686, 33.3322 ], [ -93.6971, 33.3058 ], [ -93.7079, 33.279 ], [ -93.7182, 33.2518 ], [ -93.7283, 33.2243 ], [ -93.7377, 33.1962 ], [ -93.7464, 33.1673 ], [ -93.7547, 33.138 ], [ -93.7626, 33.1084 ], [ -93.7703, 33.0785 ], [ -93.7778, 33.0484 ], [ -93.7853, 33.0184 ], [ -93.7928, 32.9883 ], [ -93.8003, 32.9583 ], [ -93.8078, 32.9282 ], [ -93.8152, 32.898 ], [ -93.8222, 32.8675 ], [ -93.829, 32.8367 ], [ -93.8354, 32.8055 ], [ -93.8416, 32.7741 ], [ -93.8477, 32.7427 ], [ -93.857, 32.6957 ], [ -93.8602, 32.68 ], [ -93.8659, 32.6482 ], [ -93.8708, 32.6155 ], [ -93.8747, 32.5819 ], [ -93.8777, 32.5473 ], [ -93.8805, 32.5124 ], [ -93.8834, 32.4778 ], [ -93.8873, 32.4442 ], [ -93.8923, 32.4116 ], [ -93.8978, 32.3795 ], [ -93.9034, 32.3475 ], [ -93.9084, 32.3149 ], [ -93.9121, 32.2811 ], [ -93.9145, 32.2459 ], [ -93.9159, 32.2097 ], [ -93.9164, 32.1727 ], [ -93.9166, 32.1353 ], [ -93.9166, 32.0977 ], [ -93.9164, 32.0603 ], [ -93.9159, 32.0233 ], [ -93.9145, 31.9871 ], [ -93.9121, 31.9519 ], [ -93.9084, 31.9181 ], [ -93.9034, 31.8855 ], [ -93.8978, 31.8534 ], [ -93.8923, 31.8214 ], [ -93.8873, 31.7888 ], [ -93.8836, 31.755 ], [ -93.881, 31.72 ], [ -93.8791, 31.6843 ], [ -93.8771, 31.6487 ], [ -93.8746, 31.6137 ], [ -93.8708, 31.5799 ], [ -93.8659, 31.5472 ], [ -93.8602, 31.5154 ], [ -93.854, 31.484 ], [ -93.8477, 31.4527 ], [ -93.8416, 31.4213 ], [ -93.8354, 31.3899 ], [ -93.8291, 31.3586 ], [ -93.8228, 31.3273 ], [ -93.8165, 31.2961 ], [ -93.8102, 31.2648 ], [ -93.8041, 31.2334 ], [ -93.7979, 31.202 ], [ -93.7946, 31.1865 ], [ -93.7847, 31.14 ], [ -93.7777, 31.1095 ], [ -93.7703, 31.0793 ], [ -93.7626, 31.0494 ], [ -93.7547, 31.0198 ], [ -93.7464, 30.9905 ], [ -93.7379, 30.9615 ], [ -93.7289, 30.9329 ], [ -93.7196, 30.9046 ], [ -93.7103, 30.8764 ], [ -93.701, 30.8481 ], [ -93.6915, 30.82 ], [ -93.6821, 30.7919 ], [ -93.6728, 30.7636 ], [ -93.6635, 30.7354 ], [ -93.654, 30.7073 ], [ -93.6446, 30.6792 ], [ -93.6352, 30.6509 ], [ -93.6258, 30.6228 ], [ -93.6159, 30.5951 ], [ -93.6057, 30.5678 ], [ -93.5953, 30.5406 ], [ -93.5845, 30.5138 ], [ -93.5734, 30.4874 ], [ -93.5626, 30.4606 ], [ -93.5521, 30.4336 ], [ -93.5415, 30.4066 ], [ -93.5308, 30.3797 ], [ -93.5203, 30.3527 ], [ -93.5095, 30.3259 ], [ -93.4984, 30.2995 ], [ -93.4876, 30.2727 ], [ -93.4771, 30.2457 ], [ -93.4664, 30.2187 ], [ -93.4558, 30.1918 ], [ -93.4451, 30.1649 ], [ -93.4339, 30.1386 ], [ -93.422, 30.1129 ], [ -93.41, 30.0874 ], [ -93.3977, 30.0621 ], [ -93.3851, 30.0372 ], [ -93.3726, 30.0121 ], [ -93.3602, 29.987 ], [ -93.3476, 29.962 ], [ -93.3351, 29.9369 ], [ -93.3227, 29.9118 ], [ -93.3101, 29.8869 ], [ -93.2976, 29.8617 ], [ -93.2851, 29.8366 ], [ -93.2725, 29.8117 ], [ -93.2601, 29.7866 ], [ -93.2476, 29.7615 ], [ -93.235, 29.7365 ], [ -93.2226, 29.7114 ], [ -93.2101, 29.6863 ], [ -93.1975, 29.6614 ], [ -93.1851, 29.6363 ], [ -93.1726, 29.6112 ], [ -93.16, 29.5862 ], [ -93.1475, 29.5611 ], [ -93.1351, 29.536 ], [ -93.1225, 29.5111 ], [ -93.11, 29.486 ], [ -93.0976, 29.4609 ], [ -93.085, 29.4359 ], [ -93.0725, 29.4108 ], [ -93.0601, 29.3857 ], [ -93.0473, 29.3609 ], [ -93.0344, 29.3362 ], [ -93.0212, 29.3119 ], [ -93.0074, 29.2881 ], [ -92.9931, 29.2648 ], [ -92.9787, 29.2417 ], [ -92.9643, 29.2185 ], [ -92.9501, 29.1953 ], [ -92.9363, 29.1715 ], [ -92.9231, 29.1471 ], [ -92.9102, 29.1225 ], [ -92.8973, 29.0978 ], [ -92.8844, 29.0732 ], [ -92.8711, 29.0488 ], [ -92.8573, 29.0251 ], [ -92.8431, 29.0018 ], [ -92.8285, 28.9788 ], [ -92.8137, 28.9561 ], [ -92.7987, 28.9335 ], [ -92.7837, 28.911 ], [ -92.7686, 28.8885 ], [ -92.7538, 28.8658 ], [ -92.7392, 28.8428 ], [ -92.725, 28.8195 ], [ -92.711, 28.7959 ], [ -92.6974, 28.772 ], [ -92.6837, 28.7481 ], [ -92.6698, 28.7245 ], [ -92.6555, 28.7012 ], [ -92.641, 28.6782 ], [ -92.6261, 28.6555 ], [ -92.6111, 28.6329 ], [ -92.5961, 28.6104 ], [ -92.5811, 28.5878 ], [ -92.5661, 28.5653 ], [ -92.5511, 28.5427 ], [ -92.5361, 28.5202 ], [ -92.5211, 28.4976 ], [ -92.506, 28.4751 ], [ -92.491, 28.4525 ], [ -92.476, 28.43 ], [ -92.4609, 28.4076 ], [ -92.4454, 28.3855 ], [ -92.4297, 28.3637 ], [ -92.4136, 28.3422 ], [ -92.3973, 28.321 ], [ -92.381, 28.2997 ], [ -92.3654, 28.2777 ], [ -92.3504, 28.2552 ], [ -92.3362, 28.2319 ], [ -92.3228, 28.2077 ], [ -92.3099, 28.183 ], [ -92.2972, 28.1582 ], [ -92.2847, 28.1331 ], [ -92.2723, 28.108 ], [ -92.2595, 28.0832 ], [ -92.2466, 28.0586 ], [ -92.2334, 28.0342 ], [ -92.2196, 28.0105 ], [ -92.2053, 27.9872 ], [ -92.1909, 27.964 ], [ -92.1765, 27.9409 ], [ -92.1623, 27.9176 ], [ -92.1483, 27.894 ], [ -92.1346, 27.8701 ], [ -92.121, 27.8462 ], [ -92.107, 27.8226 ], [ -92.0928, 27.7993 ], [ -92.0782, 27.7763 ], [ -92.0634, 27.7536 ], [ -92.0484, 27.731 ], [ -92.0334, 27.7085 ], [ -92.0183, 27.6859 ], [ -92.0033, 27.6634 ], [ -91.9883, 27.6408 ], [ -91.9732, 27.6184 ], [ -91.9577, 27.5963 ], [ -91.942, 27.5745 ], [ -91.9178, 27.5424 ], [ -91.9096, 27.5319 ], [ -91.8932, 27.5107 ], [ -91.8692, 27.4783 ], [ -91.8612, 27.4675 ], [ -91.8374, 27.4351 ], [ -91.8294, 27.4242 ], [ -91.8134, 27.4027 ], [ -91.7888, 27.371 ], [ -91.7726, 27.3497 ], [ -91.7646, 27.3388 ], [ -91.7487, 27.3172 ], [ -91.7328, 27.2956 ], [ -91.7167, 27.2741 ], [ -91.6918, 27.2426 ], [ -91.683, 27.2327 ], [ -91.6651, 27.213 ], [ -91.6468, 27.1938 ], [ -91.6282, 27.1749 ], [ -91.6094, 27.1561 ], [ -91.5907, 27.1373 ], [ -91.5719, 27.1185 ], [ -91.5439, 27.0902 ], [ -91.525, 27.0716 ], [ -91.5157, 27.0621 ], [ -91.4874, 27.034 ], [ -91.4688, 27.0151 ], [ -91.4499, 26.9964 ], [ -91.4406, 26.987 ], [ -91.4219, 26.9682 ], [ -91.4031, 26.9494 ], [ -91.3844, 26.9306 ], [ -91.3656, 26.9118 ], [ -91.3374, 26.8837 ], [ -91.3281, 26.8742 ], [ -91.2999, 26.8461 ], [ -91.2906, 26.8366 ], [ -91.2624, 26.8085 ], [ -91.2531, 26.7991 ], [ -91.2343, 26.7803 ], [ -91.2155, 26.7615 ], [ -91.1968, 26.7427 ], [ -91.178, 26.7239 ], [ -91.1593, 26.7051 ], [ -91.1312, 26.6769 ], [ -91.1123, 26.6582 ], [ -91.0937, 26.6393 ], [ -91.0842, 26.63 ], [ -91.0562, 26.6017 ], [ -91.0373, 26.5831 ], [ -91.028, 26.5736 ], [ -91.0092, 26.5548 ], [ -90.9811, 26.5265 ], [ -90.9717, 26.5172 ], [ -90.9436, 26.489 ], [ -90.9342, 26.4796 ], [ -90.9061, 26.4514 ], [ -90.8966, 26.4421 ], [ -90.8779, 26.4233 ], [ -90.8592, 26.4045 ], [ -90.8404, 26.3857 ], [ -90.8122, 26.3576 ], [ -90.8029, 26.3481 ], [ -90.7841, 26.3293 ], [ -90.7654, 26.3105 ], [ -90.7466, 26.2917 ], [ -90.7278, 26.273 ], [ -90.6996, 26.2449 ], [ -90.6902, 26.2355 ], [ -90.6612, 26.2082 ], [ -90.6513, 26.1993 ], [ -90.6207, 26.1736 ], [ -90.5994, 26.1574 ], [ -90.5778, 26.1414 ], [ -90.5562, 26.1255 ], [ -90.5349, 26.1093 ], [ -90.5142, 26.0924 ], [ -90.5043, 26.0836 ], [ -90.4846, 26.0657 ], [ -90.4654, 26.0473 ], [ -90.4465, 26.0287 ], [ -90.4277, 26.0099 ], [ -90.409, 25.9911 ], [ -90.3902, 25.9723 ], [ -90.3714, 25.9535 ], [ -90.3431, 25.9256 ], [ -90.3333, 25.9166 ], [ -90.3038, 25.8898 ], [ -90.2831, 25.873 ], [ -90.2618, 25.8567 ], [ -90.2401, 25.8408 ], [ -90.2185, 25.8249 ], [ -90.1972, 25.8086 ], [ -90.1765, 25.7918 ], [ -90.1666, 25.7829 ], [ -90.1372, 25.756 ], [ -90.118, 25.7377 ], [ -90.0985, 25.7196 ], [ -90.0787, 25.7019 ], [ -90.058, 25.6851 ], [ -90.0367, 25.6688 ], [ -90.0151, 25.6529 ], [ -89.9935, 25.637 ], [ -89.9721, 25.6207 ], [ -89.9514, 25.6039 ], [ -89.9415, 25.595 ], [ -89.9121, 25.5681 ], [ -89.9025, 25.559 ], [ -89.8734, 25.5318 ], [ -89.8635, 25.5229 ], [ -89.8329, 25.4972 ], [ -89.8116, 25.4809 ], [ -89.79, 25.465 ], [ -89.7684, 25.4491 ], [ -89.7468, 25.4331 ], [ -89.7254, 25.4169 ], [ -89.7044, 25.4004 ], [ -89.6831, 25.3841 ], [ -89.6615, 25.3682 ], [ -89.6399, 25.3523 ], [ -89.6183, 25.3363 ], [ -89.597, 25.3201 ], [ -89.5763, 25.3033 ], [ -89.5562, 25.2858 ], [ -89.5361, 25.2684 ], [ -89.526, 25.2597 ], [ -89.4953, 25.2341 ], [ -89.4739, 25.2179 ], [ -89.4523, 25.202 ], [ -89.4307, 25.186 ], [ -89.4091, 25.1701 ], [ -89.3878, 25.1538 ], [ -89.3773, 25.1456 ], [ -89.3455, 25.1211 ], [ -89.3239, 25.1051 ], [ -89.3023, 25.0892 ], [ -89.2915, 25.0813 ], [ -89.2591, 25.0574 ], [ -89.2378, 25.0411 ], [ -89.2167, 25.0246 ], [ -89.1954, 25.0084 ], [ -89.1738, 24.9924 ], [ -89.1522, 24.9765 ], [ -89.1306, 24.9606 ], [ -89.109, 24.9446 ], [ -89.0877, 24.9284 ], [ -89.0667, 24.9118 ], [ -89.0454, 24.8956 ], [ -89.0238, 24.8797 ], [ -89.0022, 24.8637 ], [ -88.9805, 24.8478 ], [ -88.9589, 24.8319 ], [ -88.9483, 24.8238 ], [ -88.9166, 24.7991 ], [ -88.8953, 24.7829 ], [ -88.8737, 24.7669 ], [ -88.8521, 24.751 ], [ -88.8413, 24.743 ], [ -88.8089, 24.7191 ], [ -88.7982, 24.711 ], [ -88.7666, 24.6864 ], [ -88.7453, 24.6701 ], [ -88.7236, 24.6542 ], [ -88.7128, 24.6462 ], [ -88.6804, 24.6223 ], [ -88.6588, 24.6064 ], [ -88.6375, 24.5902 ], [ -88.6165, 24.5736 ], [ -88.5952, 24.5574 ], [ -88.5736, 24.5415 ], [ -88.552, 24.5255 ], [ -88.5304, 24.5096 ], [ -88.5088, 24.4937 ], [ -88.4875, 24.4774 ], [ -88.4665, 24.4609 ], [ -88.4451, 24.4447 ], [ -88.4235, 24.4287 ], [ -88.4126, 24.4209 ], [ -88.3794, 24.3978 ], [ -88.3569, 24.3827 ], [ -88.3344, 24.3677 ], [ -88.3119, 24.3527 ], [ -88.2897, 24.3373 ], [ -88.2678, 24.3217 ], [ -88.2462, 24.3058 ], [ -88.2249, 24.2895 ], [ -88.2038, 24.273 ], [ -88.1825, 24.2568 ], [ -88.1609, 24.2408 ], [ -88.15, 24.233 ], [ -88.1168, 24.2099 ], [ -88.0943, 24.1948 ], [ -88.0718, 24.1798 ], [ -88.0493, 24.1648 ], [ -88.0268, 24.1497 ], [ -88.0043, 24.1347 ], [ -87.9818, 24.1197 ], [ -87.9593, 24.1047 ], [ -87.9367, 24.0896 ], [ -87.9142, 24.0746 ], [ -87.8917, 24.0596 ], [ -87.8692, 24.0445 ], [ -87.8467, 24.0295 ], [ -87.8242, 24.0145 ], [ -87.802, 23.9991 ], [ -87.7801, 23.9835 ], [ -87.7585, 23.9676 ], [ -87.7372, 23.9513 ], [ -87.7161, 23.9348 ], [ -87.6948, 23.9186 ], [ -87.6732, 23.9026 ], [ -87.6513, 23.887 ], [ -87.6291, 23.8717 ], [ -87.6066, 23.8566 ], [ -87.5841, 23.8416 ], [ -87.5616, 23.8266 ], [ -87.5391, 23.8115 ], [ -87.5166, 23.7965 ], [ -87.4941, 23.7815 ], [ -87.4716, 23.7664 ], [ -87.449, 23.7514 ], [ -87.4265, 23.7364 ], [ -87.404, 23.7213 ], [ -87.3815, 23.7063 ], [ -87.3703, 23.6988 ], [ -87.3365, 23.6763 ], [ -87.314, 23.6612 ], [ -87.2915, 23.6462 ], [ -87.269, 23.6312 ], [ -87.2465, 23.6161 ], [ -87.224, 23.6011 ], [ -87.2018, 23.5858 ], [ -87.1798, 23.5701 ], [ -87.1582, 23.5542 ], [ -87.1369, 23.538 ], [ -87.1159, 23.5214 ], [ -87.0946, 23.5052 ], [ -87.073, 23.4892 ], [ -87.0511, 23.4736 ], [ -87.0289, 23.4583 ], [ -87.0064, 23.4433 ], [ -86.9839, 23.4282 ], [ -86.9614, 23.4132 ], [ -86.9392, 23.3979 ], [ -86.9172, 23.3822 ], [ -86.8956, 23.3663 ], [ -86.8743, 23.3501 ], [ -86.8533, 23.3335 ], [ -86.832, 23.3173 ], [ -86.8104, 23.3014 ], [ -86.7888, 23.2854 ], [ -86.7672, 23.2695 ], [ -86.7456, 23.2536 ], [ -86.7243, 23.2373 ], [ -86.7033, 23.2208 ], [ -86.6819, 23.2046 ], [ -86.6603, 23.1886 ], [ -86.6387, 23.1727 ], [ -86.6171, 23.1568 ], [ -86.5955, 23.1408 ], [ -86.5742, 23.1246 ], [ -86.5532, 23.1081 ], [ -86.5319, 23.0918 ], [ -86.5103, 23.0759 ], [ -86.4887, 23.06 ], [ -86.4671, 23.044 ], [ -86.4457, 23.0278 ], [ -86.4251, 23.011 ], [ -86.4049, 22.9935 ], [ -86.3848, 22.9761 ], [ -86.3647, 22.9586 ], [ -86.344, 22.9418 ], [ -86.3227, 22.9256 ], [ -86.3011, 22.9096 ], [ -86.2795, 22.8937 ], [ -86.2582, 22.8775 ], [ -86.2375, 22.8606 ], [ -86.2174, 22.8432 ], [ -86.1973, 22.8258 ], [ -86.1771, 22.8083 ], [ -86.1564, 22.7915 ], [ -86.1351, 22.7753 ], [ -86.1135, 22.7593 ], [ -86.0919, 22.7434 ], [ -86.0706, 22.7272 ], [ -86.0499, 22.7103 ], [ -86.0298, 22.6929 ], [ -86.0097, 22.6755 ], [ -85.9896, 22.658 ], [ -85.9689, 22.6412 ], [ -85.9476, 22.6249 ], [ -85.926, 22.609 ], [ -85.9043, 22.5931 ], [ -85.883, 22.5768 ], [ -85.8623, 22.56 ], [ -85.8425, 22.5423 ], [ -85.823, 22.5242 ], [ -85.8038, 22.5059 ], [ -85.7843, 22.4879 ], [ -85.7645, 22.4701 ], [ -85.7438, 22.4533 ], [ -85.7225, 22.437 ], [ -85.7009, 22.4211 ], [ -85.6792, 22.4052 ], [ -85.6579, 22.3889 ], [ -85.6372, 22.3721 ], [ -85.6174, 22.3544 ], [ -85.5979, 22.3363 ], [ -85.5787, 22.318 ], [ -85.5592, 22.3 ], [ -85.5394, 22.2822 ], [ -85.5187, 22.2654 ], [ -85.4974, 22.2492 ], [ -85.4758, 22.2332 ], [ -85.4542, 22.2173 ], [ -85.4329, 22.2011 ], [ -85.4121, 22.1842 ], [ -85.3923, 22.1665 ], [ -85.3728, 22.1484 ], [ -85.3539, 22.1298 ], [ -85.335, 22.1112 ], [ -85.3161, 22.0925 ], [ -85.2966, 22.0745 ], [ -85.2768, 22.0567 ], [ -85.2561, 22.0399 ], [ -85.2348, 22.0237 ], [ -85.2132, 22.0077 ], [ -85.1916, 21.9918 ], [ -85.1703, 21.9756 ], [ -85.1495, 21.9587 ], [ -85.1297, 21.941 ], [ -85.1102, 21.923 ], [ -85.091, 21.9046 ], [ -85.0715, 21.8866 ], [ -85.0517, 21.8688 ], [ -85.031, 21.852 ], [ -85.0097, 21.8358 ], [ -84.9881, 21.8199 ], [ -84.9665, 21.8039 ], [ -84.9452, 21.7877 ], [ -84.9244, 21.7708 ], [ -84.9046, 21.7531 ], [ -84.8851, 21.7351 ], [ -84.8662, 21.7164 ], [ -84.8473, 21.6978 ], [ -84.8284, 21.6792 ], [ -84.8089, 21.6611 ], [ -84.7891, 21.6434 ], [ -84.7684, 21.6265 ], [ -84.7471, 21.6103 ], [ -84.7255, 21.5944 ], [ -84.7039, 21.5784 ], [ -84.6826, 21.5622 ], [ -84.6619, 21.5454 ], [ -84.642, 21.5276 ], [ -84.6225, 21.5096 ], [ -84.6033, 21.4913 ], [ -84.5838, 21.4732 ], [ -84.564, 21.4555 ], [ -84.5433, 21.4386 ], [ -84.522, 21.4224 ], [ -84.5004, 21.4065 ], [ -84.4788, 21.3905 ], [ -84.4575, 21.3743 ], [ -84.4368, 21.3575 ], [ -84.417, 21.3397 ], [ -84.3974, 21.3217 ], [ -84.3782, 21.3034 ], [ -84.3587, 21.2853 ], [ -84.3389, 21.2676 ], [ -84.3182, 21.2508 ], [ -84.2969, 21.2345 ], [ -84.2753, 21.2186 ], [ -84.2537, 21.2026 ], [ -84.2324, 21.1864 ], [ -84.2117, 21.1696 ], [ -84.1919, 21.1518 ], [ -84.1724, 21.1338 ], [ -84.1534, 21.1152 ], [ -84.1345, 21.0965 ], [ -84.1159, 21.0776 ], [ -84.1065, 21.0683 ], [ -84.0781, 21.0403 ], [ -84.0586, 21.0223 ], [ -84.0388, 21.0045 ], [ -84.0181, 20.9877 ], [ -83.9968, 20.9715 ], [ -83.9752, 20.9555 ], [ -83.9536, 20.9396 ], [ -83.9323, 20.9234 ], [ -83.9116, 20.9065 ], [ -83.9016, 20.8977 ], [ -83.8722, 20.8708 ], [ -83.8533, 20.8521 ], [ -83.8344, 20.8335 ], [ -83.8158, 20.8145 ], [ -83.7969, 20.7959 ], [ -83.7783, 20.777 ], [ -83.7688, 20.7676 ], [ -83.7408, 20.7394 ], [ -83.7219, 20.7207 ], [ -83.7124, 20.7114 ], [ -83.6835, 20.6841 ], [ -83.6736, 20.6752 ], [ -83.6429, 20.6495 ], [ -83.6323, 20.6414 ], [ -83.6, 20.6173 ], [ -83.5784, 20.6014 ], [ -83.5678, 20.5933 ], [ -83.5364, 20.5683 ], [ -83.5265, 20.5594 ], [ -83.5068, 20.5416 ], [ -83.4782, 20.5139 ], [ -83.4593, 20.4953 ], [ -83.45, 20.4858 ], [ -83.4312, 20.467 ], [ -83.4032, 20.4388 ], [ -83.3842, 20.4201 ], [ -83.3653, 20.4015 ], [ -83.3458, 20.3834 ], [ -83.326, 20.3657 ], [ -83.3053, 20.3489 ], [ -83.284, 20.3326 ], [ -83.2624, 20.3167 ], [ -83.2408, 20.3008 ], [ -83.2195, 20.2845 ], [ -83.1988, 20.2677 ], [ -83.1889, 20.2588 ], [ -83.1595, 20.2319 ], [ -83.1405, 20.2133 ], [ -83.1311, 20.204 ], [ -83.1027, 20.176 ], [ -83.0832, 20.158 ], [ -83.0733, 20.1491 ], [ -83.0427, 20.1234 ], [ -83.0214, 20.1072 ], [ -82.9998, 20.0912 ], [ -82.9782, 20.0753 ], [ -82.9569, 20.0591 ], [ -82.9362, 20.0422 ], [ -82.9263, 20.0333 ], [ -82.9066, 20.0155 ], [ -82.8872, 19.9973 ], [ -82.8679, 19.9791 ], [ -82.8383, 19.9523 ], [ -82.8176, 19.9355 ], [ -82.807, 19.9274 ], [ -82.7747, 19.9033 ], [ -82.7531, 19.8874 ], [ -82.7424, 19.8793 ], [ -82.7111, 19.8543 ], [ -82.701, 19.8456 ], [ -82.6809, 19.8282 ], [ -82.6608, 19.8107 ], [ -82.63, 19.7852 ], [ -82.6087, 19.7689 ], [ -82.5871, 19.753 ], [ -82.5655, 19.7371 ], [ -82.5439, 19.7211 ], [ -82.5226, 19.7049 ], [ -82.5016, 19.6884 ], [ -82.4909, 19.6803 ], [ -82.4587, 19.6562 ], [ -82.4368, 19.6406 ], [ -82.4146, 19.6252 ], [ -82.3921, 19.6102 ], [ -82.3695, 19.5952 ], [ -82.347, 19.5801 ], [ -82.3245, 19.5651 ], [ -82.302, 19.5501 ], [ -82.2795, 19.535 ], [ -82.2567, 19.5203 ], [ -82.2336, 19.5059 ], [ -82.1982, 19.485 ], [ -82.1739, 19.4718 ], [ -82.1493, 19.4588 ], [ -82.137, 19.4524 ], [ -82.0994, 19.4336 ], [ -82.0744, 19.4211 ], [ -82.0495, 19.4085 ], [ -82.0244, 19.396 ], [ -81.9993, 19.3835 ], [ -81.9744, 19.3709 ], [ -81.9492, 19.3586 ], [ -81.9237, 19.3466 ], [ -81.8981, 19.3347 ], [ -81.8718, 19.3234 ], [ -81.8448, 19.3129 ], [ -81.8175, 19.3027 ], [ -81.7899, 19.2927 ], [ -81.7618, 19.2833 ], [ -81.7336, 19.274 ], [ -81.7054, 19.2646 ], [ -81.6767, 19.2558 ], [ -81.6473, 19.2476 ], [ -81.6173, 19.2401 ], [ -81.5867, 19.2332 ], [ -81.5555, 19.2269 ], [ -81.5241, 19.2207 ], [ -81.4929, 19.2144 ], [ -81.4615, 19.2083 ], [ -81.4297, 19.2026 ], [ -81.3972, 19.1976 ], [ -81.3634, 19.1938 ], [ -81.3283, 19.1914 ], [ -81.2923, 19.1899 ], [ -81.256, 19.1887 ], [ -81.2202, 19.1872 ], [ -81.186, 19.1848 ], [ -81.1541, 19.1811 ], [ -81.1245, 19.1761 ], [ -81.097, 19.1705 ], [ -81.0705, 19.165 ], [ -81.0436, 19.16 ] ] ] } }
]
}
