{
"type": "FeatureCollection",
"name": "al092021-003A_5day_pts",
"features": [
{ "type": "Feature", "properties": { "ADVDATE": "200 AM EDT Fri Aug 27 2021", "ADVISNUM": "3A", "BASIN": "AL", "DATELBL": "2:00 AM Fri", "DVLBL": "S", "FCSTPRD": 120.0, "FLDATELBL": "2021-08-26 11:00 PM Thu EDT", "GUST": 45.0, "LAT": 19.4, "LON": -80.9, "MAXWIND": 35.0, "MSLP": 1006.0, "SSNUM": 0.0, "STORMNAME": "Tropical Storm Ida", "STORMNUM": 9.0, "STORMSRC": "Tropical Cyclone", "STORMTYPE": "TS", "TCDVLP": "Tropical Storm", "TAU": 0.0, "TCDIR": 320.0, "TCSPD": 10.0, "TIMEZONE": "EDT", "VALIDTIME": "27/0300" }, "geometry": { "type": "Point", "coordinates": [ -80.9, 19.4 ] } },
{ "type": "Feature", "properties": { "ADVDATE": "200 AM EDT Fri Aug 27 2021", "ADVISNUM": "3A", "BASIN": "AL", "DATELBL": "8:00 AM Fri", "DVLBL": "S", "FCSTPRD": 120.0, "FLDATELBL": "2021-08-27 8:00 AM Fri EDT", "GUST": 55.0, "LAT": 19.9, "LON": -82.0, "MAXWIND": 45.0, "MSLP": 9999.0, "SSNUM": 0.0, "STORMNAME": "Tropical Storm Ida", "STORMNUM": 9.0, "STORMSRC": "Tropical Cyclone", "STORMTYPE": "TS", "TCDVLP": "Tropical Storm", "TAU": 12.0, "TCDIR": 9999.0, "TCSPD": 9999.0, "TIMEZONE": "EDT", "VALIDTIME": "27/1200" }, "geometry": { "type": "Point", "coordinates": [ -82.0, 19.9 ] } },
{ "type": "Feature", "properties": { "ADVDATE": "200 AM EDT Fri Aug 27 2021", "ADVISNUM": "3A", "BASIN": "AL", "DATELBL": "8:00 PM Fri", "DVLBL": "S", "FCSTPRD": 120.0, "FLDATELBL": "2021-08-27 8:00 PM Fri EDT", "GUST": 65.0, "LAT": 21.8, "LON": -83.9, "MAXWIND": 55.0, "MSLP": 9999.0, "SSNUM": 0.0, "STORMNAME": "Tropical Storm Ida", "STORMNUM": 9.0, "STORMSRC": "Tropical Cyclone", "STORMTYPE": "TS", "TCDVLP": "Tropical Storm", "TAU": 24.0, "TCDIR": 9999.0, "TCSPD": 9999.0, "TIMEZONE": "EDT", "VALIDTIME": "28/0000" }, "geometry": { "type": "Point", "coordinates": [ -83.9, 21.8 ] } },
{ "type": "Feature", "properties": { "ADVDATE": "200 AM EDT Fri Aug 27 2021", "ADVISNUM": "3A", "BASIN": "AL", "DATELBL": "8:00 AM Sat", "DVLBL": "H", "FCSTPRD": 120.0, "FLDATELBL": "2021-08-28 8:00 AM Sat EDT", "GUST": 80.0, "LAT": 23.8, "LON": -85.9, "MAXWIND": 65.0, "MSLP": 9999.0, "SSNUM": 1.0, "STORMNAME": "Tropical Storm Ida", "STORMNUM": 9.0, "STORMSRC": "Tropical Cyclone", "STORMTYPE": "HU", "TCDVLP": "Hurricane", "TAU": 36.0, "TCDIR": 9999.0, "TCSPD": 9999.0, "TIMEZONE": "EDT", "VALIDTIME": "28/1200" }, "geometry": { "type": "Point", "coordinates": [ -85.9, 23.8 ] } },
{ "type": "Feature", "properties": { "ADVDATE": "200 AM EDT Fri Aug 27 2021", "ADVISNUM": "3A", "BASIN": "AL", "DATELBL": "8:00 PM Sat", "DVLBL": "H", "FCSTPRD": 120.0, "FLDATELBL": "2021-08-28 8:00 PM Sat EDT", "GUST": 90.0, "LAT": 25.6, "LON": -88.0, "MAXWIND": 75.0, "MSLP": 9999.0, "SSNUM": 1.0, "STORMNAME": "Tropical Storm Ida", "STORMNUM": 9.0, "STORMSRC": "Tropical Cyclone", "STORMTYPE": "HU", "TCDVLP": "Hurricane", "TAU": 48.0, "TCDIR": 9999.0, "TCSPD": 9999.0, "TIMEZONE": "EDT", "VALIDTIME": "29/0000" }, "geometry": { "type": "Point", "coordinates": [ -88.0, 25.6 ] } },
{ "type": "Feature", "properties": { "ADVDATE": "200 AM EDT Fri Aug 27 2021", "ADVISNUM": "3A", "BASIN": "AL", "DATELBL": "8:00 AM Sun", "DVLBL": "H", "FCSTPRD": 120.0, "FLDATELBL": "2021-08-29 8:00 AM Sun EDT", "GUST": 105.0, "LAT": 27.3, "LON": -89.6, "MAXWIND": 85.0, "MSLP": 9999.0, "SSNUM": 2.0, "STORMNAME": "Tropical Storm Ida", "STORMNUM": 9.0, "STORMSRC": "Tropical Cyclone", "STORMTYPE": "HU", "TCDVLP": "Hurricane", "TAU": 60.0, "TCDIR": 9999.0, "TCSPD": 9999.0, "TIMEZONE": "EDT", "VALIDTIME": "29/1200" }, "geometry": { "type": "Point", "coordinates": [ -89.6, 27.3 ] } },
{ "type": "Feature", "properties": { "ADVDATE": "200 AM EDT Fri Aug 27 2021", "ADVISNUM": "3A", "BASIN": "AL", "DATELBL": "8:00 PM Sun", "DVLBL": "H", "FCSTPRD": 120.0, "FLDATELBL": "2021-08-29 8:00 PM Sun EDT", "GUST": 115.0, "LAT": 29.0, "LON": -90.6, "MAXWIND": 95.0, "MSLP": 9999.0, "SSNUM": 2.0, "STORMNAME": "Tropical Storm Ida", "STORMNUM": 9.0, "STORMSRC": "Tropical Cyclone", "STORMTYPE": "HU", "TCDVLP": "Hurricane", "TAU": 72.0, "TCDIR": 9999.0, "TCSPD": 9999.0, "TIMEZONE": "EDT", "VALIDTIME": "30/0000" }, "geometry": { "type": "Point", "coordinates": [ -90.6, 29.0 ] } },
{ "type": "Feature", "properties": { "ADVDATE": "200 AM EDT Fri Aug 27 2021", "ADVISNUM": "3A", "BASIN": "AL", "DATELBL": "8:00 PM Mon", "DVLBL": "S", "FCSTPRD": 120.0, "FLDATELBL": "2021-08-30 8:00 PM Mon EDT", "GUST": 55.0, "LAT": 32.0, "LON": -91.0, "MAXWIND": 45.0, "MSLP": 9999.0, "SSNUM": 0.0, "STORMNAME": "Tropical Storm Ida", "STORMNUM": 9.0, "STORMSRC": "Tropical Cyclone", "STORMTYPE": "TS", "TCDVLP": "Tropical Storm", "TAU": 96.0, "TCDIR": 9999.0, "TCSPD": 9999.0, "TIMEZONE": "EDT", "VALIDTIME": "31/0000" }, "geometry": { "type": "Point", "coordinates": [ -91.0, 32.0 ] } },
{ "type": "Feature", "properties": { "ADVDATE": "200 AM EDT Fri Aug 27 2021", "ADVISNUM": "3A", "BASIN": "AL", "DATELBL": "8:00 PM Tue", "DVLBL": "D", "FCSTPRD": 120.0, "FLDATELBL": "2021-08-31 8:00 PM Tue EDT", "GUST": 35.0, "LAT": 33.9, "LON": -88.8, "MAXWIND": 25.0, "MSLP": 9999.0, "SSNUM": 0.0, "STORMNAME": "Tropical Storm Ida", "STORMNUM": 9.0, "STORMSRC": "Tropical Cyclone", "STORMTYPE": "TD", "TCDVLP": "Tropical Depression", "TAU": 120.0, "TCDIR": 9999.0, "TCSPD": 9999.0, "TIMEZONE": "EDT", "VALIDTIME": "01/0000" }, "geometry": { "type": "Point", "coordinates": [ -88.8, 33.9 ] } }
]
}
