{
"type": "FeatureCollection",
"name": "al092021-003_5day_pgn",
"features": [
{ "type": "Feature", "properties": { "STORMNAME": "Ida", "STORMTYPE": "TS", "ADVDATE": "1100 PM EDT Thu Aug 26 2021", "ADVISNUM": "3", "STORMNUM": 9.0, "FCSTPRD": 120.0, "BASIN": "AL" }, "geometry": { "type": "Polygon", "coordinates": [ [ [ -80.5187, 18.3329 ], [ -80.4941, 18.3325 ], [ -80.4685, 18.3356 ], [ -80.4417, 18.3414 ], [ -80.4144, 18.3496 ], [ -80.3873, 18.36 ], [ -80.3613, 18.3722 ], [ -80.3367, 18.3863 ], [ -80.3037, 18.4111 ], [ -80.2849, 18.4309 ], [ -80.261, 18.4649 ], [ -80.2477, 18.49 ], [ -80.2372, 18.5169 ], [ -80.2298, 18.5453 ], [ -80.2258, 18.5747 ], [ -80.2258, 18.6044 ], [ -80.2298, 18.6337 ], [ -80.2372, 18.6622 ], [ -80.2477, 18.6891 ], [ -80.2608, 18.7143 ], [ -80.2758, 18.7379 ], [ -80.2921, 18.7602 ], [ -80.3097, 18.7812 ], [ -80.3374, 18.8115 ], [ -80.3468, 18.8214 ], [ -80.3747, 18.8514 ], [ -80.3838, 18.8616 ], [ -80.4102, 18.8931 ], [ -80.4185, 18.9041 ], [ -80.435, 18.9262 ], [ -80.4514, 18.9485 ], [ -80.4679, 18.9706 ], [ -80.4849, 18.9922 ], [ -80.5026, 19.0131 ], [ -80.521, 19.0333 ], [ -80.5494, 19.0628 ], [ -80.5589, 19.0726 ], [ -80.588, 19.1015 ], [ -80.6071, 19.121 ], [ -80.6265, 19.1401 ], [ -80.6457, 19.1596 ], [ -80.6554, 19.1692 ], [ -80.6843, 19.1983 ], [ -80.7037, 19.2174 ], [ -80.7228, 19.2369 ], [ -80.7423, 19.2561 ], [ -80.7518, 19.2658 ], [ -80.7808, 19.2947 ], [ -80.8, 19.3142 ], [ -80.8097, 19.3238 ], [ -80.8386, 19.3528 ], [ -80.8483, 19.3624 ], [ -80.8771, 19.3915 ], [ -80.8869, 19.4011 ], [ -80.9157, 19.4301 ], [ -80.9254, 19.4397 ], [ -80.9543, 19.4688 ], [ -80.9737, 19.4879 ], [ -80.9929, 19.5074 ], [ -81.0123, 19.5266 ], [ -81.0315, 19.5461 ], [ -81.0509, 19.5652 ], [ -81.07, 19.5847 ], [ -81.0895, 19.6039 ], [ -81.099, 19.6136 ], [ -81.1281, 19.6425 ], [ -81.1376, 19.6522 ], [ -81.1666, 19.6812 ], [ -81.1858, 19.7006 ], [ -81.2052, 19.7198 ], [ -81.2244, 19.7393 ], [ -81.2438, 19.7584 ], [ -81.2629, 19.7779 ], [ -81.2824, 19.7971 ], [ -81.2919, 19.8068 ], [ -81.3206, 19.836 ], [ -81.3392, 19.8561 ], [ -81.3574, 19.8765 ], [ -81.366, 19.8872 ], [ -81.383, 19.9088 ], [ -81.3995, 19.9309 ], [ -81.4159, 19.9532 ], [ -81.4407, 19.9863 ], [ -81.4493, 19.9969 ], [ -81.4671, 20.0178 ], [ -81.4854, 20.0381 ], [ -81.5138, 20.0676 ], [ -81.533, 20.0871 ], [ -81.5427, 20.0967 ], [ -81.5716, 20.1257 ], [ -81.591, 20.1449 ], [ -81.6101, 20.1644 ], [ -81.6296, 20.1835 ], [ -81.6487, 20.203 ], [ -81.6679, 20.2225 ], [ -81.6864, 20.2426 ], [ -81.6955, 20.2528 ], [ -81.7132, 20.2736 ], [ -81.7385, 20.3063 ], [ -81.7467, 20.3174 ], [ -81.7712, 20.3508 ], [ -81.7796, 20.3618 ], [ -81.7965, 20.3834 ], [ -81.8143, 20.4043 ], [ -81.8419, 20.4346 ], [ -81.861, 20.454 ], [ -81.8802, 20.4735 ], [ -81.8993, 20.493 ], [ -81.9086, 20.503 ], [ -81.9269, 20.5233 ], [ -81.9447, 20.5441 ], [ -81.97, 20.5768 ], [ -81.9782, 20.5879 ], [ -81.9945, 20.6102 ], [ -82.011, 20.6323 ], [ -82.028, 20.6539 ], [ -82.0549, 20.685 ], [ -82.0734, 20.7051 ], [ -82.0922, 20.7249 ], [ -82.1107, 20.745 ], [ -82.1289, 20.7654 ], [ -82.1462, 20.7867 ], [ -82.1546, 20.7977 ], [ -82.1792, 20.8309 ], [ -82.1956, 20.8532 ], [ -82.2123, 20.8751 ], [ -82.2296, 20.8964 ], [ -82.2478, 20.9168 ], [ -82.2663, 20.9369 ], [ -82.2854, 20.9564 ], [ -82.3045, 20.9759 ], [ -82.3237, 20.9954 ], [ -82.3422, 21.0155 ], [ -82.3513, 21.0257 ], [ -82.3777, 21.0572 ], [ -82.3944, 21.0791 ], [ -82.4025, 21.0903 ], [ -82.4271, 21.1237 ], [ -82.4437, 21.1456 ], [ -82.461, 21.1669 ], [ -82.4792, 21.1873 ], [ -82.4885, 21.1974 ], [ -82.5166, 21.2272 ], [ -82.5351, 21.2473 ], [ -82.5533, 21.2677 ], [ -82.5706, 21.2891 ], [ -82.5872, 21.311 ], [ -82.5954, 21.3221 ], [ -82.62, 21.3555 ], [ -82.6366, 21.3775 ], [ -82.6539, 21.3988 ], [ -82.6721, 21.4192 ], [ -82.6814, 21.4293 ], [ -82.7095, 21.4591 ], [ -82.728, 21.4792 ], [ -82.7462, 21.4996 ], [ -82.7635, 21.5209 ], [ -82.7801, 21.5429 ], [ -82.7883, 21.554 ], [ -82.8129, 21.5874 ], [ -82.8295, 21.6093 ], [ -82.8468, 21.6307 ], [ -82.865, 21.6511 ], [ -82.8835, 21.6712 ], [ -82.9023, 21.691 ], [ -82.9209, 21.7111 ], [ -82.9391, 21.7315 ], [ -82.9564, 21.7528 ], [ -82.973, 21.7747 ], [ -82.9894, 21.797 ], [ -83.0057, 21.8193 ], [ -83.0224, 21.8412 ], [ -83.0397, 21.8625 ], [ -83.0579, 21.8829 ], [ -83.0764, 21.903 ], [ -83.0952, 21.9228 ], [ -83.1138, 21.9429 ], [ -83.132, 21.9633 ], [ -83.1493, 21.9846 ], [ -83.1659, 22.0066 ], [ -83.1823, 22.0289 ], [ -83.1986, 22.0511 ], [ -83.2153, 22.0731 ], [ -83.2239, 22.0837 ], [ -83.2508, 22.1148 ], [ -83.2693, 22.1349 ], [ -83.2881, 22.1547 ], [ -83.3067, 22.1748 ], [ -83.3249, 22.1952 ], [ -83.3335, 22.2059 ], [ -83.3588, 22.2385 ], [ -83.367, 22.2496 ], [ -83.3915, 22.283 ], [ -83.4082, 22.3049 ], [ -83.4255, 22.3263 ], [ -83.4437, 22.3467 ], [ -83.4622, 22.3668 ], [ -83.481, 22.3866 ], [ -83.4995, 22.4067 ], [ -83.5178, 22.4271 ], [ -83.535, 22.4484 ], [ -83.5517, 22.4703 ], [ -83.5681, 22.4926 ], [ -83.5844, 22.5149 ], [ -83.6011, 22.5368 ], [ -83.6184, 22.5581 ], [ -83.6273, 22.5685 ], [ -83.6542, 22.5996 ], [ -83.6721, 22.6203 ], [ -83.6894, 22.6416 ], [ -83.6977, 22.6526 ], [ -83.7224, 22.6858 ], [ -83.7387, 22.7081 ], [ -83.7471, 22.7191 ], [ -83.7727, 22.7514 ], [ -83.7906, 22.7721 ], [ -83.8085, 22.7928 ], [ -83.8264, 22.8135 ], [ -83.835, 22.8242 ], [ -83.8603, 22.8568 ], [ -83.8767, 22.879 ], [ -83.8849, 22.8902 ], [ -83.9014, 22.9123 ], [ -83.927, 22.9446 ], [ -83.9449, 22.9653 ], [ -83.9628, 22.986 ], [ -83.9717, 22.9964 ], [ -83.998, 23.0281 ], [ -84.0146, 23.05 ], [ -84.031, 23.0723 ], [ -84.0392, 23.0834 ], [ -84.064, 23.1165 ], [ -84.0813, 23.1378 ], [ -84.0903, 23.1482 ], [ -84.1171, 23.1792 ], [ -84.135, 23.1999 ], [ -84.1523, 23.2213 ], [ -84.169, 23.2432 ], [ -84.1853, 23.2655 ], [ -84.2017, 23.2877 ], [ -84.2183, 23.3097 ], [ -84.2356, 23.331 ], [ -84.2538, 23.3514 ], [ -84.2723, 23.3715 ], [ -84.2817, 23.3814 ], [ -84.3097, 23.4114 ], [ -84.3188, 23.4216 ], [ -84.3365, 23.4425 ], [ -84.3618, 23.4751 ], [ -84.3782, 23.4973 ], [ -84.3946, 23.5196 ], [ -84.4112, 23.5416 ], [ -84.4285, 23.5629 ], [ -84.4467, 23.5833 ], [ -84.4652, 23.6034 ], [ -84.4746, 23.6133 ], [ -84.5026, 23.6433 ], [ -84.5208, 23.6637 ], [ -84.5381, 23.685 ], [ -84.5464, 23.696 ], [ -84.5629, 23.7181 ], [ -84.5875, 23.7515 ], [ -84.5958, 23.7624 ], [ -84.6214, 23.7948 ], [ -84.6396, 23.8152 ], [ -84.6581, 23.8352 ], [ -84.6769, 23.855 ], [ -84.6955, 23.8751 ], [ -84.7046, 23.8853 ], [ -84.731, 23.9169 ], [ -84.7476, 23.9388 ], [ -84.764, 23.9611 ], [ -84.7803, 23.9833 ], [ -84.797, 24.0053 ], [ -84.8143, 24.0266 ], [ -84.8325, 24.047 ], [ -84.851, 24.0671 ], [ -84.8701, 24.0866 ], [ -84.8797, 24.0963 ], [ -84.9084, 24.1255 ], [ -84.9269, 24.1456 ], [ -84.936, 24.1558 ], [ -84.9624, 24.1874 ], [ -84.9791, 24.2093 ], [ -84.9955, 24.2316 ], [ -85.0118, 24.2538 ], [ -85.0285, 24.2758 ], [ -85.0458, 24.2971 ], [ -85.064, 24.3175 ], [ -85.0825, 24.3376 ], [ -85.1016, 24.3571 ], [ -85.1207, 24.3766 ], [ -85.1402, 24.3957 ], [ -85.1593, 24.4152 ], [ -85.1788, 24.4344 ], [ -85.1979, 24.4539 ], [ -85.2174, 24.473 ], [ -85.2365, 24.4925 ], [ -85.2462, 24.5021 ], [ -85.2655, 24.5214 ], [ -85.2942, 24.5506 ], [ -85.3035, 24.5607 ], [ -85.3309, 24.5911 ], [ -85.3482, 24.6125 ], [ -85.3565, 24.6234 ], [ -85.3812, 24.6567 ], [ -85.3976, 24.6789 ], [ -85.4143, 24.7009 ], [ -85.4315, 24.7222 ], [ -85.4497, 24.7426 ], [ -85.4683, 24.7627 ], [ -85.4778, 24.7725 ], [ -85.5065, 24.8017 ], [ -85.526, 24.8208 ], [ -85.5451, 24.8403 ], [ -85.5646, 24.8595 ], [ -85.5837, 24.879 ], [ -85.6031, 24.8981 ], [ -85.6223, 24.9176 ], [ -85.6417, 24.9368 ], [ -85.6513, 24.9465 ], [ -85.6706, 24.9658 ], [ -85.6994, 24.9949 ], [ -85.7189, 25.0141 ], [ -85.738, 25.0335 ], [ -85.7477, 25.0431 ], [ -85.767, 25.0624 ], [ -85.796, 25.0913 ], [ -85.8152, 25.1108 ], [ -85.8346, 25.13 ], [ -85.8537, 25.1495 ], [ -85.8635, 25.159 ], [ -85.8923, 25.1881 ], [ -85.9118, 25.2073 ], [ -85.9213, 25.217 ], [ -85.9503, 25.2459 ], [ -85.9599, 25.2557 ], [ -85.9889, 25.2846 ], [ -86.008, 25.304 ], [ -86.0275, 25.3232 ], [ -86.0466, 25.3427 ], [ -86.0563, 25.3523 ], [ -86.0852, 25.3813 ], [ -86.1046, 25.4005 ], [ -86.1142, 25.4102 ], [ -86.1432, 25.4391 ], [ -86.1624, 25.4586 ], [ -86.1818, 25.4778 ], [ -86.2013, 25.4969 ], [ -86.2213, 25.5155 ], [ -86.2414, 25.534 ], [ -86.2517, 25.543 ], [ -86.2827, 25.5699 ], [ -86.3031, 25.5882 ], [ -86.3225, 25.6073 ], [ -86.3417, 25.6268 ], [ -86.3599, 25.6472 ], [ -86.3688, 25.6576 ], [ -86.3957, 25.6886 ], [ -86.4049, 25.6987 ], [ -86.4235, 25.7188 ], [ -86.4423, 25.7386 ], [ -86.471, 25.7678 ], [ -86.4904, 25.7869 ], [ -86.5096, 25.8064 ], [ -86.529, 25.8256 ], [ -86.5386, 25.8353 ], [ -86.5676, 25.8642 ], [ -86.5867, 25.8837 ], [ -86.6062, 25.9029 ], [ -86.6253, 25.9223 ], [ -86.6447, 25.9415 ], [ -86.6639, 25.961 ], [ -86.6833, 25.9801 ], [ -86.7025, 25.9996 ], [ -86.7219, 26.0188 ], [ -86.741, 26.0383 ], [ -86.7605, 26.0574 ], [ -86.7701, 26.0672 ], [ -86.7991, 26.0961 ], [ -86.8182, 26.1156 ], [ -86.8279, 26.1251 ], [ -86.8568, 26.1542 ], [ -86.8762, 26.1734 ], [ -86.8953, 26.1929 ], [ -86.9145, 26.2123 ], [ -86.933, 26.2324 ], [ -86.9421, 26.2426 ], [ -86.9599, 26.2635 ], [ -86.9768, 26.2851 ], [ -86.9933, 26.3072 ], [ -87.0097, 26.3295 ], [ -87.0262, 26.3516 ], [ -87.0432, 26.3732 ], [ -87.0609, 26.3941 ], [ -87.0793, 26.4144 ], [ -87.1074, 26.4442 ], [ -87.1166, 26.4542 ], [ -87.135, 26.4745 ], [ -87.1614, 26.506 ], [ -87.1697, 26.517 ], [ -87.1862, 26.5391 ], [ -87.2026, 26.5614 ], [ -87.2189, 26.5836 ], [ -87.2354, 26.6057 ], [ -87.2608, 26.6383 ], [ -87.2691, 26.6493 ], [ -87.2856, 26.6714 ], [ -87.302, 26.6937 ], [ -87.3183, 26.7159 ], [ -87.3432, 26.749 ], [ -87.3518, 26.7597 ], [ -87.3694, 26.7807 ], [ -87.3873, 26.8014 ], [ -87.4142, 26.8325 ], [ -87.4228, 26.8432 ], [ -87.4398, 26.8648 ], [ -87.4563, 26.8869 ], [ -87.4726, 26.9092 ], [ -87.489, 26.9314 ], [ -87.5138, 26.9645 ], [ -87.5308, 26.9861 ], [ -87.5391, 26.9971 ], [ -87.5557, 27.0192 ], [ -87.572, 27.0415 ], [ -87.5884, 27.0637 ], [ -87.6129, 27.0971 ], [ -87.6212, 27.1081 ], [ -87.6381, 27.1299 ], [ -87.6549, 27.1517 ], [ -87.6714, 27.1738 ], [ -87.6956, 27.2075 ], [ -87.7035, 27.2189 ], [ -87.7191, 27.242 ], [ -87.7345, 27.2652 ], [ -87.7499, 27.2883 ], [ -87.7654, 27.3115 ], [ -87.7808, 27.3347 ], [ -87.7962, 27.3579 ], [ -87.8117, 27.3811 ], [ -87.8348, 27.4159 ], [ -87.8425, 27.4275 ], [ -87.858, 27.4506 ], [ -87.8734, 27.4738 ], [ -87.8888, 27.497 ], [ -87.9043, 27.5202 ], [ -87.9197, 27.5434 ], [ -87.9351, 27.5666 ], [ -87.9506, 27.5898 ], [ -87.9658, 27.6131 ], [ -87.9808, 27.6368 ], [ -87.9955, 27.6607 ], [ -88.0098, 27.685 ], [ -88.0238, 27.7096 ], [ -88.0379, 27.7341 ], [ -88.0522, 27.7584 ], [ -88.0669, 27.7824 ], [ -88.0817, 27.8062 ], [ -88.0965, 27.83 ], [ -88.1112, 27.8539 ], [ -88.1254, 27.8784 ], [ -88.139, 27.9034 ], [ -88.1522, 27.9288 ], [ -88.1653, 27.9543 ], [ -88.1782, 27.9801 ], [ -88.191, 28.0059 ], [ -88.2041, 28.0314 ], [ -88.2174, 28.0567 ], [ -88.2309, 28.0818 ], [ -88.2451, 28.1062 ], [ -88.2598, 28.1302 ], [ -88.2746, 28.154 ], [ -88.2894, 28.1778 ], [ -88.3041, 28.2017 ], [ -88.3183, 28.2262 ], [ -88.3319, 28.2512 ], [ -88.3451, 28.2766 ], [ -88.3582, 28.3021 ], [ -88.3711, 28.3279 ], [ -88.3839, 28.3537 ], [ -88.3968, 28.3793 ], [ -88.4096, 28.4052 ], [ -88.4224, 28.431 ], [ -88.4354, 28.4566 ], [ -88.4482, 28.4824 ], [ -88.461, 28.5083 ], [ -88.474, 28.5339 ], [ -88.4866, 28.5599 ], [ -88.499, 28.5862 ], [ -88.5112, 28.6126 ], [ -88.5227, 28.6396 ], [ -88.5335, 28.6675 ], [ -88.544, 28.6956 ], [ -88.5542, 28.7241 ], [ -88.5639, 28.753 ], [ -88.5735, 28.782 ], [ -88.5831, 28.8111 ], [ -88.5923, 28.8404 ], [ -88.6011, 28.8703 ], [ -88.6096, 28.9004 ], [ -88.6178, 28.9309 ], [ -88.6257, 28.9616 ], [ -88.6332, 28.9927 ], [ -88.6403, 29.0242 ], [ -88.6466, 29.0565 ], [ -88.6517, 29.0898 ], [ -88.655, 29.1239 ], [ -88.656, 29.1587 ], [ -88.655, 29.1935 ], [ -88.6517, 29.2277 ], [ -88.6468, 29.2611 ], [ -88.6411, 29.294 ], [ -88.6354, 29.3269 ], [ -88.6303, 29.3604 ], [ -88.6264, 29.3952 ], [ -88.6239, 29.4314 ], [ -88.6226, 29.4686 ], [ -88.622, 29.5067 ], [ -88.6218, 29.5452 ], [ -88.6218, 29.5838 ], [ -88.6218, 29.6225 ], [ -88.6218, 29.6611 ], [ -88.6218, 29.6997 ], [ -88.6218, 29.7384 ], [ -88.6218, 29.777 ], [ -88.6218, 29.8157 ], [ -88.6218, 29.8543 ], [ -88.6218, 29.893 ], [ -88.6218, 29.9316 ], [ -88.6218, 29.9703 ], [ -88.6218, 30.0089 ], [ -88.6216, 30.0474 ], [ -88.621, 30.0854 ], [ -88.6196, 30.1227 ], [ -88.6172, 30.1588 ], [ -88.6133, 30.1936 ], [ -88.6081, 30.227 ], [ -88.6016, 30.2592 ], [ -88.5937, 30.2899 ], [ -88.5841, 30.319 ], [ -88.5724, 30.3459 ], [ -88.5659, 30.3587 ], [ -88.5496, 30.381 ], [ -88.5295, 30.3995 ], [ -88.5064, 30.415 ], [ -88.4805, 30.4276 ], [ -88.4666, 30.4331 ], [ -88.4383, 30.4434 ], [ -88.4095, 30.4531 ], [ -88.3801, 30.4624 ], [ -88.3504, 30.4712 ], [ -88.3203, 30.4797 ], [ -88.2899, 30.4879 ], [ -88.2593, 30.496 ], [ -88.2289, 30.5042 ], [ -88.1988, 30.5127 ], [ -88.169, 30.5215 ], [ -88.1397, 30.5307 ], [ -88.1107, 30.5403 ], [ -88.0817, 30.5499 ], [ -88.0527, 30.5595 ], [ -88.0238, 30.5692 ], [ -87.995, 30.579 ], [ -87.966, 30.5886 ], [ -87.937, 30.5981 ], [ -87.9081, 30.6079 ], [ -87.8793, 30.6176 ], [ -87.8502, 30.6272 ], [ -87.8212, 30.6368 ], [ -87.7924, 30.6465 ], [ -87.7635, 30.6563 ], [ -87.7345, 30.6658 ], [ -87.7055, 30.6754 ], [ -87.6766, 30.6852 ], [ -87.6478, 30.6949 ], [ -87.6188, 30.7045 ], [ -87.5898, 30.7141 ], [ -87.5609, 30.7238 ], [ -87.532, 30.7336 ], [ -87.503, 30.7431 ], [ -87.4742, 30.7529 ], [ -87.4458, 30.7631 ], [ -87.4177, 30.7736 ], [ -87.3759, 30.7897 ], [ -87.3623, 30.7954 ], [ -87.3216, 30.8125 ], [ -87.3077, 30.8179 ], [ -87.2799, 30.8288 ], [ -87.2523, 30.8397 ], [ -87.2247, 30.8507 ], [ -87.1969, 30.8615 ], [ -87.1694, 30.8727 ], [ -87.1423, 30.8841 ], [ -87.1148, 30.8952 ], [ -87.087, 30.9061 ], [ -87.0594, 30.917 ], [ -87.0318, 30.928 ], [ -87.0041, 30.939 ], [ -86.9771, 30.9506 ], [ -86.9507, 30.9628 ], [ -86.9114, 30.9813 ], [ -86.8986, 30.9878 ], [ -86.873, 31.0008 ], [ -86.8472, 31.0136 ], [ -86.8086, 31.033 ], [ -86.7958, 31.0395 ], [ -86.7571, 31.0586 ], [ -86.7443, 31.0651 ], [ -86.7059, 31.0846 ], [ -86.6929, 31.0909 ], [ -86.6671, 31.1038 ], [ -86.6417, 31.1169 ], [ -86.6164, 31.1302 ], [ -86.5913, 31.1438 ], [ -86.567, 31.158 ], [ -86.5312, 31.1801 ], [ -86.5074, 31.195 ], [ -86.4836, 31.2098 ], [ -86.4596, 31.2243 ], [ -86.4474, 31.2314 ], [ -86.4105, 31.2525 ], [ -86.3983, 31.2596 ], [ -86.3621, 31.2812 ], [ -86.3383, 31.2961 ], [ -86.3148, 31.3112 ], [ -86.3032, 31.3189 ], [ -86.2688, 31.3424 ], [ -86.2463, 31.3585 ], [ -86.2241, 31.3749 ], [ -86.2022, 31.3916 ], [ -86.1806, 31.4086 ], [ -86.1587, 31.4253 ], [ -86.1364, 31.4417 ], [ -86.1142, 31.4581 ], [ -86.092, 31.4744 ], [ -86.0701, 31.4911 ], [ -86.0488, 31.5084 ], [ -86.0284, 31.5267 ], [ -86.0083, 31.5452 ], [ -85.9886, 31.5641 ], [ -85.9685, 31.5826 ], [ -85.9482, 31.6009 ], [ -85.9269, 31.6182 ], [ -85.905, 31.6349 ], [ -85.8828, 31.6513 ], [ -85.8605, 31.6677 ], [ -85.8386, 31.6844 ], [ -85.8173, 31.7017 ], [ -85.797, 31.7199 ], [ -85.7769, 31.7385 ], [ -85.7575, 31.7576 ], [ -85.738, 31.7768 ], [ -85.7189, 31.7963 ], [ -85.6997, 31.8157 ], [ -85.6812, 31.8358 ], [ -85.663, 31.8562 ], [ -85.6457, 31.8776 ], [ -85.6291, 31.8995 ], [ -85.6045, 31.9329 ], [ -85.5963, 31.944 ], [ -85.571, 31.9767 ], [ -85.5533, 31.9975 ], [ -85.5442, 32.0077 ], [ -85.5257, 32.0278 ], [ -85.5068, 32.0476 ], [ -85.4883, 32.0677 ], [ -85.4615, 32.0988 ], [ -85.4528, 32.1094 ], [ -85.4362, 32.1314 ], [ -85.4201, 32.154 ], [ -85.3966, 32.1884 ], [ -85.3812, 32.2116 ], [ -85.3658, 32.2348 ], [ -85.3504, 32.258 ], [ -85.3427, 32.2696 ], [ -85.3195, 32.3044 ], [ -85.3118, 32.316 ], [ -85.2886, 32.3507 ], [ -85.2732, 32.3739 ], [ -85.2655, 32.3855 ], [ -85.2501, 32.4087 ], [ -85.2271, 32.4436 ], [ -85.2195, 32.4554 ], [ -85.1974, 32.4912 ], [ -85.1902, 32.5033 ], [ -85.1697, 32.5407 ], [ -85.163, 32.5534 ], [ -85.1433, 32.5916 ], [ -85.1368, 32.6044 ], [ -85.1241, 32.6304 ], [ -85.1047, 32.6689 ], [ -85.0919, 32.6947 ], [ -85.0791, 32.7205 ], [ -85.0661, 32.7461 ], [ -85.0535, 32.7721 ], [ -85.0411, 32.7984 ], [ -85.035, 32.8115 ], [ -85.0174, 32.8519 ], [ -85.0066, 32.8797 ], [ -84.9961, 32.9078 ], [ -84.9859, 32.9363 ], [ -84.9762, 32.9652 ], [ -84.9666, 32.9942 ], [ -84.9569, 33.0231 ], [ -84.9471, 33.052 ], [ -84.9376, 33.0811 ], [ -84.928, 33.1102 ], [ -84.9184, 33.1392 ], [ -84.9092, 33.1686 ], [ -84.9004, 33.1984 ], [ -84.8919, 33.2286 ], [ -84.8837, 33.259 ], [ -84.8759, 33.2898 ], [ -84.8683, 33.3209 ], [ -84.861, 33.3522 ], [ -84.8541, 33.3839 ], [ -84.8475, 33.4159 ], [ -84.8411, 33.4482 ], [ -84.8348, 33.4805 ], [ -84.8283, 33.5127 ], [ -84.822, 33.545 ], [ -84.8161, 33.5778 ], [ -84.811, 33.6113 ], [ -84.8072, 33.6461 ], [ -84.8047, 33.6823 ], [ -84.8033, 33.7195 ], [ -84.8027, 33.7575 ], [ -84.8026, 33.796 ], [ -84.8026, 33.8347 ], [ -84.8026, 33.8733 ], [ -84.8026, 33.912 ], [ -84.8026, 33.9506 ], [ -84.8026, 33.9892 ], [ -84.8026, 34.0279 ], [ -84.8026, 34.0665 ], [ -84.8026, 34.1052 ], [ -84.8026, 34.1438 ], [ -84.8027, 34.1823 ], [ -84.8033, 34.2203 ], [ -84.8047, 34.2576 ], [ -84.8072, 34.2938 ], [ -84.811, 34.3285 ], [ -84.8161, 34.3621 ], [ -84.822, 34.3949 ], [ -84.8283, 34.4272 ], [ -84.8348, 34.4593 ], [ -84.8411, 34.4916 ], [ -84.8475, 34.5239 ], [ -84.8541, 34.5559 ], [ -84.861, 34.5876 ], [ -84.8683, 34.619 ], [ -84.8759, 34.6501 ], [ -84.8837, 34.6808 ], [ -84.8919, 34.7113 ], [ -84.9004, 34.7414 ], [ -84.9092, 34.7712 ], [ -84.9184, 34.8006 ], [ -84.928, 34.8297 ], [ -84.9376, 34.8587 ], [ -84.9473, 34.8876 ], [ -84.9575, 34.9161 ], [ -84.968, 34.9442 ], [ -84.9788, 34.9721 ], [ -84.9904, 34.9991 ], [ -85.0026, 35.0255 ], [ -85.0149, 35.0518 ], [ -85.0275, 35.0778 ], [ -85.0405, 35.1034 ], [ -85.0533, 35.1293 ], [ -85.0661, 35.1551 ], [ -85.0791, 35.1807 ], [ -85.0919, 35.2065 ], [ -85.1047, 35.2323 ], [ -85.1177, 35.258 ], [ -85.1305, 35.2838 ], [ -85.1433, 35.3096 ], [ -85.1564, 35.3351 ], [ -85.1697, 35.3605 ], [ -85.1832, 35.3855 ], [ -85.1975, 35.41 ], [ -85.2121, 35.4339 ], [ -85.2271, 35.4576 ], [ -85.2424, 35.4809 ], [ -85.2578, 35.5041 ], [ -85.2732, 35.5273 ], [ -85.2886, 35.5505 ], [ -85.3041, 35.5737 ], [ -85.3195, 35.5968 ], [ -85.3351, 35.6199 ], [ -85.351, 35.6426 ], [ -85.3672, 35.665 ], [ -85.3837, 35.6871 ], [ -85.4005, 35.7089 ], [ -85.4173, 35.7307 ], [ -85.4339, 35.7528 ], [ -85.4502, 35.7751 ], [ -85.4666, 35.7973 ], [ -85.4831, 35.8194 ], [ -85.5001, 35.8411 ], [ -85.5178, 35.8619 ], [ -85.5362, 35.8822 ], [ -85.555, 35.902 ], [ -85.5837, 35.9312 ], [ -85.5934, 35.9408 ], [ -85.6127, 35.9601 ], [ -85.6417, 35.989 ], [ -85.6608, 36.0085 ], [ -85.6803, 36.0277 ], [ -85.6899, 36.0374 ], [ -85.7091, 36.0567 ], [ -85.7284, 36.076 ], [ -85.7575, 36.1049 ], [ -85.767, 36.1147 ], [ -85.7863, 36.134 ], [ -85.8058, 36.1532 ], [ -85.8255, 36.172 ], [ -85.8559, 36.1995 ], [ -85.8666, 36.2082 ], [ -85.8991, 36.2335 ], [ -85.9102, 36.2417 ], [ -85.9435, 36.2663 ], [ -85.9545, 36.2747 ], [ -85.9868, 36.3003 ], [ -85.9971, 36.3093 ], [ -86.0281, 36.3362 ], [ -86.0488, 36.3541 ], [ -86.0701, 36.3714 ], [ -86.092, 36.3881 ], [ -86.1033, 36.3962 ], [ -86.126, 36.4121 ], [ -86.1605, 36.4354 ], [ -86.1837, 36.4509 ], [ -86.1952, 36.4586 ], [ -86.23, 36.4818 ], [ -86.2531, 36.4973 ], [ -86.2763, 36.5127 ], [ -86.288, 36.5203 ], [ -86.3235, 36.5427 ], [ -86.3355, 36.55 ], [ -86.3719, 36.5715 ], [ -86.3843, 36.5784 ], [ -86.421, 36.5996 ], [ -86.4451, 36.6141 ], [ -86.4569, 36.6215 ], [ -86.4926, 36.6438 ], [ -86.5164, 36.6586 ], [ -86.5404, 36.6732 ], [ -86.5651, 36.6871 ], [ -86.5904, 36.7004 ], [ -86.6285, 36.7201 ], [ -86.6543, 36.733 ], [ -86.6673, 36.7393 ], [ -86.6929, 36.7523 ], [ -86.7185, 36.7653 ], [ -86.7447, 36.7777 ], [ -86.7842, 36.7961 ], [ -86.8113, 36.8076 ], [ -86.825, 36.8132 ], [ -86.8665, 36.8296 ], [ -86.8802, 36.8352 ], [ -86.908, 36.846 ], [ -86.9494, 36.8625 ], [ -86.9765, 36.874 ], [ -86.9901, 36.8797 ], [ -87.0318, 36.8959 ], [ -87.0456, 36.9013 ], [ -87.0731, 36.9125 ], [ -87.1148, 36.9287 ], [ -87.1287, 36.9341 ], [ -87.1694, 36.9512 ], [ -87.183, 36.957 ], [ -87.2108, 36.9678 ], [ -87.2389, 36.9783 ], [ -87.2819, 36.9931 ], [ -87.3115, 37.0021 ], [ -87.3416, 37.0106 ], [ -87.372, 37.0188 ], [ -87.3873, 37.0228 ], [ -87.4336, 37.0344 ], [ -87.4645, 37.0421 ], [ -87.4953, 37.0499 ], [ -87.5107, 37.0537 ], [ -87.557, 37.0653 ], [ -87.5879, 37.0731 ], [ -87.6033, 37.0769 ], [ -87.6342, 37.0846 ], [ -87.6805, 37.0962 ], [ -87.7114, 37.104 ], [ -87.7424, 37.1115 ], [ -87.7737, 37.1188 ], [ -87.8053, 37.1258 ], [ -87.8212, 37.1292 ], [ -87.8695, 37.1387 ], [ -87.9018, 37.1451 ], [ -87.9339, 37.1516 ], [ -87.9661, 37.1579 ], [ -87.9988, 37.1638 ], [ -88.0322, 37.169 ], [ -88.0663, 37.1735 ], [ -88.101, 37.1774 ], [ -88.1357, 37.1813 ], [ -88.1698, 37.1857 ], [ -88.2032, 37.191 ], [ -88.236, 37.1967 ], [ -88.2524, 37.1997 ], [ -88.3024, 37.2075 ], [ -88.3371, 37.2114 ], [ -88.3732, 37.2139 ], [ -88.4104, 37.2153 ], [ -88.4484, 37.2159 ], [ -88.4868, 37.216 ], [ -88.5254, 37.216 ], [ -88.5639, 37.216 ], [ -88.6025, 37.216 ], [ -88.6411, 37.216 ], [ -88.6797, 37.216 ], [ -88.7183, 37.216 ], [ -88.7568, 37.216 ], [ -88.7954, 37.216 ], [ -88.834, 37.216 ], [ -88.8726, 37.216 ], [ -88.9111, 37.216 ], [ -88.9497, 37.216 ], [ -88.9883, 37.216 ], [ -89.0269, 37.216 ], [ -89.0655, 37.216 ], [ -89.104, 37.216 ], [ -89.1425, 37.2159 ], [ -89.1804, 37.2153 ], [ -89.2176, 37.2139 ], [ -89.2537, 37.2114 ], [ -89.2884, 37.2075 ], [ -89.3219, 37.2024 ], [ -89.3548, 37.1967 ], [ -89.3877, 37.191 ], [ -89.421, 37.1857 ], [ -89.4551, 37.1813 ], [ -89.4898, 37.1774 ], [ -89.5245, 37.1735 ], [ -89.5586, 37.169 ], [ -89.592, 37.1638 ], [ -89.6247, 37.1579 ], [ -89.6569, 37.1516 ], [ -89.689, 37.1451 ], [ -89.7213, 37.1387 ], [ -89.7535, 37.1324 ], [ -89.7856, 37.1259 ], [ -89.8177, 37.1194 ], [ -89.8498, 37.1129 ], [ -89.8819, 37.1064 ], [ -89.9142, 37.1001 ], [ -89.9463, 37.0936 ], [ -89.9778, 37.0865 ], [ -90.0086, 37.0788 ], [ -90.0389, 37.0704 ], [ -90.0685, 37.0615 ], [ -90.098, 37.0523 ], [ -90.1278, 37.0435 ], [ -90.1578, 37.035 ], [ -90.1882, 37.0268 ], [ -90.2188, 37.0188 ], [ -90.2492, 37.0106 ], [ -90.2793, 37.0021 ], [ -90.3091, 36.9933 ], [ -90.3384, 36.984 ], [ -90.3674, 36.9744 ], [ -90.3964, 36.9649 ], [ -90.4253, 36.9551 ], [ -90.4537, 36.9449 ], [ -90.4817, 36.9344 ], [ -90.5097, 36.9237 ], [ -90.5371, 36.9126 ], [ -90.5643, 36.9012 ], [ -90.5918, 36.89 ], [ -90.6195, 36.8792 ], [ -90.6472, 36.8682 ], [ -90.6748, 36.8573 ], [ -90.7024, 36.8463 ], [ -90.7294, 36.8347 ], [ -90.7558, 36.8225 ], [ -90.7952, 36.8039 ], [ -90.808, 36.7974 ], [ -90.8336, 36.7845 ], [ -90.8723, 36.7653 ], [ -90.8851, 36.7588 ], [ -90.9235, 36.7393 ], [ -90.9365, 36.733 ], [ -90.9623, 36.7201 ], [ -91.0007, 36.7007 ], [ -91.0137, 36.6943 ], [ -91.0394, 36.6815 ], [ -91.0649, 36.6684 ], [ -91.0902, 36.6551 ], [ -91.1275, 36.6345 ], [ -91.1516, 36.62 ], [ -91.1754, 36.6052 ], [ -91.1988, 36.59 ], [ -91.2335, 36.5668 ], [ -91.2451, 36.5591 ], [ -91.2799, 36.5359 ], [ -91.2914, 36.5282 ], [ -91.3146, 36.5127 ], [ -91.3377, 36.4973 ], [ -91.3609, 36.4818 ], [ -91.384, 36.4663 ], [ -91.4072, 36.4509 ], [ -91.4303, 36.4354 ], [ -91.4535, 36.42 ], [ -91.4763, 36.4042 ], [ -91.4988, 36.3881 ], [ -91.521, 36.3717 ], [ -91.543, 36.355 ], [ -91.5646, 36.338 ], [ -91.5865, 36.3213 ], [ -91.6198, 36.2968 ], [ -91.6309, 36.2886 ], [ -91.6531, 36.2722 ], [ -91.675, 36.2555 ], [ -91.6963, 36.2382 ], [ -91.7167, 36.2199 ], [ -91.7465, 36.1918 ], [ -91.7562, 36.1822 ], [ -91.7757, 36.1631 ], [ -91.7948, 36.1436 ], [ -91.8142, 36.1244 ], [ -91.8334, 36.1049 ], [ -91.8528, 36.0858 ], [ -91.8719, 36.0663 ], [ -91.8914, 36.0471 ], [ -91.9105, 36.0277 ], [ -91.93, 36.0085 ], [ -91.9491, 35.989 ], [ -91.9781, 35.9601 ], [ -91.9877, 35.9504 ], [ -92.0071, 35.9312 ], [ -92.0263, 35.9117 ], [ -92.0457, 35.8925 ], [ -92.0648, 35.8731 ], [ -92.0932, 35.8435 ], [ -92.1116, 35.8233 ], [ -92.1293, 35.8024 ], [ -92.1463, 35.7808 ], [ -92.1628, 35.7587 ], [ -92.171, 35.7475 ], [ -92.1955, 35.7142 ], [ -92.2121, 35.6921 ], [ -92.2289, 35.6703 ], [ -92.2457, 35.6485 ], [ -92.254, 35.6375 ], [ -92.2784, 35.604 ], [ -92.2943, 35.5812 ], [ -92.3099, 35.5582 ], [ -92.3176, 35.5466 ], [ -92.333, 35.5234 ], [ -92.3562, 35.4886 ], [ -92.3716, 35.4654 ], [ -92.387, 35.4423 ], [ -92.4023, 35.4189 ], [ -92.4173, 35.3953 ], [ -92.4319, 35.3713 ], [ -92.4463, 35.3471 ], [ -92.4603, 35.3225 ], [ -92.4744, 35.2979 ], [ -92.4815, 35.2857 ], [ -92.5034, 35.2497 ], [ -92.5108, 35.2378 ], [ -92.5336, 35.2027 ], [ -92.5414, 35.1911 ], [ -92.5651, 35.1569 ], [ -92.5813, 35.1345 ], [ -92.5978, 35.1124 ], [ -92.6147, 35.0906 ], [ -92.6231, 35.0798 ], [ -92.6398, 35.0578 ], [ -92.6643, 35.0244 ], [ -92.6807, 35.0022 ], [ -92.697, 34.9799 ], [ -92.7136, 34.9578 ], [ -92.7304, 34.936 ], [ -92.7472, 34.9142 ], [ -92.7637, 34.8921 ], [ -92.7801, 34.8699 ], [ -92.7964, 34.8476 ], [ -92.8046, 34.8365 ], [ -92.8293, 34.8032 ], [ -92.8376, 34.7923 ], [ -92.8629, 34.7597 ], [ -92.8795, 34.7376 ], [ -92.8876, 34.7264 ], [ -92.9122, 34.693 ], [ -92.9285, 34.6708 ], [ -92.945, 34.6487 ], [ -92.9619, 34.6269 ], [ -92.9787, 34.6051 ], [ -92.9952, 34.583 ], [ -93.0034, 34.5718 ], [ -93.0273, 34.5378 ], [ -93.0429, 34.5148 ], [ -93.0506, 34.5032 ], [ -93.0737, 34.4684 ], [ -93.0814, 34.4568 ], [ -93.1046, 34.4221 ], [ -93.1123, 34.4105 ], [ -93.1355, 34.3757 ], [ -93.1509, 34.3525 ], [ -93.1663, 34.3293 ], [ -93.174, 34.3177 ], [ -93.1895, 34.2945 ], [ -93.2049, 34.2714 ], [ -93.228, 34.2366 ], [ -93.2358, 34.225 ], [ -93.2589, 34.1902 ], [ -93.2743, 34.167 ], [ -93.2821, 34.1554 ], [ -93.3046, 34.12 ], [ -93.3192, 34.0961 ], [ -93.3334, 34.0716 ], [ -93.3404, 34.0593 ], [ -93.3537, 34.0339 ], [ -93.3736, 33.9959 ], [ -93.3802, 33.9832 ], [ -93.4004, 33.9455 ], [ -93.4074, 33.9331 ], [ -93.4293, 33.8971 ], [ -93.4441, 33.8733 ], [ -93.4515, 33.8614 ], [ -93.4736, 33.8256 ], [ -93.4808, 33.8135 ], [ -93.5012, 33.7759 ], [ -93.514, 33.7501 ], [ -93.5263, 33.7238 ], [ -93.5379, 33.6968 ], [ -93.5489, 33.6691 ], [ -93.5598, 33.6414 ], [ -93.5708, 33.6138 ], [ -93.5817, 33.5861 ], [ -93.5873, 33.5723 ], [ -93.6055, 33.5326 ], [ -93.6177, 33.5062 ], [ -93.6299, 33.4798 ], [ -93.6421, 33.4533 ], [ -93.6536, 33.4263 ], [ -93.6644, 33.3984 ], [ -93.6749, 33.3703 ], [ -93.6851, 33.3419 ], [ -93.6948, 33.313 ], [ -93.7044, 33.2839 ], [ -93.7141, 33.255 ], [ -93.7239, 33.2261 ], [ -93.7334, 33.197 ], [ -93.743, 33.168 ], [ -93.7526, 33.1389 ], [ -93.7618, 33.1095 ], [ -93.7706, 33.0797 ], [ -93.7791, 33.0496 ], [ -93.7873, 33.0191 ], [ -93.7952, 32.9884 ], [ -93.8027, 32.9573 ], [ -93.81, 32.9259 ], [ -93.8169, 32.8942 ], [ -93.8235, 32.8622 ], [ -93.8299, 32.8299 ], [ -93.8362, 32.7976 ], [ -93.8427, 32.7655 ], [ -93.849, 32.7332 ], [ -93.855, 32.7005 ], [ -93.8607, 32.6676 ], [ -93.866, 32.6342 ], [ -93.8709, 32.6005 ], [ -93.8762, 32.5671 ], [ -93.8819, 32.5342 ], [ -93.8877, 32.5014 ], [ -93.8934, 32.4685 ], [ -93.8985, 32.435 ], [ -93.9024, 32.4002 ], [ -93.9049, 32.364 ], [ -93.9062, 32.3268 ], [ -93.9069, 32.2887 ], [ -93.907, 32.2503 ], [ -93.907, 32.2116 ], [ -93.907, 32.173 ], [ -93.907, 32.1343 ], [ -93.907, 32.0957 ], [ -93.907, 32.057 ], [ -93.907, 32.0184 ], [ -93.907, 31.9797 ], [ -93.9069, 31.9413 ], [ -93.9063, 31.9032 ], [ -93.9049, 31.866 ], [ -93.9024, 31.8298 ], [ -93.8985, 31.795 ], [ -93.8934, 31.7615 ], [ -93.8877, 31.7286 ], [ -93.882, 31.6956 ], [ -93.8768, 31.6622 ], [ -93.8723, 31.6281 ], [ -93.8684, 31.5933 ], [ -93.8646, 31.5585 ], [ -93.8601, 31.5244 ], [ -93.8549, 31.491 ], [ -93.849, 31.4582 ], [ -93.8427, 31.4259 ], [ -93.8362, 31.3937 ], [ -93.8299, 31.3614 ], [ -93.8235, 31.3291 ], [ -93.8169, 31.2971 ], [ -93.81, 31.2654 ], [ -93.8027, 31.2341 ], [ -93.7951, 31.203 ], [ -93.7874, 31.1721 ], [ -93.7797, 31.1412 ], [ -93.772, 31.1103 ], [ -93.7643, 31.0793 ], [ -93.7566, 31.0484 ], [ -93.7487, 31.0177 ], [ -93.7405, 30.9872 ], [ -93.732, 30.9571 ], [ -93.7232, 30.9272 ], [ -93.714, 30.8979 ], [ -93.7044, 30.8688 ], [ -93.6948, 30.8397 ], [ -93.6853, 30.8107 ], [ -93.6756, 30.7818 ], [ -93.6658, 30.7529 ], [ -93.6563, 30.7238 ], [ -93.6467, 30.6948 ], [ -93.637, 30.6658 ], [ -93.6272, 30.6369 ], [ -93.6177, 30.6079 ], [ -93.608, 30.579 ], [ -93.5978, 30.5505 ], [ -93.5873, 30.5224 ], [ -93.5766, 30.4944 ], [ -93.5655, 30.4669 ], [ -93.5541, 30.4397 ], [ -93.543, 30.4122 ], [ -93.5322, 30.3844 ], [ -93.5212, 30.3567 ], [ -93.5103, 30.329 ], [ -93.4995, 30.3012 ], [ -93.4884, 30.2737 ], [ -93.477, 30.2465 ], [ -93.4659, 30.219 ], [ -93.4551, 30.1911 ], [ -93.4441, 30.1635 ], [ -93.4331, 30.1358 ], [ -93.4222, 30.1081 ], [ -93.4106, 30.0811 ], [ -93.3984, 30.0546 ], [ -93.3861, 30.0284 ], [ -93.3734, 30.0024 ], [ -93.3604, 29.9767 ], [ -93.3476, 29.9509 ], [ -93.3348, 29.9251 ], [ -93.3219, 29.8995 ], [ -93.3091, 29.8736 ], [ -93.2963, 29.8478 ], [ -93.2833, 29.8222 ], [ -93.2705, 29.7963 ], [ -93.2577, 29.7705 ], [ -93.2447, 29.7449 ], [ -93.2319, 29.7191 ], [ -93.2191, 29.6932 ], [ -93.2061, 29.6676 ], [ -93.1933, 29.6418 ], [ -93.1805, 29.616 ], [ -93.1676, 29.5903 ], [ -93.1547, 29.5645 ], [ -93.1419, 29.5387 ], [ -93.129, 29.513 ], [ -93.1162, 29.4872 ], [ -93.1034, 29.4614 ], [ -93.0902, 29.4359 ], [ -93.077, 29.4105 ], [ -93.0634, 29.3855 ], [ -93.0492, 29.3611 ], [ -93.0345, 29.3371 ], [ -93.0197, 29.3133 ], [ -93.0049, 29.2895 ], [ -92.9903, 29.2655 ], [ -92.976, 29.2411 ], [ -92.9625, 29.2161 ], [ -92.9492, 29.1907 ], [ -92.9359, 29.1654 ], [ -92.9227, 29.14 ], [ -92.9091, 29.115 ], [ -92.8949, 29.0906 ], [ -92.8802, 29.0666 ], [ -92.8654, 29.0428 ], [ -92.8506, 29.019 ], [ -92.8359, 28.995 ], [ -92.8216, 28.9708 ], [ -92.8075, 28.9462 ], [ -92.7935, 28.9216 ], [ -92.7791, 28.8973 ], [ -92.7645, 28.8734 ], [ -92.7495, 28.8497 ], [ -92.7342, 28.8264 ], [ -92.7188, 28.8032 ], [ -92.7034, 28.78 ], [ -92.6879, 28.7568 ], [ -92.6725, 28.7336 ], [ -92.6571, 28.7104 ], [ -92.6417, 28.6873 ], [ -92.6262, 28.6641 ], [ -92.6108, 28.6409 ], [ -92.5954, 28.6177 ], [ -92.5799, 28.5945 ], [ -92.5645, 28.5713 ], [ -92.5491, 28.5481 ], [ -92.5336, 28.525 ], [ -92.5182, 28.5018 ], [ -92.5028, 28.4786 ], [ -92.4873, 28.4554 ], [ -92.4719, 28.4322 ], [ -92.4565, 28.409 ], [ -92.4411, 28.3858 ], [ -92.4256, 28.3627 ], [ -92.4102, 28.3395 ], [ -92.3948, 28.3163 ], [ -92.3793, 28.2931 ], [ -92.364, 28.2697 ], [ -92.3491, 28.2461 ], [ -92.3344, 28.2221 ], [ -92.3202, 28.1977 ], [ -92.3066, 28.1727 ], [ -92.2934, 28.1473 ], [ -92.2801, 28.122 ], [ -92.2668, 28.0966 ], [ -92.2533, 28.0716 ], [ -92.239, 28.0472 ], [ -92.2244, 28.0232 ], [ -92.2096, 27.9994 ], [ -92.1948, 27.9756 ], [ -92.1801, 27.9516 ], [ -92.1658, 27.9274 ], [ -92.1517, 27.9028 ], [ -92.1377, 27.8782 ], [ -92.1233, 27.8539 ], [ -92.1087, 27.83 ], [ -92.0937, 27.8063 ], [ -92.0784, 27.783 ], [ -92.063, 27.7598 ], [ -92.0476, 27.7366 ], [ -92.0321, 27.7134 ], [ -92.0167, 27.6902 ], [ -92.0013, 27.6671 ], [ -91.9858, 27.6439 ], [ -91.9704, 27.6207 ], [ -91.955, 27.5975 ], [ -91.9395, 27.5743 ], [ -91.9241, 27.5511 ], [ -91.9085, 27.5281 ], [ -91.8926, 27.5054 ], [ -91.8764, 27.483 ], [ -91.8599, 27.4608 ], [ -91.8346, 27.4282 ], [ -91.8263, 27.4173 ], [ -91.8097, 27.3952 ], [ -91.7934, 27.3729 ], [ -91.777, 27.3506 ], [ -91.7522, 27.3176 ], [ -91.7436, 27.3069 ], [ -91.7258, 27.286 ], [ -91.6982, 27.2557 ], [ -91.6791, 27.2362 ], [ -91.6599, 27.2168 ], [ -91.6405, 27.1976 ], [ -91.6213, 27.1781 ], [ -91.6022, 27.1587 ], [ -91.593, 27.1486 ], [ -91.5746, 27.1284 ], [ -91.5482, 27.0968 ], [ -91.5399, 27.0858 ], [ -91.5233, 27.0637 ], [ -91.507, 27.0415 ], [ -91.4905, 27.0194 ], [ -91.4735, 26.9977 ], [ -91.4558, 26.9769 ], [ -91.4374, 26.9566 ], [ -91.409, 26.9271 ], [ -91.3899, 26.9076 ], [ -91.3704, 26.8885 ], [ -91.3513, 26.869 ], [ -91.3318, 26.8498 ], [ -91.3127, 26.8303 ], [ -91.2933, 26.8112 ], [ -91.2741, 26.7917 ], [ -91.2547, 26.7725 ], [ -91.2352, 26.7534 ], [ -91.2152, 26.7348 ], [ -91.1948, 26.7166 ], [ -91.1735, 26.6993 ], [ -91.1516, 26.6826 ], [ -91.1294, 26.6662 ], [ -91.1072, 26.6498 ], [ -91.0853, 26.6331 ], [ -91.064, 26.6158 ], [ -91.0436, 26.5975 ], [ -91.0235, 26.579 ], [ -91.0041, 26.5598 ], [ -90.9846, 26.5407 ], [ -90.9751, 26.5309 ], [ -90.9558, 26.5116 ], [ -90.9269, 26.4825 ], [ -90.9172, 26.4729 ], [ -90.8979, 26.4536 ], [ -90.8689, 26.4247 ], [ -90.8498, 26.4052 ], [ -90.8303, 26.3861 ], [ -90.8112, 26.3666 ], [ -90.7917, 26.3474 ], [ -90.7726, 26.328 ], [ -90.7532, 26.3088 ], [ -90.7436, 26.2991 ], [ -90.7243, 26.2797 ], [ -90.6954, 26.2507 ], [ -90.676, 26.2315 ], [ -90.6664, 26.2218 ], [ -90.6374, 26.1929 ], [ -90.6183, 26.1734 ], [ -90.5989, 26.1542 ], [ -90.5797, 26.1347 ], [ -90.57, 26.1251 ], [ -90.5408, 26.0964 ], [ -90.5208, 26.0778 ], [ -90.5004, 26.0596 ], [ -90.4791, 26.0423 ], [ -90.4572, 26.0256 ], [ -90.4461, 26.0174 ], [ -90.4128, 25.9928 ], [ -90.3909, 25.9761 ], [ -90.3695, 25.9588 ], [ -90.3492, 25.9406 ], [ -90.3291, 25.922 ], [ -90.3194, 25.9125 ], [ -90.2902, 25.8837 ], [ -90.2708, 25.8645 ], [ -90.2507, 25.846 ], [ -90.2304, 25.8277 ], [ -90.2091, 25.8104 ], [ -90.1872, 25.7937 ], [ -90.1649, 25.7773 ], [ -90.1427, 25.761 ], [ -90.1208, 25.7443 ], [ -90.0995, 25.727 ], [ -90.0791, 25.7087 ], [ -90.0591, 25.6902 ], [ -90.0492, 25.6807 ], [ -90.0193, 25.6528 ], [ -89.9989, 25.6345 ], [ -89.9776, 25.6172 ], [ -89.9557, 25.6005 ], [ -89.9335, 25.5841 ], [ -89.9224, 25.5759 ], [ -89.8893, 25.5511 ], [ -89.868, 25.5337 ], [ -89.8474, 25.5158 ], [ -89.8267, 25.4979 ], [ -89.806, 25.4799 ], [ -89.7847, 25.4626 ], [ -89.7628, 25.4459 ], [ -89.7406, 25.4296 ], [ -89.7184, 25.4132 ], [ -89.6964, 25.3965 ], [ -89.6751, 25.3792 ], [ -89.6545, 25.3612 ], [ -89.6338, 25.3433 ], [ -89.6131, 25.3254 ], [ -89.5918, 25.3081 ], [ -89.5699, 25.2914 ], [ -89.5588, 25.2832 ], [ -89.5255, 25.2586 ], [ -89.5032, 25.2422 ], [ -89.4813, 25.2255 ], [ -89.4597, 25.2085 ], [ -89.4488, 25.2002 ], [ -89.4156, 25.1754 ], [ -89.3934, 25.159 ], [ -89.3712, 25.1427 ], [ -89.3489, 25.1263 ], [ -89.327, 25.1096 ], [ -89.3054, 25.0926 ], [ -89.2835, 25.0759 ], [ -89.2613, 25.0595 ], [ -89.2391, 25.0431 ], [ -89.2168, 25.0267 ], [ -89.1946, 25.0103 ], [ -89.1727, 24.9936 ], [ -89.1511, 24.9766 ], [ -89.1292, 24.96 ], [ -89.107, 24.9436 ], [ -89.0959, 24.9354 ], [ -89.0625, 24.9108 ], [ -89.0403, 24.8944 ], [ -89.0184, 24.8777 ], [ -88.9968, 24.8607 ], [ -88.9749, 24.844 ], [ -88.9527, 24.8276 ], [ -88.9304, 24.8112 ], [ -88.9193, 24.8031 ], [ -88.8863, 24.7782 ], [ -88.865, 24.7609 ], [ -88.8547, 24.7519 ], [ -88.8237, 24.725 ], [ -88.803, 24.7071 ], [ -88.7817, 24.6897 ], [ -88.7598, 24.6731 ], [ -88.7372, 24.657 ], [ -88.7144, 24.6412 ], [ -88.6912, 24.6258 ], [ -88.6681, 24.6103 ], [ -88.6449, 24.5948 ], [ -88.6221, 24.5791 ], [ -88.5996, 24.563 ], [ -88.5774, 24.5466 ], [ -88.5554, 24.5299 ], [ -88.5338, 24.5129 ], [ -88.5119, 24.4962 ], [ -88.5008, 24.488 ], [ -88.4675, 24.4634 ], [ -88.4453, 24.4471 ], [ -88.4231, 24.4307 ], [ -88.4011, 24.414 ], [ -88.3903, 24.4055 ], [ -88.3576, 24.3803 ], [ -88.3354, 24.3639 ], [ -88.3129, 24.3478 ], [ -88.29, 24.3321 ], [ -88.2669, 24.3166 ], [ -88.2437, 24.3011 ], [ -88.2206, 24.2857 ], [ -88.1974, 24.2702 ], [ -88.1743, 24.2548 ], [ -88.1512, 24.2393 ], [ -88.128, 24.2239 ], [ -88.1048, 24.2084 ], [ -88.082, 24.1926 ], [ -88.0595, 24.1766 ], [ -88.0484, 24.1684 ], [ -88.0153, 24.1435 ], [ -87.9937, 24.1265 ], [ -87.9718, 24.1098 ], [ -87.9496, 24.0934 ], [ -87.9384, 24.0853 ], [ -87.9043, 24.0616 ], [ -87.8811, 24.0461 ], [ -87.858, 24.0306 ], [ -87.8348, 24.0152 ], [ -87.8117, 23.9997 ], [ -87.7885, 23.9843 ], [ -87.7654, 23.9688 ], [ -87.7422, 23.9533 ], [ -87.7191, 23.9379 ], [ -87.6959, 23.9224 ], [ -87.6728, 23.907 ], [ -87.6496, 23.8915 ], [ -87.6265, 23.8761 ], [ -87.6034, 23.8606 ], [ -87.5802, 23.8451 ], [ -87.5571, 23.8297 ], [ -87.5339, 23.8142 ], [ -87.5107, 23.7988 ], [ -87.4876, 23.7833 ], [ -87.4648, 23.7675 ], [ -87.4422, 23.7515 ], [ -87.42, 23.7351 ], [ -87.3981, 23.7184 ], [ -87.3765, 23.7014 ], [ -87.3546, 23.6847 ], [ -87.3324, 23.6683 ], [ -87.3098, 23.6522 ], [ -87.287, 23.6365 ], [ -87.2638, 23.621 ], [ -87.2407, 23.6056 ], [ -87.2176, 23.5901 ], [ -87.1944, 23.5746 ], [ -87.1713, 23.5592 ], [ -87.1481, 23.5437 ], [ -87.125, 23.5283 ], [ -87.1018, 23.5128 ], [ -87.079, 23.497 ], [ -87.0565, 23.481 ], [ -87.0342, 23.4646 ], [ -87.0123, 23.4479 ], [ -86.9907, 23.4309 ], [ -86.9688, 23.4142 ], [ -86.9466, 23.3978 ], [ -86.924, 23.3817 ], [ -86.9012, 23.366 ], [ -86.8781, 23.3505 ], [ -86.8549, 23.335 ], [ -86.8318, 23.3196 ], [ -86.8089, 23.3038 ], [ -86.7864, 23.2877 ], [ -86.7642, 23.2714 ], [ -86.7423, 23.2547 ], [ -86.7207, 23.2377 ], [ -86.6988, 23.2209 ], [ -86.6765, 23.2046 ], [ -86.6543, 23.1882 ], [ -86.6321, 23.1718 ], [ -86.6102, 23.1551 ], [ -86.5889, 23.1378 ], [ -86.5682, 23.1199 ], [ -86.5475, 23.1019 ], [ -86.5268, 23.084 ], [ -86.5056, 23.0667 ], [ -86.4836, 23.05 ], [ -86.4614, 23.0336 ], [ -86.4392, 23.0172 ], [ -86.417, 23.0008 ], [ -86.3951, 22.9842 ], [ -86.3735, 22.9671 ], [ -86.3516, 22.9505 ], [ -86.3293, 22.9341 ], [ -86.3071, 22.9177 ], [ -86.2849, 22.9013 ], [ -86.263, 22.8846 ], [ -86.2417, 22.8673 ], [ -86.221, 22.8494 ], [ -86.2003, 22.8314 ], [ -86.1796, 22.8135 ], [ -86.1584, 22.7962 ], [ -86.1364, 22.7795 ], [ -86.1142, 22.7631 ], [ -86.092, 22.7467 ], [ -86.0701, 22.73 ], [ -86.0488, 22.7127 ], [ -86.0281, 22.6948 ], [ -86.0074, 22.6769 ], [ -85.9868, 22.6589 ], [ -85.9655, 22.6416 ], [ -85.9436, 22.6249 ], [ -85.9213, 22.6085 ], [ -85.8991, 22.5921 ], [ -85.8772, 22.5754 ], [ -85.8559, 22.5581 ], [ -85.8355, 22.5399 ], [ -85.8155, 22.5213 ], [ -85.7957, 22.5025 ], [ -85.7757, 22.4839 ], [ -85.7553, 22.4657 ], [ -85.734, 22.4484 ], [ -85.7121, 22.4317 ], [ -85.6899, 22.4153 ], [ -85.6676, 22.3989 ], [ -85.6457, 22.3822 ], [ -85.6244, 22.3649 ], [ -85.6041, 22.3467 ], [ -85.584, 22.3281 ], [ -85.5646, 22.309 ], [ -85.5451, 22.2898 ], [ -85.5257, 22.2706 ], [ -85.5056, 22.2521 ], [ -85.4852, 22.2338 ], [ -85.4639, 22.2165 ], [ -85.442, 22.1998 ], [ -85.4198, 22.1834 ], [ -85.3976, 22.1671 ], [ -85.3757, 22.1504 ], [ -85.3544, 22.1331 ], [ -85.334, 22.1148 ], [ -85.314, 22.0963 ], [ -85.2942, 22.0774 ], [ -85.2741, 22.0589 ], [ -85.2538, 22.0406 ], [ -85.2325, 22.0233 ], [ -85.2106, 22.0066 ], [ -85.1883, 21.9902 ], [ -85.1661, 21.9738 ], [ -85.1442, 21.9571 ], [ -85.1229, 21.9398 ], [ -85.1025, 21.9216 ], [ -85.0825, 21.903 ], [ -85.063, 21.8839 ], [ -85.0436, 21.8647 ], [ -85.0242, 21.8455 ], [ -85.0041, 21.827 ], [ -84.9837, 21.8087 ], [ -84.9624, 21.7914 ], [ -84.9405, 21.7747 ], [ -84.9183, 21.7584 ], [ -84.8961, 21.742 ], [ -84.8742, 21.7253 ], [ -84.8529, 21.708 ], [ -84.8325, 21.6897 ], [ -84.8124, 21.6712 ], [ -84.7927, 21.6523 ], [ -84.7726, 21.6338 ], [ -84.7522, 21.6155 ], [ -84.731, 21.5982 ], [ -84.7091, 21.5815 ], [ -84.6868, 21.5651 ], [ -84.6646, 21.5487 ], [ -84.6427, 21.5321 ], [ -84.6214, 21.5147 ], [ -84.601, 21.4965 ], [ -84.581, 21.478 ], [ -84.5612, 21.4591 ], [ -84.5412, 21.4405 ], [ -84.5208, 21.4223 ], [ -84.4995, 21.405 ], [ -84.4776, 21.3883 ], [ -84.4554, 21.3719 ], [ -84.4331, 21.3555 ], [ -84.4112, 21.3388 ], [ -84.3899, 21.3215 ], [ -84.3696, 21.3033 ], [ -84.3495, 21.2847 ], [ -84.3301, 21.2656 ], [ -84.3106, 21.2464 ], [ -84.2912, 21.2272 ], [ -84.2711, 21.2087 ], [ -84.2507, 21.1904 ], [ -84.2294, 21.1731 ], [ -84.2075, 21.1564 ], [ -84.1853, 21.1401 ], [ -84.1631, 21.1237 ], [ -84.1412, 21.107 ], [ -84.1199, 21.0897 ], [ -84.0995, 21.0714 ], [ -84.0795, 21.0529 ], [ -84.06, 21.0337 ], [ -84.0406, 21.0145 ], [ -84.0211, 20.9954 ], [ -84.0011, 20.9768 ], [ -83.9807, 20.9586 ], [ -83.9594, 20.9413 ], [ -83.9484, 20.9329 ], [ -83.9153, 20.9082 ], [ -83.893, 20.8918 ], [ -83.8711, 20.8751 ], [ -83.8498, 20.8578 ], [ -83.8295, 20.8396 ], [ -83.8094, 20.821 ], [ -83.79, 20.8018 ], [ -83.7705, 20.7827 ], [ -83.7511, 20.7635 ], [ -83.731, 20.745 ], [ -83.7106, 20.7267 ], [ -83.6893, 20.7094 ], [ -83.6674, 20.6927 ], [ -83.6452, 20.6763 ], [ -83.623, 20.6599 ], [ -83.6011, 20.6432 ], [ -83.5798, 20.6259 ], [ -83.5594, 20.6077 ], [ -83.5394, 20.5891 ], [ -83.5199, 20.57 ], [ -83.5102, 20.5604 ], [ -83.481, 20.5316 ], [ -83.471, 20.5224 ], [ -83.4406, 20.4948 ], [ -83.4193, 20.4775 ], [ -83.3974, 20.4608 ], [ -83.3752, 20.4445 ], [ -83.3529, 20.4281 ], [ -83.331, 20.4114 ], [ -83.3097, 20.3941 ], [ -83.2894, 20.3758 ], [ -83.2693, 20.3573 ], [ -83.2499, 20.3381 ], [ -83.2304, 20.3189 ], [ -83.211, 20.2998 ], [ -83.1909, 20.2812 ], [ -83.1705, 20.263 ], [ -83.1493, 20.2457 ], [ -83.1273, 20.229 ], [ -83.1051, 20.2126 ], [ -83.0829, 20.1962 ], [ -83.061, 20.1795 ], [ -83.0397, 20.1622 ], [ -83.0193, 20.144 ], [ -82.9993, 20.1254 ], [ -82.9895, 20.1158 ], [ -82.9604, 20.0871 ], [ -82.9409, 20.0679 ], [ -82.9209, 20.0494 ], [ -82.9005, 20.0311 ], [ -82.8792, 20.0138 ], [ -82.8573, 19.9971 ], [ -82.8351, 19.9807 ], [ -82.8129, 19.9643 ], [ -82.7909, 19.9476 ], [ -82.7696, 19.9303 ], [ -82.7489, 19.9124 ], [ -82.7283, 19.8945 ], [ -82.7076, 19.8765 ], [ -82.697, 19.8679 ], [ -82.6644, 19.8425 ], [ -82.6422, 19.8261 ], [ -82.62, 19.8098 ], [ -82.598, 19.7931 ], [ -82.5767, 19.7758 ], [ -82.5561, 19.7578 ], [ -82.5354, 19.7399 ], [ -82.525, 19.7309 ], [ -82.4934, 19.7046 ], [ -82.4604, 19.6798 ], [ -82.4493, 19.6716 ], [ -82.4271, 19.6552 ], [ -82.4052, 19.6385 ], [ -82.3839, 19.6212 ], [ -82.3632, 19.6032 ], [ -82.3425, 19.5853 ], [ -82.3322, 19.5764 ], [ -82.3005, 19.5501 ], [ -82.2786, 19.5334 ], [ -82.2564, 19.517 ], [ -82.2342, 19.5006 ], [ -82.2119, 19.4842 ], [ -82.201, 19.4759 ], [ -82.1684, 19.4505 ], [ -82.1465, 19.4338 ], [ -82.1243, 19.4174 ], [ -82.1021, 19.4011 ], [ -82.0799, 19.3847 ], [ -82.0579, 19.368 ], [ -82.0367, 19.3507 ], [ -82.016, 19.3327 ], [ -81.9953, 19.3148 ], [ -81.9746, 19.2969 ], [ -81.9533, 19.2796 ], [ -81.9314, 19.2629 ], [ -81.9089, 19.2468 ], [ -81.886, 19.231 ], [ -81.8629, 19.2156 ], [ -81.8282, 19.1924 ], [ -81.8166, 19.1847 ], [ -81.7938, 19.1689 ], [ -81.7712, 19.1528 ], [ -81.7381, 19.1281 ], [ -81.7271, 19.1197 ], [ -81.7055, 19.1027 ], [ -81.6836, 19.086 ], [ -81.6614, 19.0696 ], [ -81.6388, 19.0536 ], [ -81.616, 19.0378 ], [ -81.5928, 19.0223 ], [ -81.5697, 19.0069 ], [ -81.5466, 18.9914 ], [ -81.5234, 18.976 ], [ -81.5003, 18.9605 ], [ -81.4771, 18.945 ], [ -81.454, 18.9296 ], [ -81.4192, 18.9064 ], [ -81.4077, 18.8987 ], [ -81.3845, 18.8832 ], [ -81.3614, 18.8678 ], [ -81.3382, 18.8523 ], [ -81.3151, 18.8368 ], [ -81.2923, 18.8211 ], [ -81.2697, 18.805 ], [ -81.2586, 18.7968 ], [ -81.2256, 18.7719 ], [ -81.204, 18.7549 ], [ -81.1818, 18.7385 ], [ -81.1589, 18.7228 ], [ -81.1355, 18.7076 ], [ -81.1114, 18.6931 ], [ -81.0867, 18.6792 ], [ -81.0626, 18.6647 ], [ -81.0392, 18.6495 ], [ -81.0163, 18.6337 ], [ -80.9941, 18.6173 ], [ -80.9725, 18.6004 ], [ -80.9506, 18.5837 ], [ -80.9284, 18.5673 ], [ -80.9058, 18.5512 ], [ -80.883, 18.5354 ], [ -80.8599, 18.52 ], [ -80.8367, 18.5045 ], [ -80.8136, 18.4891 ], [ -80.7904, 18.4736 ], [ -80.7673, 18.4581 ], [ -80.7441, 18.4427 ], [ -80.7207, 18.4275 ], [ -80.6969, 18.4127 ], [ -80.6608, 18.3912 ], [ -80.6366, 18.3778 ], [ -80.6125, 18.3651 ], [ -80.6011, 18.3591 ], [ -80.5657, 18.3439 ], [ -80.5424, 18.337 ], [ -80.5187, 18.3329 ] ] ] } }
]
}
