{"type":"FeatureCollection","features":[{"type":"Feature","id":1,"geometry":{"type":"Point","coordinates":[-113.10107126302825,13.559639183701506]},"properties":{"objectid":1,"basin":"Pacific","prob2day":"70%","risk2day":"High","prob7day":"90%","risk7day":"High","idp_source":"gtwo_points_202609112331","idp_filedate":1789169567000,"idp_ingestdate":1789169573000}},{"type":"Feature","id":2,"geometry":{"type":"Point","coordinates":[-145.30164012958824,12.366422341517989]},"properties":{"objectid":2,"basin":"Pacific","prob2day":"20%","risk2day":"Low","prob7day":"20%","risk7day":"Low","idp_source":"gtwo_points_202609112331","idp_filedate":1789169567000,"idp_ingestdate":1789169573000}}]}