{
"type": "FeatureCollection",
"name": "al092021-015A_5day_pgn",
"features": [
{ "type": "Feature", "properties": { "STORMNAME": "Ida", "STORMTYPE": "HU", "ADVDATE": "700 PM CDT Sun Aug 29 2021", "ADVISNUM": "15A", "STORMNUM": 9.0, "FCSTPRD": 120.0, "BASIN": "AL" }, "geometry": { "type": "Polygon", "coordinates": [ [ [ -90.5965, 29.6654 ], [ -90.5652, 29.6606 ], [ -90.5313, 29.6584 ], [ -90.4951, 29.6584 ], [ -90.4581, 29.6606 ], [ -90.4216, 29.6654 ], [ -90.3867, 29.6727 ], [ -90.354, 29.6826 ], [ -90.3103, 29.703 ], [ -90.2979, 29.7118 ], [ -90.2636, 29.7415 ], [ -90.2377, 29.7793 ], [ -90.2241, 29.807 ], [ -90.2135, 29.836 ], [ -90.2063, 29.866 ], [ -90.2028, 29.8963 ], [ -90.2027, 29.9263 ], [ -90.2062, 29.9567 ], [ -90.2125, 29.9876 ], [ -90.221, 30.0187 ], [ -90.2309, 30.0501 ], [ -90.2413, 30.0821 ], [ -90.252, 30.114 ], [ -90.2633, 30.1454 ], [ -90.2749, 30.1765 ], [ -90.2866, 30.2074 ], [ -90.2989, 30.2378 ], [ -90.3115, 30.2679 ], [ -90.3238, 30.2983 ], [ -90.3355, 30.3292 ], [ -90.347, 30.3604 ], [ -90.3575, 30.3925 ], [ -90.3667, 30.426 ], [ -90.3746, 30.4608 ], [ -90.3809, 30.4972 ], [ -90.3852, 30.5353 ], [ -90.3872, 30.5746 ], [ -90.3872, 30.6142 ], [ -90.3852, 30.6535 ], [ -90.3811, 30.6917 ], [ -90.3754, 30.7288 ], [ -90.3691, 30.7651 ], [ -90.3628, 30.8015 ], [ -90.357, 30.8384 ], [ -90.3521, 30.8761 ], [ -90.3478, 30.9146 ], [ -90.3435, 30.953 ], [ -90.3386, 30.9907 ], [ -90.3328, 31.0276 ], [ -90.3265, 31.064 ], [ -90.32, 31.1002 ], [ -90.3137, 31.1366 ], [ -90.3079, 31.1734 ], [ -90.3025, 31.2107 ], [ -90.2967, 31.2476 ], [ -90.2902, 31.2838 ], [ -90.283, 31.3193 ], [ -90.2752, 31.3541 ], [ -90.2668, 31.3884 ], [ -90.2583, 31.4226 ], [ -90.2498, 31.4568 ], [ -90.2413, 31.4909 ], [ -90.2328, 31.5251 ], [ -90.2242, 31.5592 ], [ -90.2155, 31.5932 ], [ -90.2065, 31.6268 ], [ -90.1971, 31.6601 ], [ -90.1872, 31.6929 ], [ -90.1765, 31.7249 ], [ -90.1651, 31.7561 ], [ -90.1531, 31.7868 ], [ -90.1404, 31.8167 ], [ -90.1269, 31.8459 ], [ -90.1132, 31.875 ], [ -90.0993, 31.9036 ], [ -90.085, 31.932 ], [ -90.0708, 31.9605 ], [ -90.0567, 31.989 ], [ -90.0422, 32.0172 ], [ -90.0275, 32.0452 ], [ -90.0123, 32.0727 ], [ -89.9961, 32.0992 ], [ -89.9791, 32.1248 ], [ -89.9614, 32.1497 ], [ -89.9523, 32.162 ], [ -89.9244, 32.1981 ], [ -89.9061, 32.2225 ], [ -89.8971, 32.2348 ], [ -89.87, 32.2717 ], [ -89.8517, 32.2961 ], [ -89.833, 32.32 ], [ -89.8234, 32.3318 ], [ -89.8033, 32.3543 ], [ -89.7723, 32.3873 ], [ -89.7512, 32.4088 ], [ -89.7298, 32.4301 ], [ -89.7191, 32.4407 ], [ -89.6872, 32.4728 ], [ -89.6659, 32.4942 ], [ -89.6553, 32.5049 ], [ -89.6233, 32.5369 ], [ -89.602, 32.5582 ], [ -89.5807, 32.5795 ], [ -89.5701, 32.5903 ], [ -89.5486, 32.6115 ], [ -89.5275, 32.633 ], [ -89.506, 32.6542 ], [ -89.4845, 32.6754 ], [ -89.4624, 32.6958 ], [ -89.4399, 32.716 ], [ -89.4163, 32.7351 ], [ -89.3921, 32.7536 ], [ -89.3676, 32.7717 ], [ -89.343, 32.7898 ], [ -89.3188, 32.8082 ], [ -89.2953, 32.8273 ], [ -89.2728, 32.8475 ], [ -89.2506, 32.868 ], [ -89.2288, 32.8888 ], [ -89.2067, 32.9093 ], [ -89.1841, 32.9295 ], [ -89.1606, 32.9486 ], [ -89.1364, 32.967 ], [ -89.1119, 32.9851 ], [ -89.0873, 33.0032 ], [ -89.0628, 33.0213 ], [ -89.0386, 33.0398 ], [ -89.0147, 33.0585 ], [ -88.9905, 33.077 ], [ -88.9659, 33.0951 ], [ -88.9414, 33.1132 ], [ -88.9168, 33.1313 ], [ -88.8923, 33.1494 ], [ -88.8681, 33.1678 ], [ -88.8442, 33.1866 ], [ -88.82, 33.2051 ], [ -88.7955, 33.2232 ], [ -88.7709, 33.2413 ], [ -88.7464, 33.2594 ], [ -88.7218, 33.2775 ], [ -88.6976, 33.2959 ], [ -88.6737, 33.3147 ], [ -88.6495, 33.3332 ], [ -88.625, 33.3513 ], [ -88.6001, 33.369 ], [ -88.5749, 33.3864 ], [ -88.5493, 33.4035 ], [ -88.5237, 33.4206 ], [ -88.4981, 33.4377 ], [ -88.4726, 33.4547 ], [ -88.447, 33.4718 ], [ -88.4214, 33.4889 ], [ -88.3959, 33.506 ], [ -88.3703, 33.523 ], [ -88.3447, 33.5401 ], [ -88.3191, 33.5572 ], [ -88.2936, 33.5743 ], [ -88.268, 33.5914 ], [ -88.2424, 33.6084 ], [ -88.2169, 33.6255 ], [ -88.1913, 33.6426 ], [ -88.1657, 33.6597 ], [ -88.1401, 33.6767 ], [ -88.1146, 33.6938 ], [ -88.089, 33.7109 ], [ -88.0634, 33.728 ], [ -88.0379, 33.745 ], [ -88.0123, 33.7621 ], [ -87.9867, 33.7792 ], [ -87.9612, 33.7963 ], [ -87.9356, 33.8134 ], [ -87.91, 33.8304 ], [ -87.8841, 33.8472 ], [ -87.8578, 33.8635 ], [ -87.8313, 33.8796 ], [ -87.8043, 33.8953 ], [ -87.777, 33.9107 ], [ -87.7501, 33.9264 ], [ -87.7235, 33.9424 ], [ -87.6972, 33.9588 ], [ -87.671, 33.9752 ], [ -87.6447, 33.9916 ], [ -87.6181, 34.0077 ], [ -87.5909, 34.0231 ], [ -87.5629, 34.0377 ], [ -87.535, 34.0524 ], [ -87.507, 34.0671 ], [ -87.479, 34.0818 ], [ -87.4518, 34.0972 ], [ -87.4252, 34.1132 ], [ -87.3989, 34.1296 ], [ -87.3726, 34.146 ], [ -87.3464, 34.1624 ], [ -87.3198, 34.1784 ], [ -87.2925, 34.1938 ], [ -87.2786, 34.2012 ], [ -87.2366, 34.2232 ], [ -87.2083, 34.2375 ], [ -87.194, 34.2445 ], [ -87.1514, 34.2659 ], [ -87.1231, 34.2802 ], [ -87.1088, 34.2872 ], [ -87.0661, 34.3086 ], [ -87.0382, 34.3233 ], [ -87.0242, 34.3306 ], [ -86.983, 34.3533 ], [ -86.9564, 34.3694 ], [ -86.9301, 34.3858 ], [ -86.9038, 34.4022 ], [ -86.8776, 34.4186 ], [ -86.851, 34.4346 ], [ -86.8237, 34.45 ], [ -86.7958, 34.4647 ], [ -86.7678, 34.4793 ], [ -86.7395, 34.4937 ], [ -86.7109, 34.5077 ], [ -86.6826, 34.522 ], [ -86.6543, 34.5364 ], [ -86.6399, 34.5434 ], [ -86.5973, 34.5647 ], [ -86.569, 34.5791 ], [ -86.54, 34.5927 ], [ -86.5256, 34.5996 ], [ -86.4964, 34.6131 ], [ -86.4666, 34.6259 ], [ -86.4361, 34.638 ], [ -86.4055, 34.6501 ], [ -86.375, 34.6622 ], [ -86.3293, 34.6805 ], [ -86.3147, 34.6872 ], [ -86.271, 34.7075 ], [ -86.2566, 34.7143 ], [ -86.2138, 34.7355 ], [ -86.1855, 34.7498 ], [ -86.1565, 34.7635 ], [ -86.142, 34.7703 ], [ -86.1128, 34.7838 ], [ -86.083, 34.7966 ], [ -86.0525, 34.8088 ], [ -86.022, 34.8209 ], [ -85.9761, 34.839 ], [ -85.9609, 34.8451 ], [ -85.9311, 34.8579 ], [ -85.8875, 34.8783 ], [ -85.8728, 34.8849 ], [ -85.8436, 34.8984 ], [ -85.8145, 34.9119 ], [ -85.7847, 34.9247 ], [ -85.7542, 34.9368 ], [ -85.7085, 34.9551 ], [ -85.6931, 34.9611 ], [ -85.6624, 34.973 ], [ -85.6171, 34.9917 ], [ -85.6021, 34.998 ], [ -85.5717, 35.0103 ], [ -85.5411, 35.0222 ], [ -85.5105, 35.0343 ], [ -85.48, 35.0465 ], [ -85.4493, 35.0584 ], [ -85.419, 35.0707 ], [ -85.389, 35.0834 ], [ -85.3433, 35.1016 ], [ -85.328, 35.1076 ], [ -85.2974, 35.1197 ], [ -85.2669, 35.1319 ], [ -85.2362, 35.1438 ], [ -85.2059, 35.1561 ], [ -85.1759, 35.1687 ], [ -85.1456, 35.181 ], [ -85.1147, 35.1928 ], [ -85.0837, 35.2044 ], [ -85.0523, 35.2157 ], [ -85.0204, 35.2265 ], [ -84.9885, 35.2372 ], [ -84.9572, 35.2485 ], [ -84.9262, 35.2601 ], [ -84.8953, 35.2719 ], [ -84.8649, 35.2842 ], [ -84.8199, 35.3031 ], [ -84.8046, 35.3091 ], [ -84.7737, 35.3209 ], [ -84.7427, 35.3325 ], [ -84.7113, 35.3438 ], [ -84.6795, 35.3545 ], [ -84.6476, 35.3653 ], [ -84.6007, 35.3824 ], [ -84.5852, 35.3882 ], [ -84.5543, 35.3999 ], [ -84.524, 35.4123 ], [ -84.494, 35.4249 ], [ -84.4483, 35.4432 ], [ -84.4328, 35.449 ], [ -84.4018, 35.4606 ], [ -84.3704, 35.4719 ], [ -84.3385, 35.4826 ], [ -84.3066, 35.4934 ], [ -84.2753, 35.5046 ], [ -84.2442, 35.5163 ], [ -84.2134, 35.528 ], [ -84.183, 35.5403 ], [ -84.153, 35.553 ], [ -84.1227, 35.5653 ], [ -84.0918, 35.577 ], [ -84.0608, 35.5887 ], [ -84.0294, 35.5999 ], [ -83.9976, 35.6107 ], [ -83.9655, 35.6213 ], [ -83.9178, 35.6375 ], [ -83.9018, 35.6428 ], [ -83.8697, 35.6534 ], [ -83.8377, 35.664 ], [ -83.8058, 35.6747 ], [ -83.7739, 35.6855 ], [ -83.7418, 35.6961 ], [ -83.71, 35.7068 ], [ -83.6786, 35.7181 ], [ -83.6476, 35.7297 ], [ -83.6167, 35.7415 ], [ -83.5864, 35.7538 ], [ -83.5414, 35.7727 ], [ -83.526, 35.7787 ], [ -83.4952, 35.7905 ], [ -83.4641, 35.8021 ], [ -83.4328, 35.8134 ], [ -83.4009, 35.8241 ], [ -83.3688, 35.8347 ], [ -83.337, 35.8455 ], [ -83.3051, 35.8563 ], [ -83.273, 35.8668 ], [ -83.241, 35.8774 ], [ -83.2091, 35.8882 ], [ -83.1772, 35.8989 ], [ -83.1292, 35.9148 ], [ -83.1131, 35.9201 ], [ -83.0813, 35.9309 ], [ -83.0494, 35.9416 ], [ -83.0173, 35.9522 ], [ -82.9854, 35.963 ], [ -82.9541, 35.9743 ], [ -82.9075, 35.9917 ], [ -82.8922, 35.9976 ], [ -82.8619, 36.0099 ], [ -82.8319, 36.0226 ], [ -82.8015, 36.0349 ], [ -82.7706, 36.0467 ], [ -82.7396, 36.0583 ], [ -82.7082, 36.0695 ], [ -82.6764, 36.0803 ], [ -82.6283, 36.0962 ], [ -82.6124, 36.1016 ], [ -82.5806, 36.1124 ], [ -82.5485, 36.123 ], [ -82.5165, 36.1336 ], [ -82.4846, 36.1443 ], [ -82.4527, 36.1551 ], [ -82.4206, 36.1657 ], [ -82.3886, 36.1763 ], [ -82.3567, 36.187 ], [ -82.3248, 36.1978 ], [ -82.2928, 36.2084 ], [ -82.2607, 36.219 ], [ -82.2289, 36.2297 ], [ -82.197, 36.2405 ], [ -82.1649, 36.2511 ], [ -82.1169, 36.2669 ], [ -82.101, 36.2724 ], [ -82.0691, 36.2832 ], [ -82.0371, 36.2938 ], [ -82.005, 36.3043 ], [ -81.9731, 36.3151 ], [ -81.9413, 36.3259 ], [ -81.9092, 36.3365 ], [ -81.8772, 36.347 ], [ -81.8451, 36.3576 ], [ -81.8127, 36.3679 ], [ -81.7798, 36.3776 ], [ -81.7466, 36.387 ], [ -81.713, 36.396 ], [ -81.6792, 36.4049 ], [ -81.6457, 36.414 ], [ -81.6124, 36.4234 ], [ -81.5795, 36.4331 ], [ -81.5311, 36.4486 ], [ -81.5151, 36.4539 ], [ -81.483, 36.4645 ], [ -81.451, 36.4751 ], [ -81.4191, 36.4859 ], [ -81.3872, 36.4966 ], [ -81.3552, 36.5072 ], [ -81.3231, 36.5178 ], [ -81.2912, 36.5286 ], [ -81.2594, 36.5393 ], [ -81.2273, 36.5499 ], [ -81.1953, 36.5605 ], [ -81.1634, 36.5713 ], [ -81.1315, 36.582 ], [ -81.0995, 36.5926 ], [ -81.0674, 36.6032 ], [ -81.0353, 36.6138 ], [ -81.003, 36.624 ], [ -80.9701, 36.6338 ], [ -80.9368, 36.6432 ], [ -80.9032, 36.6522 ], [ -80.8526, 36.6655 ], [ -80.8359, 36.6701 ], [ -80.8027, 36.6795 ], [ -80.7698, 36.6893 ], [ -80.7374, 36.6995 ], [ -80.7053, 36.7101 ], [ -80.6733, 36.7207 ], [ -80.6252, 36.7366 ], [ -80.6093, 36.742 ], [ -80.5775, 36.7528 ], [ -80.5454, 36.7634 ], [ -80.5134, 36.774 ], [ -80.4815, 36.7847 ], [ -80.4496, 36.7955 ], [ -80.4176, 36.8061 ], [ -80.3855, 36.8167 ], [ -80.3534, 36.8272 ], [ -80.3211, 36.8375 ], [ -80.2882, 36.8472 ], [ -80.2549, 36.8566 ], [ -80.2213, 36.8657 ], [ -80.1876, 36.8745 ], [ -80.154, 36.8836 ], [ -80.1207, 36.893 ], [ -80.0878, 36.9027 ], [ -80.0554, 36.913 ], [ -80.0234, 36.9236 ], [ -79.9914, 36.9341 ], [ -79.9593, 36.9447 ], [ -79.9273, 36.9553 ], [ -79.8949, 36.9656 ], [ -79.8619, 36.9753 ], [ -79.8287, 36.9847 ], [ -79.7951, 36.9937 ], [ -79.7612, 37.0024 ], [ -79.7269, 37.0108 ], [ -79.6923, 37.0188 ], [ -79.6574, 37.0265 ], [ -79.6221, 37.0339 ], [ -79.5865, 37.0409 ], [ -79.5508, 37.0479 ], [ -79.5156, 37.0552 ], [ -79.4806, 37.0629 ], [ -79.446, 37.0709 ], [ -79.4117, 37.0793 ], [ -79.3776, 37.0878 ], [ -79.3434, 37.0962 ], [ -79.3088, 37.1042 ], [ -79.2738, 37.1119 ], [ -79.2385, 37.1193 ], [ -79.2029, 37.1263 ], [ -79.1673, 37.1333 ], [ -79.132, 37.1406 ], [ -79.097, 37.1483 ], [ -79.0624, 37.1563 ], [ -79.0282, 37.1647 ], [ -78.9941, 37.1732 ], [ -78.9598, 37.1816 ], [ -78.9252, 37.1896 ], [ -78.8902, 37.1973 ], [ -78.855, 37.2046 ], [ -78.8193, 37.2116 ], [ -78.7837, 37.2186 ], [ -78.7484, 37.226 ], [ -78.7135, 37.2337 ], [ -78.6789, 37.2417 ], [ -78.6446, 37.2501 ], [ -78.6105, 37.2586 ], [ -78.5764, 37.2671 ], [ -78.5423, 37.2757 ], [ -78.5082, 37.2842 ], [ -78.4741, 37.2928 ], [ -78.44, 37.3013 ], [ -78.4058, 37.3097 ], [ -78.3711, 37.3177 ], [ -78.3362, 37.3254 ], [ -78.3009, 37.3327 ], [ -78.2653, 37.3397 ], [ -78.2296, 37.3467 ], [ -78.1944, 37.3541 ], [ -78.1594, 37.3617 ], [ -78.1248, 37.3698 ], [ -78.0905, 37.3781 ], [ -78.0564, 37.3867 ], [ -78.0222, 37.395 ], [ -77.9876, 37.4031 ], [ -77.9526, 37.4108 ], [ -77.9173, 37.4181 ], [ -77.8817, 37.4251 ], [ -77.8461, 37.4321 ], [ -77.8108, 37.4394 ], [ -77.7758, 37.4471 ], [ -77.7412, 37.4552 ], [ -77.707, 37.4635 ], [ -77.6729, 37.4721 ], [ -77.6388, 37.4806 ], [ -77.6047, 37.4891 ], [ -77.5706, 37.4977 ], [ -77.5365, 37.5062 ], [ -77.5024, 37.5148 ], [ -77.4681, 37.5231 ], [ -77.4335, 37.5311 ], [ -77.3986, 37.5388 ], [ -77.3633, 37.5462 ], [ -77.3277, 37.5532 ], [ -77.292, 37.5602 ], [ -77.2567, 37.5675 ], [ -77.2218, 37.5752 ], [ -77.1872, 37.5832 ], [ -77.1529, 37.5916 ], [ -77.1188, 37.6001 ], [ -77.0847, 37.6087 ], [ -77.0506, 37.6172 ], [ -77.0165, 37.6257 ], [ -76.9824, 37.6343 ], [ -76.9483, 37.6428 ], [ -76.9141, 37.6512 ], [ -76.8795, 37.6592 ], [ -76.8445, 37.6669 ], [ -76.8092, 37.6743 ], [ -76.7736, 37.6813 ], [ -76.738, 37.6882 ], [ -76.7027, 37.6956 ], [ -76.6677, 37.7033 ], [ -76.6331, 37.7113 ], [ -76.5989, 37.7197 ], [ -76.5648, 37.7282 ], [ -76.5307, 37.7368 ], [ -76.4966, 37.7453 ], [ -76.4625, 37.7538 ], [ -76.4284, 37.7624 ], [ -76.3943, 37.7709 ], [ -76.36, 37.7793 ], [ -76.3254, 37.7873 ], [ -76.2905, 37.795 ], [ -76.2552, 37.8023 ], [ -76.2196, 37.8093 ], [ -76.1839, 37.8163 ], [ -76.1486, 37.8237 ], [ -76.1137, 37.8314 ], [ -76.0791, 37.8394 ], [ -76.0448, 37.8478 ], [ -76.0107, 37.8563 ], [ -75.9766, 37.8648 ], [ -75.9425, 37.8734 ], [ -75.9084, 37.8819 ], [ -75.8743, 37.8904 ], [ -75.8402, 37.899 ], [ -75.806, 37.9073 ], [ -75.7714, 37.9154 ], [ -75.7364, 37.9231 ], [ -75.7011, 37.9304 ], [ -75.6655, 37.9374 ], [ -75.6299, 37.9444 ], [ -75.5946, 37.9517 ], [ -75.5596, 37.9594 ], [ -75.525, 37.9675 ], [ -75.4908, 37.9758 ], [ -75.4567, 37.9844 ], [ -75.4226, 37.9929 ], [ -75.3885, 38.0014 ], [ -75.3544, 38.01 ], [ -75.3203, 38.0185 ], [ -75.2862, 38.0271 ], [ -75.2521, 38.0356 ], [ -75.218, 38.0441 ], [ -75.1839, 38.0527 ], [ -75.1498, 38.0612 ], [ -75.1157, 38.0697 ], [ -75.0815, 38.0781 ], [ -75.0468, 38.0861 ], [ -75.0119, 38.0938 ], [ -74.9766, 38.1012 ], [ -74.941, 38.1082 ], [ -74.9054, 38.1152 ], [ -74.8701, 38.1225 ], [ -74.8351, 38.1302 ], [ -74.8005, 38.1382 ], [ -74.7662, 38.1466 ], [ -74.7322, 38.1551 ], [ -74.698, 38.1637 ], [ -74.664, 38.1722 ], [ -74.6299, 38.1807 ], [ -74.5958, 38.1893 ], [ -74.5617, 38.1978 ], [ -74.5276, 38.2064 ], [ -74.4935, 38.2149 ], [ -74.4594, 38.2234 ], [ -74.4253, 38.232 ], [ -74.3912, 38.2405 ], [ -74.3571, 38.249 ], [ -74.323, 38.2576 ], [ -74.2889, 38.2661 ], [ -74.2548, 38.2747 ], [ -74.2207, 38.2832 ], [ -74.1866, 38.2918 ], [ -74.1525, 38.3003 ], [ -74.1184, 38.3088 ], [ -74.0843, 38.3174 ], [ -74.0502, 38.3259 ], [ -74.016, 38.3343 ], [ -73.9814, 38.3423 ], [ -73.9464, 38.35 ], [ -73.9111, 38.3573 ], [ -73.8755, 38.3643 ], [ -73.8399, 38.3713 ], [ -73.8046, 38.3787 ], [ -73.7696, 38.3864 ], [ -73.735, 38.3944 ], [ -73.7008, 38.4027 ], [ -73.6667, 38.4113 ], [ -73.6326, 38.4198 ], [ -73.5985, 38.4284 ], [ -73.5644, 38.4369 ], [ -73.5303, 38.4454 ], [ -73.4962, 38.454 ], [ -73.4621, 38.4625 ], [ -73.428, 38.4711 ], [ -73.3939, 38.4796 ], [ -73.3598, 38.4881 ], [ -73.3257, 38.4967 ], [ -73.2916, 38.5052 ], [ -73.2575, 38.5137 ], [ -73.2234, 38.5223 ], [ -73.1893, 38.5308 ], [ -73.1552, 38.5394 ], [ -73.1211, 38.5479 ], [ -73.0871, 38.5564 ], [ -73.053, 38.565 ], [ -73.0189, 38.5735 ], [ -72.9848, 38.5821 ], [ -72.9507, 38.5906 ], [ -72.9166, 38.5991 ], [ -72.8825, 38.6077 ], [ -72.8484, 38.6162 ], [ -72.8143, 38.6247 ], [ -72.7802, 38.6333 ], [ -72.7461, 38.6418 ], [ -72.712, 38.6504 ], [ -72.6779, 38.6589 ], [ -72.6438, 38.6674 ], [ -72.6097, 38.676 ], [ -72.5756, 38.6845 ], [ -72.5415, 38.6931 ], [ -72.5074, 38.7016 ], [ -72.4733, 38.7101 ], [ -72.4392, 38.7187 ], [ -72.4051, 38.7272 ], [ -72.371, 38.7357 ], [ -72.3369, 38.7443 ], [ -72.3029, 38.7528 ], [ -72.2688, 38.7614 ], [ -72.2347, 38.7699 ], [ -72.2006, 38.7784 ], [ -72.1665, 38.787 ], [ -72.1324, 38.7955 ], [ -72.0983, 38.804 ], [ -72.0642, 38.8126 ], [ -72.0301, 38.8211 ], [ -71.996, 38.8297 ], [ -71.9619, 38.8382 ], [ -71.9278, 38.8467 ], [ -71.8937, 38.8553 ], [ -71.8596, 38.8638 ], [ -71.8255, 38.8724 ], [ -71.7914, 38.8809 ], [ -71.7573, 38.8894 ], [ -71.7232, 38.898 ], [ -71.6891, 38.9065 ], [ -71.655, 38.9151 ], [ -71.6211, 38.9238 ], [ -71.5875, 38.9328 ], [ -71.5543, 38.9422 ], [ -71.5214, 38.9519 ], [ -71.4888, 38.962 ], [ -71.4563, 38.9721 ], [ -71.4234, 38.9818 ], [ -71.3901, 38.9912 ], [ -71.3565, 39.0003 ], [ -71.3226, 39.009 ], [ -71.2885, 39.0175 ], [ -71.2544, 39.0261 ], [ -71.2203, 39.0346 ], [ -71.1862, 39.0431 ], [ -71.1521, 39.0517 ], [ -71.118, 39.0602 ], [ -71.0839, 39.0687 ], [ -71.0498, 39.0773 ], [ -71.0158, 39.0858 ], [ -70.9817, 39.0944 ], [ -70.9476, 39.1029 ], [ -70.9135, 39.1114 ], [ -70.8794, 39.12 ], [ -70.8453, 39.1285 ], [ -70.8112, 39.1371 ], [ -70.7771, 39.1456 ], [ -70.743, 39.1541 ], [ -70.7089, 39.1627 ], [ -70.6748, 39.1712 ], [ -70.6407, 39.1797 ], [ -70.6066, 39.1883 ], [ -70.5725, 39.1968 ], [ -70.5384, 39.2054 ], [ -70.4873, 39.2182 ], [ -70.4704, 39.2226 ], [ -70.4368, 39.2317 ], [ -70.4036, 39.241 ], [ -70.3707, 39.2508 ], [ -70.3381, 39.2609 ], [ -70.3055, 39.2709 ], [ -70.2726, 39.2807 ], [ -70.2394, 39.2901 ], [ -70.2058, 39.2991 ], [ -70.1719, 39.3078 ], [ -70.1378, 39.3164 ], [ -70.1037, 39.3249 ], [ -70.0696, 39.3334 ], [ -70.0355, 39.342 ], [ -70.0016, 39.3507 ], [ -69.9513, 39.3643 ], [ -69.9347, 39.3691 ], [ -69.9019, 39.3789 ], [ -69.8693, 39.3889 ], [ -69.8367, 39.399 ], [ -69.8038, 39.4087 ], [ -69.7706, 39.4181 ], [ -69.737, 39.4272 ], [ -69.7031, 39.4359 ], [ -69.669, 39.4444 ], [ -69.6349, 39.453 ], [ -69.6008, 39.4615 ], [ -69.5667, 39.4701 ], [ -69.5328, 39.4788 ], [ -69.4992, 39.4878 ], [ -69.4659, 39.4972 ], [ -69.433, 39.5069 ], [ -69.4005, 39.517 ], [ -69.3679, 39.5271 ], [ -69.335, 39.5368 ], [ -69.3018, 39.5462 ], [ -69.2682, 39.5553 ], [ -69.2344, 39.5641 ], [ -69.2009, 39.5732 ], [ -69.1676, 39.5826 ], [ -69.1347, 39.5923 ], [ -69.1021, 39.6024 ], [ -69.0696, 39.6125 ], [ -69.0367, 39.6222 ], [ -69.0034, 39.6316 ], [ -68.9699, 39.6406 ], [ -68.9361, 39.6495 ], [ -68.9025, 39.6586 ], [ -68.8693, 39.668 ], [ -68.8364, 39.6777 ], [ -68.8038, 39.6878 ], [ -68.7713, 39.6979 ], [ -68.7383, 39.7076 ], [ -68.6884, 39.7216 ], [ -68.6715, 39.726 ], [ -68.6378, 39.7349 ], [ -68.6042, 39.744 ], [ -68.5709, 39.7534 ], [ -68.5217, 39.768 ], [ -68.5055, 39.7732 ], [ -68.4729, 39.7832 ], [ -68.44, 39.793 ], [ -68.4068, 39.8024 ], [ -68.3732, 39.8114 ], [ -68.3394, 39.8203 ], [ -68.3059, 39.8293 ], [ -68.2726, 39.8387 ], [ -68.2397, 39.8485 ], [ -68.2073, 39.8587 ], [ -68.1753, 39.8693 ], [ -68.1432, 39.8799 ], [ -68.1112, 39.8905 ], [ -68.0791, 39.9011 ], [ -68.0467, 39.9113 ], [ -68.0138, 39.9211 ], [ -67.9806, 39.9304 ], [ -67.947, 39.9395 ], [ -67.9133, 39.9484 ], [ -67.8797, 39.9574 ], [ -67.8464, 39.9668 ], [ -67.8135, 39.9765 ], [ -67.7811, 39.9868 ], [ -67.7491, 39.9974 ], [ -67.717, 40.008 ], [ -67.685, 40.0186 ], [ -67.6529, 40.0291 ], [ -67.6205, 40.0394 ], [ -67.5876, 40.0491 ], [ -67.5544, 40.0585 ], [ -67.5208, 40.0676 ], [ -67.4871, 40.0764 ], [ -67.4535, 40.0855 ], [ -67.4202, 40.0949 ], [ -67.371, 40.1096 ], [ -67.3549, 40.1149 ], [ -67.3069, 40.1307 ], [ -67.2908, 40.136 ], [ -67.2588, 40.1466 ], [ -67.2267, 40.1572 ], [ -67.1943, 40.1675 ], [ -67.1614, 40.1772 ], [ -67.1282, 40.1866 ], [ -67.0946, 40.1956 ], [ -67.0609, 40.2045 ], [ -67.0273, 40.2136 ], [ -66.9775, 40.2278 ], [ -66.9611, 40.2327 ], [ -66.9286, 40.2428 ], [ -66.896, 40.2529 ], [ -66.8631, 40.2626 ], [ -66.8299, 40.272 ], [ -66.7963, 40.281 ], [ -66.7625, 40.2899 ], [ -66.7289, 40.299 ], [ -66.6957, 40.3084 ], [ -66.6628, 40.3181 ], [ -66.6304, 40.3283 ], [ -66.5983, 40.3389 ], [ -66.5663, 40.3495 ], [ -66.5343, 40.3601 ], [ -66.5022, 40.3707 ], [ -66.4698, 40.3809 ], [ -66.4369, 40.3907 ], [ -66.4037, 40.4001 ], [ -66.3701, 40.4091 ], [ -66.3363, 40.418 ], [ -66.3028, 40.427 ], [ -66.2695, 40.4364 ], [ -66.2366, 40.4462 ], [ -66.1882, 40.4617 ], [ -66.1722, 40.467 ], [ -66.1401, 40.4776 ], [ -66.1081, 40.4882 ], [ -66.06, 40.5041 ], [ -66.0436, 40.509 ], [ -66.0107, 40.5187 ], [ -65.9775, 40.5281 ], [ -65.9439, 40.5372 ], [ -65.9101, 40.5461 ], [ -65.8766, 40.5551 ], [ -65.8433, 40.5645 ], [ -65.8104, 40.5742 ], [ -65.7779, 40.5843 ], [ -65.7453, 40.5944 ], [ -65.7124, 40.6041 ], [ -65.6791, 40.6135 ], [ -65.6456, 40.6226 ], [ -65.6118, 40.6314 ], [ -65.5782, 40.6405 ], [ -65.545, 40.6499 ], [ -65.5121, 40.6596 ], [ -65.4795, 40.6697 ], [ -65.447, 40.6798 ], [ -65.4141, 40.6895 ], [ -65.3808, 40.6989 ], [ -65.3472, 40.7079 ], [ -65.3135, 40.7168 ], [ -65.2799, 40.7259 ], [ -65.2466, 40.7353 ], [ -65.2137, 40.745 ], [ -65.1814, 40.7552 ], [ -65.1493, 40.7658 ], [ -65.1173, 40.7764 ], [ -65.0854, 40.7872 ], [ -65.054, 40.7985 ], [ -65.023, 40.8101 ], [ -64.9921, 40.8219 ], [ -64.9618, 40.8341 ], [ -64.9318, 40.8468 ], [ -64.9014, 40.8591 ], [ -64.8554, 40.877 ], [ -64.8402, 40.8832 ], [ -64.8097, 40.8953 ], [ -64.7792, 40.9074 ], [ -64.7347, 40.9269 ], [ -64.7202, 40.9337 ], [ -64.6911, 40.9472 ], [ -64.6474, 40.9675 ], [ -64.6181, 40.9808 ], [ -64.6029, 40.987 ], [ -64.5724, 40.9991 ], [ -64.5419, 41.0112 ], [ -64.5116, 41.0235 ], [ -64.4815, 41.0362 ], [ -64.4384, 41.057 ], [ -64.4111, 41.0724 ], [ -64.3845, 41.0884 ], [ -64.3583, 41.1048 ], [ -64.332, 41.1212 ], [ -64.3054, 41.1373 ], [ -64.2782, 41.1526 ], [ -64.2502, 41.1673 ], [ -64.2362, 41.1747 ], [ -64.1943, 41.1967 ], [ -64.1663, 41.2114 ], [ -64.1391, 41.2267 ], [ -64.1125, 41.2428 ], [ -64.0862, 41.2592 ], [ -64.0603, 41.2759 ], [ -64.0347, 41.293 ], [ -64.0092, 41.3101 ], [ -63.9836, 41.3272 ], [ -63.958, 41.3442 ], [ -63.9324, 41.3613 ], [ -63.9069, 41.3784 ], [ -63.8813, 41.3954 ], [ -63.8557, 41.4125 ], [ -63.8302, 41.4296 ], [ -63.8046, 41.4467 ], [ -63.779, 41.4638 ], [ -63.7538, 41.4812 ], [ -63.7289, 41.4989 ], [ -63.7047, 41.5174 ], [ -63.6812, 41.5365 ], [ -63.6583, 41.5563 ], [ -63.6355, 41.5761 ], [ -63.6126, 41.5959 ], [ -63.5891, 41.6151 ], [ -63.5649, 41.6335 ], [ -63.5403, 41.6516 ], [ -63.5037, 41.6789 ], [ -63.4916, 41.6882 ], [ -63.4681, 41.7073 ], [ -63.4456, 41.7274 ], [ -63.4127, 41.7585 ], [ -63.4019, 41.7691 ], [ -63.3804, 41.7903 ], [ -63.3593, 41.8118 ], [ -63.3272, 41.8437 ], [ -63.3167, 41.8545 ], [ -63.2846, 41.8864 ], [ -63.2633, 41.9078 ], [ -63.242, 41.9291 ], [ -63.2207, 41.9504 ], [ -63.21, 41.961 ], [ -63.1888, 41.9826 ], [ -63.1677, 42.0041 ], [ -63.1372, 42.0376 ], [ -63.1271, 42.0488 ], [ -63.0988, 42.0845 ], [ -63.0806, 42.1089 ], [ -63.0625, 42.1335 ], [ -63.0444, 42.1581 ], [ -63.0262, 42.1825 ], [ -63.0076, 42.2066 ], [ -62.989, 42.2307 ], [ -62.9708, 42.2551 ], [ -62.9529, 42.2799 ], [ -62.9353, 42.305 ], [ -62.9181, 42.3304 ], [ -62.9011, 42.356 ], [ -62.884, 42.3817 ], [ -62.867, 42.4073 ], [ -62.8499, 42.4329 ], [ -62.8329, 42.4585 ], [ -62.816, 42.4843 ], [ -62.7995, 42.5104 ], [ -62.7833, 42.5369 ], [ -62.7676, 42.5639 ], [ -62.7526, 42.5915 ], [ -62.7379, 42.6195 ], [ -62.7234, 42.6477 ], [ -62.7093, 42.6762 ], [ -62.6951, 42.7047 ], [ -62.6808, 42.7331 ], [ -62.6667, 42.7616 ], [ -62.6525, 42.7901 ], [ -62.6382, 42.8185 ], [ -62.6242, 42.8472 ], [ -62.6106, 42.8762 ], [ -62.5971, 42.9054 ], [ -62.5843, 42.9353 ], [ -62.5724, 42.966 ], [ -62.5608, 42.9971 ], [ -62.5495, 43.0285 ], [ -62.5388, 43.0605 ], [ -62.5282, 43.0926 ], [ -62.5175, 43.1245 ], [ -62.5067, 43.1564 ], [ -62.4962, 43.1885 ], [ -62.4856, 43.2206 ], [ -62.475, 43.2527 ], [ -62.465, 43.2854 ], [ -62.4559, 43.319 ], [ -62.4479, 43.3537 ], [ -62.4409, 43.3894 ], [ -62.435, 43.4261 ], [ -62.4295, 43.4633 ], [ -62.4237, 43.5002 ], [ -62.4174, 43.5366 ], [ -62.4109, 43.5728 ], [ -62.4046, 43.6091 ], [ -62.399, 43.6462 ], [ -62.3947, 43.6846 ], [ -62.392, 43.7246 ], [ -62.3905, 43.7657 ], [ -62.3898, 43.8077 ], [ -62.3896, 43.8503 ], [ -62.3896, 43.8929 ], [ -62.3896, 43.9356 ], [ -62.3898, 43.9782 ], [ -62.3905, 44.0202 ], [ -62.392, 44.0613 ], [ -62.3947, 44.1013 ], [ -62.399, 44.1397 ], [ -62.4046, 44.1768 ], [ -62.4109, 44.2131 ], [ -62.4174, 44.2493 ], [ -62.4237, 44.2857 ], [ -62.4295, 44.3226 ], [ -62.435, 44.3598 ], [ -62.4409, 44.3965 ], [ -62.4479, 44.4322 ], [ -62.4559, 44.4669 ], [ -62.465, 44.5005 ], [ -62.475, 44.5332 ], [ -62.4856, 44.5653 ], [ -62.4962, 44.5974 ], [ -62.5067, 44.6295 ], [ -62.5175, 44.6614 ], [ -62.5282, 44.6933 ], [ -62.5388, 44.7254 ], [ -62.5495, 44.7574 ], [ -62.5608, 44.7888 ], [ -62.5724, 44.8199 ], [ -62.5843, 44.8506 ], [ -62.5971, 44.8805 ], [ -62.6106, 44.9097 ], [ -62.6242, 44.9387 ], [ -62.6382, 44.9674 ], [ -62.6525, 44.9958 ], [ -62.6667, 45.0243 ], [ -62.6808, 45.0528 ], [ -62.6953, 45.081 ], [ -62.71, 45.109 ], [ -62.725, 45.1367 ], [ -62.7406, 45.1636 ], [ -62.7568, 45.1901 ], [ -62.7734, 45.2162 ], [ -62.7902, 45.242 ], [ -62.8075, 45.2675 ], [ -62.825, 45.2926 ], [ -62.8429, 45.3173 ], [ -62.8612, 45.3417 ], [ -62.8797, 45.3658 ], [ -62.8983, 45.3899 ], [ -62.9166, 45.4143 ], [ -62.9346, 45.4389 ], [ -62.9527, 45.4635 ], [ -62.971, 45.4879 ], [ -62.9897, 45.5118 ], [ -63.0194, 45.5462 ], [ -63.0296, 45.5573 ], [ -63.0504, 45.5791 ], [ -63.0715, 45.6006 ], [ -63.0928, 45.622 ], [ -63.1142, 45.6433 ], [ -63.1355, 45.6647 ], [ -63.1568, 45.686 ], [ -63.1781, 45.7074 ], [ -63.1994, 45.7287 ], [ -63.2207, 45.7501 ], [ -63.242, 45.7714 ], [ -63.2633, 45.7927 ], [ -63.2846, 45.8141 ], [ -63.3059, 45.8354 ], [ -63.3272, 45.8568 ], [ -63.3486, 45.8781 ], [ -63.3699, 45.8995 ], [ -63.3806, 45.9101 ], [ -63.4127, 45.942 ], [ -63.4345, 45.9628 ], [ -63.4681, 45.9932 ], [ -63.4798, 46.0028 ], [ -63.5158, 46.0308 ], [ -63.5403, 46.0489 ], [ -63.5649, 46.067 ], [ -63.5772, 46.0761 ], [ -63.6015, 46.0943 ], [ -63.6256, 46.1129 ], [ -63.6496, 46.1316 ], [ -63.674, 46.1498 ], [ -63.7112, 46.1766 ], [ -63.7364, 46.1941 ], [ -63.7492, 46.2026 ], [ -63.7747, 46.2197 ], [ -63.8131, 46.2453 ], [ -63.8259, 46.2538 ], [ -63.8515, 46.2709 ], [ -63.877, 46.288 ], [ -63.9028, 46.3049 ], [ -63.9289, 46.3214 ], [ -63.9553, 46.3377 ], [ -63.9955, 46.3614 ], [ -64.0092, 46.3691 ], [ -64.0497, 46.3925 ], [ -64.063, 46.4005 ], [ -64.1026, 46.4249 ], [ -64.1157, 46.4331 ], [ -64.142, 46.4495 ], [ -64.1684, 46.4657 ], [ -64.1953, 46.4815 ], [ -64.2369, 46.5038 ], [ -64.2509, 46.5112 ], [ -64.279, 46.5257 ], [ -64.3221, 46.5465 ], [ -64.3366, 46.5533 ], [ -64.3658, 46.5668 ], [ -64.4108, 46.5858 ], [ -64.4415, 46.5977 ], [ -64.4718, 46.61 ], [ -64.5025, 46.622 ], [ -64.5475, 46.6409 ], [ -64.5622, 46.6476 ], [ -64.5912, 46.6613 ], [ -64.6205, 46.6746 ], [ -64.6495, 46.6882 ], [ -64.6788, 46.7016 ], [ -64.7091, 46.7139 ], [ -64.7402, 46.7255 ], [ -64.7712, 46.7371 ], [ -64.8029, 46.748 ], [ -64.835, 46.7586 ], [ -64.867, 46.7692 ], [ -64.8987, 46.7801 ], [ -64.9308, 46.7907 ], [ -64.9628, 46.8013 ], [ -64.9948, 46.8119 ], [ -65.0266, 46.8228 ], [ -65.0746, 46.8387 ], [ -65.1067, 46.8493 ], [ -65.1227, 46.8546 ], [ -65.1548, 46.8652 ], [ -65.204, 46.8799 ], [ -65.2373, 46.8892 ], [ -65.2709, 46.8983 ], [ -65.3048, 46.907 ], [ -65.3218, 46.9113 ], [ -65.3559, 46.9198 ], [ -65.39, 46.9284 ], [ -65.4241, 46.9369 ], [ -65.4753, 46.9497 ], [ -65.4923, 46.954 ], [ -65.5441, 46.9661 ], [ -65.5791, 46.9738 ], [ -65.5966, 46.9775 ], [ -65.65, 46.9881 ], [ -65.6856, 46.9951 ], [ -65.7033, 46.9987 ], [ -65.7567, 47.0093 ], [ -65.7927, 47.0159 ], [ -65.829, 47.0223 ], [ -65.8658, 47.0281 ], [ -65.8844, 47.0308 ], [ -65.9398, 47.0394 ], [ -65.9761, 47.0457 ], [ -66.0123, 47.0522 ], [ -66.0486, 47.0585 ], [ -66.0668, 47.0615 ], [ -66.1238, 47.0686 ], [ -66.163, 47.072 ], [ -66.1827, 47.0735 ], [ -66.2417, 47.0785 ], [ -66.2799, 47.0829 ], [ -66.2987, 47.0855 ], [ -66.3532, 47.0949 ], [ -66.3895, 47.1012 ], [ -66.4265, 47.1068 ], [ -66.4649, 47.1111 ], [ -66.4845, 47.1128 ], [ -66.5459, 47.1153 ], [ -66.5878, 47.116 ], [ -66.6302, 47.1162 ], [ -66.6728, 47.1162 ], [ -66.7155, 47.1162 ], [ -66.7581, 47.1162 ], [ -66.8007, 47.1162 ], [ -66.8433, 47.1162 ], [ -66.8859, 47.1162 ], [ -66.9286, 47.1162 ], [ -66.9712, 47.1162 ], [ -67.0138, 47.1162 ], [ -67.0564, 47.1162 ], [ -67.099, 47.1162 ], [ -67.1417, 47.1162 ], [ -67.1843, 47.1162 ], [ -67.2269, 47.1162 ], [ -67.2695, 47.1162 ], [ -67.3121, 47.1162 ], [ -67.3548, 47.1162 ], [ -67.3974, 47.1162 ], [ -67.4398, 47.116 ], [ -67.4818, 47.1153 ], [ -67.5228, 47.1138 ], [ -67.5627, 47.1111 ], [ -67.6011, 47.1068 ], [ -67.6381, 47.1012 ], [ -67.6744, 47.0949 ], [ -67.7107, 47.0885 ], [ -67.7477, 47.0829 ], [ -67.7859, 47.0784 ], [ -67.8251, 47.075 ], [ -67.8647, 47.072 ], [ -67.9039, 47.0686 ], [ -67.9421, 47.0641 ], [ -67.9791, 47.0585 ], [ -68.0154, 47.0522 ], [ -68.0515, 47.0457 ], [ -68.0878, 47.0394 ], [ -68.1246, 47.0336 ], [ -68.1618, 47.0281 ], [ -68.1986, 47.0223 ], [ -68.2348, 47.0158 ], [ -68.2702, 47.0086 ], [ -68.305, 47.0008 ], [ -68.3563, 46.9881 ], [ -68.3734, 46.9838 ], [ -68.4075, 46.9753 ], [ -68.4416, 46.9668 ], [ -68.4757, 46.9582 ], [ -68.5097, 46.9497 ], [ -68.5438, 46.9412 ], [ -68.5779, 46.9326 ], [ -68.612, 46.9241 ], [ -68.6461, 46.9155 ], [ -68.6802, 46.907 ], [ -68.7141, 46.8983 ], [ -68.7477, 46.8892 ], [ -68.781, 46.8799 ], [ -68.8302, 46.8652 ], [ -68.8623, 46.8546 ], [ -68.8783, 46.8493 ], [ -68.9264, 46.8334 ], [ -68.9424, 46.8281 ], [ -68.9743, 46.8174 ], [ -69.0062, 46.8066 ], [ -69.0382, 46.796 ], [ -69.0863, 46.7801 ], [ -69.1021, 46.7747 ], [ -69.15, 46.7586 ], [ -69.1661, 46.7533 ], [ -69.198, 46.7426 ], [ -69.2293, 46.7313 ], [ -69.2604, 46.7197 ], [ -69.3066, 46.7019 ], [ -69.3216, 46.6956 ], [ -69.3666, 46.6766 ], [ -69.3819, 46.6707 ], [ -69.4126, 46.6587 ], [ -69.4431, 46.6466 ], [ -69.4736, 46.6345 ], [ -69.5041, 46.6223 ], [ -69.534, 46.6095 ], [ -69.5776, 46.5892 ], [ -69.5921, 46.5824 ], [ -69.6207, 46.5684 ], [ -69.649, 46.554 ], [ -69.6775, 46.5399 ], [ -69.7201, 46.5185 ], [ -69.7484, 46.5042 ], [ -69.7771, 46.4902 ], [ -69.8054, 46.4758 ], [ -69.8333, 46.4611 ], [ -69.8613, 46.4464 ], [ -69.8886, 46.4311 ], [ -69.9283, 46.4068 ], [ -69.9414, 46.3986 ], [ -69.9677, 46.3822 ], [ -69.9939, 46.3658 ], [ -70.0205, 46.3498 ], [ -70.0474, 46.3341 ], [ -70.0747, 46.3187 ], [ -70.1017, 46.303 ], [ -70.1414, 46.2788 ], [ -70.1545, 46.2706 ], [ -70.1804, 46.2538 ], [ -70.2188, 46.2282 ], [ -70.2316, 46.2197 ], [ -70.2571, 46.2026 ], [ -70.2955, 46.177 ], [ -70.3083, 46.1684 ], [ -70.3339, 46.1514 ], [ -70.3591, 46.1339 ], [ -70.384, 46.1162 ], [ -70.4085, 46.0981 ], [ -70.4447, 46.0702 ], [ -70.4566, 46.0609 ], [ -70.4808, 46.0424 ], [ -70.5053, 46.0243 ], [ -70.5302, 46.0065 ], [ -70.5555, 45.9891 ], [ -70.581, 45.9721 ], [ -70.6066, 45.955 ], [ -70.6322, 45.9379 ], [ -70.6574, 45.9205 ], [ -70.6823, 45.9027 ], [ -70.719, 45.8754 ], [ -70.7311, 45.8662 ], [ -70.7549, 45.8474 ], [ -70.7791, 45.8289 ], [ -70.8037, 45.8108 ], [ -70.8286, 45.7931 ], [ -70.8538, 45.7757 ], [ -70.8794, 45.7586 ], [ -70.9049, 45.7415 ], [ -70.9305, 45.7244 ], [ -70.9557, 45.707 ], [ -70.9806, 45.6893 ], [ -71.0173, 45.6619 ], [ -71.0294, 45.6527 ], [ -71.0533, 45.6339 ], [ -71.0775, 45.6155 ], [ -71.102, 45.5974 ], [ -71.1266, 45.5793 ], [ -71.1511, 45.5612 ], [ -71.1757, 45.5431 ], [ -71.1999, 45.5246 ], [ -71.2358, 45.4966 ], [ -71.2479, 45.4874 ], [ -71.2725, 45.4693 ], [ -71.297, 45.4512 ], [ -71.3216, 45.4331 ], [ -71.3582, 45.4058 ], [ -71.3703, 45.3966 ], [ -71.4063, 45.3686 ], [ -71.4184, 45.3593 ], [ -71.443, 45.3412 ], [ -71.4675, 45.3231 ], [ -71.4921, 45.305 ], [ -71.5166, 45.2869 ], [ -71.5528, 45.2591 ], [ -71.5768, 45.2405 ], [ -71.6012, 45.2222 ], [ -71.6257, 45.2041 ], [ -71.638, 45.1951 ], [ -71.6625, 45.177 ], [ -71.6871, 45.1589 ], [ -71.7113, 45.1404 ], [ -71.7352, 45.1216 ], [ -71.7594, 45.1032 ], [ -71.7839, 45.0851 ], [ -71.8085, 45.067 ], [ -71.833, 45.0489 ], [ -71.8576, 45.0308 ], [ -71.8937, 45.0029 ], [ -71.9056, 44.9936 ], [ -71.9421, 44.9661 ], [ -71.9544, 44.957 ], [ -71.9789, 44.9389 ], [ -72.0035, 44.9208 ], [ -72.028, 44.9027 ], [ -72.0523, 44.8843 ], [ -72.0761, 44.8655 ], [ -72.1126, 44.838 ], [ -72.1249, 44.8289 ], [ -72.1494, 44.8108 ], [ -72.1863, 44.7837 ], [ -72.1985, 44.7746 ], [ -72.2227, 44.7562 ], [ -72.2587, 44.7282 ], [ -72.2831, 44.7099 ], [ -72.2953, 44.7009 ], [ -72.3322, 44.6737 ], [ -72.3444, 44.6647 ], [ -72.3811, 44.6373 ], [ -72.3932, 44.6281 ], [ -72.4171, 44.6093 ], [ -72.4413, 44.5909 ], [ -72.4783, 44.5639 ], [ -72.4907, 44.555 ], [ -72.516, 44.5376 ], [ -72.5415, 44.5205 ], [ -72.5671, 44.5034 ], [ -72.5927, 44.4864 ], [ -72.6179, 44.4689 ], [ -72.6551, 44.4421 ], [ -72.6673, 44.4331 ], [ -72.6915, 44.4146 ], [ -72.7154, 44.3959 ], [ -72.7396, 44.3774 ], [ -72.7766, 44.3504 ], [ -72.7891, 44.3416 ], [ -72.8143, 44.3241 ], [ -72.8399, 44.3071 ], [ -72.8654, 44.29 ], [ -72.891, 44.2729 ], [ -72.9166, 44.2558 ], [ -72.9421, 44.2388 ], [ -72.9677, 44.2217 ], [ -73.0061, 44.1961 ], [ -73.0189, 44.1875 ], [ -73.0572, 44.1619 ], [ -73.07, 44.1534 ], [ -73.0956, 44.1363 ], [ -73.1211, 44.1192 ], [ -73.1467, 44.1021 ], [ -73.1723, 44.0851 ], [ -73.1979, 44.068 ], [ -73.2234, 44.0509 ], [ -73.2618, 44.0253 ], [ -73.2746, 44.0168 ], [ -73.3001, 43.9997 ], [ -73.3257, 43.9826 ], [ -73.3513, 43.9655 ], [ -73.3769, 43.9484 ], [ -73.4024, 43.9314 ], [ -73.428, 43.9143 ], [ -73.4536, 43.8972 ], [ -73.4791, 43.8801 ], [ -73.5047, 43.8631 ], [ -73.5303, 43.846 ], [ -73.5559, 43.8289 ], [ -73.5942, 43.8033 ], [ -73.607, 43.7948 ], [ -73.6329, 43.778 ], [ -73.6592, 43.7616 ], [ -73.6858, 43.7456 ], [ -73.7127, 43.7299 ], [ -73.74, 43.7145 ], [ -73.7669, 43.6988 ], [ -73.7935, 43.6827 ], [ -73.8198, 43.6663 ], [ -73.8591, 43.6418 ], [ -73.8723, 43.6336 ], [ -73.8989, 43.6175 ], [ -73.9258, 43.6018 ], [ -73.9531, 43.5864 ], [ -73.98, 43.5707 ], [ -74.0066, 43.5547 ], [ -74.046, 43.5301 ], [ -74.0591, 43.5219 ], [ -74.0854, 43.5055 ], [ -74.1119, 43.4894 ], [ -74.1389, 43.4737 ], [ -74.1662, 43.4583 ], [ -74.1931, 43.4426 ], [ -74.2328, 43.4184 ], [ -74.2459, 43.4102 ], [ -74.2722, 43.3938 ], [ -74.2985, 43.3774 ], [ -74.325, 43.3613 ], [ -74.3523, 43.346 ], [ -74.3803, 43.3313 ], [ -74.3943, 43.324 ], [ -74.4365, 43.3023 ], [ -74.4509, 43.2953 ], [ -74.4935, 43.2739 ], [ -74.5218, 43.2596 ], [ -74.5361, 43.2526 ], [ -74.5787, 43.2312 ], [ -74.607, 43.2169 ], [ -74.6213, 43.2099 ], [ -74.664, 43.1885 ], [ -74.6923, 43.1742 ], [ -74.7209, 43.1602 ], [ -74.7492, 43.1458 ], [ -74.7775, 43.1315 ], [ -74.7918, 43.1245 ], [ -74.8344, 43.1031 ], [ -74.8627, 43.0888 ], [ -74.8914, 43.0748 ], [ -74.9197, 43.0605 ], [ -74.948, 43.0461 ], [ -74.9766, 43.0321 ], [ -75.0049, 43.0178 ], [ -75.0332, 43.0034 ], [ -75.0475, 42.9964 ], [ -75.0901, 42.9751 ], [ -75.1184, 42.9607 ], [ -75.1471, 42.9467 ], [ -75.1754, 42.9324 ], [ -75.2037, 42.918 ], [ -75.2323, 42.904 ], [ -75.2606, 42.8897 ], [ -75.2889, 42.8753 ], [ -75.3034, 42.8685 ], [ -75.3469, 42.848 ], [ -75.3615, 42.8414 ], [ -75.3914, 42.8285 ], [ -75.4219, 42.8164 ], [ -75.4524, 42.8043 ], [ -75.4829, 42.7922 ], [ -75.5134, 42.7801 ], [ -75.5579, 42.7606 ], [ -75.5724, 42.7537 ], [ -75.6014, 42.7401 ], [ -75.6442, 42.7189 ], [ -75.6725, 42.7046 ], [ -75.7011, 42.6906 ], [ -75.7294, 42.6762 ], [ -75.7577, 42.6619 ], [ -75.772, 42.6549 ], [ -75.8147, 42.6335 ], [ -75.843, 42.6192 ], [ -75.8575, 42.6124 ], [ -75.8864, 42.5987 ], [ -75.9156, 42.5852 ], [ -75.9454, 42.5724 ], [ -75.9759, 42.5603 ], [ -76.0065, 42.5481 ], [ -76.0523, 42.53 ], [ -76.0675, 42.5239 ], [ -76.0973, 42.5111 ], [ -76.1265, 42.4976 ], [ -76.1699, 42.4771 ], [ -76.1982, 42.4628 ], [ -76.2265, 42.4484 ], [ -76.241, 42.4416 ], [ -76.2845, 42.4211 ], [ -76.2992, 42.4144 ], [ -76.3442, 42.3955 ], [ -76.3749, 42.3835 ], [ -76.39, 42.3774 ], [ -76.4206, 42.3653 ], [ -76.4662, 42.347 ], [ -76.4809, 42.3403 ], [ -76.51, 42.3268 ], [ -76.5539, 42.3067 ], [ -76.5683, 42.2998 ], [ -76.5975, 42.2864 ], [ -76.6425, 42.2674 ], [ -76.6732, 42.2555 ], [ -76.6884, 42.2493 ], [ -76.7189, 42.2372 ], [ -76.7646, 42.2189 ], [ -76.7792, 42.2122 ], [ -76.8229, 42.1919 ], [ -76.8374, 42.1851 ], [ -76.8801, 42.1639 ], [ -76.8943, 42.1568 ], [ -76.9374, 42.1359 ], [ -76.9519, 42.1291 ], [ -76.9811, 42.1156 ], [ -77.0109, 42.1028 ], [ -77.0414, 42.0907 ], [ -77.072, 42.0785 ], [ -77.1025, 42.0664 ], [ -77.133, 42.0543 ], [ -77.1628, 42.0415 ], [ -77.2065, 42.0212 ], [ -77.2358, 42.0078 ], [ -77.2503, 42.001 ], [ -77.2794, 41.9875 ], [ -77.3092, 41.9747 ], [ -77.3398, 41.9626 ], [ -77.3703, 41.9504 ], [ -77.4161, 41.9324 ], [ -77.4313, 41.9262 ], [ -77.4611, 41.9134 ], [ -77.5048, 41.8931 ], [ -77.5194, 41.8864 ], [ -77.5631, 41.8661 ], [ -77.5777, 41.8594 ], [ -77.6076, 41.8466 ], [ -77.6381, 41.8345 ], [ -77.6686, 41.8224 ], [ -77.7145, 41.8043 ], [ -77.7296, 41.7981 ], [ -77.7595, 41.7853 ], [ -77.7886, 41.7718 ], [ -77.8324, 41.7517 ], [ -77.8469, 41.7449 ], [ -77.8907, 41.7247 ], [ -77.9059, 41.7186 ], [ -77.9364, 41.7064 ], [ -77.9669, 41.6943 ], [ -77.9975, 41.6822 ], [ -78.028, 41.6701 ], [ -78.0725, 41.6506 ], [ -78.087, 41.6438 ], [ -78.1161, 41.6303 ], [ -78.1598, 41.6099 ], [ -78.1891, 41.5966 ], [ -78.2043, 41.5905 ], [ -78.2348, 41.5784 ], [ -78.2805, 41.5601 ], [ -78.2958, 41.5541 ], [ -78.3265, 41.5421 ], [ -78.3568, 41.5299 ], [ -78.3868, 41.5172 ], [ -78.4172, 41.5049 ], [ -78.4479, 41.493 ], [ -78.4784, 41.4808 ], [ -78.5242, 41.4627 ], [ -78.5394, 41.4566 ], [ -78.5692, 41.4438 ], [ -78.5984, 41.4303 ], [ -78.6276, 41.4168 ], [ -78.6567, 41.4033 ], [ -78.6858, 41.3898 ], [ -78.7157, 41.377 ], [ -78.7462, 41.3649 ], [ -78.7767, 41.3528 ], [ -78.8072, 41.3406 ], [ -78.8377, 41.3285 ], [ -78.8676, 41.3157 ], [ -78.8967, 41.3022 ], [ -78.9405, 41.2821 ], [ -78.955, 41.2752 ], [ -78.9842, 41.2618 ], [ -79.014, 41.2489 ], [ -79.0445, 41.2368 ], [ -79.0902, 41.2185 ], [ -79.1055, 41.2126 ], [ -79.1361, 41.2004 ], [ -79.1659, 41.1876 ], [ -79.1951, 41.1741 ], [ -79.2242, 41.1606 ], [ -79.2679, 41.1403 ], [ -79.2825, 41.1337 ], [ -79.3123, 41.1209 ], [ -79.3429, 41.1087 ], [ -79.3886, 41.0905 ], [ -79.4039, 41.0845 ], [ -79.4344, 41.0724 ], [ -79.4789, 41.0529 ], [ -79.5079, 41.0392 ], [ -79.5224, 41.0324 ], [ -79.5652, 41.0112 ], [ -79.5935, 40.9969 ], [ -79.6224, 40.9832 ], [ -79.6369, 40.9764 ], [ -79.6661, 40.9629 ], [ -79.6959, 40.9501 ], [ -79.7264, 40.938 ], [ -79.7569, 40.9258 ], [ -79.7875, 40.9137 ], [ -79.818, 40.9016 ], [ -79.8478, 40.8888 ], [ -79.8915, 40.8685 ], [ -79.9061, 40.8618 ], [ -79.9353, 40.8483 ], [ -79.9791, 40.8282 ], [ -79.9942, 40.822 ], [ -80.0401, 40.8039 ], [ -80.0553, 40.7978 ], [ -80.0858, 40.7856 ], [ -80.1163, 40.7735 ], [ -80.1608, 40.7541 ], [ -80.1753, 40.7472 ], [ -80.2043, 40.7336 ], [ -80.2471, 40.7124 ], [ -80.2754, 40.698 ], [ -80.2897, 40.691 ], [ -80.3323, 40.6697 ], [ -80.3606, 40.6554 ], [ -80.3751, 40.6485 ], [ -80.4186, 40.628 ], [ -80.4332, 40.6214 ], [ -80.4631, 40.6086 ], [ -80.5089, 40.5904 ], [ -80.5241, 40.5843 ], [ -80.57, 40.5662 ], [ -80.5851, 40.5601 ], [ -80.6149, 40.5473 ], [ -80.6441, 40.5338 ], [ -80.6876, 40.5133 ], [ -80.7159, 40.4989 ], [ -80.7442, 40.4846 ], [ -80.7585, 40.4776 ], [ -80.8011, 40.4562 ], [ -80.8294, 40.4419 ], [ -80.8437, 40.4349 ], [ -80.8864, 40.4135 ], [ -80.9147, 40.3992 ], [ -80.9291, 40.3924 ], [ -80.9581, 40.3787 ], [ -80.9873, 40.3652 ], [ -81.0171, 40.3524 ], [ -81.063, 40.3343 ], [ -81.0781, 40.3282 ], [ -81.124, 40.31 ], [ -81.1392, 40.3039 ], [ -81.169, 40.2911 ], [ -81.1982, 40.2776 ], [ -81.2271, 40.264 ], [ -81.2699, 40.2428 ], [ -81.2982, 40.2284 ], [ -81.3126, 40.2214 ], [ -81.3552, 40.2001 ], [ -81.3835, 40.1857 ], [ -81.4121, 40.1717 ], [ -81.4404, 40.1574 ], [ -81.4687, 40.143 ], [ -81.4973, 40.129 ], [ -81.5256, 40.1147 ], [ -81.5539, 40.1004 ], [ -81.5826, 40.0864 ], [ -81.6109, 40.072 ], [ -81.6392, 40.0577 ], [ -81.6537, 40.0508 ], [ -81.6827, 40.0372 ], [ -81.7118, 40.0237 ], [ -81.7416, 40.0109 ], [ -81.7722, 39.9987 ], [ -81.8027, 39.9866 ], [ -81.8332, 39.9745 ], [ -81.8637, 39.9624 ], [ -81.8935, 39.9496 ], [ -81.9227, 39.9361 ], [ -81.9665, 39.9159 ], [ -81.9955, 39.9023 ], [ -82.0101, 39.8956 ], [ -82.04, 39.8828 ], [ -82.0705, 39.8707 ], [ -82.101, 39.8585 ], [ -82.1315, 39.8464 ], [ -82.162, 39.8343 ], [ -82.1919, 39.8215 ], [ -82.2355, 39.8012 ], [ -82.2502, 39.7945 ], [ -82.2793, 39.781 ], [ -82.3085, 39.7675 ], [ -82.3535, 39.7486 ], [ -82.3688, 39.7426 ], [ -82.4145, 39.7243 ], [ -82.4299, 39.7183 ], [ -82.4604, 39.7062 ], [ -82.4902, 39.6934 ], [ -82.5194, 39.6799 ], [ -82.5483, 39.6663 ], [ -82.5911, 39.6451 ], [ -82.6194, 39.6307 ], [ -82.6337, 39.6237 ], [ -82.6764, 39.6024 ], [ -82.7047, 39.5881 ], [ -82.7192, 39.5812 ], [ -82.7626, 39.5607 ], [ -82.7773, 39.5541 ], [ -82.8071, 39.5413 ], [ -82.8376, 39.5291 ], [ -82.8682, 39.517 ], [ -82.8987, 39.5049 ], [ -82.9292, 39.4928 ], [ -82.959, 39.48 ], [ -83.0027, 39.4596 ], [ -83.0171, 39.4528 ], [ -83.0599, 39.4316 ], [ -83.0741, 39.4245 ], [ -83.1025, 39.4103 ], [ -83.1452, 39.3889 ], [ -83.1735, 39.3746 ], [ -83.1878, 39.3676 ], [ -83.2304, 39.3462 ], [ -83.2587, 39.3319 ], [ -83.273, 39.3249 ], [ -83.3156, 39.3035 ], [ -83.344, 39.2892 ], [ -83.3583, 39.2822 ], [ -83.4009, 39.2609 ], [ -83.4292, 39.2465 ], [ -83.4578, 39.2325 ], [ -83.4861, 39.2182 ], [ -83.5144, 39.2038 ], [ -83.5431, 39.1898 ], [ -83.5714, 39.1755 ], [ -83.5997, 39.1611 ], [ -83.614, 39.1541 ], [ -83.6566, 39.1328 ], [ -83.6849, 39.1184 ], [ -83.6992, 39.1114 ], [ -83.7418, 39.0901 ], [ -83.7701, 39.0757 ], [ -83.7845, 39.0687 ], [ -83.8271, 39.0474 ], [ -83.8554, 39.0331 ], [ -83.8697, 39.0261 ], [ -83.9123, 39.0047 ], [ -83.9406, 38.9904 ], [ -83.9549, 38.9834 ], [ -83.9976, 38.962 ], [ -84.0255, 38.9473 ], [ -84.0535, 38.9326 ], [ -84.0808, 38.9173 ], [ -84.1074, 38.9012 ], [ -84.1336, 38.8848 ], [ -84.1599, 38.8684 ], [ -84.1861, 38.852 ], [ -84.2127, 38.836 ], [ -84.24, 38.8206 ], [ -84.2679, 38.8059 ], [ -84.2959, 38.7912 ], [ -84.3242, 38.7769 ], [ -84.3385, 38.7699 ], [ -84.367, 38.7557 ], [ -84.4091, 38.7339 ], [ -84.437, 38.7192 ], [ -84.4643, 38.7038 ], [ -84.4909, 38.6878 ], [ -84.5172, 38.6714 ], [ -84.5434, 38.655 ], [ -84.5697, 38.6386 ], [ -84.5963, 38.6225 ], [ -84.6236, 38.6072 ], [ -84.6515, 38.5925 ], [ -84.6795, 38.5778 ], [ -84.7078, 38.5634 ], [ -84.7221, 38.5564 ], [ -84.7647, 38.5351 ], [ -84.7927, 38.5204 ], [ -84.8206, 38.5057 ], [ -84.8479, 38.4904 ], [ -84.8745, 38.4743 ], [ -84.9007, 38.4579 ], [ -84.927, 38.4415 ], [ -84.9533, 38.4251 ], [ -84.9799, 38.4091 ], [ -85.0071, 38.3937 ], [ -85.0351, 38.379 ], [ -85.063, 38.3643 ], [ -85.0913, 38.35 ], [ -85.1057, 38.343 ], [ -85.1483, 38.3216 ], [ -85.1762, 38.3069 ], [ -85.2042, 38.2923 ], [ -85.2315, 38.2769 ], [ -85.2581, 38.2608 ], [ -85.2843, 38.2444 ], [ -85.3106, 38.2281 ], [ -85.3368, 38.2117 ], [ -85.3634, 38.1956 ], [ -85.3907, 38.1802 ], [ -85.4187, 38.1656 ], [ -85.4466, 38.1509 ], [ -85.4749, 38.1365 ], [ -85.5036, 38.1225 ], [ -85.5319, 38.1082 ], [ -85.5598, 38.0935 ], [ -85.5878, 38.0788 ], [ -85.615, 38.0634 ], [ -85.6416, 38.0474 ], [ -85.6679, 38.031 ], [ -85.6941, 38.0146 ], [ -85.7204, 37.9982 ], [ -85.747, 37.9821 ], [ -85.7743, 37.9668 ], [ -85.8022, 37.9521 ], [ -85.8302, 37.9374 ], [ -85.8581, 37.9227 ], [ -85.8861, 37.908 ], [ -85.9134, 37.8927 ], [ -85.94, 37.8766 ], [ -85.9662, 37.8602 ], [ -85.9925, 37.8438 ], [ -86.0187, 37.8274 ], [ -86.0453, 37.8114 ], [ -86.0726, 37.796 ], [ -86.1006, 37.7813 ], [ -86.1285, 37.7666 ], [ -86.1565, 37.752 ], [ -86.1844, 37.7373 ], [ -86.2117, 37.7219 ], [ -86.2383, 37.7058 ], [ -86.2646, 37.6895 ], [ -86.2908, 37.6731 ], [ -86.3171, 37.6567 ], [ -86.3437, 37.6406 ], [ -86.3706, 37.6249 ], [ -86.3979, 37.6095 ], [ -86.4248, 37.5938 ], [ -86.4514, 37.5778 ], [ -86.4777, 37.5614 ], [ -86.5039, 37.545 ], [ -86.5302, 37.5286 ], [ -86.5568, 37.5125 ], [ -86.5837, 37.4968 ], [ -86.611, 37.4815 ], [ -86.6379, 37.4657 ], [ -86.6645, 37.4497 ], [ -86.6908, 37.4333 ], [ -86.7167, 37.4166 ], [ -86.7422, 37.3995 ], [ -86.7678, 37.3824 ], [ -86.7934, 37.3653 ], [ -86.819, 37.3483 ], [ -86.8449, 37.3315 ], [ -86.8711, 37.3151 ], [ -86.8977, 37.2991 ], [ -86.9247, 37.2834 ], [ -86.9519, 37.268 ], [ -86.9789, 37.2523 ], [ -87.0055, 37.2362 ], [ -87.0317, 37.2198 ], [ -87.0576, 37.2031 ], [ -87.0832, 37.186 ], [ -87.1088, 37.1689 ], [ -87.1343, 37.1519 ], [ -87.1599, 37.1348 ], [ -87.1855, 37.1177 ], [ -87.211, 37.1006 ], [ -87.2366, 37.0836 ], [ -87.2622, 37.0665 ], [ -87.2878, 37.0494 ], [ -87.3133, 37.0323 ], [ -87.3389, 37.0153 ], [ -87.3645, 36.9982 ], [ -87.3901, 36.9811 ], [ -87.4156, 36.964 ], [ -87.4412, 36.947 ], [ -87.4668, 36.9299 ], [ -87.4923, 36.9128 ], [ -87.5179, 36.8957 ], [ -87.5435, 36.8786 ], [ -87.5691, 36.8616 ], [ -87.5946, 36.8445 ], [ -87.6202, 36.8274 ], [ -87.6458, 36.8103 ], [ -87.6713, 36.7933 ], [ -87.6969, 36.7762 ], [ -87.7225, 36.7591 ], [ -87.7481, 36.742 ], [ -87.7736, 36.725 ], [ -87.7992, 36.7079 ], [ -87.8248, 36.6908 ], [ -87.8503, 36.6737 ], [ -87.8756, 36.6563 ], [ -87.9005, 36.6385 ], [ -87.925, 36.6204 ], [ -87.9492, 36.602 ], [ -87.9731, 36.5832 ], [ -87.9973, 36.5648 ], [ -88.0218, 36.5467 ], [ -88.0464, 36.5286 ], [ -88.0709, 36.5105 ], [ -88.0955, 36.4924 ], [ -88.1197, 36.4739 ], [ -88.1436, 36.4551 ], [ -88.1678, 36.4367 ], [ -88.1923, 36.4186 ], [ -88.2172, 36.4008 ], [ -88.2424, 36.3834 ], [ -88.268, 36.3663 ], [ -88.2936, 36.3493 ], [ -88.3191, 36.3322 ], [ -88.3444, 36.3148 ], [ -88.3693, 36.297 ], [ -88.3935, 36.2786 ], [ -88.417, 36.2594 ], [ -88.4398, 36.2396 ], [ -88.4627, 36.2198 ], [ -88.4855, 36.2 ], [ -88.5091, 36.1809 ], [ -88.5333, 36.1624 ], [ -88.5578, 36.1443 ], [ -88.5824, 36.1262 ], [ -88.6069, 36.1081 ], [ -88.6311, 36.0897 ], [ -88.655, 36.0709 ], [ -88.6792, 36.0525 ], [ -88.7037, 36.0344 ], [ -88.7283, 36.0163 ], [ -88.7529, 35.9982 ], [ -88.7771, 35.9797 ], [ -88.8006, 35.9606 ], [ -88.8234, 35.9408 ], [ -88.8463, 35.921 ], [ -88.8691, 35.9012 ], [ -88.8926, 35.882 ], [ -88.9168, 35.8636 ], [ -88.9414, 35.8455 ], [ -88.9659, 35.8274 ], [ -88.9901, 35.8089 ], [ -89.0137, 35.7898 ], [ -89.0362, 35.7697 ], [ -89.0583, 35.7492 ], [ -89.0798, 35.728 ], [ -89.1013, 35.7068 ], [ -89.1228, 35.6857 ], [ -89.1449, 35.6652 ], [ -89.1675, 35.645 ], [ -89.191, 35.6259 ], [ -89.2152, 35.6074 ], [ -89.2397, 35.5893 ], [ -89.2643, 35.5712 ], [ -89.2885, 35.5528 ], [ -89.312, 35.5337 ], [ -89.3345, 35.5135 ], [ -89.3567, 35.493 ], [ -89.3781, 35.4719 ], [ -89.3996, 35.4507 ], [ -89.4208, 35.4292 ], [ -89.4423, 35.408 ], [ -89.4634, 35.3865 ], [ -89.4849, 35.3653 ], [ -89.506, 35.3438 ], [ -89.5275, 35.3226 ], [ -89.5486, 35.3011 ], [ -89.5701, 35.2799 ], [ -89.5912, 35.2584 ], [ -89.6127, 35.2372 ], [ -89.6339, 35.2157 ], [ -89.6553, 35.1945 ], [ -89.6765, 35.173 ], [ -89.698, 35.1518 ], [ -89.7191, 35.1303 ], [ -89.7406, 35.1091 ], [ -89.7617, 35.0876 ], [ -89.7832, 35.0664 ], [ -89.8043, 35.0449 ], [ -89.8258, 35.0238 ], [ -89.847, 35.0022 ], [ -89.8684, 34.9811 ], [ -89.8896, 34.9596 ], [ -89.9111, 34.9384 ], [ -89.9322, 34.9168 ], [ -89.9537, 34.8957 ], [ -89.9748, 34.8742 ], [ -89.9963, 34.853 ], [ -90.0174, 34.8315 ], [ -90.0495, 34.7995 ], [ -90.0601, 34.7888 ], [ -90.0815, 34.7676 ], [ -90.1027, 34.7461 ], [ -90.1242, 34.7249 ], [ -90.1453, 34.7034 ], [ -90.1668, 34.6822 ], [ -90.1879, 34.6607 ], [ -90.2094, 34.6395 ], [ -90.2305, 34.618 ], [ -90.2517, 34.5965 ], [ -90.2721, 34.5743 ], [ -90.2922, 34.5518 ], [ -90.3113, 34.5282 ], [ -90.3388, 34.4916 ], [ -90.3569, 34.4671 ], [ -90.3659, 34.4548 ], [ -90.3843, 34.4305 ], [ -90.4034, 34.4069 ], [ -90.4232, 34.3841 ], [ -90.443, 34.3612 ], [ -90.4627, 34.3383 ], [ -90.4818, 34.3147 ], [ -90.5093, 34.2782 ], [ -90.5183, 34.2659 ], [ -90.5364, 34.2413 ], [ -90.5548, 34.217 ], [ -90.5739, 34.1935 ], [ -90.5936, 34.1706 ], [ -90.6134, 34.1477 ], [ -90.6332, 34.1248 ], [ -90.6523, 34.1013 ], [ -90.6796, 34.0645 ], [ -90.6971, 34.0394 ], [ -90.7144, 34.014 ], [ -90.7314, 33.9884 ], [ -90.7399, 33.9756 ], [ -90.7657, 33.9373 ], [ -90.7832, 33.9122 ], [ -90.8011, 33.8875 ], [ -90.8101, 33.8752 ], [ -90.8286, 33.8509 ], [ -90.8473, 33.827 ], [ -90.8748, 33.7905 ], [ -90.8927, 33.7657 ], [ -90.9102, 33.7406 ], [ -90.9189, 33.728 ], [ -90.9443, 33.6894 ], [ -90.9608, 33.6632 ], [ -90.9771, 33.6368 ], [ -90.9851, 33.6235 ], [ -91.0084, 33.5828 ], [ -91.0161, 33.5692 ], [ -91.0398, 33.5289 ], [ -91.0478, 33.5155 ], [ -91.0724, 33.4761 ], [ -91.0887, 33.4498 ], [ -91.1049, 33.4233 ], [ -91.1206, 33.3963 ], [ -91.1356, 33.3687 ], [ -91.1503, 33.3407 ], [ -91.1648, 33.3125 ], [ -91.1789, 33.284 ], [ -91.193, 33.2555 ], [ -91.2074, 33.2271 ], [ -91.2215, 33.1986 ], [ -91.2357, 33.1701 ], [ -91.25, 33.1417 ], [ -91.2639, 33.113 ], [ -91.2776, 33.084 ], [ -91.2911, 33.0548 ], [ -91.3039, 33.0249 ], [ -91.316, 32.9943 ], [ -91.3281, 32.9638 ], [ -91.3402, 32.9332 ], [ -91.3521, 32.9025 ], [ -91.3644, 32.8721 ], [ -91.377, 32.842 ], [ -91.3893, 32.8116 ], [ -91.401, 32.7807 ], [ -91.4125, 32.7495 ], [ -91.4232, 32.7175 ], [ -91.4331, 32.6847 ], [ -91.4424, 32.6514 ], [ -91.4515, 32.6178 ], [ -91.4602, 32.5838 ], [ -91.4687, 32.5497 ], [ -91.4772, 32.5155 ], [ -91.4858, 32.4814 ], [ -91.4943, 32.4472 ], [ -91.5028, 32.4131 ], [ -91.5112, 32.3787 ], [ -91.519, 32.3439 ], [ -91.526, 32.3082 ], [ -91.5318, 32.2713 ], [ -91.536, 32.2329 ], [ -91.5389, 32.1931 ], [ -91.5412, 32.1526 ], [ -91.5434, 32.1122 ], [ -91.5463, 32.0724 ], [ -91.5505, 32.0339 ], [ -91.5562, 31.9969 ], [ -91.5625, 31.9605 ], [ -91.5688, 31.9241 ], [ -91.5744, 31.8871 ], [ -91.5787, 31.8487 ], [ -91.5814, 31.8087 ], [ -91.5828, 31.7677 ], [ -91.5828, 31.7264 ], [ -91.5814, 31.6854 ], [ -91.5787, 31.6454 ], [ -91.5744, 31.607 ], [ -91.5688, 31.57 ], [ -91.5625, 31.5336 ], [ -91.5562, 31.4972 ], [ -91.5505, 31.4602 ], [ -91.5463, 31.4217 ], [ -91.5435, 31.3818 ], [ -91.5418, 31.3408 ], [ -91.5405, 31.2995 ], [ -91.5388, 31.2585 ], [ -91.536, 31.2185 ], [ -91.5318, 31.1801 ], [ -91.5262, 31.143 ], [ -91.5197, 31.1068 ], [ -91.5127, 31.0712 ], [ -91.5055, 31.0356 ], [ -91.4985, 30.9999 ], [ -91.4916, 30.9643 ], [ -91.4844, 30.9287 ], [ -91.4772, 30.8932 ], [ -91.4701, 30.8577 ], [ -91.4629, 30.8222 ], [ -91.4559, 30.7865 ], [ -91.4488, 30.751 ], [ -91.4409, 30.7161 ], [ -91.4324, 30.682 ], [ -91.4232, 30.6485 ], [ -91.4131, 30.6159 ], [ -91.4026, 30.5838 ], [ -91.392, 30.5517 ], [ -91.3813, 30.5197 ], [ -91.37, 30.4883 ], [ -91.3584, 30.4572 ], [ -91.3465, 30.4265 ], [ -91.3337, 30.3966 ], [ -91.3201, 30.3676 ], [ -91.3059, 30.3391 ], [ -91.2911, 30.3112 ], [ -91.2754, 30.2843 ], [ -91.2592, 30.2578 ], [ -91.2427, 30.2317 ], [ -91.2258, 30.2059 ], [ -91.2086, 30.1804 ], [ -91.191, 30.1553 ], [ -91.1729, 30.1307 ], [ -91.1542, 30.1068 ], [ -91.1346, 30.0838 ], [ -91.1141, 30.0616 ], [ -91.0819, 30.0298 ], [ -91.0594, 30.0097 ], [ -91.0359, 29.9905 ], [ -91.0238, 29.9813 ], [ -90.9871, 29.954 ], [ -90.9626, 29.9359 ], [ -90.9384, 29.9174 ], [ -90.9148, 29.8983 ], [ -90.8923, 29.8782 ], [ -90.8702, 29.8577 ], [ -90.8487, 29.8365 ], [ -90.8272, 29.8153 ], [ -90.8057, 29.7942 ], [ -90.7836, 29.7737 ], [ -90.7725, 29.7636 ], [ -90.738, 29.7347 ], [ -90.7143, 29.7173 ], [ -90.6901, 29.7016 ], [ -90.6654, 29.6879 ], [ -90.6393, 29.677 ], [ -90.5965, 29.6654 ] ] ] } }
]
}
