{
"type": "FeatureCollection",
"name": "al092021_2021083000_initialradii",
"features": [
{ "type": "Feature", "properties": { "RADII": 34.0, "STORMID": "al092021", "BASIN": "al", "STORMNUM": 9.0, "ADVNUM": "15A", "VALIDTIME": "2021083000", "SYNOPTIME": "2021082918", "TIMEZONE": "UTC", "TAU": 0.0, "NE": 130.0, "SE": 120.0, "SW": 80.0, "NW": 80.0 }, "geometry": { "type": "Polygon", "coordinates": [ [ [ -90.4808, 31.6496 ], [ -90.5166, 31.6404 ], [ -90.5519, 31.6306 ], [ -90.5869, 31.6204 ], [ -90.6215, 31.6096 ], [ -90.6556, 31.5983 ], [ -90.6893, 31.5865 ], [ -90.7226, 31.5742 ], [ -90.7554, 31.5614 ], [ -90.7878, 31.5481 ], [ -90.8196, 31.5344 ], [ -90.851, 31.5203 ], [ -90.8819, 31.5057 ], [ -90.9123, 31.4906 ], [ -90.9422, 31.4752 ], [ -90.9716, 31.4593 ], [ -91.0005, 31.443 ], [ -91.0288, 31.4264 ], [ -91.0566, 31.4094 ], [ -91.0839, 31.392 ], [ -91.1106, 31.3742 ], [ -91.1368, 31.3561 ], [ -91.1624, 31.3377 ], [ -91.1874, 31.3189 ], [ -91.2119, 31.2999 ], [ -91.2358, 31.2805 ], [ -91.2591, 31.2609 ], [ -91.2818, 31.2409 ], [ -91.304, 31.2207 ], [ -91.3255, 31.2003 ], [ -91.3465, 31.1796 ], [ -91.3668, 31.1587 ], [ -91.3866, 31.1375 ], [ -91.4058, 31.1162 ], [ -91.4243, 31.0946 ], [ -91.4423, 31.0729 ], [ -91.4596, 31.051 ], [ -91.4763, 31.0289 ], [ -91.4925, 31.0067 ], [ -91.508, 30.9844 ], [ -91.5229, 30.9619 ], [ -91.5372, 30.9393 ], [ -91.5513, 30.9169 ], [ -91.5657, 30.8952 ], [ -91.5804, 30.874 ], [ -91.5955, 30.8534 ], [ -91.6108, 30.8333 ], [ -91.6266, 30.8138 ], [ -91.6428, 30.7948 ], [ -91.6594, 30.7763 ], [ -91.6765, 30.7583 ], [ -91.6936, 30.7403 ], [ -91.7104, 30.7222 ], [ -91.7268, 30.7037 ], [ -91.7428, 30.685 ], [ -91.7584, 30.6661 ], [ -91.7736, 30.647 ], [ -91.7885, 30.6276 ], [ -91.8029, 30.608 ], [ -91.8169, 30.5882 ], [ -91.8305, 30.5681 ], [ -91.8437, 30.5479 ], [ -91.8565, 30.5275 ], [ -91.8689, 30.5069 ], [ -91.8808, 30.4861 ], [ -91.8923, 30.4651 ], [ -91.9034, 30.4439 ], [ -91.914, 30.4226 ], [ -91.9242, 30.4012 ], [ -91.934, 30.3795 ], [ -91.9433, 30.3578 ], [ -91.9522, 30.3359 ], [ -91.9606, 30.3138 ], [ -91.9686, 30.2917 ], [ -91.9761, 30.2694 ], [ -91.9832, 30.247 ], [ -91.9898, 30.2245 ], [ -91.996, 30.2019 ], [ -92.0017, 30.1793 ], [ -92.0069, 30.1565 ], [ -92.0117, 30.1337 ], [ -92.016, 30.1108 ], [ -92.0198, 30.0878 ], [ -92.0232, 30.0648 ], [ -92.0261, 30.0417 ], [ -92.0286, 30.0186 ], [ -92.0305, 29.9955 ], [ -92.032, 29.9723 ], [ -92.0331, 29.9491 ], [ -92.0337, 29.9259 ], [ -92.0338, 29.9027 ], [ -92.0334, 29.8795 ], [ -92.0326, 29.8563 ], [ -92.0313, 29.8332 ], [ -92.0296, 29.81 ], [ -92.0274, 29.7869 ], [ -92.0247, 29.7638 ], [ -92.0215, 29.7407 ], [ -92.0179, 29.7178 ], [ -92.0138, 29.6948 ], [ -92.0093, 29.672 ], [ -92.0044, 29.6492 ], [ -91.9989, 29.6264 ], [ -91.993, 29.6038 ], [ -91.9867, 29.5813 ], [ -91.9799, 29.5588 ], [ -91.9727, 29.5365 ], [ -91.965, 29.5143 ], [ -91.9569, 29.4922 ], [ -91.9483, 29.4702 ], [ -91.9393, 29.4484 ], [ -91.9299, 29.4266 ], [ -91.9201, 29.4051 ], [ -91.9098, 29.3837 ], [ -91.8991, 29.3624 ], [ -91.888, 29.3414 ], [ -91.8764, 29.3204 ], [ -91.8645, 29.2997 ], [ -91.8521, 29.2792 ], [ -91.8394, 29.2588 ], [ -91.8262, 29.2386 ], [ -91.8127, 29.2187 ], [ -91.7987, 29.1989 ], [ -91.7844, 29.1794 ], [ -91.7697, 29.1601 ], [ -91.7546, 29.141 ], [ -91.7391, 29.1221 ], [ -91.7233, 29.1035 ], [ -91.7071, 29.0851 ], [ -91.6905, 29.0669 ], [ -91.6736, 29.0491 ], [ -91.6563, 29.0314 ], [ -91.639, 29.0138 ], [ -91.6221, 28.9958 ], [ -91.6053, 28.9774 ], [ -91.5889, 28.9587 ], [ -91.5727, 28.9396 ], [ -91.5567, 28.9202 ], [ -91.5409, 28.9003 ], [ -91.5253, 28.88 ], [ -91.5098, 28.8593 ], [ -91.4942, 28.8384 ], [ -91.478, 28.8177 ], [ -91.4613, 28.7972 ], [ -91.4441, 28.7768 ], [ -91.4264, 28.7567 ], [ -91.4081, 28.7367 ], [ -91.3894, 28.717 ], [ -91.3701, 28.6974 ], [ -91.3504, 28.6781 ], [ -91.3301, 28.659 ], [ -91.3094, 28.6402 ], [ -91.2881, 28.6216 ], [ -91.2664, 28.6033 ], [ -91.2442, 28.5853 ], [ -91.2215, 28.5676 ], [ -91.1983, 28.5501 ], [ -91.1746, 28.533 ], [ -91.1505, 28.5161 ], [ -91.1259, 28.4996 ], [ -91.1009, 28.4834 ], [ -91.0754, 28.4676 ], [ -91.0495, 28.452 ], [ -91.0232, 28.4369 ], [ -90.9964, 28.4221 ], [ -90.9692, 28.4077 ], [ -90.9416, 28.3937 ], [ -90.9135, 28.38 ], [ -90.8851, 28.3668 ], [ -90.8563, 28.3539 ], [ -90.8271, 28.3415 ], [ -90.7975, 28.3295 ], [ -90.7675, 28.3179 ], [ -90.7372, 28.3068 ], [ -90.7065, 28.2961 ], [ -90.6755, 28.2859 ], [ -90.6441, 28.2761 ], [ -90.6124, 28.2668 ], [ -90.5804, 28.2579 ], [ -90.5481, 28.2496 ], [ -90.5155, 28.2417 ], [ -90.4826, 28.2343 ], [ -90.4493, 28.2275 ], [ -90.4159, 28.2211 ], [ -90.3821, 28.2153 ], [ -90.3481, 28.2099 ], [ -90.3139, 28.2051 ], [ -90.2794, 28.2009 ], [ -90.2447, 28.1971 ], [ -90.2098, 28.1939 ], [ -90.1747, 28.1913 ], [ -90.1394, 28.1892 ], [ -90.104, 28.1877 ], [ -90.0683, 28.1867 ], [ -90.0325, 28.1863 ], [ -89.9966, 28.1865 ], [ -89.9605, 28.1872 ], [ -89.9243, 28.1885 ], [ -89.888, 28.1905 ], [ -89.8516, 28.193 ], [ -89.8151, 28.196 ], [ -89.7786, 28.1997 ], [ -89.742, 28.204 ], [ -89.7053, 28.2089 ], [ -89.6686, 28.2144 ], [ -89.6318, 28.2204 ], [ -89.5951, 28.2271 ], [ -89.5584, 28.2344 ], [ -89.5216, 28.2424 ], [ -89.4849, 28.2509 ], [ -89.4483, 28.26 ], [ -89.4117, 28.2698 ], [ -89.3751, 28.2802 ], [ -89.3387, 28.2912 ], [ -89.3023, 28.3028 ], [ -89.266, 28.315 ], [ -89.2299, 28.3278 ], [ -89.1939, 28.3413 ], [ -89.158, 28.3554 ], [ -89.1223, 28.3701 ], [ -89.0867, 28.3854 ], [ -89.0514, 28.4013 ], [ -89.0165, 28.4181 ], [ -88.9823, 28.4359 ], [ -88.9489, 28.4547 ], [ -88.9162, 28.4746 ], [ -88.8843, 28.4954 ], [ -88.8533, 28.5172 ], [ -88.8232, 28.5399 ], [ -88.7939, 28.5636 ], [ -88.7656, 28.5882 ], [ -88.7379, 28.6134 ], [ -88.7108, 28.6391 ], [ -88.6841, 28.6652 ], [ -88.6579, 28.6917 ], [ -88.6322, 28.7187 ], [ -88.607, 28.746 ], [ -88.5823, 28.7738 ], [ -88.5581, 28.802 ], [ -88.5345, 28.8305 ], [ -88.5114, 28.8594 ], [ -88.4888, 28.8887 ], [ -88.4669, 28.9184 ], [ -88.4454, 28.9484 ], [ -88.4246, 28.9788 ], [ -88.4043, 29.0095 ], [ -88.3846, 29.0406 ], [ -88.3655, 29.0719 ], [ -88.347, 29.1036 ], [ -88.3292, 29.1356 ], [ -88.3119, 29.1678 ], [ -88.2953, 29.2004 ], [ -88.2792, 29.2332 ], [ -88.2639, 29.2663 ], [ -88.2491, 29.2997 ], [ -88.2351, 29.3333 ], [ -88.2216, 29.3672 ], [ -88.2089, 29.4013 ], [ -88.1968, 29.4356 ], [ -88.1853, 29.4701 ], [ -88.1746, 29.5048 ], [ -88.1645, 29.5397 ], [ -88.1552, 29.5747 ], [ -88.1465, 29.61 ], [ -88.1385, 29.6454 ], [ -88.1312, 29.6809 ], [ -88.1246, 29.7166 ], [ -88.1188, 29.7524 ], [ -88.1136, 29.7883 ], [ -88.1092, 29.8243 ], [ -88.1054, 29.8605 ], [ -88.1024, 29.8967 ], [ -88.1002, 29.933 ], [ -88.0986, 29.9693 ], [ -88.0978, 30.0057 ], [ -88.0978, 30.0421 ], [ -88.0984, 30.0786 ], [ -88.0998, 30.115 ], [ -88.102, 30.1515 ], [ -88.1049, 30.188 ], [ -88.1085, 30.2244 ], [ -88.1129, 30.2609 ], [ -88.118, 30.2972 ], [ -88.1238, 30.3336 ], [ -88.1304, 30.3698 ], [ -88.1378, 30.406 ], [ -88.1459, 30.4421 ], [ -88.1548, 30.4782 ], [ -88.1643, 30.5141 ], [ -88.1747, 30.5499 ], [ -88.1858, 30.5855 ], [ -88.1976, 30.621 ], [ -88.2101, 30.6564 ], [ -88.2234, 30.6916 ], [ -88.2374, 30.7266 ], [ -88.2522, 30.7614 ], [ -88.2677, 30.7961 ], [ -88.2839, 30.8305 ], [ -88.3009, 30.8647 ], [ -88.3185, 30.8987 ], [ -88.3369, 30.9324 ], [ -88.356, 30.9658 ], [ -88.3758, 30.999 ], [ -88.3963, 31.032 ], [ -88.4175, 31.0646 ], [ -88.4395, 31.097 ], [ -88.4621, 31.129 ], [ -88.4854, 31.1607 ], [ -88.5093, 31.1921 ], [ -88.534, 31.2231 ], [ -88.5593, 31.2538 ], [ -88.5853, 31.2841 ], [ -88.6124, 31.3136 ], [ -88.6412, 31.3419 ], [ -88.6716, 31.3688 ], [ -88.7036, 31.3944 ], [ -88.7371, 31.4186 ], [ -88.772, 31.4414 ], [ -88.8084, 31.4627 ], [ -88.8461, 31.4825 ], [ -88.8852, 31.5008 ], [ -88.925, 31.5179 ], [ -88.965, 31.5343 ], [ -89.0052, 31.5501 ], [ -89.0456, 31.5651 ], [ -89.0862, 31.5794 ], [ -89.1269, 31.593 ], [ -89.1678, 31.6058 ], [ -89.2087, 31.618 ], [ -89.2498, 31.6294 ], [ -89.2909, 31.6402 ], [ -89.3321, 31.6502 ], [ -89.3733, 31.6595 ], [ -89.4145, 31.6682 ], [ -89.4558, 31.6761 ], [ -89.4971, 31.6833 ], [ -89.5383, 31.6898 ], [ -89.5795, 31.6957 ], [ -89.6206, 31.7008 ], [ -89.6617, 31.7053 ], [ -89.7027, 31.7091 ], [ -89.7435, 31.7122 ], [ -89.7843, 31.7146 ], [ -89.8249, 31.7164 ], [ -89.8654, 31.7174 ], [ -89.9057, 31.7179 ], [ -89.9458, 31.7177 ], [ -89.9857, 31.7168 ], [ -90.0255, 31.7153 ], [ -90.065, 31.7132 ], [ -90.1042, 31.7104 ], [ -90.1432, 31.707 ], [ -90.182, 31.703 ], [ -90.2204, 31.6984 ], [ -90.2586, 31.6931 ], [ -90.2965, 31.6873 ], [ -90.334, 31.6809 ], [ -90.3712, 31.6739 ], [ -90.4081, 31.6664 ], [ -90.4446, 31.6583 ], [ -90.4808, 31.6496 ] ] ] } },
{ "type": "Feature", "properties": { "RADII": 50.0, "STORMID": "al092021", "BASIN": "al", "STORMNUM": 9.0, "ADVNUM": "15A", "VALIDTIME": "2021083000", "SYNOPTIME": "2021082918", "TIMEZONE": "UTC", "TAU": 0.0, "NE": 70.0, "SE": 60.0, "SW": 40.0, "NW": 40.0 }, "geometry": { "type": "Polygon", "coordinates": [ [ [ -90.4899, 30.8168 ], [ -90.5085, 30.8113 ], [ -90.5269, 30.8055 ], [ -90.545, 30.7994 ], [ -90.5628, 30.7931 ], [ -90.5805, 30.7864 ], [ -90.5978, 30.7796 ], [ -90.6149, 30.7725 ], [ -90.6318, 30.7651 ], [ -90.6484, 30.7575 ], [ -90.6647, 30.7497 ], [ -90.6807, 30.7416 ], [ -90.6965, 30.7333 ], [ -90.712, 30.7248 ], [ -90.7272, 30.7161 ], [ -90.7421, 30.7071 ], [ -90.7567, 30.698 ], [ -90.771, 30.6887 ], [ -90.785, 30.6792 ], [ -90.7987, 30.6695 ], [ -90.8121, 30.6597 ], [ -90.8252, 30.6497 ], [ -90.8379, 30.6395 ], [ -90.8504, 30.6291 ], [ -90.8625, 30.6187 ], [ -90.8744, 30.608 ], [ -90.8858, 30.5973 ], [ -90.897, 30.5864 ], [ -90.9079, 30.5753 ], [ -90.9184, 30.5642 ], [ -90.9286, 30.553 ], [ -90.9384, 30.5416 ], [ -90.948, 30.5302 ], [ -90.9572, 30.5186 ], [ -90.9661, 30.507 ], [ -90.9746, 30.4953 ], [ -90.9828, 30.4836 ], [ -90.9907, 30.4717 ], [ -90.9983, 30.4598 ], [ -91.0055, 30.4479 ], [ -91.0124, 30.4359 ], [ -91.0189, 30.4239 ], [ -91.0254, 30.412 ], [ -91.0321, 30.4006 ], [ -91.0389, 30.3895 ], [ -91.0461, 30.3788 ], [ -91.0534, 30.3684 ], [ -91.0611, 30.3585 ], [ -91.069, 30.3488 ], [ -91.0772, 30.3395 ], [ -91.0857, 30.3305 ], [ -91.0943, 30.3215 ], [ -91.1027, 30.3125 ], [ -91.1109, 30.3033 ], [ -91.1189, 30.294 ], [ -91.1267, 30.2846 ], [ -91.1344, 30.275 ], [ -91.1419, 30.2654 ], [ -91.1491, 30.2556 ], [ -91.1562, 30.2457 ], [ -91.163, 30.2358 ], [ -91.1697, 30.2257 ], [ -91.1761, 30.2155 ], [ -91.1823, 30.2052 ], [ -91.1883, 30.1948 ], [ -91.1942, 30.1844 ], [ -91.1998, 30.1738 ], [ -91.2052, 30.1632 ], [ -91.2103, 30.1525 ], [ -91.2153, 30.1417 ], [ -91.22, 30.1309 ], [ -91.2245, 30.1199 ], [ -91.2288, 30.1089 ], [ -91.2328, 30.0979 ], [ -91.2367, 30.0868 ], [ -91.2403, 30.0756 ], [ -91.2437, 30.0644 ], [ -91.2468, 30.0531 ], [ -91.2498, 30.0418 ], [ -91.2525, 30.0304 ], [ -91.2549, 30.019 ], [ -91.2572, 30.0076 ], [ -91.2592, 29.9961 ], [ -91.261, 29.9846 ], [ -91.2625, 29.9731 ], [ -91.2638, 29.9615 ], [ -91.2649, 29.9499 ], [ -91.2657, 29.9384 ], [ -91.2664, 29.9268 ], [ -91.2667, 29.9152 ], [ -91.2669, 29.9036 ], [ -91.2668, 29.892 ], [ -91.2665, 29.8804 ], [ -91.2659, 29.8688 ], [ -91.2651, 29.8572 ], [ -91.2641, 29.8456 ], [ -91.2628, 29.8341 ], [ -91.2614, 29.8226 ], [ -91.2596, 29.811 ], [ -91.2577, 29.7996 ], [ -91.2555, 29.7881 ], [ -91.2531, 29.7767 ], [ -91.2505, 29.7653 ], [ -91.2476, 29.754 ], [ -91.2445, 29.7427 ], [ -91.2412, 29.7315 ], [ -91.2377, 29.7203 ], [ -91.2339, 29.7092 ], [ -91.2299, 29.6981 ], [ -91.2257, 29.6871 ], [ -91.2213, 29.6761 ], [ -91.2166, 29.6652 ], [ -91.2118, 29.6544 ], [ -91.2067, 29.6437 ], [ -91.2014, 29.6331 ], [ -91.1959, 29.6225 ], [ -91.1902, 29.612 ], [ -91.1843, 29.6016 ], [ -91.1781, 29.5913 ], [ -91.1718, 29.5811 ], [ -91.1653, 29.571 ], [ -91.1585, 29.561 ], [ -91.1516, 29.551 ], [ -91.1445, 29.5412 ], [ -91.1371, 29.5315 ], [ -91.1296, 29.522 ], [ -91.1219, 29.5125 ], [ -91.114, 29.5031 ], [ -91.106, 29.4939 ], [ -91.0977, 29.4848 ], [ -91.0892, 29.4758 ], [ -91.0806, 29.467 ], [ -91.072, 29.4581 ], [ -91.0635, 29.4491 ], [ -91.0552, 29.4399 ], [ -91.047, 29.4305 ], [ -91.0389, 29.4209 ], [ -91.0309, 29.4111 ], [ -91.023, 29.4012 ], [ -91.0152, 29.391 ], [ -91.0075, 29.3806 ], [ -90.9997, 29.3701 ], [ -90.9916, 29.3598 ], [ -90.9832, 29.3495 ], [ -90.9746, 29.3393 ], [ -90.9658, 29.3291 ], [ -90.9567, 29.3191 ], [ -90.9473, 29.3092 ], [ -90.9376, 29.2994 ], [ -90.9277, 29.2897 ], [ -90.9176, 29.2802 ], [ -90.9072, 29.2707 ], [ -90.8965, 29.2614 ], [ -90.8856, 29.2522 ], [ -90.8745, 29.2432 ], [ -90.8631, 29.2343 ], [ -90.8514, 29.2255 ], [ -90.8396, 29.2169 ], [ -90.8274, 29.2085 ], [ -90.8151, 29.2002 ], [ -90.8025, 29.192 ], [ -90.7897, 29.1841 ], [ -90.7767, 29.1763 ], [ -90.7635, 29.1687 ], [ -90.75, 29.1613 ], [ -90.7363, 29.1541 ], [ -90.7224, 29.147 ], [ -90.7083, 29.1402 ], [ -90.694, 29.1335 ], [ -90.6795, 29.1271 ], [ -90.6648, 29.1209 ], [ -90.6499, 29.1148 ], [ -90.6348, 29.109 ], [ -90.6195, 29.1035 ], [ -90.6041, 29.0981 ], [ -90.5884, 29.093 ], [ -90.5726, 29.0881 ], [ -90.5567, 29.0834 ], [ -90.5405, 29.079 ], [ -90.5242, 29.0748 ], [ -90.5078, 29.0709 ], [ -90.4912, 29.0672 ], [ -90.4745, 29.0637 ], [ -90.4576, 29.0606 ], [ -90.4406, 29.0577 ], [ -90.4234, 29.055 ], [ -90.4062, 29.0526 ], [ -90.3888, 29.0505 ], [ -90.3713, 29.0486 ], [ -90.3537, 29.0471 ], [ -90.336, 29.0458 ], [ -90.3182, 29.0447 ], [ -90.3003, 29.044 ], [ -90.2824, 29.0435 ], [ -90.2643, 29.0434 ], [ -90.2462, 29.0435 ], [ -90.228, 29.0439 ], [ -90.2098, 29.0446 ], [ -90.1915, 29.0456 ], [ -90.1731, 29.0469 ], [ -90.1547, 29.0485 ], [ -90.1363, 29.0504 ], [ -90.1179, 29.0525 ], [ -90.0994, 29.055 ], [ -90.0809, 29.0578 ], [ -90.0624, 29.0609 ], [ -90.0439, 29.0643 ], [ -90.0254, 29.0681 ], [ -90.0069, 29.0721 ], [ -89.9884, 29.0764 ], [ -89.97, 29.0811 ], [ -89.9515, 29.086 ], [ -89.9332, 29.0913 ], [ -89.9148, 29.0968 ], [ -89.8965, 29.1027 ], [ -89.8783, 29.1089 ], [ -89.8601, 29.1154 ], [ -89.842, 29.1222 ], [ -89.824, 29.1294 ], [ -89.806, 29.1368 ], [ -89.7882, 29.1446 ], [ -89.7704, 29.1526 ], [ -89.7529, 29.1611 ], [ -89.7356, 29.17 ], [ -89.7186, 29.1793 ], [ -89.7019, 29.1891 ], [ -89.6856, 29.1993 ], [ -89.6695, 29.2099 ], [ -89.6538, 29.2209 ], [ -89.6385, 29.2324 ], [ -89.6236, 29.2442 ], [ -89.6089, 29.2564 ], [ -89.5945, 29.2688 ], [ -89.5802, 29.2815 ], [ -89.5662, 29.2944 ], [ -89.5525, 29.3075 ], [ -89.539, 29.3209 ], [ -89.5257, 29.3345 ], [ -89.5127, 29.3483 ], [ -89.4999, 29.3623 ], [ -89.4874, 29.3766 ], [ -89.4751, 29.3911 ], [ -89.4632, 29.4058 ], [ -89.4515, 29.4207 ], [ -89.4401, 29.4358 ], [ -89.4289, 29.4511 ], [ -89.4181, 29.4665 ], [ -89.4075, 29.4822 ], [ -89.3973, 29.4981 ], [ -89.3873, 29.5142 ], [ -89.3777, 29.5304 ], [ -89.3684, 29.5468 ], [ -89.3593, 29.5634 ], [ -89.3506, 29.5801 ], [ -89.3423, 29.597 ], [ -89.3342, 29.614 ], [ -89.3265, 29.6312 ], [ -89.3191, 29.6486 ], [ -89.3121, 29.6661 ], [ -89.3054, 29.6837 ], [ -89.299, 29.7014 ], [ -89.293, 29.7193 ], [ -89.2873, 29.7373 ], [ -89.282, 29.7554 ], [ -89.2771, 29.7736 ], [ -89.2725, 29.792 ], [ -89.2683, 29.8104 ], [ -89.2644, 29.8289 ], [ -89.261, 29.8475 ], [ -89.2578, 29.8662 ], [ -89.2551, 29.885 ], [ -89.2527, 29.9038 ], [ -89.2508, 29.9227 ], [ -89.2492, 29.9416 ], [ -89.2479, 29.9606 ], [ -89.2471, 29.9797 ], [ -89.2467, 29.9988 ], [ -89.2466, 30.0179 ], [ -89.2469, 30.0371 ], [ -89.2477, 30.0563 ], [ -89.2488, 30.0755 ], [ -89.2503, 30.0947 ], [ -89.2522, 30.114 ], [ -89.2545, 30.1332 ], [ -89.2572, 30.1524 ], [ -89.2603, 30.1716 ], [ -89.2638, 30.1908 ], [ -89.2677, 30.21 ], [ -89.2719, 30.2291 ], [ -89.2766, 30.2482 ], [ -89.2817, 30.2672 ], [ -89.2872, 30.2862 ], [ -89.2931, 30.3052 ], [ -89.2994, 30.3241 ], [ -89.306, 30.3429 ], [ -89.3131, 30.3616 ], [ -89.3206, 30.3803 ], [ -89.3284, 30.3989 ], [ -89.3367, 30.4174 ], [ -89.3454, 30.4358 ], [ -89.3544, 30.454 ], [ -89.3638, 30.4722 ], [ -89.3737, 30.4902 ], [ -89.3839, 30.5082 ], [ -89.3945, 30.526 ], [ -89.4055, 30.5436 ], [ -89.4168, 30.5611 ], [ -89.4286, 30.5785 ], [ -89.4407, 30.5957 ], [ -89.4532, 30.6128 ], [ -89.466, 30.6297 ], [ -89.4793, 30.6464 ], [ -89.4932, 30.6627 ], [ -89.5081, 30.6781 ], [ -89.5241, 30.6928 ], [ -89.541, 30.7066 ], [ -89.5589, 30.7196 ], [ -89.5776, 30.7317 ], [ -89.5973, 30.7429 ], [ -89.6177, 30.7532 ], [ -89.639, 30.7625 ], [ -89.6607, 30.7711 ], [ -89.6826, 30.7794 ], [ -89.7045, 30.7872 ], [ -89.7264, 30.7947 ], [ -89.7485, 30.8018 ], [ -89.7706, 30.8085 ], [ -89.7927, 30.8148 ], [ -89.8148, 30.8207 ], [ -89.837, 30.8262 ], [ -89.8592, 30.8313 ], [ -89.8814, 30.8361 ], [ -89.9036, 30.8404 ], [ -89.9258, 30.8444 ], [ -89.948, 30.848 ], [ -89.9701, 30.8512 ], [ -89.9922, 30.8541 ], [ -90.0143, 30.8565 ], [ -90.0363, 30.8586 ], [ -90.0582, 30.8603 ], [ -90.0801, 30.8617 ], [ -90.1018, 30.8627 ], [ -90.1235, 30.8633 ], [ -90.1451, 30.8636 ], [ -90.1666, 30.8635 ], [ -90.188, 30.8631 ], [ -90.2092, 30.8623 ], [ -90.2304, 30.8611 ], [ -90.2513, 30.8597 ], [ -90.2722, 30.8578 ], [ -90.2929, 30.8557 ], [ -90.3134, 30.8532 ], [ -90.3338, 30.8504 ], [ -90.354, 30.8473 ], [ -90.374, 30.8439 ], [ -90.3938, 30.8401 ], [ -90.4134, 30.8361 ], [ -90.4329, 30.8317 ], [ -90.4521, 30.827 ], [ -90.4711, 30.8221 ], [ -90.4899, 30.8168 ] ] ] } },
{ "type": "Feature", "properties": { "RADII": 64.0, "STORMID": "al092021", "BASIN": "al", "STORMNUM": 9.0, "ADVNUM": "15A", "VALIDTIME": "2021083000", "SYNOPTIME": "2021082918", "TIMEZONE": "UTC", "TAU": 0.0, "NE": 40.0, "SE": 35.0, "SW": 20.0, "NW": 25.0 }, "geometry": { "type": "Polygon", "coordinates": [ [ [ -90.4941, 30.4415 ], [ -90.5051, 30.4387 ], [ -90.5159, 30.4358 ], [ -90.5266, 30.4327 ], [ -90.5372, 30.4295 ], [ -90.5477, 30.4261 ], [ -90.558, 30.4225 ], [ -90.5682, 30.4188 ], [ -90.5782, 30.415 ], [ -90.5882, 30.4109 ], [ -90.598, 30.4068 ], [ -90.6076, 30.4025 ], [ -90.6171, 30.3981 ], [ -90.6265, 30.3936 ], [ -90.6357, 30.3889 ], [ -90.6448, 30.3841 ], [ -90.6537, 30.3791 ], [ -90.6624, 30.3741 ], [ -90.671, 30.3689 ], [ -90.6794, 30.3636 ], [ -90.6877, 30.3582 ], [ -90.6958, 30.3527 ], [ -90.7038, 30.3471 ], [ -90.7115, 30.3414 ], [ -90.7191, 30.3356 ], [ -90.7266, 30.3297 ], [ -90.7338, 30.3237 ], [ -90.7409, 30.3176 ], [ -90.7478, 30.3115 ], [ -90.7546, 30.3052 ], [ -90.7611, 30.2989 ], [ -90.7675, 30.2925 ], [ -90.7737, 30.286 ], [ -90.7797, 30.2795 ], [ -90.7856, 30.2729 ], [ -90.7913, 30.2663 ], [ -90.7967, 30.2595 ], [ -90.802, 30.2528 ], [ -90.8072, 30.246 ], [ -90.8121, 30.2391 ], [ -90.8168, 30.2322 ], [ -90.8214, 30.2252 ], [ -90.8259, 30.2183 ], [ -90.8303, 30.2115 ], [ -90.8348, 30.2048 ], [ -90.8392, 30.1982 ], [ -90.8437, 30.1917 ], [ -90.8482, 30.1854 ], [ -90.8526, 30.1791 ], [ -90.8572, 30.1728 ], [ -90.8617, 30.1667 ], [ -90.8662, 30.1606 ], [ -90.8706, 30.1545 ], [ -90.8748, 30.1483 ], [ -90.8789, 30.142 ], [ -90.8828, 30.1357 ], [ -90.8866, 30.1294 ], [ -90.8903, 30.123 ], [ -90.8938, 30.1166 ], [ -90.8972, 30.1101 ], [ -90.9004, 30.1036 ], [ -90.9035, 30.097 ], [ -90.9065, 30.0905 ], [ -90.9093, 30.0839 ], [ -90.912, 30.0772 ], [ -90.9145, 30.0706 ], [ -90.9169, 30.0639 ], [ -90.9192, 30.0572 ], [ -90.9213, 30.0505 ], [ -90.9232, 30.0438 ], [ -90.925, 30.037 ], [ -90.9267, 30.0303 ], [ -90.9283, 30.0235 ], [ -90.9296, 30.0167 ], [ -90.9309, 30.0099 ], [ -90.932, 30.0032 ], [ -90.933, 29.9964 ], [ -90.9338, 29.9896 ], [ -90.9345, 29.9828 ], [ -90.935, 29.9761 ], [ -90.9354, 29.9693 ], [ -90.9357, 29.9626 ], [ -90.9358, 29.9558 ], [ -90.9358, 29.9491 ], [ -90.9357, 29.9424 ], [ -90.9354, 29.9357 ], [ -90.9349, 29.9291 ], [ -90.9344, 29.9224 ], [ -90.9337, 29.9158 ], [ -90.9328, 29.9092 ], [ -90.9319, 29.9027 ], [ -90.9308, 29.8961 ], [ -90.9296, 29.8897 ], [ -90.9282, 29.8832 ], [ -90.9268, 29.8768 ], [ -90.9251, 29.8704 ], [ -90.9234, 29.8641 ], [ -90.9216, 29.8578 ], [ -90.9196, 29.8515 ], [ -90.9175, 29.8453 ], [ -90.9152, 29.8392 ], [ -90.9129, 29.8331 ], [ -90.9104, 29.827 ], [ -90.9079, 29.821 ], [ -90.9052, 29.8151 ], [ -90.9023, 29.8092 ], [ -90.8994, 29.8034 ], [ -90.8964, 29.7976 ], [ -90.8932, 29.7919 ], [ -90.89, 29.7863 ], [ -90.8866, 29.7807 ], [ -90.8832, 29.7752 ], [ -90.8796, 29.7698 ], [ -90.8759, 29.7644 ], [ -90.8722, 29.7591 ], [ -90.8683, 29.7539 ], [ -90.8643, 29.7487 ], [ -90.8603, 29.7437 ], [ -90.8561, 29.7387 ], [ -90.8519, 29.7338 ], [ -90.8476, 29.7289 ], [ -90.8432, 29.7241 ], [ -90.8387, 29.7195 ], [ -90.8341, 29.7149 ], [ -90.8294, 29.7104 ], [ -90.8247, 29.7059 ], [ -90.8198, 29.7016 ], [ -90.8149, 29.6973 ], [ -90.81, 29.6932 ], [ -90.8049, 29.6891 ], [ -90.7998, 29.6851 ], [ -90.7946, 29.6812 ], [ -90.7896, 29.6772 ], [ -90.7848, 29.6731 ], [ -90.7802, 29.6687 ], [ -90.7759, 29.6641 ], [ -90.7718, 29.6592 ], [ -90.7679, 29.6541 ], [ -90.7642, 29.6488 ], [ -90.7607, 29.6432 ], [ -90.7574, 29.6373 ], [ -90.7541, 29.6313 ], [ -90.7506, 29.6253 ], [ -90.747, 29.6194 ], [ -90.7432, 29.6135 ], [ -90.7393, 29.6076 ], [ -90.7352, 29.6017 ], [ -90.7309, 29.5959 ], [ -90.7265, 29.5901 ], [ -90.7219, 29.5843 ], [ -90.7171, 29.5786 ], [ -90.7122, 29.573 ], [ -90.7071, 29.5674 ], [ -90.7019, 29.5619 ], [ -90.6965, 29.5564 ], [ -90.6909, 29.551 ], [ -90.6852, 29.5456 ], [ -90.6793, 29.5403 ], [ -90.6733, 29.5351 ], [ -90.6671, 29.5299 ], [ -90.6608, 29.5249 ], [ -90.6543, 29.5199 ], [ -90.6476, 29.515 ], [ -90.6408, 29.5102 ], [ -90.6339, 29.5054 ], [ -90.6268, 29.5008 ], [ -90.6196, 29.4963 ], [ -90.6122, 29.4918 ], [ -90.6047, 29.4875 ], [ -90.597, 29.4832 ], [ -90.5892, 29.4791 ], [ -90.5813, 29.4751 ], [ -90.5732, 29.4712 ], [ -90.565, 29.4674 ], [ -90.5567, 29.4637 ], [ -90.5483, 29.4602 ], [ -90.5397, 29.4568 ], [ -90.531, 29.4535 ], [ -90.5222, 29.4503 ], [ -90.5132, 29.4473 ], [ -90.5042, 29.4443 ], [ -90.495, 29.4416 ], [ -90.4858, 29.439 ], [ -90.4764, 29.4365 ], [ -90.4669, 29.4341 ], [ -90.4573, 29.432 ], [ -90.4477, 29.4299 ], [ -90.4379, 29.428 ], [ -90.428, 29.4263 ], [ -90.4181, 29.4247 ], [ -90.4081, 29.4233 ], [ -90.3979, 29.422 ], [ -90.3877, 29.4209 ], [ -90.3775, 29.42 ], [ -90.3671, 29.4192 ], [ -90.3567, 29.4186 ], [ -90.3463, 29.4182 ], [ -90.3357, 29.4179 ], [ -90.3251, 29.4179 ], [ -90.3145, 29.4179 ], [ -90.3038, 29.4182 ], [ -90.2931, 29.4187 ], [ -90.2823, 29.4193 ], [ -90.2715, 29.4201 ], [ -90.2606, 29.4211 ], [ -90.2498, 29.4222 ], [ -90.2389, 29.4236 ], [ -90.2279, 29.4251 ], [ -90.217, 29.4269 ], [ -90.206, 29.4288 ], [ -90.1951, 29.4309 ], [ -90.1841, 29.4332 ], [ -90.1731, 29.4357 ], [ -90.1622, 29.4383 ], [ -90.1512, 29.4412 ], [ -90.1403, 29.4443 ], [ -90.1293, 29.4475 ], [ -90.1184, 29.451 ], [ -90.1076, 29.4546 ], [ -90.0967, 29.4584 ], [ -90.0859, 29.4625 ], [ -90.0751, 29.4667 ], [ -90.0645, 29.4712 ], [ -90.054, 29.476 ], [ -90.0438, 29.4811 ], [ -90.0339, 29.4866 ], [ -90.0241, 29.4924 ], [ -90.0147, 29.4985 ], [ -90.0055, 29.5049 ], [ -89.9966, 29.5116 ], [ -89.988, 29.5186 ], [ -89.9796, 29.5258 ], [ -89.9713, 29.5332 ], [ -89.9632, 29.5407 ], [ -89.9552, 29.5483 ], [ -89.9473, 29.5561 ], [ -89.9396, 29.5639 ], [ -89.932, 29.572 ], [ -89.9246, 29.5801 ], [ -89.9174, 29.5884 ], [ -89.9102, 29.5968 ], [ -89.9033, 29.6053 ], [ -89.8965, 29.6139 ], [ -89.8899, 29.6226 ], [ -89.8835, 29.6315 ], [ -89.8772, 29.6405 ], [ -89.8711, 29.6495 ], [ -89.8651, 29.6587 ], [ -89.8594, 29.668 ], [ -89.8538, 29.6774 ], [ -89.8484, 29.6869 ], [ -89.8432, 29.6964 ], [ -89.8381, 29.7061 ], [ -89.8333, 29.7159 ], [ -89.8286, 29.7257 ], [ -89.8242, 29.7356 ], [ -89.8199, 29.7457 ], [ -89.8159, 29.7558 ], [ -89.812, 29.7659 ], [ -89.8083, 29.7762 ], [ -89.8049, 29.7865 ], [ -89.8016, 29.7969 ], [ -89.7985, 29.8073 ], [ -89.7957, 29.8178 ], [ -89.7931, 29.8283 ], [ -89.7906, 29.839 ], [ -89.7884, 29.8496 ], [ -89.7864, 29.8603 ], [ -89.7846, 29.8711 ], [ -89.783, 29.8819 ], [ -89.7817, 29.8927 ], [ -89.7805, 29.9036 ], [ -89.7796, 29.9145 ], [ -89.7789, 29.9254 ], [ -89.7784, 29.9364 ], [ -89.7782, 29.9474 ], [ -89.7781, 29.9584 ], [ -89.7783, 29.9694 ], [ -89.7787, 29.9804 ], [ -89.7794, 29.9914 ], [ -89.7802, 30.0025 ], [ -89.7813, 30.0135 ], [ -89.7826, 30.0245 ], [ -89.7841, 30.0356 ], [ -89.7859, 30.0466 ], [ -89.7879, 30.0576 ], [ -89.7901, 30.0686 ], [ -89.7926, 30.0796 ], [ -89.7952, 30.0905 ], [ -89.7981, 30.1014 ], [ -89.8013, 30.1123 ], [ -89.8046, 30.1232 ], [ -89.8082, 30.134 ], [ -89.812, 30.1448 ], [ -89.816, 30.1555 ], [ -89.8203, 30.1662 ], [ -89.8248, 30.1768 ], [ -89.8295, 30.1874 ], [ -89.8344, 30.1979 ], [ -89.8395, 30.2084 ], [ -89.8449, 30.2188 ], [ -89.8505, 30.2291 ], [ -89.8563, 30.2394 ], [ -89.8623, 30.2496 ], [ -89.8685, 30.2597 ], [ -89.875, 30.2697 ], [ -89.8816, 30.2796 ], [ -89.8885, 30.2894 ], [ -89.8956, 30.2992 ], [ -89.9029, 30.3088 ], [ -89.9104, 30.3184 ], [ -89.9181, 30.3279 ], [ -89.9262, 30.3371 ], [ -89.9348, 30.3459 ], [ -89.9439, 30.3542 ], [ -89.9535, 30.3622 ], [ -89.9636, 30.3697 ], [ -89.9742, 30.3767 ], [ -89.9852, 30.3832 ], [ -89.9967, 30.3893 ], [ -90.0086, 30.3949 ], [ -90.0207, 30.4001 ], [ -90.0329, 30.4052 ], [ -90.0451, 30.41 ], [ -90.0574, 30.4145 ], [ -90.0698, 30.4189 ], [ -90.0821, 30.4231 ], [ -90.0946, 30.427 ], [ -90.107, 30.4307 ], [ -90.1195, 30.4342 ], [ -90.132, 30.4375 ], [ -90.1445, 30.4406 ], [ -90.157, 30.4435 ], [ -90.1696, 30.4461 ], [ -90.1821, 30.4486 ], [ -90.1947, 30.4508 ], [ -90.2072, 30.4528 ], [ -90.2197, 30.4546 ], [ -90.2322, 30.4562 ], [ -90.2447, 30.4576 ], [ -90.2571, 30.4588 ], [ -90.2696, 30.4598 ], [ -90.282, 30.4606 ], [ -90.2943, 30.4611 ], [ -90.3066, 30.4615 ], [ -90.3189, 30.4617 ], [ -90.3311, 30.4616 ], [ -90.3432, 30.4614 ], [ -90.3553, 30.461 ], [ -90.3673, 30.4604 ], [ -90.3793, 30.4596 ], [ -90.3912, 30.4586 ], [ -90.403, 30.4574 ], [ -90.4147, 30.4561 ], [ -90.4263, 30.4545 ], [ -90.4379, 30.4528 ], [ -90.4493, 30.4509 ], [ -90.4607, 30.4488 ], [ -90.472, 30.4465 ], [ -90.4831, 30.4441 ], [ -90.4941, 30.4415 ] ] ] } }
]
}
