{"type":"FeatureCollection","features":[{"type":"Feature","id":1,"geometry":{"type":"Point","coordinates":[-55.140695691752683,16.386582459213287]},"properties":{"objectid":1,"basin":"Atlantic","prob2day":"0%","risk2day":"Low","prob7day":"10%","risk7day":"Low","idp_source":"gtwo_points_202608291141","idp_filedate":1788003782000,"idp_ingestdate":1788003839000}},{"type":"Feature","id":2,"geometry":{"type":"Point","coordinates":[-87.640000000299665,29.21000000000015]},"properties":{"objectid":2,"basin":"Atlantic","prob2day":"0%","risk2day":"Low","prob7day":"10%","risk7day":"Low","idp_source":"gtwo_points_202608291141","idp_filedate":1788003782000,"idp_ingestdate":1788003839000}},{"type":"Feature","id":3,"geometry":{"type":"Point","coordinates":[-98.749109940471271,9.9594145384503463]},"properties":{"objectid":3,"basin":"Pacific","prob2day":"40%","risk2day":"Medium","prob7day":"90%","risk7day":"High","idp_source":"gtwo_points_202608291141","idp_filedate":1788003782000,"idp_ingestdate":1788003839000}}]}