{"type":"FeatureCollection","features":[{"type":"Feature","id":1,"geometry":{"type":"Polygon","coordinates":[[[-67.725991877023375,19.352134480721872],[-67.600180013396766,19.368585197049356],[-67.48117563454781,19.388623811739649],[-67.368866979027757,19.412143805492349],[-67.263142282690069,19.439038659007053],[-67.163889781388207,19.469201853882566],[-67.070997710975462,19.502526869919279],[-66.984354310003312,19.538907189615259],[-66.903847813425728,19.578236291871519],[-66.829366457995548,19.620407658286922],[-66.760798480465382,19.665314769561121],[-66.69803211758807,19.71285110819224],[-66.640955604317583,19.762910153081236],[-66.58945717830602,19.815385385827028],[-66.543425076306107,19.870170287129213],[-66.502747533271929,19.927158337687274],[-66.46731278685553,19.986243019100186],[-66.437009073809577,20.04731781206749],[-66.411724629987589,20.11027619728884],[-66.391347691242856,20.175011655463663],[-66.375766495227481,20.241417668190991],[-66.36486927779481,20.309387714371667],[-66.358544275697682,20.378815277403248],[-66.356679724789331,20.44959383708607],[-66.359163861822651,20.521616874119559],[-66.365884923550254,20.594777869203426],[-66.376731145825602,20.668970303037213],[-66.391590765401418,20.744087658119042],[-66.41035201903037,20.820023413349986],[-66.432903143465182,20.896671051228168],[-66.459132373659997,20.973924051553865],[-66.488927948166179,21.051675895026676],[-66.522178101038435,21.129820063245461],[-66.558771070828129,21.208250036909817],[-66.598593261469716,21.286862911993921],[-66.641516534860102,21.365584492630376],[-66.687405816425155,21.444354273331214],[-66.736125989322829,21.523111833144696],[-66.787541936710909,21.601796752018629],[-66.841518541747178,21.680348609001271],[-66.897920686690213,21.758706982241563],[-66.956613255597176,21.836811450787991],[-67.017461131625794,21.914601594588078],[-67.0803291970347,21.992016992690196],[-67.14508233498168,22.0689972232434],[-67.211585429523836,22.145481866195325],[-67.279703362919747,22.221410500594288],[-67.349301017427877,22.296722704589286],[-67.420243278004762,22.37135805812801],[-67.492395026009547,22.445256140258834],[-67.565621145499335,22.518356530029962],[-67.639786518732762,22.590598806489879],[-67.714756029766875,22.661922548686789],[-67.790394560860193,22.732267335669121],[-67.866566996069878,22.801572746485192],[-67.943138217654507,22.869778360183318],[-68.019973107872545,22.936823755811815],[-68.096936551680415,23.002648512419057],[-68.173893430437374,23.06719220905336],[-68.250708629099847,23.13039442476304],[-68.327247028127715,23.19219473949579],[-68.403373513376835,23.252532731400549],[-68.478952966206293,23.311347979525749],[-68.553850269774046,23.368580063819024],[-68.627930307237762,23.424168562429372],[-68.701057961755396,23.478053055304372],[-68.773098117384109,23.53017312059319],[-68.843921715114959,23.580472468829498],[-68.913508481531096,23.628968967743788],[-68.981932237482681,23.675744631010048],[-69.049269904682262,23.720883585709032],[-69.115598406641027,23.764469959820929],[-69.180994666870276,23.80658788312445],[-69.245535606183182,23.847321480901769],[-69.309298149889571,23.886754883830974],[-69.372359218802785,23.924972217194238],[-69.434795736433955,23.962057610770273],[-69.496684625395062,23.998095192539267],[-69.55810280919718,24.033169089581975],[-69.619127209552971,24.067363429878526],[-69.679834749973622,24.100762342308371],[-69.740302353970321,24.133449954851699],[-69.80060694325573,24.165510393689885],[-69.860825440441602,24.197027788601702],[-69.921034769039238,24.228086267567335],[-69.981311852559827,24.258769957667539],[-70.041733611816596,24.289162986882502],[-70.10237697122011,24.31934948409156],[-70.163318853382293,24.349413576375582],[-70.224636180914899,24.379439392614017],[-70.286405876429967,24.40951105988762],[-70.34870486343857,24.439712706176579],[-70.411610063653427,24.470128459460966],[-70.475198400585612,24.500842448620233],[-70.539546796847105,24.53193880163451],[-70.604732175049719,24.563501644685289],[-70.670831458704754,24.595615107551339],[-70.737921570424021,24.628363317313358],[-70.806079432819445,24.661830402850967],[-70.87538196850295,24.696100491244806],[-70.945905955295473,24.731256894790022],[-71.017719456587542,24.767333969387323],[-71.090877028851708,24.804290188841264],[-71.16543206483783,24.842077500576352],[-71.241437960893052,24.880647851117601],[-71.318948110666668,24.919953186990142],[-71.398015907807803,24.959945454719104],[-71.47869474686496,25.000576600829618],[-71.561038022386697,25.041798572746075],[-71.645099128022252,25.083563316094285],[-71.730931459219335,25.125822777399378],[-71.818588409627296,25.168528904985124],[-71.908123372895261,25.211633643577954],[-71.999589744470995,25.255088941501583],[-72.093040918003851,25.298846744381876],[-72.188530288042273,25.342858999643283],[-72.286111248235386,25.387077652911501],[-72.385837194031183,25.431454650711714],[-72.487761519078731,25.475941941367637],[-72.59193761702727,25.520491469605759],[-72.698418883324678,25.565055183749848],[-72.807258711620136,25.609585029425716],[-72.918510496462147,25.654032954057698],[-73.032227631499893,25.698350903271717],[-73.148463511281932,25.742490824492108],[-73.267271531256029,25.786404664244003],[-73.388705084172216,25.83004436905253],[-73.512817565478144,25.873361885442819],[-73.639662368823167,25.916309160839262],[-73.769292887856409,25.95883814086767],[-73.901762518025691,26.000900772952434],[-74.037124653879573,26.042449002719422],[-74.175432688167916,26.083434778492403],[-74.316739948889449,26.123810026111983],[-74.461032677316098,26.163507729897958],[-74.60810414449054,26.202406377952116],[-74.757713135152983,26.240374719617762],[-74.909618434043409,26.277281504238147],[-75.063578825901971,26.31299548295533],[-75.219353096368195,26.347385404213185],[-75.376700029282802,26.380320019153714],[-75.535378410285318,26.411668076220906],[-75.695147024115784,26.441298325657328],[-75.855764656413669,26.469079517705723],[-76.01699009101975,26.494880400810018],[-76.178582112674235,26.518569726112105],[-76.340299507915859,26.540016242955403],[-76.50190105968602,26.559088700683105],[-76.663145554523624,26.575655850437272],[-76.823791777168651,26.589586439762513],[-76.983598511462048,26.600749219800775],[-77.142324543043117,26.609012939895422],[-77.299728656652064,26.614246350288965],[-77.455569637029043,26.616318201224146],[-77.609606269813412,26.615097240245575],[-77.761597339745322,26.610452219394574],[-77.911301630665605,26.602251888014337],[-78.058477929113053,26.59036499454902],[-78.202885018928384,26.5746602901404],[-78.344281684851751,26.555006524131898],[-78.482426712522681,26.531272446766138],[-78.617078886681156,26.503326806487053],[-78.747996992966762,26.471038353537324],[-78.87493981432084,26.434275839058841],[-78.997666137282295,26.392908010596329],[-79.115934746591165,26.346803620191054],[-79.229504426987603,26.295831416287001],[-79.338168639271203,26.239906937255512],[-79.441914881966113,26.179207537497973],[-79.540798108146078,26.114001590001521],[-79.634873340132458,26.044557560383225],[-79.724195599347297,25.971143911562422],[-79.808819908112184,25.894029108256859],[-79.888801286949729,25.813481615184514],[-79.964194757282144,25.72976989616393],[-80.035055342330054,25.643162416812231],[-80.10143806261641,25.553927640048698],[-80.16339793956314,25.462334031490514],[-80.220989995491777,25.3686500540569],[-80.274269251824421,25.27314417426436],[-80.323290729983114,25.176084854132853],[-80.368109452289275,25.077740559279505],[-80.40878043926574,24.978379754422292],[-80.44535871233461,24.878270904278963],[-80.477899294716565,24.777682471768799],[-80.506457206934442,24.676882921609661],[-80.531087471309661,24.576140718519468],[-80.551845108364944,24.475724328115405],[-80.568785141321086,24.375902212417316],[-80.581962589801549,24.27694283794176],[-80.59143247702707,24.179114667607962],[-80.597249824419748,24.082686167033103],[-80.599469652502364,23.987925799136463],[-80.598146984495656,23.895102029535167],[-80.593336840922348,23.804483322047815],[-80.585094243204651,23.716338141392271],[-80.573474214563248,23.630934951387019],[-80.558531774621599,23.548542217649356],[-80.540321946600443,23.469428403098448],[-80.518899751022559,23.393861973351534],[-80.494320193122292,23.322089737451563],[-80.466638080283076,23.254106778804953],[-80.435908094882564,23.18974577404839],[-80.402184913902545,23.128836693758558],[-80.365523218821409,23.07120950851214],[-80.325977685721512,23.016694187986502],[-80.28360299518198,22.965120702758384],[-80.238453825983186,22.916319023404355],[-80.190584856905502,22.870119119601839],[-80.140050766729416,22.826350962826837],[-80.086906234235187,22.784844522756657],[-80.031205938203357,22.745429769068721],[-79.973004558313619,22.707936674138352],[-79.912356773346289,22.672195205844218],[-79.849317261182534,22.63803533566238],[-79.783940702401367,22.605287035068727],[-79.716281773984576,22.573780272841475],[-79.646395156511176,22.543345019557137],[-79.574335526962898,22.51381124579251],[-79.500157566818132,22.485008922124223],[-79.423915953058668,22.456768018229582],[-79.345665365364198,22.428918505584704],[-79.265460482515152,22.401290352967578],[-79.183355983291904,22.37371353185415],[-79.099406546474825,22.346018012821162],[-79.013666850844402,22.318033765545977],[-78.926191576979591,22.289590760605279],[-78.837035400962861,22.260518968575695],[-78.746253004272603,22.230648359134591],[-78.653899063890606,22.199808902858706],[-78.560028260395768,22.167830570324725],[-78.46469527166937,22.134543332109217],[-78.367954776491615,22.099777158788982],[-78.26985959204643,22.06336552290071],[-78.170406058992342,22.02524816537067],[-78.069525224509391,21.985487679013318],[-77.967144498919367,21.944153500483822],[-77.863191294342641,21.901315066437292],[-77.757593019302305,21.857041812629689],[-77.650277085918674,21.811403176615443],[-77.541170904513535,21.764468594150458],[-77.430201885408565,21.716307502789164],[-77.31729743982487,21.666989338287465],[-77.202384978084183,21.616583538199848],[-77.085391910508179,21.565159537382897],[-76.966245648317908,21.512786774290362],[-76.844873601835161,21.45953468467809],[-76.721203181381611,21.405472705201305],[-76.59516179817831,21.350670271615911],[-76.466676863446366,21.295196822375601],[-76.335675785708816,21.23912179233696],[-76.202085977985405,21.182514619054587],[-76.065834849698433,21.125444738284159],[-75.926849811169745,21.067981587580334],[-75.785058273620336,21.010194602698903],[-75.640387648271258,20.952153221194351],[-75.492765344544921,20.893926878822526],[-75.342118773662378,20.835585012238653],[-75.18837534684468,20.777197058097897],[-75.031462473514239,20.718832453954747],[-74.871307564892106,20.660560634665671],[-74.707838032199334,20.602451037785329],[-74.540981284858276,20.544573099968716],[-74.370664734989418,20.48699625697185],[-74.196815791115739,20.429789946349104],[-74.019361866256986,20.373023604755701],[-73.838231089293231,20.31676671381291],[-73.653468380461277,20.261096122388267],[-73.465363567874249,20.206104130601261],[-73.27423732009612,20.151884981107116],[-73.080410302992959,20.098532920158277],[-72.884203185128797,20.04614219040991],[-72.685936633268909,19.994807037215139],[-72.485931314178686,19.944621704128508],[-72.284507896422156,19.895680436503085],[-72.08198704586539,19.848077477893412],[-71.878689430172926,19.801907072753352],[-71.674935717009646,19.757263466435973],[-71.471046574040031,19.714240900697177],[-71.267342667130265,19.672933622688674],[-71.064144664844321,19.633435875065743],[-70.861773233947474,19.595841902282132],[-70.660549041205172,19.560245949690966],[-70.460792755181387,19.526742260846788],[-70.26282504174219,19.495425079304084],[-70.066966569451495,19.466388651315356],[-69.87353800417543,19.439727219535712],[-69.682860014477967,19.415535028418958],[-69.49525326712444,19.393906323318333],[-69.311038428880295,19.37493534778821],[-69.130536168309391,19.358716346282506],[-68.954067151277911,19.345343563254971],[-68.781952045450453,19.334911243159468],[-68.614511518491668,19.327513629550481],[-68.452066238066323,19.323244967781193],[-68.294936870040431,19.322199501406033],[-68.143444082977965,19.324471475778125],[-67.997908543644257,19.330155133552694],[-67.858650919704075,19.33934472098224],[-67.725991877023375,19.352134480721872]]]},"properties":{"objectid":1,"basin":"Atlantic","prob2day":"0%","risk2day":"Low","prob7day":"10%","risk7day":"Low","idp_source":"gtwo_areas_202608291141","idp_filedate":1788003782000,"idp_ingestdate":1788003835000,"st_area(shape)":64.574470656345085,"st_perimeter(shape)":34.25171797674377}},{"type":"Feature","id":2,"geometry":{"type":"Polygon","coordinates":[[[-94.095183885627705,26.270032589032894],[-94.004158963365342,26.224901747118054],[-93.910086423049904,26.18052744998198],[-93.813069294612148,26.136932079052372],[-93.713210607083738,26.094138014857663],[-93.610613388596903,26.052167637026969],[-93.505380668183193,26.011043326988101],[-93.397615475773478,25.970787464370119],[-93.287420838600724,25.931422430600833],[-93.174899787495121,25.892970604409982],[-93.060155349689524,25.855454368124754],[-92.943290555114913,25.818896101374094],[-92.824408431903521,25.783318183787287],[-92.703612009086839,25.748742997691352],[-92.581004316595852,25.715192921816026],[-92.456688382562675,25.682690336689802],[-92.330767235119708,25.651257624639811],[-92.203343904197709,25.620917163496415],[-92.07452141882834,25.591691335586802],[-91.944402807143717,25.56360252054003],[-91.813091098175562,25.536673098884535],[-91.680689321854629,25.510925451148807],[-91.547300505413887,25.486381957861227],[-91.41302767878426,25.463064999550227],[-91.277973870997243,25.4409969567443],[-91.142242110185123,25.420200209072505],[-91.005935426278825,25.400697137962709],[-90.869156847410466,25.382510123043858],[-90.732009402611766,25.365661544844556],[-90.594596120914161,25.350173784792503],[-90.457020030449939,25.336069221617436],[-90.319384162049346,25.323370237646486],[-90.181791542045914,25.31209921250877],[-90.044345201269891,25.302278525833458],[-89.907148168752883,25.293930559048192],[-89.770303471727743,25.287077692681521],[-89.633914140125341,25.281742307261823],[-89.498083202977341,25.277946781518892],[-89.362913688415858,25.275713497779861],[-89.228508626371934,25.275064836573108],[-89.094971044977626,25.276023176628428],[-88.962403974163976,25.278610900272952],[-88.830910441163837,25.282850386236476],[-88.700593475908079,25.288764015946697],[-88.571556107428307,25.296374169932164],[-88.443901363856753,25.305703228721143],[-88.317732275124285,25.316773571942917],[-88.193151869363192,25.329607580125867],[-88.070263175604964,25.344227634697745],[-87.94916922288121,25.360656115287611],[-87.829973040223535,25.378915402424013],[-87.712777655764114,25.39902787753465],[-87.597686099433815,25.421015919349315],[-87.484801399364983,25.444901909295822],[-87.374226585488429,25.470708227902549],[-87.266064685037065,25.498457254798609],[-87.160418728841137,25.528171371411815],[-87.057391744133554,25.559872958270546],[-86.957086760845243,25.593584394104653],[-86.859606807108378,25.629328061241154],[-86.765054735687386,25.667126224196011],[-86.673495863443236,25.70697671020713],[-86.584911765065783,25.748822819717475],[-86.49927268288792,25.792600477829922],[-86.416548860141688,25.838245608747968],[-86.336710539159924,25.885694135775907],[-86.259727963174839,25.93488198311718],[-86.185571374519213,25.985745074975398],[-86.114211017324465,26.038219335554061],[-86.045617133923486,26.092240689056723],[-85.979759967548375,26.147745058787564],[-85.916609759632593,26.204668368950195],[-85.85613675430767,26.262946544647434],[-85.798311194805706,26.322515508284198],[-85.74310332256016,26.383311184963361],[-85.69048338260194,26.445269498888422],[-85.640421615465073,26.508326373363559],[-85.59288826528109,26.572417733491761],[-85.547853575282147,26.63747950257715],[-85.505287786901761,26.703447603923905],[-85.465161145170612,26.770257963534334],[-85.427443891522273,26.837846503813239],[-85.392106268289524,26.906149148964175],[-85.359118519603896,26.975101823190755],[-85.328450888697432,27.044640451595683],[-85.300073617003704,27.114700956584045],[-85.273956948654131,27.185219264157865],[-85.250071125082229,27.256131295822797],[-85.228386390419473,27.327372977580978],[-85.208872987897962,27.398880233636021],[-85.191501158951212,27.470588986392727],[-85.176241147710698,27.542435160954085],[-85.163063196509199,27.61435468152348],[-85.151937548578871,27.686283471405204],[-85.142834446252607,27.75815745570219],[-85.135724133661711,27.829912556819181],[-85.130576851340493,27.901484700758488],[-85.127362844319691,27.972809810824231],[-85.126052354932142,28.04382381032076],[-85.126615625510624,28.114462623451459],[-85.129022900186612,28.184662175319261],[-85.133244420393567,28.2543583892284],[-85.139250429363699,28.323487189382433],[-85.147011171228485,28.391984499984858],[-85.156496886522007,28.459786244339853],[-85.167677821174379,28.526828347550349],[-85.180524214820537,28.593046732920527],[-85.195006313390536,28.658377324653941],[-85.211094357418574,28.722756046954146],[-85.228758591036069,28.786118823125321],[-85.2479692565758,28.848401578270341],[-85.268696598169356,28.909540236592761],[-85.29091085635082,28.969470721396817],[-85.314582276151043,29.028128955986688],[-85.339681099902748,29.085450866364511],[-85.36617756993877,29.141372374935315],[-85.394041929491323,29.195829406801806],[-85.423244420893184,29.248757885268333],[-85.453755288275829,29.300093735437656],[-85.485544773972038,29.349772879714749],[-85.518583345145146,29.397732241449944],[-85.552850217563389,29.443947539847215],[-85.588335970828268,29.488444894816212],[-85.625031940871281,29.531253794227382],[-85.662929466321714,29.572403725052027],[-85.702019884909646,29.611924176060029],[-85.742294535264477,29.649844635121951],[-85.783744754216912,29.686194590108414],[-85.826361879497028,29.721003527990547],[-85.870137249734171,29.754300936639083],[-85.915062201759099,29.786116304823736],[-85.961128074201156,29.816479119515918],[-86.008326205689741,29.84541886858608],[-86.056647932156238,29.872965040804161],[-86.106084592230047,29.899147123141347],[-86.156627523641191,29.923994603468316],[-86.20826806501907,29.947536969655573],[-86.260997553194443,29.969803710473002],[-86.314807326796597,29.990824311992526],[-86.369688723555669,30.010628262984085],[-86.425633080302305,30.029245051318185],[-86.482631735665962,30.046704164865446],[-86.540676026477342,30.063035091496431],[-86.59975729226511,30.078267319081647],[-86.659866870759402,30.092430334592393],[-86.720996097891486,30.105553626798553],[-86.783136313190198,30.117666682671427],[-86.846278853486183,30.128798990980783],[-86.910415057408841,30.13898003869798],[-86.975536262688252,30.148239314592843],[-87.041633807054438,30.156606305636615],[-87.108699027338162,30.164110500599293],[-87.176723263068027,30.170781386451949],[-87.245697850175532,30.176648451065319],[-87.315614128189338,30.18174118230985],[-87.386463433940207,30.186089068056162],[-87.458237106057481,30.189721596174877],[-87.530926482271241,30.192668255435763],[-87.604522899412189,30.194958531910856],[-87.679017696109668,30.196621914369985],[-87.754402209194495,30.197687890683767],[-87.830667778195277,30.19818594872271],[-87.90780573994283,30.198145575458057],[-87.985807432167178,30.197596260559123],[-88.064664193497606,30.196567489198401],[-88.144367360764988,30.195088751944468],[-88.224908272598611,30.193189534869305],[-88.306278265829178,30.190899325843361],[-88.388468679086145,30.188247613636577],[-88.471470850099536,30.185263885220252],[-88.555276116599373,30.181977629364269],[-88.639875816315794,30.178418333039758],[-88.725261286978707,30.174615484117453],[-88.81142386631825,30.170598570467803],[-88.898354892963823,30.166397080860747],[-88.986045704645448,30.16204050136821],[-89.07448763819383,30.157558320760018],[-89.163672032238367,30.152980027806166],[-89.253590224509139,30.148335108578522],[-89.344233552736171,30.143653051847025],[-89.435592151356616,30.138961648461475],[-89.527638148581616,30.134263294215771],[-89.620329814968898,30.129540839038611],[-89.713625061347386,30.124776626540211],[-89.807481800344704,30.119953002129478],[-89.901857942789718,30.115052313013962],[-89.996711402209314,30.11005690280399],[-90.092000089432474,30.104949117807678],[-90.187681917086707,30.099711303434049],[-90.283714796900256,30.094325805091955],[-90.380056641500687,30.088774967291045],[-90.476665362616302,30.083041136339489],[-90.573498871975232,30.077106657646254],[-90.670515082205156,30.070953875720932],[-90.767671904134943,30.064565137771012],[-90.864927251291533,30.057922787406881],[-90.962239035403059,30.051009170936652],[-91.059565167298501,30.043806632869973],[-91.156863560504803,30.036297520414394],[-91.254092125850832,30.028464177180183],[-91.351208775964153,30.020288949475571],[-91.448171423472331,30.011754181810204],[-91.544937979204292,30.002842220492198],[-91.6414663557876,29.993535410930633],[-91.73771446584982,29.983816098534248],[-91.833640220219877,29.973666628712067],[-91.929201531525337,29.963069345973679],[-92.02435631239382,29.952006596627257],[-92.119062473654139,29.940460725182447],[-92.213277927933916,29.928414078846799],[-92.306960586961395,29.915849001230583],[-92.400068364263518,29.902747838641972],[-92.492559169769777,29.889092935590668],[-92.584390916107793,29.874866639284107],[-92.675521516804451,29.860051293332674],[-92.765908881789358,29.844629243145221],[-92.855510924589396,29.828582835929296],[-92.944285556033492,29.811894415295171],[-93.03219068874921,29.794546327551132],[-93.11918423536406,29.77652091720671],[-93.205224107606398,29.757800530570194],[-93.290268216305037,29.738367513050434],[-93.374274475886239,29.718204210056399],[-93.457200795380288,29.697292966097677],[-93.53900508921339,29.675616127482442],[-93.61964526821447,29.65315603961966],[-93.699079245910355,29.629895047018977],[-93.777264932230707,29.605815495988509],[-93.85416023980315,29.580899731937222],[-93.929723082154396,29.555130100274027],[-94.003911369214222,29.52848894550857],[-94.076683014509399,29.500958613049704],[-94.147995929768229,29.472521450104978],[-94.217808026718956,29.443159800284718],[-94.286077217089769,29.412856009897098],[-94.352761413508347,29.381592424351027],[-94.417818527702764,29.349351388156208],[-94.481206472300755,29.316115247620701],[-94.542883159030453,29.281866347254265],[-94.602806498720838,29.246587033365017],[-94.660936074939798,29.210263706405044],[-94.717243808155104,29.172912733136286],[-94.771707151463772,29.134563912594615],[-94.824303582244397,29.095247106768682],[-94.875010578775061,29.054992178546343],[-94.923805620233111,29.013828989016758],[-94.970666183997082,28.971787402866482],[-95.015569749244435,28.928897280285412],[-95.058493794253081,28.885188484161347],[-95.099415797301106,28.840690876482881],[-95.13831323666642,28.795434320137929],[-95.175163590627108,28.749448677114913],[-95.209944337461081,28.702763809402427],[-95.242632955446425,28.655409579888328],[-95.273206923760426,28.60741585056121],[-95.301643719781737,28.558812483409497],[-95.327920821788382,28.509629341321215],[-95.352015708957708,28.459896286284732],[-95.373905858668365,28.409643180288697],[-95.393568750996963,28.358899885321591],[-95.410981862422886,28.307696265170648],[-95.42612267212354,28.256062180025708],[-95.43896865747746,28.204027494573381],[-95.449497298561369,28.151622069003452],[-95.457686072753972,28.098875767103095],[-95.463512459232504,28.045818449961644],[-95.466953934476408,27.99247997956752],[-95.467987978562235,27.938890220607334],[-95.466592068868806,27.885079032371607],[-95.462743684573297,27.831076279546778],[-95.456420303054415,27.776911822322859],[-95.447599404388882,27.722615525386345],[-95.436258464156708,27.668217248927022],[-95.422374963333766,27.613746855832858],[-95.405926379298876,27.559234208991711],[-95.386890190329893,27.504709169492742],[-95.365243873805639,27.450201601123126],[-95.340964909802665,27.395741364972139],[-95.314030776598941,27.341358323927636],[-95.28441895067391,27.287082339978156],[-95.252106912104182,27.232943276011497],[-95.217072139167783,27.178970993116991],[-95.179292109243363,27.125195354182381],[-95.138744300608892,27.071646222095637],[-95.095406193341034,27.018353458845183],[-95.049255263919179,26.96534692552035],[-95.00026899241999,26.912656485908258],[-94.948424855322685,26.860312001997443],[-94.89370033180478,26.808343335776442],[-94.836072901043451,26.75678034923385],[-94.775520039518085,26.705652905257523],[-94.712019227305404,26.654990865835941],[-94.645547942683322,26.604824092957642],[-94.576083663030545,26.555182449510596],[-94.503603866625042,26.506095797483226],[-94.428086033543536,26.457593999763446],[-94.349507639365982,26.409706917440417],[-94.267846165068363,26.362464413402108],[-94.183079088029388,26.315896349636944],[-94.095183885627705,26.270032589032894]]]},"properties":{"objectid":2,"basin":"Atlantic","prob2day":"0%","risk2day":"Low","prob7day":"10%","risk7day":"Low","idp_source":"gtwo_areas_202608291141","idp_filedate":1788003782000,"idp_ingestdate":1788003835000,"st_area(shape)":41.504111893709485,"st_perimeter(shape)":25.367329370557329}},{"type":"Feature","id":3,"geometry":{"type":"Polygon","coordinates":[[[-118.74043779197041,20.534641483717621],[-118.84216724292384,20.4217811139074],[-118.93952276736172,20.302088323817259],[-119.03253861866222,20.175900152370275],[-119.1212490457068,20.043553637590435],[-119.2056883009742,19.90538581750161],[-119.2858906351446,19.761733730127673],[-119.36189029979738,19.612934414391873],[-119.43372154561274,19.459324908318024],[-119.50141862327075,19.301242249930056],[-119.56501578435086,19.139023478151159],[-119.6245472795332,18.973005630105888],[-119.68004736039728,18.80352574561681],[-119.73155027762311,18.630920861808477],[-119.77909028279021,18.455528016704761],[-119.82270162657869,18.277684249228855],[-119.86241856056802,18.097726597404687],[-119.89827533543831,17.915992100155449],[-119.93030620186966,17.732817794605694],[-119.95854541234081,17.548540719678613],[-119.98302721573333,17.363497913398135],[-120.00378586542524,17.178026413788132],[-120.02085561119742,16.992463260671059],[-120.03427070462919,16.807145490272319],[-120.04406539550149,16.622410141514933],[-120.05027393719234,16.438594253322265],[-120.05293057948256,16.256034863718128],[-120.05206957305228,16.075069010726395],[-120.0477251703802,15.896033732370995],[-120.03993162124721,15.7192660666758],[-120.02872317723273,15.545103053463265],[-120.01413408901692,15.373881728958736],[-119.99619860817916,15.205939132984724],[-119.97495098629889,15.041612302665783],[-119.95042547315694,14.881238277824423],[-119.92265632123213,14.725154094685877],[-119.8916777803052,14.573696793072656],[-119.857524102855,14.427203411008747],[-119.82023062144594,14.285990153722764],[-119.77984736896082,14.150090409444999],[-119.73643497049738,14.019333742258539],[-119.69005428677582,13.893545216039001],[-119.64076617581827,13.772549896460703],[-119.58863149744553,13.656172848298468],[-119.53371111057919,13.544239135427915],[-119.47606587504004,13.436573823523247],[-119.4157566506488,13.333001976460196],[-119.35284429632713,13.233348659013529],[-119.28738967099645,13.137438936857563],[-119.21945363447753,13.045097872968597],[-119.14909704659135,12.956150533020832],[-119.07638076625926,12.87042198178915],[-119.00136565240285,12.787737284048546],[-118.92411256574223,12.707921504573903],[-118.84468236340024,12.63079970724084],[-118.76313590699641,12.556196956824238],[-118.6795340545529,12.483938318998355],[-118.59393766678977,12.413848857638811],[-118.50640760083002,12.345753637520488],[-118.41700471829301,12.279477723418324],[-118.3257898781003,12.214846180107259],[-118.23282393827407,12.151684071462853],[-118.13816775953438,12.089816464058686],[-118.04188220080283,12.029068420871056],[-117.94402812100088,11.969265007574165],[-117.84466637994939,11.910231288043633],[-117.74385783746914,11.851792327054397],[-117.64166335248166,11.79377319028066],[-117.53814378480774,11.735998941598041],[-117.4333599924696,11.678294645781421],[-117.32737283618735,11.620485367605795],[-117.22024317488251,11.56239617094667],[-117.11203186837594,11.50385212237768],[-117.0027997755891,11.444678284875067],[-116.89260775544346,11.384699723213771],[-116.78151626756159,11.323742146083305],[-116.66953736825485,11.261709100294865],[-116.55658910680177,11.198655302400425],[-116.44257873162309,11.134652842055175],[-116.3274134902403,11.069773805317027],[-116.21100063197349,11.004090281841172],[-116.09324740524346,10.93767435768558],[-115.97406105757165,10.870598121606179],[-115.85334883827818,10.802933659660823],[-115.73101799578376,10.734753061504705],[-115.60697577850925,10.666128414095169],[-115.48112943397609,10.597131805288711],[-115.35338621240368,10.52783532204262],[-115.22365336041418,10.458311053112766],[-115.09183812642829,10.388631085456382],[-114.95784776066552,10.318867506030699],[-114.82158950974798,10.249092404491023],[-114.68297062299575,10.179377866895152],[-114.54189834882965,10.109795981999127],[-114.39827993567042,10.040418836760068],[-114.25202263103949,9.9713185190345826],[-114.10303368515633,9.9025671157799025],[-113.9512203446431,9.8342367166512759],[-113.79648985881983,9.766399407706615],[-113.63874947610736,9.699127277701848],[-113.47790644492642,9.6324924126948304],[-113.3138680136978,9.56656690234081],[-113.14654143084226,9.5014228326976991],[-112.9758339438813,9.4371322925214258],[-112.80165280303436,9.3737673696684851],[-112.6239052549235,9.3114001510962225],[-112.44249854886885,9.2501027237618132],[-112.25733993329118,9.189947177320505],[-112.06833665751066,9.1310055978302103],[-111.87539596814929,9.0733500740468003],[-111.67842511452733,9.0170526929275638],[-111.47733134506541,8.9621855432283724],[-111.2720219081844,8.908820711007138],[-111.06245316697999,8.8570337617987889],[-110.84886829903269,8.8069205615348096],[-110.63161429426418,8.7585843254064457],[-110.41103828828631,8.7121282775980831],[-110.1874874149122,8.6676556440928607],[-109.96130880795505,8.6252696499744843],[-109.73284960212732,8.58507352032683],[-109.50245693214163,8.5471704793342838],[-109.27047793091168,8.5116637529799277],[-109.03725973494869,8.4786565654482615],[-108.80314947716653,8.4482521418230476],[-108.56849429137833,8.4205537080873114],[-108.33364131319593,8.3956644893248722],[-108.09893767643251,8.373687708820853],[-107.86473051580055,8.3547265934576558],[-107.63136696421395,8.3388843683190998],[-107.39919415728446,8.3262642566902514],[-107.16855922882525,8.3169694854535123],[-106.93980931354889,8.3111032787934391],[-106.71329154526848,8.3087688608943608],[-106.48935305869662,8.3100694586387363],[-106.26834098854567,8.315108296211065],[-106.05060246772962,8.3239885986949957],[-105.83648463186017,8.3368135902750851],[-105.62633461475059,8.3536864978337348],[-105.42049955111327,8.3747105446560681],[-105.21932657386219,8.3999889567251103],[-105.0231628195084,8.4296249591246806],[-104.83235542096583,8.4637217769385984],[-104.64725151204755,8.5023826343512496],[-104.46819822926477,8.5457107564463968],[-104.295542704632,8.5938093701064986],[-104.1296320728618,8.6467816977173015],[-103.97081346956588,8.704730967060641],[-103.81943402855745,8.7677604005222065],[-103.67584088275044,8.8359732249844569],[-103.54038116865593,8.9094726655312115],[-103.41339134873164,8.9883551960356272],[-103.2949624766369,9.0725620323120779],[-103.18494019543357,9.1618791339150221],[-103.08315947592899,9.2560857082889356],[-102.98945529072898,9.3549609637776143],[-102.9036626115402,9.4582841069261576],[-102.82561641096851,9.5658343460783612],[-102.75515165982114,9.6773908904773407],[-102.69210333160339,9.7927329457689893],[-102.63630639802176,9.911639721196309],[-102.58759582988353,10.033890424203832],[-102.54580660069399,10.159264263135356],[-102.51077368215959,10.287540445435354],[-102.48233204508773,10.418498178548248],[-102.46031666298353,10.551916671717152],[-102.4445625075536,10.687575130587959],[-102.43490455050448,10.825252765302992],[-102.43117776354285,10.964728782407519],[-102.43321711927456,11.105782389345904],[-102.44085759030543,11.248192795361376],[-102.45393414744285,11.39173920789824],[-102.47228176239332,11.536200834401143],[-102.49573540866209,11.68135688231439],[-102.52413005795569,11.82698656088121],[-102.55730068108147,11.972869076646703],[-102.59508225154457,12.118783637055344],[-102.63730974105158,12.26450945224957],[-102.68381812040985,12.409825727875159],[-102.73444236312446,12.554511673175341],[-102.78901744090206,12.698346494695102],[-102.84737832454994,12.84110940167767],[-102.90935998757328,12.982579600668146],[-102.97479740167864,13.122536300909701],[-103.04352553857262,13.260758708947378],[-103.11537937086115,13.397026034024407],[-103.1901938693515,13.531117482685829],[-103.26780400754882,13.662812263275441],[-103.34804479133396,13.791889686659829],[-103.43077674844807,13.918204377430186],[-103.51593090808484,14.04181902282977],[-103.60345037463497,14.162831942140542],[-103.69327825158996,14.281341453745256],[-103.78535764154185,14.397445876026495],[-103.8796316488814,14.511243527367014],[-103.97604337799942,14.622832726149511],[-104.07453593058864,14.732311791656002],[-104.17505241193913,14.839779042269129],[-104.27753592374381,14.945332796371588],[-104.38192957219189,15.049071371446757],[-104.48817645807696,15.151093088575294],[-104.5962196866891,15.251496264341256],[-104.70600236062035,15.350379217127283],[-104.81746758426152,15.447840267114771],[-104.930558461104,15.543977730887718],[-105.04521809463927,15.638889928627464],[-105.16138958745938,15.732675177817327],[-105.27901604395515,15.825431797739441],[-105.39804056851733,15.91725810677633],[-105.51840626283865,16.008252423310807],[-105.64005623220925,16.09851306572557],[-105.76293357922123,16.18813835330252],[-105.88698140736597,16.277226603525094],[-106.01214282013495,16.365876135675251],[-106.13836092281821,16.454185269035065],[-106.26557881620931,16.542252320188538],[-106.39373960649755,16.630175609317064],[-106.52278639537576,16.718053453903906],[-106.65266228633533,16.805984173231138],[-106.78331038466644,16.894066085681459],[-106.91467379296108,16.982397509637508],[-107.04669561471076,17.071076763481983],[-107.17931895340689,17.160202166496902],[-107.31248691254086,17.249872037065018],[-107.44614259560421,17.340184693568915],[-107.58022910698759,17.431238453491972],[-107.71469514846223,17.523118912507925],[-107.84953815965827,17.615800911183271],[-107.98478067308952,17.709202264972703],[-108.12044542721458,17.803240318985672],[-108.25655516229079,17.897832416532935],[-108.39313261857541,17.992895903623207],[-108.53020053542627,18.088348124466506],[-108.66778165220137,18.184106422373645],[-108.80589870915799,18.280088142453963],[-108.94457444565404,18.376210629816853],[-109.08383160104745,18.472391228672393],[-109.22369291559551,18.568547283230657],[-109.36418112955539,18.664596137701722],[-109.50531898138581,18.760455136295661],[-109.64712921134395,18.856041625021135],[-109.78963455878778,18.951272947188897],[-109.93285776397454,19.046066447009082],[-110.07682156716152,19.140339470490289],[-110.22154870680725,19.23400936004407],[-110.36706192226978,19.326993461679081],[-110.51338395560498,19.419209119605341],[-110.66053754347274,19.510573677133607],[-110.80854542792906,19.601004480272707],[-110.9574303483318,19.690418873232545],[-111.10721504313966,19.778734200223312],[-111.25792225260977,19.865867804555648],[-111.40957471699949,19.951737033137704],[-111.56219517566672,20.0362592283808],[-111.71580636886875,20.119351735394389],[-111.87043103506414,20.200931899287866],[-112.02609191451018,20.28091706337193],[-112.18281174746409,20.359224573655297],[-112.34061327328385,20.435771773448721],[-112.49951923132738,20.510476006962278],[-112.65955236185192,20.583254620204684],[-112.82073540421544,20.654024955587374],[-112.98309109777585,20.722704360018326],[-113.14664066203682,20.789209739737828],[-113.3113364230374,20.85343824467941],[-113.47703511337966,20.915259608044607],[-113.64358642487349,20.974541544057161],[-113.81084004842938,21.031151765141999],[-113.97864567585714,21.084957984623429],[-114.14685299896661,21.135827916725134],[-114.31531170866833,21.183629273872043],[-114.48387149767137,21.228229770287783],[-114.652382055987,21.269497119296773],[-114.82069307542497,21.307299034223206],[-114.9886542486945,21.341503228391446],[-115.15611526580676,21.371977415125741],[-115.32292581947092,21.398589307750512],[-115.4889355996981,21.421206620489272],[-115.65399430009677,21.43969706576712],[-115.81795160977885,21.453928357807627],[-115.98065722235282,21.463768209035777],[-116.14196082782985,21.469084334574518],[-116.30171211801974,21.469744445949573],[-116.45976078563166,21.465616257384511],[-116.61595652067678,21.456567483103015],[-116.770149014965,21.442465835530015],[-116.92218796030602,21.423179027989875],[-117.0719230485098,21.398574774706219],[-117.21920397048677,21.368520788104036],[-117.36388041804673,21.33288478240695],[-117.50580208299965,21.291534470939212],[-117.64481865535657,21.244337567025241],[-117.780779828726,21.191161783989287],[-117.9135352931192,21.131874835155656],[-118.04293474034591,21.066344433848656],[-118.16882786221595,20.994438294291967],[-118.29106435053927,20.916024128910578],[-118.40949389622625,20.830969651928058],[-118.52396619018742,20.739142576668712],[-118.63433092513202,20.640410615557585],[-118.74043779197041,20.534641483717621]]]},"properties":{"objectid":3,"basin":"Pacific","prob2day":"40%","risk2day":"Medium","prob7day":"90%","risk7day":"High","idp_source":"gtwo_areas_202608291141","idp_filedate":1788003782000,"idp_ingestdate":1788003835000,"st_area(shape)":157.95439840160972,"st_perimeter(shape)":48.402926903927813}},{"type":"Feature","id":4,"geometry":{"type":"Polygon","coordinates":[[[-157.52692179710317,9.4793262957720685],[-157.28365091275933,9.5411251536031045],[-157.05408525213261,9.6038061852074179],[-156.83792782221116,9.6673310722712813],[-156.63488163088249,9.7316614982796636],[-156.4446496860341,9.7967591458180436],[-156.26693499645285,9.8625856983714471],[-156.10144056822756,9.9291028394246155],[-155.94786941014507,9.9962722506639921],[-155.80592452919359,10.064055616473638],[-155.67530893415991,10.13241461943926],[-155.55572563293154,10.201310941247073],[-155.44687763159735,10.270706267180628],[-155.34846793984346,10.340562278026823],[-155.26019956465811,10.410840658170002],[-155.18177551302941,10.481503090195588],[-155.11289879464357,10.552511257588606],[-155.05327241558942,10.623826842934591],[-155.00259938375447,10.695411528819136],[-154.96058270792554,10.767226999626473],[-154.92692539509082,10.839234936143498],[-154.90133045403715,10.911397023653876],[-154.88350089085336,10.98367494384371],[-154.87313971432627,11.056030380198024],[-154.86994993234342,11.128425015302355],[-154.87363455279228,11.200820532641615],[-154.88389658266107,11.273178614801395],[-154.90043902983729,11.345460945266552],[-154.9229649031077,11.417629206622735],[-154.95117720946055,11.489645081455478],[-154.98477895678334,11.561470254149071],[-155.02347315296356,11.633066406389673],[-155.06696280498937,11.704395222561629],[-155.11495092164765,11.775418384351099],[-155.16714051082585,11.84609757524305],[-155.22323457951217,11.916394477823019],[-155.28293613649342,11.986270775575974],[-155.34594818785851,12.055688151986772],[-155.41197374329354,12.124608289641003],[-155.4807158088874,12.192992871124261],[-155.55187739342688,12.260803579022081],[-155.62516150479954,12.328002097718752],[-155.70027115089283,12.394550109799866],[-155.77690933779562,12.460409297850958],[-155.85477907609339,12.525541345356942],[-155.9335833709757,12.589907934004088],[-156.01302523122936,12.65347074907595],[-156.09280766474185,12.71619147135948],[-156.17263367940069,12.778031785238852],[-156.25220628309341,12.83895337329966],[-156.33122878228241,12.898917960395693],[-156.40950604027145,12.957901399729963],[-156.4870918625993,13.015914181894118],[-156.56407750347392,13.072972004554515],[-156.6405542144054,13.129090567176092],[-156.71661325050104,13.184285569223789],[-156.79234586237158,13.2385727101626],[-156.86784330512435,13.291967687658769],[-156.94319683026941,13.344486202076723],[-157.01849769201479,13.396143951981912],[-157.09383714276984,13.446956635940126],[-157.16930643674257,13.496939954315565],[-157.24499682454373,13.546109605673905],[-157.32099956128064,13.594481288580766],[-157.3974058993627,13.64207070250103],[-157.47430709119922,13.688893546000486],[-157.55179439099825,13.734965519443278],[-157.62995905116921,13.780302320495821],[-157.70889232502071,13.824919648623052],[-157.78868546496216,13.868833204189173],[-157.86942972430225,13.91205868396122],[-157.951216357249,13.954611789202829],[-158.03413661441314,13.996508217580299],[-158.11828175180133,14.037763669457945],[-158.20374302002426,14.078393842501953],[-158.2906116723907,14.118414436177432],[-158.37897896310858,14.157841150848583],[-158.46893614548665,14.196689683282386],[-158.56057447013561,14.234975734742477],[-158.65398519306214,14.272715003794531],[-158.74925956487695,14.30992318810479],[-158.84648884068736,14.34661598803757],[-158.94576427200346,14.382809103057809],[-159.04717711213394,14.418518230831808],[-159.15081861438748,14.453759071723937],[-159.25678003207275,14.488547324299702],[-159.36515261759914,14.522898688024156],[-159.47602762517468,14.556828861462918],[-159.5894963063094,14.590353543181607],[-159.705649914312,14.623488433544537],[-159.82457970339053,14.656249231117272],[-159.94637692505498,14.688651634465486],[-160.07113283351339,14.720711343953496],[-160.19893868207444,14.752444057247601],[-160.32988572224821,14.783865473812682],[-160.46406520824269,14.814991293113849],[-160.60156839246727,14.845837214615926],[-160.74248652912993,14.876418935985271],[-160.88691086974077,14.906752157586141],[-161.03493266850776,14.936852577984212],[-161.18664180457554,14.966735758148843],[-161.34204577469268,14.996408957407596],[-161.50102438266904,15.025866566688819],[-161.66344644619645,15.055101872553507],[-161.82918078386601,15.084108158864581],[-161.9980962142688,15.112878712182976],[-162.17006155599594,15.141406815472294],[-162.34494562763854,15.169685756192848],[-162.52261724688836,15.197708817308182],[-162.70294523233653,15.225469285379347],[-162.88579840257415,15.252960444269206],[-163.07104557709164,15.280175580538753],[-163.25855557268144,15.307107978050908],[-163.44819720883405,15.333750922467232],[-163.63983930414051,15.360097698550078],[-163.83335067629261,15.386141591061744],[-164.02860014388145,15.411875886563053],[-164.22545652549817,15.437293868917038],[-164.42378863973386,15.462388822885998],[-164.6234653042803,15.487154035030812],[-164.82435533952722,15.511582788315195],[-165.02632756136779,15.535668370199289],[-165.22925079019174,15.559404063646753],[-165.43299384459019,15.582783155218578],[-165.63742554135558,15.605798929677007],[-165.84241469907903,15.628444671784337],[-166.04783013815029,15.650713666302806],[-166.25354067536179,15.672599199793353],[-166.45941512930469,15.694094555219692],[-166.66532231857008,15.715193019142646],[-166.87113106264835,15.735887876324568],[-167.07671017833198,15.7561724115277],[-167.28192848511142,15.776039910413658],[-167.48665480067842,15.79548365774474],[-167.69075794452345,15.814496938283241],[-167.89410673433824,15.833073037690667],[-168.09656998871392,15.851205241628747],[-168.29801652624161,15.868886833061026],[-168.49831516551239,15.886111099447817],[-168.69733472421808,15.90287132375272],[-168.89494402184906,15.919160792536672],[-169.09101187609713,15.934972790561972],[-169.28540710555339,15.950300602590858],[-169.47799852880897,15.965137514285004],[-169.66865496445496,15.979476810406595],[-169.85724523018314,15.993311775718041],[-170.04363814548395,16.006635695880789],[-170.22770252894847,16.019441855657249],[-170.40930719736917,16.031723539809661],[-170.58832097113583,16.043474033999587],[-170.76461641541516,16.054685497937498],[-170.93815230798256,16.065324197154098],[-171.10897363562472,16.075330508396405],[-171.27712913350263,16.084643680661486],[-171.44266753767664,16.093202962047201],[-171.60563758330775,16.100947603349368],[-171.7660880046576,16.107816853565055],[-171.92406753868588,16.113749960792177],[-172.07962492055356,16.118686175826497],[-172.23280888452231,16.122564747665137],[-172.38366816575316,16.125324925305222],[-172.53225150120574,16.126905957743872],[-172.67860762604104,16.127247093978326],[-172.82278527452073,16.126287584804345],[-172.96483318180583,16.123966678319675],[-173.10480008485595,16.120223624420873],[-173.24273471793282,16.114997673004325],[-173.37868581619739,16.108228071268627],[-173.51270211571,16.099854070009485],[-173.64483235073232,16.089814919123341],[-173.77512525822402,16.078049865808794],[-173.90362957334605,16.064498161760923],[-174.03039402946081,16.049099055077477],[-174.15546736442724,16.031791794755691],[-174.27889831160772,16.012515630691951],[-174.40073560796185,15.991209811883436],[-174.52102798775135,15.967813588226647],[-174.63982418703654,15.942266207819387],[-174.75717294097836,15.914506921457416],[-174.87312298383856,15.88447497723854],[-174.98772305257674,15.852109625059313],[-175.1010218823539,15.817350113916746],[-175.21306820743175,15.78013569370745],[-175.32391076476989,15.740405613428436],[-175.43359828773072,15.69809912117762],[-175.54217951417317,15.653155468650084],[-175.64970317656028,15.605513903044312],[-175.75621801275102,15.555113675156122],[-175.86177275610774,15.501894033083317],[-175.96641614359007,15.445794226722342],[-176.07019691035904,15.386753505070317],[-176.17316379067631,15.324711118023799],[-176.27536552060221,15.259606314579912],[-176.37685083619706,15.191378343735721],[-176.47766847172252,15.119966455387726],[-176.5778671623396,15.045309897633786],[-176.67749564500792,14.967347921269663],[-176.7766026530899,14.886019775292539],[-176.87523692354512,14.801264708699478],[-176.97344719153458,14.713021970487659],[-177.07126645768079,14.621241691451019],[-177.16854482748172,14.52600050551905],[-177.26501440279239,14.427456658298297],[-177.36040532314706,14.325769756069519],[-177.45444772448283,14.221099406012911],[-177.54687174453531,14.113605213509913],[-177.63740752104019,14.003446786640041],[-177.72578519173314,13.890783730784676],[-177.81173489345051,13.775775653124015],[-177.89498676302861,13.658582159938874],[-177.97527094000179,13.539362858409334],[-178.05231755940775,13.418277353916892],[-178.12585675988149,13.295485253641687],[-178.19561867825931,13.171146164763854],[-178.26133345227692,13.045419692664836],[-178.32273121966998,12.91846544542409],[-178.37954211817413,12.79044302752385],[-178.43149628372643,12.661512047043459],[-178.47832385496187,12.531832110263792],[-178.51975496961609,12.401562824364987],[-178.55551976362611,12.270863793829164],[-178.58534837562695,12.139894627635101],[-178.60897094245496,12.008814930264975],[-178.62611760184578,11.877784309798187],[-178.63651849153507,11.746962372515611],[-178.63990374835922,11.616508724698008],[-178.63600351005388,11.486582972626195],[-178.62454791345536,11.357344723480367],[-178.60526709629937,11.22895358264185],[-178.57789119722091,11.101569158190216],[-178.54215035125762,10.975351056406282],[-178.49777469794387,10.850458883570752],[-178.44449437321668,10.727052245065181],[-178.382039515711,10.605290748969026],[-178.31014026226322,10.485334001563047],[-178.22852675060898,10.367341609128118],[-178.13692911758463,10.251473178844265],[-178.03507750092587,10.13788831609304],[-177.9227020383683,10.026746628054582],[-177.79953286674834,9.9182077219089706],[-177.66530012380159,9.8124312030377041],[-177.51973394636445,9.7095766786209765],[-177.3625644730719,9.6098037558388114],[-177.19352184076027,9.5132720400727067],[-177.01233618626591,9.4201411385028564],[-176.8187376473245,9.3305706574100213],[-176.61245636167169,9.2447202030750759],[-176.39322246704313,9.1627493835773066],[-176.16076610027523,9.0848178033990621],[-175.91481739910361,9.0110850706196288],[-175.65518635296775,8.9416886915799978],[-175.38221381121835,8.876619253975548],[-175.0964571835521,8.8158074128819521],[-174.79847451728506,8.7591836435104824],[-174.48882386063258,8.70667842377037],[-174.16806326181,8.6582222315708464],[-173.83675076723404,8.6137455421231834],[-173.495444427818,8.5731788324372928],[-173.14470228817999,8.5364525813217256],[-172.78508239923326,8.5034972639876969],[-172.41714280649524,8.4742433574451184],[-172.04144155997994,8.4486213405025978],[-171.65853670610403,8.4265616874720308],[-171.26898629308289,8.4079948780612881],[-170.87334837003118,8.3928513865823788],[-170.4721809833656,8.3810616918437404],[-170.06604218220087,8.3725562699560214],[-169.65549001385298,8.3672655988284532],[-169.24108252563798,8.3651201536723079],[-168.82337776756984,8.3660504132960796],[-168.40293378606529,8.369986853810417],[-167.98030862844038,8.3768599522251748],[-167.55606034470907,8.3866001855502645],[-167.13074698128807,8.3991380298962781],[-166.70492658639276,8.4144039640718233],[-166.2791572082385,8.4323284641874352],[-165.85399689414126,8.4528420063536487],[-165.43000369321578,8.4758750684797519],[-165.00773565277808,8.5013581266763367],[-164.58775082014415,8.5292216597519541],[-164.17060724442871,8.5593961429178194],[-163.75686297294777,8.591812053183844],[-163.34707605391668,8.6263998684593162],[-162.94180453465148,8.6630900648547708],[-162.54160646426683,8.7018131202794393],[-162.14703988917947,8.7424995108439134],[-161.75866285940336,8.7850797135580478],[-161.37703342045592,8.8294842054318678],[-161.00270962235112,8.875643464374491],[-160.63624951240499,8.9234879655972463],[-160.2782111379336,8.9729481879086848],[-159.92915254715226,9.0239546074193413],[-159.58963178827634,9.0764377002398078],[-159.26020690952117,9.1303279451786352],[-158.94143595820282,9.1855558174471525],[-158.63387698253663,9.2420517949545342],[-158.33808803073794,9.2997463547106349],[-158.05462715102212,9.3585699737254231],[-157.7840523907052,9.4184531281094905],[-157.52692179710317,9.4793262957720685]]]},"properties":{"objectid":4,"basin":"Pacific","prob2day":"0%","risk2day":"Low","prob7day":"40%","risk7day":"Medium","idp_source":"gtwo_areas_202608291141","idp_filedate":1788003782000,"idp_ingestdate":1788003835000,"st_area(shape)":145.24773059968908,"st_perimeter(shape)":53.40809467986049}}]}