{
"type": "FeatureCollection",
"name": "al092021_2021082918_initialradii",
"features": [
{ "type": "Feature", "properties": { "RADII": 34.0, "STORMID": "al092021", "BASIN": "al", "STORMNUM": 9.0, "ADVNUM": "14A", "VALIDTIME": "2021082918", "SYNOPTIME": "2021082912", "TIMEZONE": "UTC", "TAU": 0.0, "NE": 130.0, "SE": 110.0, "SW": 80.0, "NW": 110.0 }, "geometry": { "type": "Polygon", "coordinates": [ [ [ -90.2791, 31.1961 ], [ -90.3198, 31.1924 ], [ -90.3603, 31.1881 ], [ -90.4007, 31.1832 ], [ -90.4409, 31.1777 ], [ -90.4808, 31.1716 ], [ -90.5206, 31.1648 ], [ -90.5601, 31.1575 ], [ -90.5994, 31.1496 ], [ -90.6384, 31.141 ], [ -90.6772, 31.1319 ], [ -90.7157, 31.1223 ], [ -90.7539, 31.112 ], [ -90.7919, 31.1012 ], [ -90.8295, 31.0898 ], [ -90.8668, 31.0779 ], [ -90.9038, 31.0654 ], [ -90.9404, 31.0524 ], [ -90.9767, 31.0388 ], [ -91.0126, 31.0248 ], [ -91.0481, 31.0101 ], [ -91.0833, 30.995 ], [ -91.118, 30.9794 ], [ -91.1524, 30.9632 ], [ -91.1863, 30.9466 ], [ -91.2198, 30.9295 ], [ -91.2529, 30.9119 ], [ -91.2855, 30.8938 ], [ -91.3177, 30.8753 ], [ -91.3495, 30.8563 ], [ -91.3807, 30.8369 ], [ -91.4115, 30.817 ], [ -91.4418, 30.7967 ], [ -91.4716, 30.7759 ], [ -91.5009, 30.7548 ], [ -91.5297, 30.7332 ], [ -91.558, 30.7113 ], [ -91.5857, 30.6889 ], [ -91.613, 30.6662 ], [ -91.6396, 30.6431 ], [ -91.6658, 30.6197 ], [ -91.6914, 30.5959 ], [ -91.7163, 30.5717 ], [ -91.7406, 30.547 ], [ -91.764, 30.5218 ], [ -91.7868, 30.4962 ], [ -91.8087, 30.4702 ], [ -91.8299, 30.4438 ], [ -91.8503, 30.417 ], [ -91.8698, 30.3898 ], [ -91.8886, 30.3622 ], [ -91.9067, 30.3344 ], [ -91.9241, 30.3064 ], [ -91.9408, 30.2781 ], [ -91.9569, 30.2497 ], [ -91.9724, 30.2212 ], [ -91.9872, 30.1925 ], [ -92.0014, 30.1637 ], [ -92.0149, 30.1347 ], [ -92.0277, 30.1056 ], [ -92.0399, 30.0764 ], [ -92.0515, 30.0471 ], [ -92.0624, 30.0177 ], [ -92.0727, 29.9883 ], [ -92.0823, 29.9588 ], [ -92.0912, 29.9292 ], [ -92.0995, 29.8996 ], [ -92.1072, 29.8699 ], [ -92.1142, 29.8403 ], [ -92.1206, 29.8106 ], [ -92.1263, 29.7809 ], [ -92.1314, 29.7512 ], [ -92.1359, 29.7216 ], [ -92.1397, 29.692 ], [ -92.1429, 29.6624 ], [ -92.1455, 29.6328 ], [ -92.1474, 29.6034 ], [ -92.1488, 29.574 ], [ -92.1495, 29.5446 ], [ -92.1496, 29.5154 ], [ -92.1491, 29.4863 ], [ -92.148, 29.4572 ], [ -92.1463, 29.4283 ], [ -92.1441, 29.3995 ], [ -92.1412, 29.3708 ], [ -92.1377, 29.3423 ], [ -92.1337, 29.314 ], [ -92.1291, 29.2858 ], [ -92.124, 29.2577 ], [ -92.1183, 29.2299 ], [ -92.112, 29.2022 ], [ -92.1052, 29.1748 ], [ -92.0978, 29.1475 ], [ -92.0899, 29.1205 ], [ -92.0815, 29.0936 ], [ -92.0726, 29.067 ], [ -92.0631, 29.0407 ], [ -92.0532, 29.0145 ], [ -92.0427, 28.9887 ], [ -92.0317, 28.9631 ], [ -92.0203, 28.9377 ], [ -92.0084, 28.9127 ], [ -91.996, 28.8879 ], [ -91.9832, 28.8633 ], [ -91.9699, 28.8391 ], [ -91.9561, 28.8152 ], [ -91.9419, 28.7916 ], [ -91.9273, 28.7683 ], [ -91.9123, 28.7453 ], [ -91.8969, 28.7227 ], [ -91.881, 28.7003 ], [ -91.8648, 28.6783 ], [ -91.8481, 28.6567 ], [ -91.8311, 28.6354 ], [ -91.8137, 28.6144 ], [ -91.796, 28.5938 ], [ -91.7779, 28.5735 ], [ -91.7595, 28.5537 ], [ -91.7407, 28.5341 ], [ -91.7216, 28.515 ], [ -91.7022, 28.4962 ], [ -91.6825, 28.4779 ], [ -91.6624, 28.4599 ], [ -91.6421, 28.4422 ], [ -91.6216, 28.425 ], [ -91.6007, 28.4082 ], [ -91.5796, 28.3918 ], [ -91.5582, 28.3757 ], [ -91.5366, 28.3601 ], [ -91.5148, 28.3449 ], [ -91.4927, 28.3301 ], [ -91.4705, 28.3157 ], [ -91.4485, 28.3013 ], [ -91.4272, 28.2863 ], [ -91.4067, 28.2709 ], [ -91.3869, 28.2549 ], [ -91.3678, 28.2383 ], [ -91.3493, 28.2212 ], [ -91.3314, 28.2034 ], [ -91.3141, 28.185 ], [ -91.2973, 28.1659 ], [ -91.2806, 28.1465 ], [ -91.2634, 28.1274 ], [ -91.2457, 28.1085 ], [ -91.2276, 28.0898 ], [ -91.2091, 28.0713 ], [ -91.1901, 28.053 ], [ -91.1706, 28.035 ], [ -91.1507, 28.0172 ], [ -91.1304, 27.9997 ], [ -91.1097, 27.9824 ], [ -91.0885, 27.9654 ], [ -91.0669, 27.9487 ], [ -91.0449, 27.9323 ], [ -91.0225, 27.9161 ], [ -90.9996, 27.9003 ], [ -90.9764, 27.8848 ], [ -90.9528, 27.8696 ], [ -90.9287, 27.8547 ], [ -90.9043, 27.8402 ], [ -90.8796, 27.826 ], [ -90.8544, 27.8121 ], [ -90.8289, 27.7986 ], [ -90.803, 27.7855 ], [ -90.7768, 27.7727 ], [ -90.7502, 27.7603 ], [ -90.7232, 27.7483 ], [ -90.696, 27.7367 ], [ -90.6684, 27.7255 ], [ -90.6405, 27.7147 ], [ -90.6123, 27.7042 ], [ -90.5838, 27.6942 ], [ -90.555, 27.6847 ], [ -90.5259, 27.6755 ], [ -90.4965, 27.6668 ], [ -90.4668, 27.6585 ], [ -90.4369, 27.6507 ], [ -90.4068, 27.6433 ], [ -90.3763, 27.6364 ], [ -90.3457, 27.6299 ], [ -90.3148, 27.6239 ], [ -90.2837, 27.6184 ], [ -90.2524, 27.6133 ], [ -90.2209, 27.6087 ], [ -90.1892, 27.6047 ], [ -90.1573, 27.6011 ], [ -90.1253, 27.598 ], [ -90.093, 27.5954 ], [ -90.0607, 27.5933 ], [ -90.0282, 27.5917 ], [ -89.9955, 27.5906 ], [ -89.9627, 27.59 ], [ -89.9298, 27.59 ], [ -89.8969, 27.5904 ], [ -89.8638, 27.5914 ], [ -89.8306, 27.5929 ], [ -89.7974, 27.595 ], [ -89.7641, 27.5976 ], [ -89.7307, 27.6007 ], [ -89.6973, 27.6043 ], [ -89.6639, 27.6085 ], [ -89.6305, 27.6132 ], [ -89.597, 27.6185 ], [ -89.5636, 27.6243 ], [ -89.5302, 27.6307 ], [ -89.4968, 27.6376 ], [ -89.4634, 27.6451 ], [ -89.4301, 27.6531 ], [ -89.3969, 27.6616 ], [ -89.3637, 27.6707 ], [ -89.3306, 27.6804 ], [ -89.2976, 27.6906 ], [ -89.2647, 27.7013 ], [ -89.2319, 27.7126 ], [ -89.1993, 27.7245 ], [ -89.1668, 27.7368 ], [ -89.1344, 27.7498 ], [ -89.1022, 27.7633 ], [ -89.0702, 27.7773 ], [ -89.0384, 27.7919 ], [ -89.0067, 27.807 ], [ -88.9753, 27.8227 ], [ -88.9442, 27.8389 ], [ -88.9135, 27.8559 ], [ -88.8831, 27.8735 ], [ -88.8533, 27.8918 ], [ -88.8239, 27.9107 ], [ -88.7949, 27.9303 ], [ -88.7664, 27.9505 ], [ -88.7385, 27.9714 ], [ -88.711, 27.9928 ], [ -88.6841, 28.0148 ], [ -88.6574, 28.0373 ], [ -88.6312, 28.0602 ], [ -88.6054, 28.0835 ], [ -88.58, 28.1073 ], [ -88.555, 28.1316 ], [ -88.5304, 28.1562 ], [ -88.5063, 28.1813 ], [ -88.4826, 28.2068 ], [ -88.4594, 28.2327 ], [ -88.4367, 28.259 ], [ -88.4144, 28.2857 ], [ -88.3926, 28.3128 ], [ -88.3713, 28.3403 ], [ -88.3506, 28.3682 ], [ -88.3303, 28.3964 ], [ -88.3105, 28.425 ], [ -88.2913, 28.454 ], [ -88.2726, 28.4833 ], [ -88.2545, 28.5129 ], [ -88.2369, 28.5429 ], [ -88.2199, 28.5732 ], [ -88.2035, 28.6038 ], [ -88.1876, 28.6347 ], [ -88.1723, 28.6659 ], [ -88.1576, 28.6974 ], [ -88.1435, 28.7292 ], [ -88.13, 28.7613 ], [ -88.1172, 28.7936 ], [ -88.1049, 28.8261 ], [ -88.0933, 28.8589 ], [ -88.0823, 28.892 ], [ -88.072, 28.9253 ], [ -88.0623, 28.9588 ], [ -88.0533, 28.9925 ], [ -88.0449, 29.0264 ], [ -88.0372, 29.0604 ], [ -88.0302, 29.0947 ], [ -88.0238, 29.1291 ], [ -88.0181, 29.1637 ], [ -88.0131, 29.1984 ], [ -88.0088, 29.2333 ], [ -88.0052, 29.2683 ], [ -88.0023, 29.3034 ], [ -88.0001, 29.3386 ], [ -87.9986, 29.3738 ], [ -87.9978, 29.4092 ], [ -87.9978, 29.4447 ], [ -87.9984, 29.4802 ], [ -87.9998, 29.5157 ], [ -88.0019, 29.5513 ], [ -88.0047, 29.5869 ], [ -88.0083, 29.6226 ], [ -88.0126, 29.6582 ], [ -88.0176, 29.6938 ], [ -88.0233, 29.7294 ], [ -88.0299, 29.765 ], [ -88.0371, 29.8005 ], [ -88.0451, 29.836 ], [ -88.0538, 29.8714 ], [ -88.0632, 29.9068 ], [ -88.0734, 29.942 ], [ -88.0844, 29.9772 ], [ -88.0961, 30.0122 ], [ -88.1085, 30.0471 ], [ -88.1217, 30.0819 ], [ -88.1356, 30.1165 ], [ -88.1502, 30.151 ], [ -88.1656, 30.1853 ], [ -88.1817, 30.2194 ], [ -88.1986, 30.2534 ], [ -88.2162, 30.2871 ], [ -88.2345, 30.3206 ], [ -88.2535, 30.3539 ], [ -88.2733, 30.3869 ], [ -88.2937, 30.4197 ], [ -88.3149, 30.4522 ], [ -88.3369, 30.4844 ], [ -88.3595, 30.5164 ], [ -88.3828, 30.548 ], [ -88.4068, 30.5794 ], [ -88.4319, 30.6101 ], [ -88.4583, 30.6399 ], [ -88.486, 30.6688 ], [ -88.5151, 30.6967 ], [ -88.5454, 30.7235 ], [ -88.5769, 30.7493 ], [ -88.6096, 30.7741 ], [ -88.6435, 30.7977 ], [ -88.6785, 30.8202 ], [ -88.7142, 30.8418 ], [ -88.7504, 30.8629 ], [ -88.7869, 30.8833 ], [ -88.8238, 30.9032 ], [ -88.861, 30.9224 ], [ -88.8986, 30.9411 ], [ -88.9365, 30.9591 ], [ -88.9747, 30.9765 ], [ -89.0133, 30.9933 ], [ -89.0521, 31.0095 ], [ -89.0912, 31.025 ], [ -89.1305, 31.0399 ], [ -89.1701, 31.0542 ], [ -89.2099, 31.0678 ], [ -89.2499, 31.0808 ], [ -89.2901, 31.0932 ], [ -89.3305, 31.1049 ], [ -89.3711, 31.1159 ], [ -89.4119, 31.1264 ], [ -89.4527, 31.1362 ], [ -89.4938, 31.1453 ], [ -89.5349, 31.1538 ], [ -89.5761, 31.1616 ], [ -89.6174, 31.1688 ], [ -89.6588, 31.1753 ], [ -89.7003, 31.1812 ], [ -89.7418, 31.1865 ], [ -89.7833, 31.1911 ], [ -89.8249, 31.195 ], [ -89.8664, 31.1983 ], [ -89.908, 31.201 ], [ -89.9495, 31.203 ], [ -89.991, 31.2043 ], [ -90.0324, 31.2051 ], [ -90.0738, 31.2052 ], [ -90.1151, 31.2046 ], [ -90.1563, 31.2034 ], [ -90.1973, 31.2016 ], [ -90.2383, 31.1992 ], [ -90.2791, 31.1961 ] ] ] } },
{ "type": "Feature", "properties": { "RADII": 50.0, "STORMID": "al092021", "BASIN": "al", "STORMNUM": 9.0, "ADVNUM": "14A", "VALIDTIME": "2021082918", "SYNOPTIME": "2021082912", "TIMEZONE": "UTC", "TAU": 0.0, "NE": 70.0, "SE": 60.0, "SW": 40.0, "NW": 60.0 }, "geometry": { "type": "Polygon", "coordinates": [ [ [ -90.2888, 30.2812 ], [ -90.3107, 30.2793 ], [ -90.3324, 30.2772 ], [ -90.3541, 30.2746 ], [ -90.3757, 30.2718 ], [ -90.3971, 30.2687 ], [ -90.4185, 30.2652 ], [ -90.4398, 30.2614 ], [ -90.4609, 30.2572 ], [ -90.4819, 30.2528 ], [ -90.5028, 30.2481 ], [ -90.5235, 30.243 ], [ -90.5441, 30.2376 ], [ -90.5646, 30.2319 ], [ -90.5849, 30.2259 ], [ -90.605, 30.2197 ], [ -90.625, 30.2131 ], [ -90.6448, 30.2062 ], [ -90.6644, 30.199 ], [ -90.6838, 30.1916 ], [ -90.703, 30.1839 ], [ -90.7221, 30.1758 ], [ -90.7409, 30.1675 ], [ -90.7595, 30.159 ], [ -90.7779, 30.1501 ], [ -90.7961, 30.141 ], [ -90.8141, 30.1317 ], [ -90.8318, 30.122 ], [ -90.8493, 30.1122 ], [ -90.8666, 30.102 ], [ -90.8836, 30.0917 ], [ -90.9004, 30.0811 ], [ -90.9169, 30.0702 ], [ -90.9331, 30.0591 ], [ -90.9492, 30.0478 ], [ -90.9649, 30.0363 ], [ -90.9804, 30.0245 ], [ -90.9956, 30.0125 ], [ -91.0105, 30.0004 ], [ -91.0251, 29.988 ], [ -91.0395, 29.9754 ], [ -91.0536, 29.9626 ], [ -91.0673, 29.9496 ], [ -91.0805, 29.9362 ], [ -91.0932, 29.9225 ], [ -91.1055, 29.9085 ], [ -91.1173, 29.8943 ], [ -91.1285, 29.8797 ], [ -91.1393, 29.8649 ], [ -91.1495, 29.8498 ], [ -91.1592, 29.8344 ], [ -91.1685, 29.8189 ], [ -91.1774, 29.8033 ], [ -91.186, 29.7876 ], [ -91.1941, 29.7719 ], [ -91.2019, 29.756 ], [ -91.2094, 29.7401 ], [ -91.2165, 29.7242 ], [ -91.2232, 29.7082 ], [ -91.2296, 29.6921 ], [ -91.2356, 29.676 ], [ -91.2412, 29.6599 ], [ -91.2465, 29.6438 ], [ -91.2514, 29.6276 ], [ -91.256, 29.6114 ], [ -91.2601, 29.5953 ], [ -91.264, 29.5791 ], [ -91.2675, 29.5629 ], [ -91.2706, 29.5467 ], [ -91.2734, 29.5305 ], [ -91.2758, 29.5144 ], [ -91.2779, 29.4983 ], [ -91.2796, 29.4822 ], [ -91.281, 29.4662 ], [ -91.282, 29.4502 ], [ -91.2827, 29.4342 ], [ -91.2831, 29.4183 ], [ -91.2831, 29.4025 ], [ -91.2828, 29.3867 ], [ -91.2821, 29.371 ], [ -91.2812, 29.3553 ], [ -91.2798, 29.3398 ], [ -91.2782, 29.3243 ], [ -91.2763, 29.309 ], [ -91.274, 29.2937 ], [ -91.2715, 29.2785 ], [ -91.2686, 29.2634 ], [ -91.2654, 29.2485 ], [ -91.2619, 29.2336 ], [ -91.2582, 29.2189 ], [ -91.2541, 29.2043 ], [ -91.2498, 29.1898 ], [ -91.2451, 29.1755 ], [ -91.2402, 29.1613 ], [ -91.235, 29.1472 ], [ -91.2295, 29.1333 ], [ -91.2238, 29.1196 ], [ -91.2178, 29.1059 ], [ -91.2115, 29.0925 ], [ -91.205, 29.0792 ], [ -91.1982, 29.0661 ], [ -91.1912, 29.0531 ], [ -91.1839, 29.0403 ], [ -91.1764, 29.0277 ], [ -91.1687, 29.0153 ], [ -91.1607, 29.003 ], [ -91.1526, 28.9909 ], [ -91.1442, 28.9791 ], [ -91.1356, 28.9674 ], [ -91.1268, 28.9559 ], [ -91.1178, 28.9446 ], [ -91.1086, 28.9335 ], [ -91.0992, 28.9226 ], [ -91.0896, 28.9119 ], [ -91.0798, 28.9014 ], [ -91.0698, 28.8911 ], [ -91.0597, 28.881 ], [ -91.0495, 28.8712 ], [ -91.039, 28.8615 ], [ -91.0284, 28.8521 ], [ -91.0177, 28.8429 ], [ -91.0068, 28.8339 ], [ -90.9958, 28.8252 ], [ -90.9846, 28.8166 ], [ -90.9734, 28.8083 ], [ -90.962, 28.8002 ], [ -90.9505, 28.7923 ], [ -90.9388, 28.7847 ], [ -90.9271, 28.7773 ], [ -90.9153, 28.7701 ], [ -90.9034, 28.7632 ], [ -90.8914, 28.7565 ], [ -90.8796, 28.7497 ], [ -90.8684, 28.7426 ], [ -90.8578, 28.735 ], [ -90.8476, 28.7271 ], [ -90.838, 28.7187 ], [ -90.8288, 28.7099 ], [ -90.8202, 28.7006 ], [ -90.8119, 28.6909 ], [ -90.8041, 28.6806 ], [ -90.7963, 28.6702 ], [ -90.7883, 28.6598 ], [ -90.78, 28.6495 ], [ -90.7715, 28.6393 ], [ -90.7626, 28.6292 ], [ -90.7536, 28.6192 ], [ -90.7443, 28.6092 ], [ -90.7347, 28.5994 ], [ -90.7249, 28.5898 ], [ -90.7148, 28.5802 ], [ -90.7044, 28.5707 ], [ -90.6939, 28.5614 ], [ -90.683, 28.5522 ], [ -90.672, 28.5432 ], [ -90.6606, 28.5343 ], [ -90.6491, 28.5255 ], [ -90.6373, 28.5169 ], [ -90.6253, 28.5085 ], [ -90.613, 28.5002 ], [ -90.6005, 28.4921 ], [ -90.5878, 28.4841 ], [ -90.5749, 28.4763 ], [ -90.5617, 28.4687 ], [ -90.5483, 28.4613 ], [ -90.5347, 28.4541 ], [ -90.5209, 28.447 ], [ -90.5069, 28.4402 ], [ -90.4927, 28.4335 ], [ -90.4783, 28.4271 ], [ -90.4637, 28.4209 ], [ -90.4489, 28.4148 ], [ -90.4339, 28.409 ], [ -90.4187, 28.4035 ], [ -90.4034, 28.3981 ], [ -90.3878, 28.393 ], [ -90.3721, 28.3881 ], [ -90.3563, 28.3834 ], [ -90.3403, 28.379 ], [ -90.3241, 28.3748 ], [ -90.3077, 28.3709 ], [ -90.2913, 28.3672 ], [ -90.2746, 28.3637 ], [ -90.2579, 28.3606 ], [ -90.241, 28.3577 ], [ -90.224, 28.355 ], [ -90.2068, 28.3526 ], [ -90.1895, 28.3505 ], [ -90.1722, 28.3486 ], [ -90.1547, 28.3471 ], [ -90.1371, 28.3458 ], [ -90.1194, 28.3447 ], [ -90.1017, 28.344 ], [ -90.0838, 28.3435 ], [ -90.0659, 28.3434 ], [ -90.0479, 28.3435 ], [ -90.0298, 28.3439 ], [ -90.0117, 28.3446 ], [ -89.9935, 28.3456 ], [ -89.9753, 28.3469 ], [ -89.9571, 28.3485 ], [ -89.9388, 28.3504 ], [ -89.9204, 28.3526 ], [ -89.9021, 28.355 ], [ -89.8837, 28.3578 ], [ -89.8653, 28.361 ], [ -89.8469, 28.3644 ], [ -89.8286, 28.3681 ], [ -89.8102, 28.3721 ], [ -89.7918, 28.3764 ], [ -89.7735, 28.3811 ], [ -89.7552, 28.386 ], [ -89.7369, 28.3913 ], [ -89.7187, 28.3969 ], [ -89.7005, 28.4028 ], [ -89.6824, 28.409 ], [ -89.6644, 28.4155 ], [ -89.6464, 28.4223 ], [ -89.6285, 28.4294 ], [ -89.6107, 28.4369 ], [ -89.593, 28.4446 ], [ -89.5753, 28.4527 ], [ -89.5579, 28.4611 ], [ -89.5407, 28.47 ], [ -89.5238, 28.4794 ], [ -89.5073, 28.4891 ], [ -89.491, 28.4993 ], [ -89.4751, 28.51 ], [ -89.4595, 28.521 ], [ -89.4443, 28.5325 ], [ -89.4295, 28.5443 ], [ -89.4149, 28.5565 ], [ -89.4006, 28.5689 ], [ -89.3864, 28.5816 ], [ -89.3725, 28.5945 ], [ -89.3589, 28.6076 ], [ -89.3454, 28.621 ], [ -89.3323, 28.6346 ], [ -89.3193, 28.6484 ], [ -89.3067, 28.6625 ], [ -89.2942, 28.6767 ], [ -89.2821, 28.6912 ], [ -89.2702, 28.7059 ], [ -89.2586, 28.7208 ], [ -89.2472, 28.7359 ], [ -89.2362, 28.7512 ], [ -89.2254, 28.7667 ], [ -89.2149, 28.7824 ], [ -89.2048, 28.7982 ], [ -89.1949, 28.8143 ], [ -89.1853, 28.8305 ], [ -89.1761, 28.8469 ], [ -89.1671, 28.8635 ], [ -89.1585, 28.8802 ], [ -89.1502, 28.8971 ], [ -89.1422, 28.9142 ], [ -89.1345, 28.9314 ], [ -89.1272, 28.9487 ], [ -89.1202, 28.9662 ], [ -89.1135, 28.9838 ], [ -89.1072, 29.0016 ], [ -89.1013, 29.0195 ], [ -89.0957, 29.0375 ], [ -89.0904, 29.0556 ], [ -89.0855, 29.0738 ], [ -89.081, 29.0921 ], [ -89.0768, 29.1105 ], [ -89.073, 29.1291 ], [ -89.0695, 29.1477 ], [ -89.0664, 29.1664 ], [ -89.0637, 29.1851 ], [ -89.0614, 29.204 ], [ -89.0594, 29.2228 ], [ -89.0578, 29.2418 ], [ -89.0566, 29.2608 ], [ -89.0558, 29.2799 ], [ -89.0554, 29.299 ], [ -89.0553, 29.3181 ], [ -89.0556, 29.3373 ], [ -89.0564, 29.3565 ], [ -89.0575, 29.3757 ], [ -89.059, 29.3949 ], [ -89.0609, 29.4141 ], [ -89.0632, 29.4333 ], [ -89.0659, 29.4526 ], [ -89.0689, 29.4718 ], [ -89.0724, 29.491 ], [ -89.0763, 29.5101 ], [ -89.0805, 29.5292 ], [ -89.0852, 29.5483 ], [ -89.0903, 29.5674 ], [ -89.0957, 29.5864 ], [ -89.1015, 29.6053 ], [ -89.1078, 29.6242 ], [ -89.1144, 29.643 ], [ -89.1215, 29.6618 ], [ -89.1289, 29.6804 ], [ -89.1367, 29.699 ], [ -89.1449, 29.7175 ], [ -89.1535, 29.7359 ], [ -89.1625, 29.7542 ], [ -89.1719, 29.7723 ], [ -89.1816, 29.7904 ], [ -89.1918, 29.8083 ], [ -89.2023, 29.8261 ], [ -89.2132, 29.8438 ], [ -89.2245, 29.8613 ], [ -89.2362, 29.8786 ], [ -89.2482, 29.8959 ], [ -89.2606, 29.9129 ], [ -89.2734, 29.9298 ], [ -89.2865, 29.9465 ], [ -89.3002, 29.9629 ], [ -89.3146, 29.9788 ], [ -89.3296, 29.9942 ], [ -89.3453, 30.0091 ], [ -89.3616, 30.0235 ], [ -89.3786, 30.0373 ], [ -89.3961, 30.0506 ], [ -89.4143, 30.0633 ], [ -89.433, 30.0754 ], [ -89.4521, 30.0871 ], [ -89.4714, 30.0984 ], [ -89.4909, 30.1094 ], [ -89.5106, 30.1201 ], [ -89.5305, 30.1305 ], [ -89.5506, 30.1406 ], [ -89.5708, 30.1503 ], [ -89.5912, 30.1597 ], [ -89.6118, 30.1688 ], [ -89.6325, 30.1776 ], [ -89.6534, 30.186 ], [ -89.6744, 30.1941 ], [ -89.6955, 30.2018 ], [ -89.7168, 30.2092 ], [ -89.7382, 30.2163 ], [ -89.7597, 30.223 ], [ -89.7812, 30.2294 ], [ -89.8029, 30.2354 ], [ -89.8247, 30.2411 ], [ -89.8465, 30.2465 ], [ -89.8684, 30.2515 ], [ -89.8904, 30.2562 ], [ -89.9124, 30.2605 ], [ -89.9345, 30.2645 ], [ -89.9567, 30.2681 ], [ -89.9788, 30.2714 ], [ -90.001, 30.2743 ], [ -90.0233, 30.2769 ], [ -90.0455, 30.2791 ], [ -90.0677, 30.281 ], [ -90.0899, 30.2826 ], [ -90.1122, 30.2838 ], [ -90.1344, 30.2846 ], [ -90.1566, 30.2852 ], [ -90.1787, 30.2854 ], [ -90.2009, 30.2852 ], [ -90.2229, 30.2847 ], [ -90.245, 30.2839 ], [ -90.2669, 30.2827 ], [ -90.2888, 30.2812 ] ] ] } },
{ "type": "Feature", "properties": { "RADII": 64.0, "STORMID": "al092021", "BASIN": "al", "STORMNUM": 9.0, "ADVNUM": "14A", "VALIDTIME": "2021082918", "SYNOPTIME": "2021082912", "TIMEZONE": "UTC", "TAU": 0.0, "NE": 45.0, "SE": 35.0, "SW": 20.0, "NW": 30.0 }, "geometry": { "type": "Polygon", "coordinates": [ [ [ -90.2934, 29.8246 ], [ -90.3059, 29.8218 ], [ -90.3183, 29.8189 ], [ -90.3306, 29.8157 ], [ -90.3428, 29.8124 ], [ -90.3549, 29.8089 ], [ -90.3668, 29.8052 ], [ -90.3786, 29.8014 ], [ -90.3903, 29.7973 ], [ -90.4018, 29.7931 ], [ -90.4132, 29.7887 ], [ -90.4244, 29.7842 ], [ -90.4355, 29.7795 ], [ -90.4464, 29.7747 ], [ -90.4572, 29.7696 ], [ -90.4678, 29.7645 ], [ -90.4783, 29.7592 ], [ -90.4886, 29.7537 ], [ -90.4987, 29.7481 ], [ -90.5087, 29.7424 ], [ -90.5185, 29.7365 ], [ -90.5281, 29.7305 ], [ -90.5376, 29.7244 ], [ -90.5468, 29.7181 ], [ -90.5559, 29.7117 ], [ -90.5648, 29.7052 ], [ -90.5735, 29.6986 ], [ -90.5821, 29.6919 ], [ -90.5904, 29.6851 ], [ -90.5986, 29.6782 ], [ -90.6066, 29.6711 ], [ -90.6144, 29.664 ], [ -90.622, 29.6568 ], [ -90.6294, 29.6495 ], [ -90.6366, 29.6421 ], [ -90.6436, 29.6346 ], [ -90.6504, 29.6271 ], [ -90.657, 29.6194 ], [ -90.6634, 29.6118 ], [ -90.6696, 29.604 ], [ -90.6756, 29.5962 ], [ -90.6814, 29.5883 ], [ -90.687, 29.5804 ], [ -90.6926, 29.5725 ], [ -90.698, 29.5646 ], [ -90.7033, 29.5568 ], [ -90.7085, 29.549 ], [ -90.7136, 29.5412 ], [ -90.7186, 29.5334 ], [ -90.7235, 29.5256 ], [ -90.7283, 29.5179 ], [ -90.7329, 29.5102 ], [ -90.7374, 29.5024 ], [ -90.7417, 29.4945 ], [ -90.7458, 29.4867 ], [ -90.7497, 29.4788 ], [ -90.7535, 29.4708 ], [ -90.7571, 29.4629 ], [ -90.7605, 29.4549 ], [ -90.7637, 29.4469 ], [ -90.7667, 29.4388 ], [ -90.7695, 29.4308 ], [ -90.7722, 29.4227 ], [ -90.7747, 29.4147 ], [ -90.777, 29.4066 ], [ -90.7791, 29.3985 ], [ -90.7811, 29.3904 ], [ -90.7829, 29.3823 ], [ -90.7845, 29.3742 ], [ -90.7859, 29.3662 ], [ -90.7871, 29.3581 ], [ -90.7882, 29.35 ], [ -90.7891, 29.342 ], [ -90.7898, 29.334 ], [ -90.7904, 29.326 ], [ -90.7908, 29.318 ], [ -90.791, 29.3101 ], [ -90.791, 29.3021 ], [ -90.7909, 29.2942 ], [ -90.7906, 29.2864 ], [ -90.7902, 29.2786 ], [ -90.7896, 29.2708 ], [ -90.7888, 29.2631 ], [ -90.7879, 29.2554 ], [ -90.7868, 29.2477 ], [ -90.7856, 29.2401 ], [ -90.7841, 29.2326 ], [ -90.7826, 29.2251 ], [ -90.7809, 29.2177 ], [ -90.779, 29.2103 ], [ -90.777, 29.203 ], [ -90.7749, 29.1958 ], [ -90.7726, 29.1886 ], [ -90.7702, 29.1815 ], [ -90.7676, 29.1744 ], [ -90.7649, 29.1675 ], [ -90.7621, 29.1606 ], [ -90.7591, 29.1538 ], [ -90.756, 29.147 ], [ -90.7528, 29.1404 ], [ -90.7494, 29.1338 ], [ -90.7459, 29.1273 ], [ -90.7423, 29.1209 ], [ -90.7386, 29.1146 ], [ -90.7347, 29.1083 ], [ -90.7308, 29.1022 ], [ -90.7267, 29.0961 ], [ -90.7225, 29.0902 ], [ -90.7183, 29.0843 ], [ -90.7139, 29.0786 ], [ -90.7094, 29.0729 ], [ -90.7048, 29.0673 ], [ -90.7001, 29.0619 ], [ -90.6953, 29.0565 ], [ -90.6905, 29.0513 ], [ -90.6855, 29.0461 ], [ -90.6805, 29.0411 ], [ -90.6753, 29.0361 ], [ -90.6701, 29.0313 ], [ -90.6648, 29.0265 ], [ -90.6595, 29.0219 ], [ -90.654, 29.0174 ], [ -90.6485, 29.013 ], [ -90.643, 29.0087 ], [ -90.6373, 29.0046 ], [ -90.6316, 29.0005 ], [ -90.6259, 28.9966 ], [ -90.6201, 28.9927 ], [ -90.6142, 28.989 ], [ -90.6083, 28.9854 ], [ -90.6023, 28.9819 ], [ -90.5963, 28.9786 ], [ -90.5905, 28.9751 ], [ -90.585, 28.9714 ], [ -90.5799, 28.9675 ], [ -90.5751, 28.9632 ], [ -90.5706, 28.9587 ], [ -90.5664, 28.9538 ], [ -90.5626, 28.9486 ], [ -90.559, 28.9431 ], [ -90.5557, 28.9373 ], [ -90.5524, 28.9313 ], [ -90.549, 28.9253 ], [ -90.5454, 28.9194 ], [ -90.5416, 28.9135 ], [ -90.5377, 28.9076 ], [ -90.5336, 28.9017 ], [ -90.5293, 28.8959 ], [ -90.5249, 28.8901 ], [ -90.5204, 28.8843 ], [ -90.5156, 28.8787 ], [ -90.5107, 28.873 ], [ -90.5057, 28.8674 ], [ -90.5005, 28.8619 ], [ -90.4951, 28.8564 ], [ -90.4896, 28.851 ], [ -90.4839, 28.8456 ], [ -90.4781, 28.8403 ], [ -90.4721, 28.8351 ], [ -90.466, 28.8299 ], [ -90.4597, 28.8249 ], [ -90.4532, 28.8199 ], [ -90.4466, 28.815 ], [ -90.4399, 28.8102 ], [ -90.433, 28.8054 ], [ -90.4259, 28.8008 ], [ -90.4188, 28.7963 ], [ -90.4114, 28.7918 ], [ -90.404, 28.7875 ], [ -90.3964, 28.7832 ], [ -90.3886, 28.7791 ], [ -90.3808, 28.7751 ], [ -90.3728, 28.7712 ], [ -90.3646, 28.7674 ], [ -90.3563, 28.7637 ], [ -90.348, 28.7602 ], [ -90.3394, 28.7568 ], [ -90.3308, 28.7535 ], [ -90.322, 28.7503 ], [ -90.3132, 28.7472 ], [ -90.3042, 28.7443 ], [ -90.2951, 28.7416 ], [ -90.2859, 28.739 ], [ -90.2766, 28.7365 ], [ -90.2671, 28.7341 ], [ -90.2576, 28.7319 ], [ -90.248, 28.7299 ], [ -90.2383, 28.728 ], [ -90.2285, 28.7263 ], [ -90.2187, 28.7247 ], [ -90.2087, 28.7233 ], [ -90.1986, 28.722 ], [ -90.1885, 28.7209 ], [ -90.1783, 28.72 ], [ -90.168, 28.7192 ], [ -90.1577, 28.7186 ], [ -90.1473, 28.7182 ], [ -90.1368, 28.7179 ], [ -90.1263, 28.7179 ], [ -90.1158, 28.7179 ], [ -90.1051, 28.7182 ], [ -90.0945, 28.7187 ], [ -90.0838, 28.7193 ], [ -90.073, 28.7201 ], [ -90.0622, 28.7211 ], [ -90.0514, 28.7223 ], [ -90.0406, 28.7236 ], [ -90.0298, 28.7251 ], [ -90.0189, 28.7269 ], [ -90.008, 28.7288 ], [ -89.9971, 28.7309 ], [ -89.9863, 28.7332 ], [ -89.9754, 28.7357 ], [ -89.9645, 28.7384 ], [ -89.9536, 28.7412 ], [ -89.9427, 28.7443 ], [ -89.9319, 28.7475 ], [ -89.921, 28.751 ], [ -89.9102, 28.7546 ], [ -89.8994, 28.7584 ], [ -89.8887, 28.7625 ], [ -89.878, 28.7667 ], [ -89.8674, 28.7711 ], [ -89.8569, 28.7759 ], [ -89.8465, 28.7808 ], [ -89.8363, 28.7861 ], [ -89.8263, 28.7916 ], [ -89.8164, 28.7973 ], [ -89.8067, 28.8033 ], [ -89.7972, 28.8095 ], [ -89.7878, 28.816 ], [ -89.7786, 28.8227 ], [ -89.7695, 28.8295 ], [ -89.7605, 28.8365 ], [ -89.7516, 28.8437 ], [ -89.7429, 28.851 ], [ -89.7342, 28.8585 ], [ -89.7258, 28.8662 ], [ -89.7174, 28.874 ], [ -89.7092, 28.8819 ], [ -89.7011, 28.89 ], [ -89.6931, 28.8983 ], [ -89.6853, 28.9067 ], [ -89.6777, 28.9152 ], [ -89.6702, 28.9239 ], [ -89.6628, 28.9328 ], [ -89.6557, 28.9417 ], [ -89.6487, 28.9508 ], [ -89.6418, 28.9601 ], [ -89.6351, 28.9695 ], [ -89.6286, 28.979 ], [ -89.6223, 28.9886 ], [ -89.6162, 28.9984 ], [ -89.6102, 29.0082 ], [ -89.6044, 29.0183 ], [ -89.5988, 29.0284 ], [ -89.5934, 29.0386 ], [ -89.5882, 29.049 ], [ -89.5832, 29.0594 ], [ -89.5784, 29.07 ], [ -89.5738, 29.0806 ], [ -89.5694, 29.0914 ], [ -89.5652, 29.1023 ], [ -89.5613, 29.1132 ], [ -89.5575, 29.1243 ], [ -89.554, 29.1354 ], [ -89.5506, 29.1466 ], [ -89.5475, 29.1579 ], [ -89.5446, 29.1693 ], [ -89.542, 29.1807 ], [ -89.5396, 29.1923 ], [ -89.5374, 29.2039 ], [ -89.5354, 29.2155 ], [ -89.5337, 29.2272 ], [ -89.5322, 29.239 ], [ -89.5309, 29.2508 ], [ -89.5299, 29.2627 ], [ -89.5291, 29.2746 ], [ -89.5286, 29.2866 ], [ -89.5283, 29.2986 ], [ -89.5283, 29.3106 ], [ -89.5285, 29.3227 ], [ -89.5289, 29.3348 ], [ -89.5296, 29.3469 ], [ -89.5306, 29.359 ], [ -89.5318, 29.3712 ], [ -89.5332, 29.3833 ], [ -89.5349, 29.3955 ], [ -89.5369, 29.4077 ], [ -89.5391, 29.4198 ], [ -89.5416, 29.432 ], [ -89.5443, 29.4442 ], [ -89.5473, 29.4563 ], [ -89.5506, 29.4684 ], [ -89.554, 29.4805 ], [ -89.5578, 29.4926 ], [ -89.5618, 29.5046 ], [ -89.5661, 29.5167 ], [ -89.5706, 29.5286 ], [ -89.5754, 29.5406 ], [ -89.5805, 29.5525 ], [ -89.5858, 29.5643 ], [ -89.5914, 29.5761 ], [ -89.5972, 29.5878 ], [ -89.6033, 29.5994 ], [ -89.6096, 29.611 ], [ -89.6162, 29.6226 ], [ -89.623, 29.634 ], [ -89.6301, 29.6454 ], [ -89.6374, 29.6566 ], [ -89.645, 29.6678 ], [ -89.6529, 29.6789 ], [ -89.6612, 29.6898 ], [ -89.6701, 29.7001 ], [ -89.6797, 29.71 ], [ -89.6899, 29.7193 ], [ -89.7007, 29.7281 ], [ -89.7121, 29.7364 ], [ -89.724, 29.7441 ], [ -89.7365, 29.7513 ], [ -89.7495, 29.7579 ], [ -89.7629, 29.7641 ], [ -89.7763, 29.77 ], [ -89.7898, 29.7757 ], [ -89.8033, 29.7812 ], [ -89.8169, 29.7864 ], [ -89.8306, 29.7914 ], [ -89.8443, 29.7961 ], [ -89.8581, 29.8007 ], [ -89.8719, 29.805 ], [ -89.8857, 29.809 ], [ -89.8996, 29.8128 ], [ -89.9135, 29.8164 ], [ -89.9275, 29.8197 ], [ -89.9414, 29.8228 ], [ -89.9554, 29.8257 ], [ -89.9693, 29.8283 ], [ -89.9833, 29.8307 ], [ -89.9972, 29.8329 ], [ -90.0112, 29.8349 ], [ -90.0251, 29.8366 ], [ -90.039, 29.8381 ], [ -90.0529, 29.8393 ], [ -90.0668, 29.8403 ], [ -90.0806, 29.8411 ], [ -90.0944, 29.8417 ], [ -90.1082, 29.8421 ], [ -90.1218, 29.8422 ], [ -90.1355, 29.8421 ], [ -90.1491, 29.8418 ], [ -90.1626, 29.8413 ], [ -90.176, 29.8405 ], [ -90.1894, 29.8396 ], [ -90.2027, 29.8384 ], [ -90.216, 29.8371 ], [ -90.2291, 29.8355 ], [ -90.2421, 29.8337 ], [ -90.2551, 29.8317 ], [ -90.268, 29.8296 ], [ -90.2807, 29.8272 ], [ -90.2934, 29.8246 ] ] ] } }
]
}
