{
"type": "FeatureCollection",
"name": "al092021-016A_5day_pts",
"features": [
{ "type": "Feature", "properties": { "ADVDATE": "100 AM CDT Mon Aug 30 2021", "ADVISNUM": "16A", "BASIN": "AL", "DATELBL": "1:00 AM Mon", "DVLBL": "H", "FCSTPRD": 120.0, "FLDATELBL": "2021-08-29 10:00 PM Sun CDT", "GUST": 110.0, "LAT": 30.6, "LON": -90.8, "MAXWIND": 65.0, "MSLP": 972.0, "SSNUM": 1.0, "STORMNAME": "Hurricane Ida", "STORMNUM": 9.0, "STORMSRC": "Tropical Cyclone", "STORMTYPE": "HU", "TCDVLP": "Hurricane", "TAU": 0.0, "TCDIR": 340.0, "TCSPD": 8.0, "TIMEZONE": "CDT", "VALIDTIME": "30/0300" }, "geometry": { "type": "Point", "coordinates": [ -90.8, 30.6 ] } },
{ "type": "Feature", "properties": { "ADVDATE": "100 AM CDT Mon Aug 30 2021", "ADVISNUM": "16A", "BASIN": "AL", "DATELBL": "7:00 AM Mon", "DVLBL": "S", "FCSTPRD": 120.0, "FLDATELBL": "2021-08-30 7:00 AM Mon CDT", "GUST": 70.0, "LAT": 31.5, "LON": -90.8, "MAXWIND": 50.0, "MSLP": 9999.0, "SSNUM": 0.0, "STORMNAME": "Hurricane Ida", "STORMNUM": 9.0, "STORMSRC": "Tropical Cyclone", "STORMTYPE": "TS", "TCDVLP": "Tropical Storm", "TAU": 12.0, "TCDIR": 9999.0, "TCSPD": 9999.0, "TIMEZONE": "CDT", "VALIDTIME": "30/1200" }, "geometry": { "type": "Point", "coordinates": [ -90.8, 31.5 ] } },
{ "type": "Feature", "properties": { "ADVDATE": "100 AM CDT Mon Aug 30 2021", "ADVISNUM": "16A", "BASIN": "AL", "DATELBL": "7:00 PM Mon", "DVLBL": "D", "FCSTPRD": 120.0, "FLDATELBL": "2021-08-30 7:00 PM Mon CDT", "GUST": 45.0, "LAT": 33.0, "LON": -90.1, "MAXWIND": 30.0, "MSLP": 9999.0, "SSNUM": 0.0, "STORMNAME": "Hurricane Ida", "STORMNUM": 9.0, "STORMSRC": "Tropical Cyclone", "STORMTYPE": "TD", "TCDVLP": "Tropical Depression", "TAU": 24.0, "TCDIR": 9999.0, "TCSPD": 9999.0, "TIMEZONE": "CDT", "VALIDTIME": "31/0000" }, "geometry": { "type": "Point", "coordinates": [ -90.1, 33.0 ] } },
{ "type": "Feature", "properties": { "ADVDATE": "100 AM CDT Mon Aug 30 2021", "ADVISNUM": "16A", "BASIN": "AL", "DATELBL": "7:00 AM Tue", "DVLBL": "D", "FCSTPRD": 120.0, "FLDATELBL": "2021-08-31 7:00 AM Tue CDT", "GUST": 35.0, "LAT": 34.6, "LON": -88.5, "MAXWIND": 25.0, "MSLP": 9999.0, "SSNUM": 0.0, "STORMNAME": "Hurricane Ida", "STORMNUM": 9.0, "STORMSRC": "Tropical Cyclone", "STORMTYPE": "TD", "TCDVLP": "Tropical Depression", "TAU": 36.0, "TCDIR": 9999.0, "TCSPD": 9999.0, "TIMEZONE": "CDT", "VALIDTIME": "31/1200" }, "geometry": { "type": "Point", "coordinates": [ -88.5, 34.6 ] } },
{ "type": "Feature", "properties": { "ADVDATE": "100 AM CDT Mon Aug 30 2021", "ADVISNUM": "16A", "BASIN": "AL", "DATELBL": "7:00 PM Tue", "DVLBL": "D", "FCSTPRD": 120.0, "FLDATELBL": "2021-08-31 7:00 PM Tue CDT", "GUST": 35.0, "LAT": 36.1, "LON": -85.9, "MAXWIND": 25.0, "MSLP": 9999.0, "SSNUM": 0.0, "STORMNAME": "Hurricane Ida", "STORMNUM": 9.0, "STORMSRC": "Post-Tropical Cyclone", "STORMTYPE": "STD", "TCDVLP": "Subtropical Depression", "TAU": 48.0, "TCDIR": 9999.0, "TCSPD": 9999.0, "TIMEZONE": "CDT", "VALIDTIME": "01/0000" }, "geometry": { "type": "Point", "coordinates": [ -85.9, 36.1 ] } },
{ "type": "Feature", "properties": { "ADVDATE": "100 AM CDT Mon Aug 30 2021", "ADVISNUM": "16A", "BASIN": "AL", "DATELBL": "7:00 AM Wed", "DVLBL": "D", "FCSTPRD": 120.0, "FLDATELBL": "2021-09-01 7:00 AM Wed CDT", "GUST": 35.0, "LAT": 37.5, "LON": -82.5, "MAXWIND": 25.0, "MSLP": 9999.0, "SSNUM": 0.0, "STORMNAME": "Hurricane Ida", "STORMNUM": 9.0, "STORMSRC": "Post-Tropical Cyclone", "STORMTYPE": "STD", "TCDVLP": "Subtropical Depression", "TAU": 60.0, "TCDIR": 9999.0, "TCSPD": 9999.0, "TIMEZONE": "CDT", "VALIDTIME": "01/1200" }, "geometry": { "type": "Point", "coordinates": [ -82.5, 37.5 ] } },
{ "type": "Feature", "properties": { "ADVDATE": "100 AM CDT Mon Aug 30 2021", "ADVISNUM": "16A", "BASIN": "AL", "DATELBL": "7:00 PM Wed", "DVLBL": "D", "FCSTPRD": 120.0, "FLDATELBL": "2021-09-01 7:00 PM Wed CDT", "GUST": 40.0, "LAT": 38.9, "LON": -78.8, "MAXWIND": 30.0, "MSLP": 9999.0, "SSNUM": 0.0, "STORMNAME": "Hurricane Ida", "STORMNUM": 9.0, "STORMSRC": "Post-Tropical Cyclone", "STORMTYPE": "STD", "TCDVLP": "Subtropical Depression", "TAU": 72.0, "TCDIR": 9999.0, "TCSPD": 9999.0, "TIMEZONE": "CDT", "VALIDTIME": "02/0000" }, "geometry": { "type": "Point", "coordinates": [ -78.8, 38.9 ] } },
{ "type": "Feature", "properties": { "ADVDATE": "100 AM CDT Mon Aug 30 2021", "ADVISNUM": "16A", "BASIN": "AL", "DATELBL": "7:00 PM Thu", "DVLBL": "S", "FCSTPRD": 120.0, "FLDATELBL": "2021-09-02 7:00 PM Thu CDT", "GUST": 45.0, "LAT": 40.0, "LON": -72.5, "MAXWIND": 35.0, "MSLP": 9999.0, "SSNUM": 0.0, "STORMNAME": "Hurricane Ida", "STORMNUM": 9.0, "STORMSRC": "Post-Tropical Cyclone", "STORMTYPE": "STS", "TCDVLP": "Subtropical Storm", "TAU": 96.0, "TCDIR": 9999.0, "TCSPD": 9999.0, "TIMEZONE": "CDT", "VALIDTIME": "03/0000" }, "geometry": { "type": "Point", "coordinates": [ -72.5, 40.0 ] } },
{ "type": "Feature", "properties": { "ADVDATE": "100 AM CDT Mon Aug 30 2021", "ADVISNUM": "16A", "BASIN": "AL", "DATELBL": "7:00 PM Fri", "DVLBL": "S", "FCSTPRD": 120.0, "FLDATELBL": "2021-09-03 7:00 PM Fri CDT", "GUST": 45.0, "LAT": 40.7, "LON": -67.9, "MAXWIND": 35.0, "MSLP": 9999.0, "SSNUM": 0.0, "STORMNAME": "Hurricane Ida", "STORMNUM": 9.0, "STORMSRC": "Post-Tropical Cyclone", "STORMTYPE": "STS", "TCDVLP": "Subtropical Storm", "TAU": 120.0, "TCDIR": 9999.0, "TCSPD": 9999.0, "TIMEZONE": "CDT", "VALIDTIME": "04/0000" }, "geometry": { "type": "Point", "coordinates": [ -67.9, 40.7 ] } }
]
}
