{"type":"FeatureCollection","features":[{"type":"Feature","id":1,"geometry":{"type":"Polygon","coordinates":[[[-55.585213930878069,33.275989713054969],[-55.597728663546889,33.352545434824094],[-55.611927095259148,33.427856795255025],[-55.627821693316378,33.501920035181627],[-55.645424927718125,33.574731394538389],[-55.664749265765863,33.646287112360483],[-55.68580717476118,33.716583431280469],[-55.708611124703509,33.785616590333518],[-55.733173581995118,33.853382830353496],[-55.759507014836743,33.919878391274892],[-55.787623892328668,33.985099513931573],[-55.81753668177231,34.049042437358764],[-55.849257852267954,34.111703404188916],[-55.882799870217696,34.173078653457253],[-55.918175205621139,34.233164425997586],[-55.955396325779702,34.291956960845198],[-55.994475698894291,34.349452500632538],[-56.035425792266381,34.405647283495455],[-56.078259074996197,34.460537551167192],[-56.122988015284591,34.51411954358224],[-56.169625081332299,34.566389501574406],[-56.218182740441023,34.617343665078238],[-56.268673460811442,34.666978274028281],[-56.321109710644521,34.715289570157665],[-56.375503959040373,34.762273791602354],[-56.431868673300528,34.807927180994739],[-56.490216321625837,34.852245978269423],[-56.550559372217151,34.895226422461576],[-56.612910292376,34.936864754405065],[-56.677281552101817,34.977157215833017],[-56.743685617796928,35.016100045780661],[-56.812134957662067,35.053689485081804],[-56.882642040797407,35.089921773671051],[-56.95521933540391,35.12479315238221],[-57.029879308782938,35.158299862049148],[-57.106634429135454,35.190438141707034],[-57.185497164662308,35.221204232189734],[-57.266479983564295,35.250594375230378],[-57.349590562454352,35.278604863823546],[-57.434771520988761,35.305232730206455],[-57.521918596266119,35.330475539914403],[-57.610926488466532,35.35433086657639],[-57.70168989866977,35.37679628741887],[-57.794103528854635,35.397869376071014],[-57.888062080100781,35.417547709759162],[-57.983460252588486,35.43582886301175],[-58.080192747397234,35.452710412155966],[-58.178154265606736,35.468189931720133],[-58.277239509195851,35.482264998031383],[-58.377343178344915,35.494933186517471],[-58.478359974133411,35.506192072606211],[-58.580184598540257,35.516039231725301],[-58.682711751745842,35.524472239302554],[-58.785836134829651,35.531488671664988],[-58.889452448871282,35.537086103341153],[-58.993455394950388,35.54126211065801],[-59.09773967414651,35.54401426814411],[-59.202199988438622,35.545340152126471],[-59.306731037107568,35.545237338932168],[-59.411227523031641,35.543703402190431],[-59.5155841454918,35.540735919127485],[-59.619695607366282,35.536332464271936],[-59.723456607935987,35.530490613950803],[-59.826761850079208,35.523207942692522],[-59.929506033076848,35.514482026824226],[-60.031583858907823,35.504310441773612],[-60.132890028651786,35.492690762069174],[-60.23331924338828,35.47962056493725],[-60.332766204196844,35.465097424906389],[-60.431125611257812,35.449118918303554],[-60.528292167449479,35.431682619657295],[-60.624160572052631,35.412786104395366],[-60.71862552614698,35.392426948844786],[-60.811581732610762,35.370602728433312],[-60.902923890724878,35.347311018588755],[-60.992547024425505,35.322549486469768],[-61.080385122575251,35.296326804238788],[-61.166447851986675,35.26867302364127],[-61.25075357591669,35.239620653370594],[-61.333320655823513,35.209202199422123],[-61.414167454064625,35.177450168690484],[-61.493312332997675,35.144397070768321],[-61.570773654080767,35.110075410751733],[-61.646569779671495,35.074517697333988],[-61.720719072127338,35.037756437409826],[-61.793239892906627,34.999824138773135],[-61.864150605266104,34.960753307419338],[-61.933469570664045,34.920576452941077],[-62.001215151457984,34.879326081333716],[-62.067405710005403,34.837034699491937],[-62.132059607764575,34.793734816109009],[-62.195195207992356,34.74945893807967],[-62.256830871247587,34.704239572298548],[-62.316984960787181,34.658109226559702],[-62.375675838968675,34.61110040865708],[-62.432921867250286,34.563245624586045],[-62.488741407090174,34.514577383039921],[-62.543152822644515,34.465128191812767],[-62.596174474472321,34.414930556000513],[-62.647824724931013,34.36401698519586],[-62.698121937277449,34.312419986293492],[-62.74708447207064,34.260172065288714],[-62.794730692567271,34.207305731774227],[-62.84107896022573,34.153853491745394],[-62.88614763740344,34.099847852096843],[-62.929955086457937,34.045321321521897],[-62.972519668847553,33.990306406915295],[-63.013859747828974,33.934835616070984],[-63.053993684860529,33.878941454984329],[-63.092939842299756,33.822656432348595],[-63.130716581604872,33.766013055058579],[-63.16734226603262,33.709043830008909],[-63.202835257041386,33.651781265892851],[-63.2372118791248,33.59425449714746],[-63.270476559645374,33.536472973848788],[-63.302629415515014,33.478439019845041],[-63.333670561846816,33.420154948192476],[-63.363600111056144,33.361623071947349],[-63.392418177356888,33.302845704166032],[-63.420124874063561,33.243825159703476],[-63.44672031359147,33.184563751615997],[-63.472204610154506,33.12506379295985],[-63.496577876167919,33.065327596791292],[-63.519840225845655,33.00535747796539],[-63.541991772502172,32.945155748639024],[-63.563032629452152,32.884724723667205],[-63.582962910010167,32.824066714307548],[-63.601782726591466,32.763184036314385],[-63.619492193409883,32.702079002743915],[-63.636091424679421,32.640753925753188],[-63.651580531915897,32.579211120197158],[-63.665959629333315,32.517452898232818],[-63.679228830246188,32.455481575614385],[-63.691388248868464,32.393299463599533],[-63.702437996716071,32.330908876143837],[-63.712378188902164,32.268312127203046],[-63.721208937842107,32.205511529833359],[-63.728930356850356,32.142509398889786],[-63.735542559241594,32.079308045629944],[-63.741045658330336,32.015909784908786],[-63.745439768330527,31.952316929782626],[-63.748725001657363,31.888531794207097],[-63.750901472524845,31.824556691238456],[-63.751969293348111,31.760393934832393],[-63.751928577441788,31.696045837145789],[-63.750779439019766,31.631514713933029],[-63.748521991396672,31.566802876451732],[-63.745156346987699,31.501912639556792],[-63.740682620006794,31.436846315405262],[-63.735100922869208,31.371606218852037],[-63.728409917383658,31.306195844662625],[-63.720574862739625,31.240645867812702],[-63.711527617305592,31.175014141689417],[-63.701198584347082,31.109359701389224],[-63.689518169827579,31.043741583807218],[-63.676416779710507,30.978218824938949],[-63.66182481906003,30.912850458981666],[-63.645672692040989,30.847695522830236],[-63.627890805516131,30.782813052480549],[-63.608409563650355,30.718262082129513],[-63.587159371507653,30.654101648672281],[-63.564070634152358,30.590390788104514],[-63.539073757547783,30.527188534623292],[-63.512099146758089,30.464553926023029],[-63.483077206847497,30.402545996500692],[-63.451938343779432,30.341223782052055],[-63.418612961718679,30.280646318672837],[-63.383031465729459,30.2208726423587],[-63.34512426177514,30.161961788206099],[-63.304821754919942,30.103972792210755],[-63.26205435022797,30.046964689469007],[-63.216752452763387,29.990996516875896],[-63.168846468489619,29.936127309527876],[-63.118266801571508,29.882416103420553],[-63.064943857972537,29.829921933650439],[-63.008808042756868,29.778703837112516],[-62.949789760988551,29.728820848003863],[-62.887819417731805,29.680332003219519],[-62.822827418950112,29.633296337855825],[-62.754744169707578,29.587772887908613],[-62.68350007416899,29.543820688474113],[-62.609025539197148,29.501498776447534],[-62.531250968057634,29.460866186925102],[-62.450106767613136,29.421981955003389],[-62.365523342028496,29.384905117577262],[-62.277431097267197,29.349694709743176],[-62.185760438393402,29.316409767496907],[-62.090441858604777,29.285109291760534],[-61.99146997276091,29.255827473858972],[-61.889016540580769,29.228529958790716],[-61.783283660412508,29.203170652703591],[-61.674473427906264,29.179703463544172],[-61.56278794051093,29.158082297460226],[-61.448429295675339,29.138261061498952],[-61.331599589949008,29.120193663606813],[-61.21250091988145,29.103834009032425],[-61.0913353829215,29.089136005722253],[-60.968305075618616,29.076053559824061],[-60.843612095421747,29.064540578385106],[-60.717458537981031,29.054550969351908],[-60.590046500745302,29.046038638872233],[-60.461578081163395,29.03895749399328],[-60.332255375784825,29.033261441762249],[-60.202280481159164,29.028904388327021],[-60.071855494735189,29.025840240734681],[-59.941182513062415,29.024022906931748],[-59.810463632690357,29.023406293066103],[-59.679900951967227,29.023944306184944],[-59.549696565643899,29.025590852436039],[-59.420052572068414,29.028299840665284],[-59.291171068689778,29.032025175221804],[-59.163254150258695,29.036720764951497],[-59.03650391512349,29.042340516002128],[-58.911122460732884,29.04883833632033],[-58.787311882737072,29.056168131154493],[-58.665274278585002,29.064283807551817],[-58.545211744826076,29.073139274358141],[-58.427326378909129,29.082688435922705],[-58.311820277383788,29.092885201091292],[-58.198895537698775,29.103683476011724],[-58.088754255504398,29.115037167731259],[-57.981598528249378,29.126900182397662],[-57.877630454281928,29.139226428856773],[-57.777052128352921,29.151969811457775],[-57.680065647911192,29.165084239046564],[-57.586851807264964,29.1785303527937],[-57.497405986596902,29.192327418875436],[-57.41162809496052,29.206524886514444],[-57.329417254502573,29.221172455844282],[-57.250672587369877,29.236319824300608],[-57.175293213910606,29.252016692916186],[-57.103178257170725,29.268312760025992],[-57.034226837498466,29.285257725763586],[-56.968338077040528,29.302901288463829],[-56.90541109704435,29.321293148260338],[-56.845345019656804,29.340483003487975],[-56.788038966125271,29.360520554280299],[-56.733392057697188,29.38145549897223],[-56.68130341651937,29.403337537697325],[-56.631672163839198,29.426216369689826],[-56.584397420904111,29.450141694183969],[-56.539378309860979,29.475163210413996],[-56.496513952856503,29.50133061761403],[-56.455703470238859,29.528693614119163],[-56.416845983255428,29.557301900962102],[-56.379840614952286,29.587205175578561],[-56.344586486576986,29.618453139001303],[-56.310982718477533,29.651095489565307],[-56.278928433700116,29.685181927404187],[-56.248322753492175,29.720762149953373],[-56.219064798201771,29.757885858245913],[-56.191053690875037,29.796602750616614],[-56.164188552759413,29.836962527199034],[-56.138368505102335,29.879014886328093],[-56.113492669151242,29.92280952813735],[-56.089460167052948,29.968396150961723],[-56.066170120954212,30.015824454934773],[-56.04352165120315,30.065144138391418],[-56.021413879946465,30.116404902364479],[-55.999745928431764,30.169656444289615],[-55.978416918805635,30.224948464300326],[-55.95732597231563,30.282330661630851],[-55.936373472857383,30.341851496249717],[-55.915516976926824,30.403503303235027],[-55.894793372915728,30.467200540872398],[-55.87424539211105,30.532851929772903],[-55.853915766699174,30.60036619234603],[-55.833847227967055,30.669652049202853],[-55.814082507201817,30.740618221853595],[-55.794664336589733,30.813173430909274],[-55.775635447417869,30.887226398779433],[-55.75703857097318,30.96268584607509],[-55.738916440341313,31.039460494306525],[-55.721311785910075,31.117459064984018],[-55.704267339865737,31.196590279617851],[-55.68782583349531,31.276762858819041],[-55.672029998985124,31.35788552499713],[-55.656922567622303,31.439866997863817],[-55.642546270693742,31.522616000728021],[-55.62894384038583,31.606041253301328],[-55.616158007985575,31.69005147709413],[-55.604231505679309,31.774555394515971],[-55.593207064754097,31.859461726177869],[-55.58312741739627,31.944679192690728],[-55.574035293993518,32.030116517363524],[-55.565973426732171,32.115682419008579],[-55.558984547798502,32.201285620934812],[-55.553111389379012,32.286834843753184],[-55.548396680961957,32.372238808973975],[-55.544883156532308,32.457406237208204],[-55.542613545578547,32.54224585086547],[-55.541630581186269,32.626666370556677],[-55.541976995541802,32.710576517792219],[-55.543695519032838,32.793885014082264],[-55.5468288829465,32.876500580937204],[-55.551419820368324,32.958331938967945],[-55.557511062585377,33.039287809684822],[-55.565145339985349,33.119276914598061],[-55.574365385653891,33.198207975218054],[-55.585213930878069,33.275989713054969]]]},"properties":{"objectid":1,"basin":"Atlantic","prob2day":"20%","risk2day":"Low","prob7day":"20%","risk7day":"Low","idp_source":"gtwo_areas_202609172356","idp_filedate":1789689474000,"idp_ingestdate":1789689538000,"st_area(shape)":45.168675907164911,"st_perimeter(shape)":24.278246987407048}},{"type":"Feature","id":2,"geometry":{"type":"Polygon","coordinates":[[[-103.28674524609613,10.499104951332583],[-103.19951231793902,10.597793973413275],[-103.11417560851743,10.700331288957955],[-103.030825600421,10.806543433133072],[-102.94955277623956,10.916256940205756],[-102.87044761766333,11.029298346241831],[-102.79360060818141,11.145494186407689],[-102.7191022303835,11.264670994071253],[-102.64704296596,11.386655307096873],[-102.57751329660124,11.511273657953097],[-102.51060370669563,11.638352582705693],[-102.44640467703414,11.767718616521051],[-102.38500669020647,11.899198293666473],[-102.32650022970176,12.032618150207611],[-102.27097577631093,12.167804721310972],[-102.21852381442238,12.304584540344422],[-102.16923482482719,12.442784144272991],[-102.12319929011505,12.582230067363867],[-102.08050769377496,12.722748843884176],[-102.0412505174973,12.864167010799065],[-102.00551824387173,13.006311100576966],[-101.97340135548808,13.149007651082343],[-101.94499033403656,13.292083194783743],[-101.92037566210701,13.435364268646197],[-101.89964782318839,13.578677406037571],[-101.88289729897105,13.72184914302369],[-101.87021457114542,13.864706015670208],[-101.8616901232005,14.007074556445787],[-101.85741443682667,14.148781302315399],[-101.85747799551297,14.289652788445551],[-101.86197128094977,14.429515548204108],[-101.87098477482738,14.568196118556159],[-101.88460896063492,14.705521032869513],[-101.90293432096206,14.841316828109257],[-101.92605133749913,14.975410036743938],[-101.9540504928359,15.107627196637964],[-101.98702226956198,15.237794840259824],[-102.02505714936785,15.365739504574606],[-102.06823437961282,15.49129549309265],[-102.11648065206032,15.614402587209781],[-102.16961271905166,15.735076583517639],[-102.22744490565776,15.853334956743026],[-102.28979153694979,15.969195182511783],[-102.35646693709936,16.082674734651448],[-102.42728543207693,16.193791088787862],[-102.50206134425554,16.30256171874845],[-102.58060900050486,16.409004101058542],[-102.66274272499669,16.513135708646189],[-102.74827684280194,16.614974018036662],[-102.83702567809246,16.714536503057332],[-102.92880355593928,16.81184063843483],[-103.02342480051402,16.906903899795282],[-103.12070373778715,16.999743760965941],[-103.22045469103108,17.090377698472139],[-103.32249198711543,17.178823185241924],[-103.42662994841328,17.265097697800627],[-103.53268290179437,17.349218709076297],[-103.64046517053112,17.431203695594206],[-103.74979107969449,17.511070132081045],[-103.86047495435554,17.58883549236424],[-103.97233111958542,17.664517252069686],[-104.08517389955574,17.738132885924074],[-104.19881761933755,17.80969986865415],[-104.31307660310267,17.879235674986546],[-104.42776517682137,17.946757780547273],[-104.54269766466541,18.01228365826438],[-104.65768839080647,18.075830785562459],[-104.7725516803157,18.137416635369561],[-104.88710185916335,18.197058683311752],[-105.00115325062194,18.254774404115608],[-105.11452017976239,18.310581272507875],[-105.22701697165581,18.364496763215186],[-105.33845795047392,18.416538351863608],[-105.44865744218708,18.466723512280396],[-105.55742977096708,18.515069720091674],[-105.66458984644419,18.561594488694823],[-105.77002334050468,18.606320049330975],[-105.87375335763124,18.649277792836017],[-105.97581879350241,18.690500163152137],[-106.07625854289734,18.730019606020164],[-106.17511149969584,18.767868563583477],[-106.27241655777783,18.80407948068364],[-106.36821261282171,18.838684802162049],[-106.46253855960674,18.871716971061517],[-106.55543329291203,18.903208432223494],[-106.64693570661746,18.933191629590169],[-106.73708469550218,18.961699007103618],[-106.8259191543454,18.98876300870603],[-106.91347797792622,19.014416079238799],[-106.9998000610239,19.038690662644115],[-107.08492429751823,19.061619201964731],[-107.16888958218834,19.083234142941478],[-107.25173481071283,19.103567927717847],[-107.33349887697148,19.122653002933873],[-107.41422067574348,19.140521809833785],[-107.493939101808,19.157206795057675],[-107.57269304904486,19.172740401648355],[-107.65052141313259,19.187155073547956],[-107.72746308795104,19.200483254698611],[-107.80355696827934,19.212757389941714],[-107.87884194889671,19.224009923219512],[-107.95335692458229,19.234273298474079],[-108.02714078921593,19.243579959647548],[-108.10023243847616,19.251962351581426],[-108.17267076714211,19.259452917318413],[-108.24449466819431,19.266084100800754],[-108.31574303821054,19.271888347769163],[-108.38645477017138,19.276898101266511],[-108.45666876065468,19.281145805234871],[-108.52642390174157,19.284663904515696],[-108.59575909090921,19.287484843051232],[-108.66471322023881,19.289641063884119],[-108.73332518540889,19.2911650127553],[-108.80163033697039,19.292078223031695],[-108.8696433221815,19.292338519207419],[-108.93737129784699,19.291880665360566],[-109.00482140818133,19.290639394092921],[-109.07200080009676,19.288549438905648],[-109.13891661690826,19.285545530601894],[-109.20557600552814,19.28156240268288],[-109.27198611107008,19.276534787750393],[-109.33815407774841,19.270397417506956],[-109.4040870524754,19.263085025453677],[-109.46979218036472,19.254532342393816],[-109.53527660563077,19.244674102727799],[-109.60054747428643,19.233445038158152],[-109.66561193234469,19.220779880387283],[-109.73047712401996,19.206613362916528],[-109.79515019532516,19.190880218347559],[-109.85963829137393,19.1735151783829],[-109.92394855817935,19.154452975624451],[-109.98808813995561,19.133628342674001],[-110.05206418271575,19.110976013032712],[-110.11588383157346,19.086430717503731],[-110.1795542325417,19.05992718868896],[-110.24308252983479,19.031400160089447],[-110.30647586946571,19.000784364307094],[-110.36974139744746,18.968014532145105],[-110.43288625799431,18.933025398003849],[-110.49591759711933,18.895751693585908],[-110.55884255993607,18.856128150593804],[-110.62166829155831,18.814089502528645],[-110.68440193709961,18.769570481992275],[-110.74705064347233,18.722505820687218],[-110.80962155399141,18.67283025121526],[-110.87212181556924,18.620478506178245],[-110.93455857331941,18.565385319077336],[-110.99693897145625,18.507485420715739],[-111.05927015689213,18.446713543695239],[-111.12155927384134,18.38300442241632],[-111.18381189270457,18.316295964087601],[-111.24599737088187,18.246599153927946],[-111.30804884557767,18.173998047971679],[-111.36989788288088,18.098579882255876],[-111.43147604798111,18.020431890119767],[-111.49271490606799,17.939641307600425],[-111.55354602233098,17.856295367137648],[-111.61390096106038,17.770481304768566],[-111.67371128744588,17.682286354731616],[-111.73290856757626,17.591797752164666],[-111.79142436574176,17.499102730406833],[-111.84919024713213,17.40428852459587],[-111.90613777693676,17.307442369869591],[-111.96219852034534,17.208651499567168],[-112.01730404254744,17.108003149725732],[-112.0713859078333,17.005584553684344],[-112.12437568139251,16.90148294658087],[-112.17620492931394,16.795785562653748],[-112.22680521588791,16.688579637040732],[-112.2761081072033,16.579952403081052],[-112.32404516665105,16.469991096811782],[-112.37054796032004,16.358782952471415],[-112.41554805339985,16.246415203399067],[-112.45897701108009,16.132975085631813],[-112.50076639765103,16.018549833408201],[-112.54084777830224,15.903226680067348],[-112.57915271912259,15.787092861646386],[-112.6156127844024,15.670235612383749],[-112.65015953933118,15.55274216651793],[-112.68272454819925,15.434699759186685],[-112.7132393779948,15.316195623729186],[-112.74163559210882,15.197316995283245],[-112.7678447566301,15.078151109885937],[-112.79179843674837,14.958785199977115],[-112.81342819585444,14.83930650069459],[-112.83266560093665,14.719802247176119],[-112.84944221628518,14.600359673660137],[-112.86368963047198,14.481066002694035],[-112.87535647781908,14.361999603898767],[-112.88443848025156,14.243214391631],[-112.89093942751248,14.124760093003999],[-112.89486310664694,14.006686432433071],[-112.89621330559947,13.889043136131988],[-112.89499381231451,13.771879931214016],[-112.89120841473647,13.655246543893043],[-112.88486090170915,13.539192698584316],[-112.87595505937838,13.423768123300363],[-112.86449467658798,13.309022542456489],[-112.8504835412823,13.195005683165903],[-112.83392544140588,13.081767270743114],[-112.81482416400388,12.969357031402012],[-112.7931834988193,12.857824692255861],[-112.76900723109873,12.747219977719908],[-112.74229915148453,12.637592615806739],[-112.71306304612256,12.528992330032168],[-112.68130270295728,12.421468849308098],[-112.64702191083245,12.31507189715046],[-112.61022445769248,12.209851201571837],[-112.57091412968322,12.10585648698742],[-112.52909471654783,12.003137481409794],[-112.48477000533137,11.901743909254151],[-112.43794378487769,11.801725496734434],[-112.38861984133251,11.703131970963852],[-112.3368019635397,11.606013056357597],[-112.28249394034299,11.510418480928308],[-112.22569955788816,11.416397969091122],[-112.16642260591846,11.324001247959359],[-112.10466687057954,11.23327804374685],[-112.0404361407152,11.144278080868901],[-111.97373420426999,11.057051087337925],[-111.904564848289,10.971646788468661],[-111.83293186251535,10.888114909575563],[-111.75883903219551,10.806505177771896],[-111.68229014797186,10.726867318372172],[-111.60328899509096,10.64925105848971],[-111.52184393814713,10.573701660103666],[-111.43800314392985,10.500225544373507],[-111.35183528287189,10.428809130636978],[-111.26340918908272,10.35943867365603],[-111.17279370026898,10.292100428192327],[-111.08005765323799,10.226780649907198],[-110.98526988479728,10.163465591763782],[-110.88849923085473,10.102141509423234],[-110.78981452821779,10.042794657647448],[-110.68928461279455,9.9854112920975808],[-110.58697832319098,9.9299776657368284],[-110.4829644944158,9.8764800333270273],[-110.37731196327638,9.8249046514286533],[-110.27008956658011,9.7752377730049602],[-110.16136614113441,9.727465653717104],[-110.05121052374659,9.6815745474275445],[-109.93969155032471,9.6375507097975515],[-109.82687805857546,9.5953803955889043],[-109.71283888350757,9.5550498586641766],[-109.59764286372706,9.5165453537852045],[-109.48135883334339,9.4798531366130874],[-109.36405563186185,9.4449594619097752],[-109.24580209339177,9.411850582638408],[-109.1266670565393,9.3805127553595185],[-109.00671935631317,9.3509322339355663],[-108.88602783041995,9.3230952731285015],[-108.76466131566707,9.2969881277000468],[-108.64268864706332,9.2725970524121522],[-108.52017866321466,9.2499083029259737],[-108.39720019912977,9.2289081322046513],[-108.27382209251545,9.2095827959094549],[-108.15011317927969,9.1919185488021071],[-108.02614229712918,9.1759016456445579],[-107.90197828107273,9.1615183411986436],[-107.7776899688169,9.148754889326824],[-107.65334619716918,9.1375975465896317],[-107.52901580203752,9.1280325650510008],[-107.40476740978801,9.1200468991452226],[-107.28066014454993,9.1136590874970125],[-107.15673994009609,9.1089314998889677],[-107.03305175893144,9.1059297346696439],[-106.90964056535972,9.1047193901878245],[-106.78655132278521,9.1053660638928591],[-106.66382899281365,9.1079353541334171],[-106.54151854064804,9.1124928601574879],[-106.41966492789402,9.1191041785151583],[-106.29831311885528,9.1278349093537372],[-106.17750807603676,9.1387506483238781],[-106.05729476284296,9.1519169955730035],[-105.93771814267802,9.1673995494497831],[-105.81882317804713,9.1852639065042467],[-105.70065483325385,9.2055756659843269],[-105.58325807170257,9.2284004253394869],[-105.46667785499892,9.2538037838177161],[-105.35095914744659,9.2818513388683073],[-105.23614691244995,9.3126086897393634],[-105.12228611251396,9.3461414320815379],[-105.00942171194237,9.3825151669415163],[-104.89759867234073,9.4217954908693287],[-104.7868619589122,9.4640480022136444],[-104.677256532363,9.5093383002225096],[-104.56882735879549,9.5577319814458974],[-104.46161939891601,9.6092946442325911],[-104.35567761792765,9.6640918887298426],[-104.25104697743598,9.7221893105883623],[-104.14777244084536,9.7836525099555161],[-104.04589897335882,9.8485470842806535],[-103.94547153568271,9.9169386310131244],[-103.84653509212069,9.9888927494009749],[-103.74913460607712,10.064475036893555],[-103.65331504005695,10.143751091839533],[-103.55912135836388,10.226786512587637],[-103.46659852260365,10.313646897486478],[-103.37579149797915,10.404397844884784],[-103.28674524609613,10.499104951332583]]]},"properties":{"objectid":2,"basin":"Pacific","prob2day":"0%","risk2day":"Low","prob7day":"80%","risk7day":"High","idp_source":"gtwo_areas_202609172356","idp_filedate":1789689474000,"idp_ingestdate":1789689538000,"st_area(shape)":88.804093487492025,"st_perimeter(shape)":33.615499529105747}},{"type":"Feature","id":3,"geometry":{"type":"Polygon","coordinates":[[[-125.73044914111489,8.2754034302242871],[-125.42949189523466,8.2499739689236549],[-125.12943875219656,8.2247797396933606],[-124.83042737032679,8.1999270747747914],[-124.53259541244825,8.1755223055101283],[-124.23608053778651,8.1516717632414384],[-123.94102040646652,8.1284817802101088],[-123.64755268041176,8.1060586868590576],[-123.35581501884798,8.0845088163289347],[-123.06594508279926,8.0639384990626013],[-122.77808053328988,8.0444540673015013],[-122.49235902954547,8.0261618514883821],[-122.20891823348961,8.0091681847640643],[-121.92789580434783,7.9935793984706152],[-121.64942940314432,7.979501823050839],[-121.37365669000417,7.9670417907461797],[-121.10071532685077,7.9563056337980811],[-120.83074297201046,7.9473996835486673],[-120.5638772874068,7.9404302704407428],[-120.30025593316469,7.9355037276150711],[-120.04001656940903,7.9327263864137194],[-119.78329685716415,7.9322045772795491],[-119.53023445745413,7.9340446324539471],[-119.28096702950472,7.9383528841784141],[-119.03563223434003,7.9452356637949606],[-118.79436773208505,7.9547993017465046],[-118.55731118466332,7.9671501311737529],[-118.32460025040115,7.9823944834188296],[-118.09637259122201,8.0006386889244823],[-117.87276586815022,8.0219890799322116],[-117.653917739512,8.0465519886834613],[-117.43996586813023,8.0744337465202989],[-117.2310479132305,8.1057406847849052],[-117.02730153493781,8.1405791348193475],[-116.82886439517563,8.1790554279657499],[-116.63587415316954,8.2212758973649329],[-116.44846846994386,8.2673468725602675],[-116.26678500562343,8.317374686692574],[-116.09096142123252,8.3714656711039765],[-115.92113537689602,8.4297261571365993],[-115.75744453273887,8.4922624761325096],[-115.60002655068467,8.5591809603332081],[-115.44901908995894,8.630587941080762],[-115.30455930796558,8.7065885877932487],[-115.16674053724591,8.7871868251120304],[-115.03557889544959,8.8722082007479912],[-114.91108264105094,8.961460106898528],[-114.79326003342373,9.0547499339623982],[-114.6821193310422,9.1518850714390396],[-114.57766879238079,9.2526729124251119],[-114.47991667591378,9.3569208455207331],[-114.3888712392162,9.4644362629233569],[-114.30454074256113,9.5750265559309469],[-114.22693344442285,9.6884991140429975],[-114.15605760237634,9.8046613285575859],[-114.0919214757954,9.9233205907727893],[-114.0345333222549,10.044284291087308],[-113.98390140112866,10.16735982169854],[-113.94003397179029,10.292354571206658],[-113.90293929091547,10.419075931808948],[-113.87262561877719,10.547331294803541],[-113.84910121384985,10.676928049689877],[-113.83237433370846,10.807673588665295],[-113.8224532368273,10.93937530122929],[-113.81934618347947,11.071840579579202],[-113.82306143034066,11.204876814113845],[-113.83360723768379,11.338291395231863],[-113.85099186308389,11.47189171423139],[-113.8752235650154,11.605485162410446],[-113.90631060285193,11.738879129268526],[-113.94426123416855,11.871881007003026],[-113.98908371923818,12.004298186012591],[-114.04078631473652,12.135938056696091],[-114.09937728003734,12.266608010351547],[-114.16486487361493,12.396115438276979],[-114.23725735484294,12.524267729971882],[-114.31656298129644,12.650872278532972],[-114.4027900123491,12.775736472560311],[-114.49594670557593,12.898667703351975],[-114.59604132124986,13.019473363105362],[-114.70308211604674,13.137960842219229],[-114.81707734934008,13.253937530193014],[-114.9380352805037,13.367210819224056],[-115.06596416711255,13.47758809971117],[-115.20087226764093,13.584876762952376],[-115.34276784236192,13.688884198447113],[-115.49165278794572,13.789426992162078],[-115.64742218858305,13.886476144558571],[-115.80988249128387,13.980130787006374],[-115.97883746038042,14.070493930550583],[-116.15409086380225,14.157668584437772],[-116.33544646408296,14.241757759712982],[-116.52270802915211,14.322864466522049],[-116.71567932154335,14.401091714111431],[-116.91416410918617,14.47654251352634],[-117.11796615641288,14.549319874912442],[-117.32688922755574,14.619526807516309],[-117.54073708964489,14.687266322382982],[-117.7593135061133,14.752641429658411],[-117.98242224399127,14.81575513948826],[-118.20986706851033,14.876710462018366],[-118.44145174400268,14.935610407394506],[-118.67698003570001,14.992557985762573],[-118.91625570973315,15.04765620726829],[-119.15908253133364,15.10100808205749],[-119.40526426573319,15.152716620275953],[-119.65460467816325,15.202884832069458],[-119.90690753295621,15.251615727583896],[-120.16197659804146,15.29901231786431],[-120.41961563595277,15.345177611257895],[-120.67962841372025,15.39021461970907],[-120.94181869567615,15.43422635336367],[-121.20599024795149,15.477315820568776],[-121.47194683487845,15.519586034168299],[-121.73949222348722,15.561140001609942],[-122.00843017721081,15.602080734838182],[-122.27856446307942,15.642511243998854],[-122.54969884452595,15.682534538338416],[-122.8216370885807,15.722253628002647],[-123.09418295957585,15.76177152403676],[-123.36714022274299,15.801191236586419],[-123.64031264421305,15.840615775797573],[-123.91350398921765,15.880148150916568],[-124.18651802208893,15.919891372988616],[-124.45915850985728,15.959948452159495],[-124.73122921595547,16.000422398574983],[-125.00253390651449,16.041416221481597],[-125.27287634676588,16.083032932823755],[-125.54206030284064,16.125375540948596],[-125.80990401096125,16.168525369750171],[-126.0763150217208,16.212429897921595],[-126.34123492055505,16.256985599106258],[-126.60460536124833,16.302088847122718],[-126.86636799578628,16.347636013991007],[-127.12646447795322,16.393523473529626],[-127.38483646063406,16.439647597758551],[-127.64142559671382,16.485904759597133],[-127.89617353997681,16.532191332863874],[-128.14902194240864,16.578403689578749],[-128.3999124568943,16.624438202661054],[-128.64878673811739,16.670191245929402],[-128.89558643716424,16.715559192303033],[-129.14025320871849,16.760438413801921],[-129.38272870476584,16.804725283345306],[-129.62295457909045,16.848316174751801],[-129.86087248367807,16.891107460940702],[-130.09642407231297,16.932995513931985],[-130.3295509987795,16.97387670754415],[-130.56019491416384,17.01364741469655],[-130.78829747314978,17.052204007409159],[-131.01380032862215,17.08944285950048],[-131.23664513256671,17.1252603429906],[-131.45677353966704,17.159552831697965],[-131.67412720100941,17.192216698541927],[-131.88864777127753,17.22314831554246],[-132.10027690245698,17.252244057417442],[-132.30895624833209,17.27940029528753],[-132.51462746178782,17.304513402971281],[-132.71723219480987,17.327479752488728],[-132.91671210208176,17.34819571855769],[-133.11300883648852,17.366557672298882],[-133.30606404911646,17.38246198753086],[-133.49581939554855,17.395805037172863],[-133.68221652687112,17.406483194144243],[-133.86519709776775,17.414392831364239],[-134.04470275932482,17.419430321752088],[-134.22067516622587,17.421492037327823],[-134.39305597135592,17.420474352809265],[-134.56178682759992,17.416273640216446],[-134.72680938694356,17.40878627156934],[-134.88806530317112,17.397908621585771],[-135.04549628132821,17.383537145922674],[-135.19907007082702,17.365610914612148],[-135.34882276775642,17.344180814892809],[-135.49480154155782,17.319315853543969],[-135.63705356167242,17.291085035546075],[-135.77562600023964,17.259557366779177],[-135.91056602490204,17.224801854921793],[-136.04192080779893,17.186887504954541],[-136.16973751747236,17.1458833227573],[-136.29406332516226,17.101858315109268],[-136.41494540030988,17.054881486991178],[-136.53243091325595,17.00502184608149],[-136.64656703434105,16.952348397360765],[-136.75740093210726,16.896930147608373],[-136.86497977869374,16.838836101804816],[-136.96935074264258,16.778135267628613],[-137.07056099429434,16.714896649161176],[-137.16865770488909,16.649189254080966],[-137.26368804296874,16.58108208826792],[-137.35569917977324,16.510644157601917],[-137.44473828474395,16.43794446796295],[-137.53085252822149,16.3630520252309],[-137.61408907964721,16.286035836185022],[-137.6944951093617,16.206964906705196],[-137.77211778860499,16.125908241772095],[-137.84700428591896,16.042934849064181],[-137.91920177254366,15.958113734461392],[-137.98875741702108,15.8715139029444],[-138.05571839059115,15.783204362191725],[-138.12013186359457,15.69325411628455],[-138.18204500547256,15.60173217290162],[-138.24150498656581,15.508707537922703],[-138.29855897631563,15.414249216328415],[-138.35325414596196,15.318426215797388],[-138.40563766404688,15.221307541310125],[-138.45575670181023,15.12296219874662],[-138.50365842959275,15.023459195785392],[-138.54939001683573,14.922867536507738],[-138.59299863298043,14.821256228592233],[-138.63453144926689,14.718694277019381],[-138.67403563513636,14.615250688568551],[-138.71155836092953,14.510994469119566],[-138.74714679608769,14.40599462455242],[-138.78084582397548,14.300320104988998],[-138.81262473993974,14.194038021437677],[-138.84236174609759,14.087213265380058],[-138.86992962165465,13.979910597895923],[-138.89520114761478,13.872194778266532],[-138.91804910138484,13.764130566672463],[-138.93834626396881,13.65578272329418],[-138.9559654136728,13.547216009211581],[-138.97077932970222,13.438495183705925],[-138.98266079306109,13.329685006957618],[-138.99148258205543,13.220850240046673],[-138.9971174749914,13.112055642254234],[-138.99943825377233,13.003365973760822],[-138.99831769580493,12.894845995646335],[-138.993628581194,12.786560467191919],[-138.98524368914485,12.678574148578207],[-138.97303579886295,12.570951800885041],[-138.95687769045298,12.463758184292885],[-138.93664214312031,12.357058057183735],[-138.91220193517108,12.250916182436015],[-138.88342984760931,12.145397317532343],[-138.85019865874102,12.040566224451823],[-138.81238114777165,11.93648766337509],[-138.76985009480592,11.833226393583345],[-138.72247827994858,11.730847175257054],[-138.67013848060628,11.62941476947617],[-138.61270347778321,11.528993936421159],[-138.55004604978529,11.429649434473959],[-138.48203897671732,11.331446026513049],[-138.40855503868403,11.234448470920313],[-138.32946701309208,11.138721527876328],[-138.2446476809456,11.044329958460935],[-138.15396982055069,10.951338522854655],[-138.05730621201201,10.859811980338748],[-137.95452963543426,10.769815091993053],[-137.8455128682242,10.681412617098715],[-137.73012869138591,10.59466931673569],[-137.60824988412475,10.509649950185178],[-137.47974922474685,10.426419278527021],[-137.34449949425618,10.34504206194174],[-137.20237347095883,10.265583059710593],[-137.05324393406022,10.188107032913365],[-136.89698366366508,10.11267874083137],[-136.73348462871257,10.0393561645555],[-136.5628273131299,9.9681306723927605],[-136.38519920308067,9.8989558269499867],[-136.20078901050437,9.8317847564615022],[-136.00978545003841,9.7665705891615175],[-135.81237723362233,9.7032664523849803],[-135.60875307409498,9.6418254752655912],[-135.39910168519452,9.5822007851382409],[-135.18361177975976,9.5243455111365734],[-134.96247207152879,9.4682127805954792],[-134.73587127244116,9.4137557217492827],[-134.50399809623508,9.3609274628323078],[-134.26704125574929,9.3096811320787083],[-134.0251894647219,9.2599698577228651],[-133.77863143509256,9.2117467679991023],[-133.52755588149864,9.1649649911415736],[-133.27215151498035,9.1195776544852833],[-133.01260705107444,9.0755378871638754],[-132.74911120082118,9.0327988165122974],[-132.48185267795861,8.9913135707648166],[-132.21102019622498,8.9510352790550201],[-131.93680246755974,8.9119170687178553],[-131.65938820570102,8.8739120679877033],[-131.37896612348771,8.8369734050987176],[-131.09572493465794,8.8010542073859028],[-130.80985335205048,8.7661076048822224],[-130.5215400885042,8.7320867240232474],[-130.23097385685793,8.6989446939426216],[-129.93834336995047,8.6666346419752927],[-129.64383734241932,8.6351096972548476],[-129.34764448530467,8.6043229871162907],[-129.04995351324396,8.5742276397938895],[-128.75095313907599,8.5447767835218542],[-128.45083207474039,8.5159235474338857],[-128.14977903487448,8.4876210579656117],[-127.84798273231718,8.4598224442505625],[-127.54563187900794,8.4324808345230053],[-127.24291518868495,8.4055493561180015],[-126.9400213750863,8.3789811381691379],[-126.63713915015154,8.3527293089106252],[-126.33445722761888,8.3267469956774676],[-126.03216432032701,8.3009873267038756],[-125.73044914111489,8.2754034302242871]]]},"properties":{"objectid":3,"basin":"Pacific","prob2day":"40%","risk2day":"Medium","prob7day":"80%","risk7day":"High","idp_source":"gtwo_areas_202609172356","idp_filedate":1789689474000,"idp_ingestdate":1789689538000,"st_area(shape)":179.26817015692924,"st_perimeter(shape)":58.454630130551102}},{"type":"Feature","id":4,"geometry":{"type":"Polygon","coordinates":[[[-134.33211580869755,18.046707821209111],[-134.46122707446983,18.057960819436403],[-134.59152483200529,18.06877493321673],[-134.72322084106889,18.079173123141231],[-134.85652686142544,18.089178349801159],[-134.99165465553784,18.098813573787538],[-135.12881598137233,18.108101754792301],[-135.26822260049255,18.11706585250721],[-135.41008627266325,18.125728828422837],[-135.55461875944809,18.134113642230943],[-135.7020318197126,18.142243255422045],[-135.85253721412107,18.150140625889321],[-136.00634670333761,18.15782871692187],[-136.16367204802651,18.165330486412984],[-136.32472500795268,18.172668894953688],[-136.48971734288097,18.179866904933874],[-136.65886081437498,18.186947474246665],[-136.83236718219962,18.193933564382633],[-137.01044820701907,18.200848135033539],[-137.19331564859823,18.207714147689899],[-137.38118126760133,18.214554562043531],[-137.57425682379329,18.221392337786313],[-137.77275407873765,18.228250435509324],[-137.97688479219931,18.235151815803817],[-138.18686072394314,18.242119439260875],[-138.40289363463347,18.249176265572316],[-138.62519528493436,18.256345255329393],[-138.85397743461084,18.263649369123243],[-139.08945184522639,18.271111566645629],[-139.33183027564661,18.278754808487747],[-139.58132448653572,18.286602055240792],[-139.83814623855795,18.294676267495902],[-140.10250729237754,18.303000404045576],[-140.37461940686006,18.311597427279594],[-140.65463023179967,18.320472644996698],[-140.94217824872709,18.329491191265618],[-141.23665913571045,18.338451351748631],[-141.53746707344658,18.347151002017256],[-141.84399624443103,18.355388016743746],[-142.15564083026004,18.362960270600126],[-142.4717950125297,18.36966563735939],[-142.79185297193703,18.375301994391691],[-143.11520889277608,18.379667213671098],[-143.44125695394519,18.382559172567881],[-143.76939133883911,18.383775743955539],[-144.09900622905414,18.38311480340559],[-144.4294958052871,18.380374226489494],[-144.76025425093286,18.375351886980127],[-145.09067574578896,18.367845659549687],[-145.42015447235093,18.357653419769633],[-145.74808461311432,18.34457304231222],[-146.07386034877598,18.32840240274885],[-146.39687586093214,18.308939373953081],[-146.71652533207833,18.285981832395805],[-147.03220294381072,18.259327652749107],[-147.34330287772553,18.22877470878592],[-147.64921931451966,18.194120876077704],[-147.94934643758793,18.155164030195976],[-148.24307842762724,18.111702044913557],[-148.52980946623379,18.063532794902699],[-148.80893373590311,18.010454155734863],[-149.07984541733205,17.952264002082188],[-149.34193869301617,17.888760208616873],[-149.59460774455169,17.819740650011113],[-149.83724675353477,17.745003201836425],[-150.06924990156162,17.664345737865631],[-150.29001137022848,17.577566133670246],[-150.49894834309148,17.484478514671878],[-150.69589093102158,17.385188741867069],[-150.88102641423754,17.280055020622854],[-151.05455385137907,17.169443876833611],[-151.2166722992871,17.053721833695818],[-151.36758081660133,16.933255418003284],[-151.50747846106205,16.808411154751127],[-151.63656429040958,16.679555568934518],[-151.75503736238429,16.547055185548516],[-151.86309673562576,16.411276531386932],[-151.96094146697504,16.272586129646299],[-152.04877061507173,16.131350506220997],[-152.12678323765621,15.987936187005573],[-152.19517839336808,15.84270969609571],[-152.25415513814903,15.696037560285333],[-152.303912531538,15.548286303670125],[-152.34464963127539,15.399822452144576],[-152.37656549420211,15.251012529804541],[-152.39985917895785,15.102223063443773],[-152.41472974328295,14.953820577158069],[-152.42137624581702,14.806171595942544],[-152.41999774340104,14.65964264659101],[-152.41079329377541,14.514600253199262],[-152.39396195647902,14.371410941661793],[-152.3697027874536,14.230441236074341],[-152.33821484533877,14.092057662331399],[-152.29969718787484,13.956626746327402],[-152.25434887370147,13.824515012158201],[-152.20236895965968,13.696088986617553],[-152.1439565052884,13.571715192901991],[-152.07931056563001,13.451760157805154],[-152.0086302011228,13.33659040632233],[-151.93211446950707,13.226572462549257],[-151.84996131156518,13.122069640001996],[-151.76230177290842,13.023252455536522],[-151.66916320281948,12.929992592983922],[-151.57056403020576,12.842136031752602],[-151.46652268487392,12.759528751251025],[-151.35705759663071,12.68201672998822],[-151.24218719528275,12.609445947372706],[-151.12192991063679,12.541662381913511],[-150.99630417160014,12.478512013019099],[-150.86532840797958,12.419840818299235],[-150.72902105048101,12.365494778061702],[-150.58740052711255,12.315319870815529],[-150.44048526947952,12.269162075069858],[-150.28829370558995,12.226867370233094],[-150.13084426525054,12.188281735713645],[-149.96815537916734,12.153251149121388],[-149.80024547534833,12.121621590763937],[-149.62713298539887,12.09323903915049],[-149.44883633732701,12.067949471890756],[-149.26537396183878,12.045598870191839],[-149.07676428784151,12.026033210764183],[-148.88302574604126,12.009098473915572],[-148.68417676444605,11.99464063905441],[-148.48023577376188,11.982505683790407],[-148.27122120379545,11.972539586632763],[-148.05715148345411,11.964588328788466],[-147.83804504344391,11.958497886968019],[-147.61392031177289,11.954114241479203],[-147.38479572004636,11.95128337083105],[-147.15068969627239,11.949851253532643],[-146.91162067115695,11.949663868992502],[-146.66760707360748,11.950567195719657],[-146.41866733432994,11.952407213122513],[-146.16481994608355,11.955029933884475],[-145.90614761771829,11.95831514472826],[-145.64291777163777,11.962239782540053],[-145.375430836264,11.966798146517363],[-145.10398724541497,11.971984535857757],[-144.82888742751268,11.977793248859484],[-144.55043181457648,11.984218585619374],[-144.26892083682708,11.991254843536353],[-143.98465492628372,11.998896321807933],[-143.69793451226786,12.007137320531058],[-143.40906002769805,12.015972137104598],[-143.11833190189566,12.025395071625383],[-142.82605056598072,12.035400422391717],[-142.53251645107326,12.045982488601112],[-142.23802998829325,12.057135568551757],[-141.94289160786133,12.068853962340654],[-141.64740174179684,12.081131967366559],[-141.3518608203205,12.093963883726417],[-141.056569273653,12.107344009718418],[-140.76182753381357,12.121266645439448],[-140.46793603012361,12.135726088288493],[-140.17519519550177,12.150716637463006],[-139.88390546016876,12.166232592160554],[-139.59436725434523,12.182268251578705],[-139.30688100915114,12.198817914015649],[-139.02174715570658,12.21587587956833],[-138.73926612423219,12.233436445635618],[-138.4597383467472,12.251493911415025],[-138.18346425347244,12.270042577003437],[-137.9107442755278,12.289076740699159],[-137.64187884403333,12.308590700800323],[-137.37716838920971,12.328578756504555],[-137.11691334217693,12.349035207009308],[-136.86141413405494,12.369954350612943],[-136.61093633554339,12.391333577482726],[-136.36555045079257,12.413187565453939],[-136.12525917147349,12.435537006128072],[-135.89006511910986,12.458402594704125],[-135.65997091702411,12.481805028179622],[-135.43497918674001,12.505765002652879],[-135.21509255337855,12.530303214222101],[-135.00031363666488,12.555440358985493],[-134.79064506172011,12.581197133940691],[-134.58608944916864,12.607594234286637],[-134.3866494232322,12.634652357920118],[-134.19232760633389,12.662392200040131],[-134.00312661999743,12.690834457644257],[-133.81904908754524,12.719999825931382],[-133.64009763229978,12.749909001899084],[-133.46627487578479,12.780582681645569],[-133.29758344222199,12.812041561269154],[-133.13402595223585,12.844306337767421],[-132.97560503004803,12.877397707238515],[-132.82232329718232,12.911336365780812],[-132.6741833769612,12.946143009492459],[-132.53118789270701,12.981838335371037],[-132.39333946504416,13.018443038615487],[-132.26064071909383,13.05597781622339],[-132.13309427548035,13.094463364292949],[-132.01070275842545,13.133920378922483],[-131.89346878945298,13.174369557109515],[-131.78139499098597,13.215831594952306],[-131.67448398724611,13.25832718854906],[-131.57273839885795,13.301877033998039],[-131.47616085094245,13.34650182739756],[-131.38475396412406,13.39222226574509],[-131.29852036082588,13.439059045138947],[-131.21745461184076,13.487029887619371],[-131.141457655946,13.536117947985076],[-131.07037002985288,13.586284078747383],[-131.00403126123365,13.637488759199016],[-130.94228088045816,13.689692469531963],[-130.88495841519864,13.742855691736906],[-130.83190339492563,13.796938904207195],[-130.78295534821063,13.851902588034136],[-130.73795380362503,13.907707223409773],[-130.69673829153885,13.964313290526093],[-130.65914833872478,14.021681270474403],[-130.62502347555284,14.079771642547428],[-130.59420322969521,14.138544886937098],[-130.56652713152181,14.19796148473489],[-130.54183470780544,14.257981916132678],[-130.51996548981543,14.318566661322507],[-130.50075900432449,14.379676200496419],[-130.4840547817027,14.441271013846347],[-130.46969235052148,14.50331158156439],[-130.45751123845281,14.565758384741798],[-130.44735097586675,14.628571902671297],[-130.43905109043538,14.69171261554493],[-130.43245111252872,14.755141005353266],[-130.42739056891952,14.818817550489712],[-130.4237089899778,14.882702732045573],[-130.421245904275,14.946757030212893],[-130.41984084038239,15.010940926083038],[-130.41933332777074,15.075214898948559],[-130.4195628950115,15.139539429001559],[-130.42036907067597,15.203874997333401],[-130.42159138333557,15.268182083236695],[-130.42306936246104,15.332421167802806],[-130.42464253662365,15.396552731223721],[-130.42615435543905,15.460537349918923],[-130.42756715619919,15.524338499722148],[-130.42898072587968,15.587923011837688],[-130.43050250738474,15.651257903629471],[-130.43223994361841,15.714310192461539],[-130.43430047838427,15.777046895697822],[-130.43679155368716,15.839435031601568],[-130.43982061243122,15.901441617536761],[-130.44349509841999,15.963033669968013],[-130.44792245455756,16.024178206259364],[-130.45321012374814,16.084842245573327],[-130.45946554889588,16.144992804374567],[-130.46679617290499,16.20459689912775],[-130.47530943957889,16.263621548995445],[-130.48511279002315,16.322033770442317],[-130.49631366983988,16.379800581731615],[-130.50901952013464,16.436888999328005],[-130.52333778471092,16.493266041494735],[-130.5393759064728,16.548898725595848],[-130.55724132742523,16.603754068095895],[-130.57704149227095,16.657799088157503],[-130.59888384391417,16.711000802245394],[-130.62287582346039,16.763326227723383],[-130.64912487651173,16.814742381955512],[-130.67773844417377,16.865216283205029],[-130.70882396935059,16.914714947936659],[-130.7424888967451,16.963205394413535],[-130.77884066836208,17.010654639999757],[-130.81798672710568,17.057029702059253],[-130.8600345158801,17.102297597955896],[-130.90509147758951,17.146425345953105],[-130.95326505603742,17.189379961616055],[-131.00466269412794,17.231128464107485],[-131.05939150381477,17.271637975112583],[-131.11750487335115,17.310892588322417],[-131.17894353381695,17.348911991695218],[-131.24363402948677,17.38572035091363],[-131.31150290733319,17.421341834358316],[-131.38247670983219,17.455800610409995],[-131.45648198395628,17.489120846549952],[-131.53344527308082,17.521326709360267],[-131.61329312327894,17.552442368120921],[-131.69595207972463,17.582491989413938],[-131.78134868669247,17.611499741619923],[-131.86940949025569,17.639489792220274],[-131.9600610337896,17.666486308696335],[-132.05322986426671,17.692513458529447],[-132.14884252506238,17.717595410100216],[-132.24682556135048,17.741756331789418],[-132.34710551920426,17.765020389279698],[-132.44960894199897,17.787411751850982],[-132.55426237670724,17.808954586085406],[-132.66099236670425,17.829673061262895],[-132.76972545806336,17.849591343066152],[-132.8803881959584,17.868733600775215],[-132.99290712376467,17.887124001871314],[-133.10720878755541,17.904786713835904],[-133.22321973340388,17.921745904150271],[-133.34086650378606,17.938025740295814],[-133.46007564567441,17.953650390653138],[-133.58077370424297,17.968644022703643],[-133.70288722286693,17.983030803928614],[-133.82634274851893,17.996834902708713],[-133.95106682457418,18.010080485626077],[-134.07698599620664,18.022791721960516],[-134.20402680948956,18.034992777394905],[-134.33211580869755,18.046707821209111]]]},"properties":{"objectid":4,"basin":"Pacific","prob2day":"10%","risk2day":"Low","prob7day":"20%","risk7day":"Low","idp_source":"gtwo_areas_202609172356","idp_filedate":1789689474000,"idp_ingestdate":1789689538000,"st_area(shape)":122.88427393814804,"st_perimeter(shape)":50.31387078426328}}]}