{"type":"FeatureCollection","features":[{"type":"Feature","id":1,"geometry":{"type":"Point","coordinates":[-60.119793847408005,32.936932302883633]},"properties":{"objectid":1,"basin":"Atlantic","prob2day":"20%","risk2day":"Low","prob7day":"20%","risk7day":"Low","idp_source":"gtwo_points_202609172356","idp_filedate":1789689474000,"idp_ingestdate":1789689530000}},{"type":"Feature","id":2,"geometry":{"type":"Point","coordinates":[-102.20285255310273,6.7640235019831607]},"properties":{"objectid":2,"basin":"Pacific","prob2day":"0%","risk2day":"Low","prob7day":"80%","risk7day":"High","idp_source":"gtwo_points_202609172356","idp_filedate":1789689474000,"idp_ingestdate":1789689530000}},{"type":"Feature","id":3,"geometry":{"type":"Point","coordinates":[-116.43530280797813,11.486634600906257]},"properties":{"objectid":3,"basin":"Pacific","prob2day":"40%","risk2day":"Medium","prob7day":"80%","risk7day":"High","idp_source":"gtwo_points_202609172356","idp_filedate":1789689474000,"idp_ingestdate":1789689530000}},{"type":"Feature","id":4,"geometry":{"type":"Point","coordinates":[-132.9510095991136,15.535098053432534]},"properties":{"objectid":4,"basin":"Pacific","prob2day":"10%","risk2day":"Low","prob7day":"20%","risk7day":"Low","idp_source":"gtwo_points_202609172356","idp_filedate":1789689474000,"idp_ingestdate":1789689530000}}]}