{
"type": "FeatureCollection",
"name": "al092021-006_5day_pgn",
"features": [
{ "type": "Feature", "properties": { "STORMNAME": "Ida", "STORMTYPE": "HU", "ADVDATE": "500 PM EDT Fri Aug 27 2021", "ADVISNUM": "6", "STORMNUM": 9.0, "FCSTPRD": 120.0, "BASIN": "AL" }, "geometry": { "type": "Polygon", "coordinates": [ [ [ -83.2388, 21.8324 ], [ -83.2144, 21.8305 ], [ -83.2025, 21.8312 ], [ -83.1624, 21.8358 ], [ -83.1355, 21.842 ], [ -83.1087, 21.8501 ], [ -83.0828, 21.8599 ], [ -83.0581, 21.8713 ], [ -83.0352, 21.8845 ], [ -83.0044, 21.9077 ], [ -82.9868, 21.9262 ], [ -82.9645, 21.9579 ], [ -82.9577, 21.9692 ], [ -82.9416, 22.0071 ], [ -82.9335, 22.0348 ], [ -82.9279, 22.0641 ], [ -82.9252, 22.0946 ], [ -82.9256, 22.1253 ], [ -82.9294, 22.155 ], [ -82.9364, 22.1829 ], [ -82.9466, 22.2084 ], [ -82.9596, 22.2315 ], [ -82.9747, 22.2524 ], [ -82.9998, 22.2814 ], [ -83.0177, 22.2996 ], [ -83.0355, 22.3178 ], [ -83.0446, 22.3267 ], [ -83.0626, 22.3448 ], [ -83.0805, 22.3629 ], [ -83.0981, 22.3814 ], [ -83.1152, 22.4003 ], [ -83.1398, 22.4297 ], [ -83.1554, 22.4502 ], [ -83.1706, 22.471 ], [ -83.1783, 22.4814 ], [ -83.1937, 22.502 ], [ -83.2176, 22.5322 ], [ -83.2346, 22.5512 ], [ -83.2519, 22.57 ], [ -83.2608, 22.5791 ], [ -83.2876, 22.6064 ], [ -83.3058, 22.6243 ], [ -83.3147, 22.6333 ], [ -83.3418, 22.6603 ], [ -83.3596, 22.6785 ], [ -83.3778, 22.6964 ], [ -83.3867, 22.7055 ], [ -83.4047, 22.7235 ], [ -83.4317, 22.7506 ], [ -83.4498, 22.7685 ], [ -83.4587, 22.7776 ], [ -83.4767, 22.7957 ], [ -83.4947, 22.8137 ], [ -83.5218, 22.8407 ], [ -83.5308, 22.8498 ], [ -83.5578, 22.8768 ], [ -83.5757, 22.8949 ], [ -83.5848, 22.9039 ], [ -83.6028, 22.9219 ], [ -83.6208, 22.94 ], [ -83.6477, 22.9671 ], [ -83.6567, 22.9762 ], [ -83.6829, 23.004 ], [ -83.6999, 23.0231 ], [ -83.7079, 23.033 ], [ -83.7238, 23.0532 ], [ -83.7392, 23.0739 ], [ -83.7545, 23.0946 ], [ -83.7699, 23.1153 ], [ -83.7857, 23.1355 ], [ -83.8023, 23.155 ], [ -83.8281, 23.1832 ], [ -83.8459, 23.2014 ], [ -83.8549, 23.2105 ], [ -83.8819, 23.2375 ], [ -83.8909, 23.2466 ], [ -83.9089, 23.2646 ], [ -83.9358, 23.2917 ], [ -83.954, 23.3096 ], [ -83.9629, 23.3187 ], [ -83.9809, 23.3368 ], [ -83.9989, 23.3548 ], [ -84.026, 23.3818 ], [ -84.0438, 23.4 ], [ -84.062, 23.4179 ], [ -84.0709, 23.4269 ], [ -84.098, 23.4539 ], [ -84.1069, 23.463 ], [ -84.1249, 23.4811 ], [ -84.1519, 23.5082 ], [ -84.161, 23.5171 ], [ -84.1879, 23.5443 ], [ -84.206, 23.5622 ], [ -84.2239, 23.5803 ], [ -84.233, 23.5893 ], [ -84.251, 23.6073 ], [ -84.269, 23.6253 ], [ -84.2959, 23.6525 ], [ -84.3141, 23.6704 ], [ -84.323, 23.6795 ], [ -84.341, 23.6975 ], [ -84.3679, 23.7246 ], [ -84.3861, 23.7425 ], [ -84.404, 23.7607 ], [ -84.4221, 23.7786 ], [ -84.431, 23.7877 ], [ -84.4581, 23.8147 ], [ -84.4671, 23.8238 ], [ -84.4941, 23.8507 ], [ -84.512, 23.8689 ], [ -84.5301, 23.8868 ], [ -84.5391, 23.8959 ], [ -84.5571, 23.9139 ], [ -84.5751, 23.932 ], [ -84.5931, 23.95 ], [ -84.62, 23.9771 ], [ -84.6291, 23.9861 ], [ -84.656, 24.0132 ], [ -84.665, 24.0223 ], [ -84.6825, 24.0408 ], [ -84.7085, 24.0689 ], [ -84.7168, 24.0786 ], [ -84.7416, 24.1079 ], [ -84.758, 24.1275 ], [ -84.7747, 24.1468 ], [ -84.7912, 24.1664 ], [ -84.8076, 24.1861 ], [ -84.8243, 24.2054 ], [ -84.8407, 24.225 ], [ -84.8571, 24.2447 ], [ -84.8655, 24.2543 ], [ -84.8911, 24.2827 ], [ -84.9084, 24.3015 ], [ -84.9263, 24.3197 ], [ -84.9441, 24.3379 ], [ -84.9623, 24.3558 ], [ -84.9801, 24.3739 ], [ -84.9983, 24.3918 ], [ -85.0162, 24.41 ], [ -85.0343, 24.4279 ], [ -85.0522, 24.4461 ], [ -85.0703, 24.464 ], [ -85.0882, 24.4822 ], [ -85.1063, 24.5001 ], [ -85.1242, 24.5182 ], [ -85.1423, 24.5361 ], [ -85.1602, 24.5543 ], [ -85.1783, 24.5722 ], [ -85.1962, 24.5904 ], [ -85.2144, 24.6083 ], [ -85.2322, 24.6264 ], [ -85.2504, 24.6443 ], [ -85.2682, 24.6625 ], [ -85.2773, 24.6715 ], [ -85.3042, 24.6986 ], [ -85.3224, 24.7165 ], [ -85.3403, 24.7347 ], [ -85.3584, 24.7526 ], [ -85.3673, 24.7617 ], [ -85.3944, 24.7886 ], [ -85.4123, 24.8068 ], [ -85.4304, 24.8247 ], [ -85.4394, 24.8338 ], [ -85.4665, 24.8608 ], [ -85.4843, 24.879 ], [ -85.5025, 24.8969 ], [ -85.5114, 24.9059 ], [ -85.5385, 24.9329 ], [ -85.5474, 24.942 ], [ -85.5745, 24.969 ], [ -85.5923, 24.9872 ], [ -85.6105, 25.0051 ], [ -85.6283, 25.0233 ], [ -85.6465, 25.0411 ], [ -85.6644, 25.0593 ], [ -85.6825, 25.0772 ], [ -85.7004, 25.0954 ], [ -85.7094, 25.1043 ], [ -85.7364, 25.1315 ], [ -85.7455, 25.1404 ], [ -85.7724, 25.1675 ], [ -85.7905, 25.1854 ], [ -85.8084, 25.2036 ], [ -85.8266, 25.2215 ], [ -85.8444, 25.2397 ], [ -85.8626, 25.2576 ], [ -85.8804, 25.2758 ], [ -85.8986, 25.2937 ], [ -85.9164, 25.3118 ], [ -85.9346, 25.3297 ], [ -85.9525, 25.3479 ], [ -85.9706, 25.3658 ], [ -85.9795, 25.3749 ], [ -86.0066, 25.4019 ], [ -86.0245, 25.4201 ], [ -86.0426, 25.438 ], [ -86.0605, 25.4561 ], [ -86.0787, 25.474 ], [ -86.0965, 25.4922 ], [ -86.1147, 25.5101 ], [ -86.1325, 25.5283 ], [ -86.1507, 25.5462 ], [ -86.1685, 25.5644 ], [ -86.1867, 25.5822 ], [ -86.2045, 25.6004 ], [ -86.2227, 25.6183 ], [ -86.2406, 25.6365 ], [ -86.2587, 25.6544 ], [ -86.2766, 25.6726 ], [ -86.2856, 25.6815 ], [ -86.3036, 25.6996 ], [ -86.3307, 25.7265 ], [ -86.3486, 25.7447 ], [ -86.3667, 25.7626 ], [ -86.3846, 25.7808 ], [ -86.4028, 25.7987 ], [ -86.4206, 25.8169 ], [ -86.4388, 25.8348 ], [ -86.4566, 25.8529 ], [ -86.4748, 25.8708 ], [ -86.4926, 25.889 ], [ -86.5108, 25.9069 ], [ -86.5286, 25.9251 ], [ -86.5468, 25.943 ], [ -86.5646, 25.9612 ], [ -86.5737, 25.9701 ], [ -86.6007, 25.9972 ], [ -86.6188, 26.0151 ], [ -86.6367, 26.0333 ], [ -86.6457, 26.0422 ], [ -86.6727, 26.0694 ], [ -86.6908, 26.0873 ], [ -86.7087, 26.1054 ], [ -86.7269, 26.1233 ], [ -86.7447, 26.1415 ], [ -86.7629, 26.1594 ], [ -86.7807, 26.1776 ], [ -86.7989, 26.1955 ], [ -86.8167, 26.2137 ], [ -86.8349, 26.2316 ], [ -86.8527, 26.2497 ], [ -86.8709, 26.2676 ], [ -86.8798, 26.2767 ], [ -86.9069, 26.3037 ], [ -86.9248, 26.3219 ], [ -86.9429, 26.3398 ], [ -86.9608, 26.358 ], [ -86.9789, 26.3758 ], [ -86.9968, 26.394 ], [ -87.0147, 26.4122 ], [ -87.0319, 26.431 ], [ -87.0489, 26.45 ], [ -87.057, 26.46 ], [ -87.0806, 26.4904 ], [ -87.0959, 26.5112 ], [ -87.1112, 26.532 ], [ -87.1267, 26.5525 ], [ -87.1348, 26.5624 ], [ -87.1598, 26.5914 ], [ -87.1771, 26.6102 ], [ -87.195, 26.6284 ], [ -87.2128, 26.6465 ], [ -87.231, 26.6644 ], [ -87.2489, 26.6826 ], [ -87.267, 26.7005 ], [ -87.2849, 26.7187 ], [ -87.303, 26.7366 ], [ -87.3209, 26.7548 ], [ -87.339, 26.7727 ], [ -87.3569, 26.7908 ], [ -87.3751, 26.8087 ], [ -87.3929, 26.8269 ], [ -87.4111, 26.8448 ], [ -87.4289, 26.863 ], [ -87.438, 26.8719 ], [ -87.4649, 26.8991 ], [ -87.4831, 26.9169 ], [ -87.492, 26.926 ], [ -87.5191, 26.953 ], [ -87.537, 26.9712 ], [ -87.5551, 26.9891 ], [ -87.564, 26.9982 ], [ -87.5911, 27.0252 ], [ -87.609, 27.0433 ], [ -87.6271, 27.0612 ], [ -87.645, 27.0794 ], [ -87.6631, 27.0973 ], [ -87.681, 27.1155 ], [ -87.6992, 27.1334 ], [ -87.7081, 27.1425 ], [ -87.7352, 27.1695 ], [ -87.753, 27.1876 ], [ -87.7712, 27.2055 ], [ -87.789, 27.2237 ], [ -87.8072, 27.2416 ], [ -87.825, 27.2598 ], [ -87.8432, 27.2777 ], [ -87.8611, 27.2959 ], [ -87.8789, 27.314 ], [ -87.8962, 27.3328 ], [ -87.9132, 27.3518 ], [ -87.9293, 27.3718 ], [ -87.9449, 27.3922 ], [ -87.9525, 27.4026 ], [ -87.9754, 27.4338 ], [ -87.9832, 27.444 ], [ -88.0071, 27.4742 ], [ -88.0241, 27.4933 ], [ -88.0328, 27.5026 ], [ -88.0593, 27.5302 ], [ -88.0771, 27.5484 ], [ -88.0953, 27.5663 ], [ -88.1131, 27.5844 ], [ -88.1313, 27.6023 ], [ -88.1402, 27.6114 ], [ -88.1673, 27.6384 ], [ -88.1852, 27.6566 ], [ -88.1942, 27.6655 ], [ -88.2212, 27.6927 ], [ -88.2393, 27.7106 ], [ -88.2483, 27.7196 ], [ -88.275, 27.7469 ], [ -88.2837, 27.7563 ], [ -88.3093, 27.7847 ], [ -88.3174, 27.7947 ], [ -88.3332, 27.8149 ], [ -88.3563, 27.8459 ], [ -88.3639, 27.8563 ], [ -88.3871, 27.8872 ], [ -88.3952, 27.8971 ], [ -88.4203, 27.9261 ], [ -88.4289, 27.9355 ], [ -88.4465, 27.954 ], [ -88.4732, 27.9812 ], [ -88.4823, 27.9902 ], [ -88.5093, 28.0173 ], [ -88.5183, 28.0263 ], [ -88.5364, 28.0443 ], [ -88.5634, 28.0713 ], [ -88.5813, 28.0895 ], [ -88.5904, 28.0984 ], [ -88.6084, 28.1164 ], [ -88.6355, 28.1434 ], [ -88.6533, 28.1616 ], [ -88.6715, 28.1795 ], [ -88.6893, 28.1977 ], [ -88.7072, 28.2159 ], [ -88.7158, 28.2252 ], [ -88.733, 28.2441 ], [ -88.7576, 28.2736 ], [ -88.7732, 28.2941 ], [ -88.7884, 28.3148 ], [ -88.8037, 28.3356 ], [ -88.8115, 28.3459 ], [ -88.8273, 28.3661 ], [ -88.8439, 28.3856 ], [ -88.8697, 28.4138 ], [ -88.8786, 28.4229 ], [ -88.8965, 28.4411 ], [ -88.9145, 28.4591 ], [ -88.9325, 28.4772 ], [ -88.9505, 28.4952 ], [ -88.9774, 28.5223 ], [ -88.9864, 28.5314 ], [ -89.0126, 28.5593 ], [ -89.0211, 28.5688 ], [ -89.0457, 28.5982 ], [ -89.0535, 28.6085 ], [ -89.0689, 28.6291 ], [ -89.0842, 28.6499 ], [ -89.1074, 28.6808 ], [ -89.1154, 28.6907 ], [ -89.1318, 28.7104 ], [ -89.1485, 28.7297 ], [ -89.1653, 28.749 ], [ -89.1817, 28.7686 ], [ -89.1975, 28.7889 ], [ -89.2129, 28.8095 ], [ -89.2282, 28.8303 ], [ -89.2511, 28.8614 ], [ -89.2589, 28.8717 ], [ -89.2746, 28.892 ], [ -89.2981, 28.9226 ], [ -89.3133, 28.9434 ], [ -89.3208, 28.9539 ], [ -89.343, 28.9858 ], [ -89.3574, 29.0075 ], [ -89.3645, 29.0184 ], [ -89.3784, 29.0405 ], [ -89.3921, 29.0629 ], [ -89.4054, 29.0857 ], [ -89.418, 29.109 ], [ -89.4304, 29.1327 ], [ -89.4427, 29.1565 ], [ -89.4546, 29.1806 ], [ -89.4727, 29.2167 ], [ -89.4787, 29.2287 ], [ -89.4907, 29.2528 ], [ -89.5026, 29.2768 ], [ -89.5147, 29.3008 ], [ -89.5265, 29.325 ], [ -89.538, 29.3496 ], [ -89.555, 29.3867 ], [ -89.5602, 29.3995 ], [ -89.5703, 29.4255 ], [ -89.58, 29.4519 ], [ -89.589, 29.4789 ], [ -89.5974, 29.5066 ], [ -89.6053, 29.5347 ], [ -89.613, 29.5631 ], [ -89.6203, 29.5918 ], [ -89.6274, 29.6208 ], [ -89.634, 29.6503 ], [ -89.6399, 29.6804 ], [ -89.6448, 29.7116 ], [ -89.6484, 29.7441 ], [ -89.6507, 29.7778 ], [ -89.652, 29.8126 ], [ -89.6526, 29.8481 ], [ -89.6527, 29.884 ], [ -89.6526, 29.92 ], [ -89.652, 29.9555 ], [ -89.6507, 29.9902 ], [ -89.6484, 30.024 ], [ -89.6448, 30.0565 ], [ -89.6399, 30.0876 ], [ -89.6372, 30.1029 ], [ -89.6274, 30.1472 ], [ -89.6202, 30.1761 ], [ -89.6124, 30.2044 ], [ -89.604, 30.2321 ], [ -89.595, 30.259 ], [ -89.5849, 30.285 ], [ -89.5739, 30.3101 ], [ -89.5625, 30.3348 ], [ -89.5568, 30.3471 ], [ -89.5386, 30.383 ], [ -89.5267, 30.4071 ], [ -89.5147, 30.4312 ], [ -89.5025, 30.455 ], [ -89.4901, 30.4787 ], [ -89.4773, 30.5019 ], [ -89.4706, 30.5133 ], [ -89.4565, 30.5352 ], [ -89.4415, 30.5563 ], [ -89.4257, 30.5765 ], [ -89.4087, 30.5955 ], [ -89.3914, 30.6143 ], [ -89.3735, 30.6325 ], [ -89.3557, 30.6507 ], [ -89.3375, 30.6685 ], [ -89.3197, 30.6867 ], [ -89.3015, 30.7046 ], [ -89.2837, 30.7228 ], [ -89.2658, 30.741 ], [ -89.2485, 30.7597 ], [ -89.2315, 30.7788 ], [ -89.2154, 30.7987 ], [ -89.1998, 30.8192 ], [ -89.1846, 30.84 ], [ -89.1693, 30.8607 ], [ -89.1537, 30.8812 ], [ -89.1376, 30.9011 ], [ -89.1206, 30.9202 ], [ -89.1033, 30.939 ], [ -89.0765, 30.9662 ], [ -89.0676, 30.9753 ], [ -89.0494, 30.9932 ], [ -89.0316, 31.0114 ], [ -89.0137, 31.0296 ], [ -88.9964, 31.0483 ], [ -88.9795, 31.0674 ], [ -88.9633, 31.0873 ], [ -88.9478, 31.1078 ], [ -88.9325, 31.1286 ], [ -88.9172, 31.1493 ], [ -88.9017, 31.1698 ], [ -88.8855, 31.1897 ], [ -88.8685, 31.2088 ], [ -88.8512, 31.2275 ], [ -88.8334, 31.2457 ], [ -88.8064, 31.2728 ], [ -88.7974, 31.2818 ], [ -88.7795, 31.3 ], [ -88.7616, 31.3182 ], [ -88.7359, 31.3464 ], [ -88.7274, 31.356 ], [ -88.7035, 31.3861 ], [ -88.6957, 31.3964 ], [ -88.6804, 31.4171 ], [ -88.6651, 31.4379 ], [ -88.6496, 31.4584 ], [ -88.6334, 31.4783 ], [ -88.6164, 31.4974 ], [ -88.5992, 31.5161 ], [ -88.5813, 31.5343 ], [ -88.5634, 31.5525 ], [ -88.5364, 31.5795 ], [ -88.5274, 31.5886 ], [ -88.5093, 31.6064 ], [ -88.4914, 31.6246 ], [ -88.4732, 31.6425 ], [ -88.4554, 31.6607 ], [ -88.4372, 31.6786 ], [ -88.4194, 31.6968 ], [ -88.4012, 31.7147 ], [ -88.3834, 31.7328 ], [ -88.3652, 31.7507 ], [ -88.3474, 31.7689 ], [ -88.3292, 31.7868 ], [ -88.3114, 31.805 ], [ -88.2932, 31.8229 ], [ -88.2753, 31.8411 ], [ -88.2572, 31.859 ], [ -88.2393, 31.8771 ], [ -88.2212, 31.895 ], [ -88.2033, 31.9132 ], [ -88.1852, 31.9311 ], [ -88.1673, 31.9493 ], [ -88.1492, 31.9672 ], [ -88.1313, 31.9854 ], [ -88.1131, 32.0033 ], [ -88.0953, 32.0214 ], [ -88.0771, 32.0393 ], [ -88.0593, 32.0575 ], [ -88.0411, 32.0754 ], [ -88.023, 32.0933 ], [ -88.0042, 32.1106 ], [ -87.9852, 32.1276 ], [ -87.9654, 32.1438 ], [ -87.9449, 32.1594 ], [ -87.9242, 32.1747 ], [ -87.9034, 32.19 ], [ -87.8827, 32.2053 ], [ -87.8622, 32.2208 ], [ -87.842, 32.2367 ], [ -87.8213, 32.252 ], [ -87.7997, 32.2664 ], [ -87.7769, 32.2797 ], [ -87.7648, 32.2856 ], [ -87.7268, 32.3016 ], [ -87.7133, 32.3061 ], [ -87.6858, 32.3146 ], [ -87.6575, 32.3224 ], [ -87.6289, 32.3298 ], [ -87.6001, 32.337 ], [ -87.5712, 32.3442 ], [ -87.528, 32.355 ], [ -87.5136, 32.3586 ], [ -87.4847, 32.3657 ], [ -87.4554, 32.3725 ], [ -87.4259, 32.379 ], [ -87.3961, 32.3852 ], [ -87.366, 32.3911 ], [ -87.3359, 32.397 ], [ -87.3059, 32.4031 ], [ -87.2758, 32.409 ], [ -87.2454, 32.4146 ], [ -87.2147, 32.42 ], [ -87.1836, 32.4249 ], [ -87.1522, 32.4295 ], [ -87.1211, 32.4344 ], [ -87.0904, 32.4397 ], [ -87.0599, 32.4452 ], [ -87.0292, 32.4506 ], [ -86.9981, 32.4555 ], [ -86.9663, 32.4596 ], [ -86.9338, 32.4633 ], [ -86.9014, 32.4669 ], [ -86.8696, 32.471 ], [ -86.8385, 32.476 ], [ -86.8078, 32.4813 ], [ -86.7771, 32.4866 ], [ -86.746, 32.4915 ], [ -86.7142, 32.4957 ], [ -86.6818, 32.4993 ], [ -86.6494, 32.5029 ], [ -86.6175, 32.5071 ], [ -86.5864, 32.512 ], [ -86.5557, 32.5174 ], [ -86.525, 32.5227 ], [ -86.4939, 32.5276 ], [ -86.4621, 32.5318 ], [ -86.4297, 32.5354 ], [ -86.3973, 32.539 ], [ -86.3654, 32.5432 ], [ -86.3343, 32.5481 ], [ -86.3036, 32.5534 ], [ -86.273, 32.5588 ], [ -86.2418, 32.5637 ], [ -86.21, 32.5679 ], [ -86.1776, 32.5715 ], [ -86.1452, 32.5751 ], [ -86.1134, 32.5793 ], [ -86.0822, 32.5842 ], [ -86.0516, 32.5895 ], [ -86.021, 32.595 ], [ -85.9903, 32.6003 ], [ -85.9592, 32.6052 ], [ -85.9278, 32.6099 ], [ -85.8967, 32.6148 ], [ -85.866, 32.6201 ], [ -85.8355, 32.6256 ], [ -85.805, 32.6311 ], [ -85.7589, 32.639 ], [ -85.7432, 32.6413 ], [ -85.7118, 32.6459 ], [ -85.6806, 32.6508 ], [ -85.65, 32.6562 ], [ -85.6194, 32.6617 ], [ -85.5889, 32.6671 ], [ -85.5582, 32.6725 ], [ -85.5271, 32.6774 ], [ -85.4957, 32.682 ], [ -85.4646, 32.6869 ], [ -85.4339, 32.6922 ], [ -85.4035, 32.6979 ], [ -85.3734, 32.7038 ], [ -85.3434, 32.7098 ], [ -85.3133, 32.7158 ], [ -85.2832, 32.7217 ], [ -85.2533, 32.7277 ], [ -85.2233, 32.7338 ], [ -85.1933, 32.7398 ], [ -85.1634, 32.7459 ], [ -85.1333, 32.7518 ], [ -85.1032, 32.7577 ], [ -85.0732, 32.7638 ], [ -85.0432, 32.7699 ], [ -85.0133, 32.7759 ], [ -84.9833, 32.782 ], [ -84.9532, 32.7879 ], [ -84.9231, 32.7938 ], [ -84.8933, 32.8 ], [ -84.8638, 32.8065 ], [ -84.8345, 32.8133 ], [ -84.8056, 32.8204 ], [ -84.7769, 32.8277 ], [ -84.7344, 32.8393 ], [ -84.7204, 32.8433 ], [ -84.6926, 32.8515 ], [ -84.6653, 32.8602 ], [ -84.6382, 32.8692 ], [ -84.6111, 32.8781 ], [ -84.584, 32.887 ], [ -84.5571, 32.8961 ], [ -84.5301, 32.9052 ], [ -84.4895, 32.9186 ], [ -84.476, 32.9231 ], [ -84.4357, 32.9368 ], [ -84.4086, 32.9458 ], [ -84.395, 32.9502 ], [ -84.3547, 32.9639 ], [ -84.3416, 32.9689 ], [ -84.3154, 32.9787 ], [ -84.2893, 32.9886 ], [ -84.2637, 32.999 ], [ -84.2256, 33.015 ], [ -84.2127, 33.0201 ], [ -84.1738, 33.0352 ], [ -84.161, 33.0404 ], [ -84.1352, 33.0507 ], [ -84.1094, 33.0609 ], [ -84.0718, 33.0774 ], [ -84.0596, 33.0831 ], [ -84.0228, 33.1004 ], [ -83.9989, 33.1126 ], [ -83.975, 33.1247 ], [ -83.9508, 33.1365 ], [ -83.9388, 33.1426 ], [ -83.903, 33.1608 ], [ -83.8909, 33.1667 ], [ -83.8549, 33.1847 ], [ -83.8429, 33.1908 ], [ -83.8189, 33.2028 ], [ -83.7828, 33.2208 ], [ -83.7589, 33.2329 ], [ -83.7468, 33.2388 ], [ -83.7108, 33.2569 ], [ -83.6872, 33.2693 ], [ -83.6754, 33.2755 ], [ -83.652, 33.2882 ], [ -83.618, 33.3082 ], [ -83.607, 33.3152 ], [ -83.574, 33.3362 ], [ -83.5632, 33.3434 ], [ -83.5308, 33.3651 ], [ -83.5091, 33.3795 ], [ -83.4875, 33.3939 ], [ -83.4659, 33.4084 ], [ -83.4443, 33.4228 ], [ -83.4227, 33.4372 ], [ -83.4011, 33.4517 ], [ -83.3795, 33.4661 ], [ -83.3579, 33.4805 ], [ -83.3363, 33.4949 ], [ -83.315, 33.5097 ], [ -83.2939, 33.5247 ], [ -83.2732, 33.54 ], [ -83.2528, 33.5555 ], [ -83.2326, 33.5714 ], [ -83.2121, 33.587 ], [ -83.1914, 33.6023 ], [ -83.1706, 33.6176 ], [ -83.1499, 33.6329 ], [ -83.1294, 33.6485 ], [ -83.1096, 33.6646 ], [ -83.0905, 33.6817 ], [ -83.0718, 33.699 ], [ -83.0537, 33.7169 ], [ -83.0355, 33.7348 ], [ -83.0174, 33.7526 ], [ -82.9986, 33.77 ], [ -82.9796, 33.787 ], [ -82.9598, 33.8032 ], [ -82.9393, 33.8187 ], [ -82.9186, 33.834 ], [ -82.8978, 33.8493 ], [ -82.8774, 33.8649 ], [ -82.8578, 33.8814 ], [ -82.8393, 33.899 ], [ -82.8218, 33.9174 ], [ -82.8053, 33.9371 ], [ -82.7898, 33.9575 ], [ -82.7669, 33.9887 ], [ -82.7592, 33.9991 ], [ -82.7437, 34.0196 ], [ -82.7275, 34.0395 ], [ -82.7106, 34.0585 ], [ -82.6933, 34.0773 ], [ -82.6754, 34.0955 ], [ -82.6576, 34.1137 ], [ -82.6394, 34.1316 ], [ -82.6215, 34.1497 ], [ -82.6037, 34.1679 ], [ -82.5864, 34.1867 ], [ -82.5694, 34.2057 ], [ -82.5533, 34.2256 ], [ -82.5302, 34.2567 ], [ -82.5227, 34.2672 ], [ -82.5008, 34.2994 ], [ -82.4864, 34.321 ], [ -82.472, 34.3427 ], [ -82.4576, 34.3643 ], [ -82.4432, 34.386 ], [ -82.4288, 34.4076 ], [ -82.4144, 34.4292 ], [ -82.4, 34.4509 ], [ -82.3928, 34.4617 ], [ -82.3712, 34.4942 ], [ -82.3568, 34.5158 ], [ -82.3425, 34.5376 ], [ -82.3286, 34.5597 ], [ -82.3216, 34.5708 ], [ -82.3015, 34.6047 ], [ -82.2884, 34.6276 ], [ -82.2753, 34.6506 ], [ -82.2619, 34.6732 ], [ -82.2482, 34.6956 ], [ -82.2343, 34.7178 ], [ -82.2207, 34.7402 ], [ -82.2074, 34.763 ], [ -82.1949, 34.7865 ], [ -82.1833, 34.811 ], [ -82.1727, 34.8364 ], [ -82.1623, 34.8621 ], [ -82.1521, 34.8879 ], [ -82.1419, 34.9138 ], [ -82.131, 34.939 ], [ -82.1197, 34.9637 ], [ -82.1083, 34.9884 ], [ -82.0969, 35.013 ], [ -82.0855, 35.0377 ], [ -82.0747, 35.063 ], [ -82.0646, 35.0889 ], [ -82.0548, 35.1152 ], [ -82.0453, 35.1418 ], [ -82.0363, 35.1687 ], [ -82.0273, 35.1959 ], [ -82.0184, 35.223 ], [ -82.0098, 35.2504 ], [ -82.0056, 35.2642 ], [ -81.9936, 35.3064 ], [ -81.986, 35.3348 ], [ -81.9787, 35.3635 ], [ -81.9716, 35.3925 ], [ -81.9648, 35.4218 ], [ -81.9583, 35.4514 ], [ -81.9522, 35.4813 ], [ -81.9462, 35.5114 ], [ -81.9403, 35.5416 ], [ -81.9343, 35.5716 ], [ -81.9284, 35.6018 ], [ -81.9229, 35.6323 ], [ -81.9182, 35.6636 ], [ -81.9144, 35.696 ], [ -81.9115, 35.7292 ], [ -81.9089, 35.7626 ], [ -81.906, 35.7958 ], [ -81.9023, 35.8282 ], [ -81.8976, 35.8595 ], [ -81.8922, 35.8902 ], [ -81.8869, 35.9209 ], [ -81.8821, 35.9522 ], [ -81.8785, 35.9847 ], [ -81.8762, 36.0185 ], [ -81.8751, 36.0531 ], [ -81.8751, 36.088 ], [ -81.8762, 36.1227 ], [ -81.8785, 36.1564 ], [ -81.8821, 36.1889 ], [ -81.8869, 36.2202 ], [ -81.8922, 36.2509 ], [ -81.8976, 36.2817 ], [ -81.9023, 36.313 ], [ -81.906, 36.3453 ], [ -81.9089, 36.3785 ], [ -81.9115, 36.412 ], [ -81.9144, 36.4451 ], [ -81.9182, 36.4775 ], [ -81.9229, 36.5088 ], [ -81.9284, 36.5394 ], [ -81.9343, 36.5695 ], [ -81.9403, 36.5995 ], [ -81.9462, 36.6297 ], [ -81.9523, 36.6597 ], [ -81.9589, 36.6891 ], [ -81.9661, 36.718 ], [ -81.9739, 36.7463 ], [ -81.9822, 36.774 ], [ -81.9908, 36.8015 ], [ -81.9989, 36.8294 ], [ -82.0069, 36.8575 ], [ -82.0147, 36.8858 ], [ -82.0226, 36.9139 ], [ -82.0309, 36.9417 ], [ -82.0356, 36.9551 ], [ -82.0495, 36.9952 ], [ -82.0597, 37.021 ], [ -82.07, 37.0468 ], [ -82.0801, 37.0728 ], [ -82.0903, 37.0986 ], [ -82.1005, 37.1245 ], [ -82.1107, 37.1503 ], [ -82.1164, 37.1627 ], [ -82.1329, 37.2002 ], [ -82.1445, 37.2248 ], [ -82.1563, 37.249 ], [ -82.1684, 37.2729 ], [ -82.1803, 37.297 ], [ -82.1923, 37.3211 ], [ -82.2045, 37.345 ], [ -82.2169, 37.3686 ], [ -82.2296, 37.392 ], [ -82.2428, 37.4148 ], [ -82.2565, 37.4372 ], [ -82.2704, 37.4594 ], [ -82.2911, 37.4927 ], [ -82.2979, 37.504 ], [ -82.3113, 37.5266 ], [ -82.3244, 37.5496 ], [ -82.3376, 37.5724 ], [ -82.3515, 37.5946 ], [ -82.3658, 37.6162 ], [ -82.3808, 37.6373 ], [ -82.3964, 37.6578 ], [ -82.4121, 37.6781 ], [ -82.4275, 37.6987 ], [ -82.4428, 37.7195 ], [ -82.458, 37.7403 ], [ -82.4733, 37.7611 ], [ -82.4887, 37.7817 ], [ -82.5044, 37.8021 ], [ -82.5201, 37.8224 ], [ -82.5355, 37.843 ], [ -82.5508, 37.8638 ], [ -82.5661, 37.8846 ], [ -82.5815, 37.9052 ], [ -82.5973, 37.9254 ], [ -82.6139, 37.9449 ], [ -82.631, 37.9638 ], [ -82.6486, 37.9823 ], [ -82.6665, 38.0005 ], [ -82.6845, 38.0185 ], [ -82.7025, 38.0365 ], [ -82.7205, 38.0546 ], [ -82.7385, 38.0726 ], [ -82.7656, 38.0996 ], [ -82.7745, 38.1087 ], [ -82.7925, 38.1267 ], [ -82.8105, 38.1448 ], [ -82.8285, 38.1628 ], [ -82.8465, 38.1808 ], [ -82.8736, 38.2078 ], [ -82.8827, 38.2168 ], [ -82.9105, 38.243 ], [ -82.9295, 38.2601 ], [ -82.9394, 38.2681 ], [ -82.9596, 38.284 ], [ -82.9802, 38.2994 ], [ -83.0113, 38.3224 ], [ -83.0216, 38.3302 ], [ -83.0417, 38.346 ], [ -83.071, 38.3709 ], [ -83.0806, 38.3792 ], [ -83.0999, 38.396 ], [ -83.1195, 38.4124 ], [ -83.1499, 38.4361 ], [ -83.1604, 38.4436 ], [ -83.1923, 38.4658 ], [ -83.2138, 38.4802 ], [ -83.2355, 38.4947 ], [ -83.2463, 38.5019 ], [ -83.2787, 38.5235 ], [ -83.3003, 38.538 ], [ -83.3219, 38.5524 ], [ -83.3327, 38.5596 ], [ -83.3651, 38.5812 ], [ -83.3867, 38.5957 ], [ -83.4083, 38.6101 ], [ -83.4191, 38.6173 ], [ -83.4409, 38.6316 ], [ -83.4629, 38.6456 ], [ -83.4965, 38.6661 ], [ -83.5195, 38.6791 ], [ -83.5431, 38.6915 ], [ -83.5668, 38.7039 ], [ -83.5904, 38.7163 ], [ -83.614, 38.7287 ], [ -83.6371, 38.7417 ], [ -83.6483, 38.7485 ], [ -83.6817, 38.7691 ], [ -83.6928, 38.776 ], [ -83.715, 38.7899 ], [ -83.7486, 38.8104 ], [ -83.7716, 38.8234 ], [ -83.7836, 38.8294 ], [ -83.8321, 38.8529 ], [ -83.8445, 38.8586 ], [ -83.8701, 38.869 ], [ -83.8961, 38.8791 ], [ -83.9217, 38.8894 ], [ -83.9476, 38.8996 ], [ -83.9733, 38.9099 ], [ -83.998, 38.9212 ], [ -84.0225, 38.9327 ], [ -84.0473, 38.944 ], [ -84.0596, 38.9498 ], [ -84.1094, 38.972 ], [ -84.1222, 38.9772 ], [ -84.1484, 38.987 ], [ -84.1746, 38.9968 ], [ -84.2014, 39.006 ], [ -84.2285, 39.015 ], [ -84.269, 39.0286 ], [ -84.2824, 39.0332 ], [ -84.3095, 39.0421 ], [ -84.3365, 39.0511 ], [ -84.377, 39.0646 ], [ -84.3904, 39.0692 ], [ -84.4175, 39.0782 ], [ -84.4581, 39.0916 ], [ -84.4717, 39.0961 ], [ -84.4985, 39.1053 ], [ -84.5255, 39.1143 ], [ -84.5526, 39.1232 ], [ -84.5932, 39.1366 ], [ -84.6068, 39.1411 ], [ -84.6484, 39.1535 ], [ -84.6765, 39.1614 ], [ -84.7049, 39.1691 ], [ -84.7335, 39.1765 ], [ -84.7479, 39.1801 ], [ -84.7917, 39.1903 ], [ -84.8213, 39.1968 ], [ -84.8361, 39.2 ], [ -84.8812, 39.2089 ], [ -84.9113, 39.2148 ], [ -84.9412, 39.2209 ], [ -84.9713, 39.2268 ], [ -84.9865, 39.2297 ], [ -85.0324, 39.2378 ], [ -85.0478, 39.2404 ], [ -85.095, 39.2473 ], [ -85.1107, 39.2496 ], [ -85.1567, 39.2575 ], [ -85.1873, 39.263 ], [ -85.2026, 39.2658 ], [ -85.2491, 39.2733 ], [ -85.2809, 39.2775 ], [ -85.3133, 39.2811 ], [ -85.3296, 39.2828 ], [ -85.3776, 39.2888 ], [ -85.4087, 39.2938 ], [ -85.4241, 39.2964 ], [ -85.4546, 39.3018 ], [ -85.4855, 39.307 ], [ -85.5337, 39.3128 ], [ -85.5674, 39.3151 ], [ -85.6021, 39.3164 ], [ -85.6376, 39.317 ], [ -85.6734, 39.3171 ], [ -85.7094, 39.3171 ], [ -85.7455, 39.3171 ], [ -85.7815, 39.3171 ], [ -85.8175, 39.3171 ], [ -85.8535, 39.3171 ], [ -85.8895, 39.3171 ], [ -85.9255, 39.3171 ], [ -85.9615, 39.3171 ], [ -85.9975, 39.3171 ], [ -86.0336, 39.3171 ], [ -86.0696, 39.3171 ], [ -86.1056, 39.3171 ], [ -86.1416, 39.3171 ], [ -86.1776, 39.3171 ], [ -86.2136, 39.3171 ], [ -86.2496, 39.3171 ], [ -86.2856, 39.3171 ], [ -86.3216, 39.3171 ], [ -86.3575, 39.317 ], [ -86.3929, 39.3164 ], [ -86.4277, 39.3151 ], [ -86.4614, 39.3128 ], [ -86.4938, 39.3092 ], [ -86.525, 39.3044 ], [ -86.5557, 39.2991 ], [ -86.5864, 39.2938 ], [ -86.6175, 39.2888 ], [ -86.6494, 39.2847 ], [ -86.6818, 39.2811 ], [ -86.7142, 39.2775 ], [ -86.746, 39.2733 ], [ -86.7771, 39.2684 ], [ -86.8078, 39.263 ], [ -86.8383, 39.2575 ], [ -86.869, 39.2522 ], [ -86.9001, 39.2473 ], [ -86.9315, 39.2427 ], [ -86.9627, 39.2378 ], [ -86.9933, 39.2324 ], [ -87.0237, 39.2268 ], [ -87.0538, 39.2209 ], [ -87.0838, 39.2148 ], [ -87.1139, 39.2089 ], [ -87.159, 39.2 ], [ -87.1738, 39.1968 ], [ -87.2033, 39.1903 ], [ -87.2471, 39.1801 ], [ -87.2615, 39.1765 ], [ -87.2902, 39.1691 ], [ -87.3186, 39.1614 ], [ -87.3467, 39.1535 ], [ -87.3883, 39.1411 ], [ -87.4019, 39.1366 ], [ -87.4289, 39.1277 ], [ -87.456, 39.1187 ], [ -87.4966, 39.1053 ], [ -87.51, 39.1007 ], [ -87.537, 39.0916 ], [ -87.564, 39.0827 ], [ -87.5911, 39.0737 ], [ -87.6181, 39.0646 ], [ -87.645, 39.0555 ], [ -87.6721, 39.0466 ], [ -87.6992, 39.0376 ], [ -87.7261, 39.0286 ], [ -87.753, 39.0195 ], [ -87.7801, 39.0105 ], [ -87.8204, 38.9968 ], [ -87.8335, 38.9919 ], [ -87.8729, 38.9772 ], [ -87.8858, 38.9721 ], [ -87.9115, 38.9617 ], [ -87.9368, 38.9511 ], [ -87.9754, 38.9356 ], [ -88.0014, 38.9255 ], [ -88.0142, 38.9203 ], [ -88.04, 38.9101 ], [ -88.0658, 38.8998 ], [ -88.091, 38.889 ], [ -88.1278, 38.8719 ], [ -88.1401, 38.8661 ], [ -88.1643, 38.8542 ], [ -88.1882, 38.8421 ], [ -88.2244, 38.8242 ], [ -88.2483, 38.8121 ], [ -88.2719, 38.7997 ], [ -88.2837, 38.7935 ], [ -88.307, 38.7808 ], [ -88.3298, 38.7675 ], [ -88.3632, 38.7469 ], [ -88.3743, 38.74 ], [ -88.3965, 38.7261 ], [ -88.43, 38.7056 ], [ -88.4414, 38.699 ], [ -88.4758, 38.6794 ], [ -88.4986, 38.6661 ], [ -88.5098, 38.6593 ], [ -88.5322, 38.6456 ], [ -88.5544, 38.6317 ], [ -88.5876, 38.611 ], [ -88.5989, 38.6042 ], [ -88.6215, 38.5908 ], [ -88.6444, 38.5776 ], [ -88.6671, 38.5644 ], [ -88.7003, 38.5434 ], [ -88.7216, 38.5287 ], [ -88.7423, 38.5134 ], [ -88.7625, 38.4975 ], [ -88.7829, 38.482 ], [ -88.8037, 38.4667 ], [ -88.8244, 38.4514 ], [ -88.8452, 38.4361 ], [ -88.8659, 38.4208 ], [ -88.8864, 38.4052 ], [ -88.9066, 38.3893 ], [ -88.927, 38.3738 ], [ -88.9478, 38.3585 ], [ -88.9685, 38.3432 ], [ -88.9892, 38.3279 ], [ -89.0097, 38.3123 ], [ -89.0296, 38.2961 ], [ -89.0486, 38.2791 ], [ -89.0673, 38.2618 ], [ -89.0855, 38.2439 ], [ -89.1036, 38.226 ], [ -89.1218, 38.2081 ], [ -89.1405, 38.1908 ], [ -89.1595, 38.1738 ], [ -89.1794, 38.1576 ], [ -89.1998, 38.142 ], [ -89.2206, 38.1267 ], [ -89.2413, 38.1114 ], [ -89.2621, 38.0961 ], [ -89.2825, 38.0805 ], [ -89.3027, 38.0647 ], [ -89.3231, 38.0491 ], [ -89.3439, 38.0338 ], [ -89.3646, 38.0185 ], [ -89.3854, 38.0032 ], [ -89.4061, 37.9879 ], [ -89.4266, 37.9723 ], [ -89.4467, 37.9565 ], [ -89.4672, 37.9409 ], [ -89.4879, 37.9256 ], [ -89.5087, 37.9103 ], [ -89.5398, 37.8873 ], [ -89.5502, 37.8797 ], [ -89.5706, 37.8641 ], [ -89.601, 37.8404 ], [ -89.6112, 37.8327 ], [ -89.6423, 37.8097 ], [ -89.6527, 37.8021 ], [ -89.6735, 37.7868 ], [ -89.6942, 37.7715 ], [ -89.7147, 37.7559 ], [ -89.7348, 37.74 ], [ -89.7553, 37.7244 ], [ -89.776, 37.7091 ], [ -89.7968, 37.6938 ], [ -89.8175, 37.6786 ], [ -89.8382, 37.6633 ], [ -89.8587, 37.6477 ], [ -89.8789, 37.6318 ], [ -89.8993, 37.6162 ], [ -89.9201, 37.6009 ], [ -89.9411, 37.5859 ], [ -89.9624, 37.5712 ], [ -89.984, 37.5568 ], [ -90.0056, 37.5423 ], [ -90.0272, 37.5279 ], [ -90.0485, 37.5132 ], [ -90.0696, 37.4982 ], [ -90.09, 37.4826 ], [ -90.1099, 37.4664 ], [ -90.1292, 37.4497 ], [ -90.1485, 37.433 ], [ -90.1678, 37.4162 ], [ -90.1877, 37.4001 ], [ -90.2082, 37.3845 ], [ -90.2289, 37.3692 ], [ -90.2496, 37.3539 ], [ -90.2704, 37.3386 ], [ -90.2908, 37.323 ], [ -90.311, 37.3071 ], [ -90.3314, 37.2916 ], [ -90.3522, 37.2763 ], [ -90.3729, 37.261 ], [ -90.3937, 37.2457 ], [ -90.4141, 37.2301 ], [ -90.434, 37.2139 ], [ -90.4533, 37.1972 ], [ -90.4726, 37.1805 ], [ -90.4919, 37.1637 ], [ -90.5118, 37.1476 ], [ -90.5322, 37.132 ], [ -90.553, 37.1167 ], [ -90.5737, 37.1014 ], [ -90.5942, 37.0858 ], [ -90.6141, 37.0696 ], [ -90.6331, 37.0526 ], [ -90.6609, 37.0263 ], [ -90.679, 37.0085 ], [ -90.6881, 36.9995 ], [ -90.7063, 36.9816 ], [ -90.725, 36.9643 ], [ -90.744, 36.9473 ], [ -90.7639, 36.9311 ], [ -90.7843, 36.9155 ], [ -90.8051, 36.9002 ], [ -90.8258, 36.8849 ], [ -90.8463, 36.8694 ], [ -90.8662, 36.8532 ], [ -90.8852, 36.8362 ], [ -90.913, 36.8099 ], [ -90.922, 36.801 ], [ -90.9491, 36.774 ], [ -90.9581, 36.7649 ], [ -90.9851, 36.7379 ], [ -91.0031, 36.7199 ], [ -91.0122, 36.7109 ], [ -91.0301, 36.6927 ], [ -91.0482, 36.6749 ], [ -91.0661, 36.6567 ], [ -91.0842, 36.6388 ], [ -91.1021, 36.6206 ], [ -91.1203, 36.6027 ], [ -91.1381, 36.5845 ], [ -91.1563, 36.5666 ], [ -91.1741, 36.5485 ], [ -91.1923, 36.5306 ], [ -91.2101, 36.5124 ], [ -91.2283, 36.4945 ], [ -91.2461, 36.4763 ], [ -91.2643, 36.4584 ], [ -91.2822, 36.4402 ], [ -91.3092, 36.4133 ], [ -91.3182, 36.4042 ], [ -91.336, 36.386 ], [ -91.3533, 36.3672 ], [ -91.3703, 36.3482 ], [ -91.3864, 36.3283 ], [ -91.402, 36.3078 ], [ -91.4173, 36.287 ], [ -91.4325, 36.2662 ], [ -91.4481, 36.2457 ], [ -91.4642, 36.2258 ], [ -91.4812, 36.2068 ], [ -91.4985, 36.188 ], [ -91.5161, 36.1695 ], [ -91.5334, 36.1508 ], [ -91.5504, 36.1317 ], [ -91.5665, 36.1118 ], [ -91.5821, 36.0913 ], [ -91.605, 36.0602 ], [ -91.6126, 36.0498 ], [ -91.6279, 36.029 ], [ -91.6434, 36.0085 ], [ -91.6593, 35.9883 ], [ -91.6748, 35.9678 ], [ -91.6901, 35.947 ], [ -91.7054, 35.9263 ], [ -91.7206, 35.9055 ], [ -91.7359, 35.8847 ], [ -91.7515, 35.8642 ], [ -91.7673, 35.844 ], [ -91.7829, 35.8235 ], [ -91.7981, 35.8028 ], [ -91.8131, 35.7817 ], [ -91.835, 35.7495 ], [ -91.8422, 35.7387 ], [ -91.8632, 35.7056 ], [ -91.8769, 35.6833 ], [ -91.8903, 35.6606 ], [ -91.897, 35.6492 ], [ -91.9165, 35.6147 ], [ -91.9299, 35.5921 ], [ -91.9367, 35.5808 ], [ -91.9574, 35.5475 ], [ -91.9713, 35.5253 ], [ -91.985, 35.5029 ], [ -91.9984, 35.4803 ], [ -92.0115, 35.4573 ], [ -92.0246, 35.4344 ], [ -92.038, 35.4117 ], [ -92.0517, 35.3894 ], [ -92.0655, 35.3671 ], [ -92.0793, 35.3449 ], [ -92.0862, 35.3338 ], [ -92.1062, 35.2997 ], [ -92.1189, 35.2764 ], [ -92.1313, 35.2527 ], [ -92.1436, 35.2289 ], [ -92.1555, 35.2048 ], [ -92.1675, 35.1807 ], [ -92.1796, 35.1568 ], [ -92.1856, 35.1448 ], [ -92.2035, 35.1086 ], [ -92.2156, 35.0846 ], [ -92.2275, 35.0605 ], [ -92.2334, 35.0484 ], [ -92.2516, 35.0125 ], [ -92.2635, 34.9884 ], [ -92.2755, 34.9643 ], [ -92.2876, 34.9403 ], [ -92.2936, 34.9283 ], [ -92.3054, 34.9041 ], [ -92.3236, 34.8682 ], [ -92.3354, 34.8439 ], [ -92.3469, 34.8194 ], [ -92.3583, 34.7947 ], [ -92.3691, 34.7695 ], [ -92.3794, 34.7436 ], [ -92.3896, 34.7178 ], [ -92.3998, 34.692 ], [ -92.4099, 34.666 ], [ -92.4203, 34.6403 ], [ -92.4309, 34.6149 ], [ -92.4413, 34.5893 ], [ -92.4514, 34.5633 ], [ -92.4616, 34.5375 ], [ -92.4718, 34.5116 ], [ -92.4819, 34.4857 ], [ -92.4923, 34.46 ], [ -92.5029, 34.4346 ], [ -92.5133, 34.4089 ], [ -92.5233, 34.3828 ], [ -92.5331, 34.3565 ], [ -92.5426, 34.33 ], [ -92.5516, 34.303 ], [ -92.5606, 34.2759 ], [ -92.5696, 34.2489 ], [ -92.5787, 34.2219 ], [ -92.5877, 34.1948 ], [ -92.5966, 34.1676 ], [ -92.6057, 34.1407 ], [ -92.6147, 34.1137 ], [ -92.6237, 34.0865 ], [ -92.6326, 34.0594 ], [ -92.6417, 34.0324 ], [ -92.6507, 34.0054 ], [ -92.6597, 33.9783 ], [ -92.6686, 33.9512 ], [ -92.6775, 33.9241 ], [ -92.6862, 33.8967 ], [ -92.6944, 33.8688 ], [ -92.7023, 33.8407 ], [ -92.7099, 33.8122 ], [ -92.7173, 33.7835 ], [ -92.7245, 33.7547 ], [ -92.7317, 33.7258 ], [ -92.7389, 33.697 ], [ -92.7461, 33.6681 ], [ -92.7534, 33.6394 ], [ -92.7611, 33.611 ], [ -92.769, 33.5828 ], [ -92.7772, 33.555 ], [ -92.7857, 33.5274 ], [ -92.7941, 33.4997 ], [ -92.8018, 33.4714 ], [ -92.809, 33.4426 ], [ -92.8157, 33.4131 ], [ -92.8217, 33.3831 ], [ -92.8276, 33.353 ], [ -92.8338, 33.3231 ], [ -92.8403, 33.2935 ], [ -92.8471, 33.2642 ], [ -92.8541, 33.2352 ], [ -92.8613, 33.2064 ], [ -92.8684, 33.1773 ], [ -92.8752, 33.1481 ], [ -92.8816, 33.1185 ], [ -92.8848, 33.1036 ], [ -92.8937, 33.0585 ], [ -92.8966, 33.0433 ], [ -92.9057, 32.9983 ], [ -92.9117, 32.9683 ], [ -92.9178, 32.9383 ], [ -92.9238, 32.9082 ], [ -92.9298, 32.8781 ], [ -92.9357, 32.8479 ], [ -92.9417, 32.8179 ], [ -92.9476, 32.7878 ], [ -92.9532, 32.7573 ], [ -92.9586, 32.7266 ], [ -92.9612, 32.7111 ], [ -92.9681, 32.664 ], [ -92.973, 32.6328 ], [ -92.9783, 32.6021 ], [ -92.9838, 32.5715 ], [ -92.9892, 32.5409 ], [ -92.9946, 32.5102 ], [ -92.9995, 32.479 ], [ -93.0041, 32.4475 ], [ -93.009, 32.4164 ], [ -93.0143, 32.3856 ], [ -93.0198, 32.355 ], [ -93.0251, 32.3243 ], [ -93.0299, 32.293 ], [ -93.0336, 32.2607 ], [ -93.0365, 32.2275 ], [ -93.0391, 32.194 ], [ -93.042, 32.1608 ], [ -93.0457, 32.1285 ], [ -93.0505, 32.0972 ], [ -93.0558, 32.0664 ], [ -93.0611, 32.0357 ], [ -93.0659, 32.0044 ], [ -93.0695, 31.9719 ], [ -93.0718, 31.9382 ], [ -93.0732, 31.9035 ], [ -93.0744, 31.8686 ], [ -93.0758, 31.834 ], [ -93.0781, 31.8002 ], [ -93.0817, 31.7678 ], [ -93.0865, 31.7365 ], [ -93.092, 31.7059 ], [ -93.0978, 31.6757 ], [ -93.1039, 31.6457 ], [ -93.1098, 31.6155 ], [ -93.1127, 31.6004 ], [ -93.1218, 31.5554 ], [ -93.1277, 31.5252 ], [ -93.1333, 31.4948 ], [ -93.1386, 31.464 ], [ -93.1435, 31.4329 ], [ -93.1481, 31.4014 ], [ -93.153, 31.3702 ], [ -93.1584, 31.3395 ], [ -93.1638, 31.3089 ], [ -93.1692, 31.2782 ], [ -93.1739, 31.2469 ], [ -93.1775, 31.2144 ], [ -93.1798, 31.1806 ], [ -93.1811, 31.1459 ], [ -93.1817, 31.1104 ], [ -93.1818, 31.0744 ], [ -93.1818, 31.0384 ], [ -93.1818, 31.0023 ], [ -93.1818, 30.9662 ], [ -93.1818, 30.9302 ], [ -93.1818, 30.8941 ], [ -93.1818, 30.858 ], [ -93.1818, 30.8219 ], [ -93.1818, 30.7859 ], [ -93.1818, 30.7498 ], [ -93.1817, 30.7139 ], [ -93.1811, 30.6784 ], [ -93.1798, 30.6436 ], [ -93.1775, 30.6098 ], [ -93.1739, 30.5774 ], [ -93.1692, 30.546 ], [ -93.1638, 30.5153 ], [ -93.1584, 30.4847 ], [ -93.153, 30.454 ], [ -93.1481, 30.4228 ], [ -93.1435, 30.3914 ], [ -93.1386, 30.3602 ], [ -93.1332, 30.3296 ], [ -93.1271, 30.2996 ], [ -93.1205, 30.2702 ], [ -93.1134, 30.2412 ], [ -93.1061, 30.2124 ], [ -93.0984, 30.184 ], [ -93.0905, 30.1559 ], [ -93.0823, 30.128 ], [ -93.0737, 30.1006 ], [ -93.0647, 30.0735 ], [ -93.0558, 30.0464 ], [ -93.0469, 30.0192 ], [ -93.0378, 29.9922 ], [ -93.0287, 29.9653 ], [ -93.0198, 29.9381 ], [ -93.0107, 29.9112 ], [ -93.0012, 29.8846 ], [ -92.9914, 29.8583 ], [ -92.9815, 29.8322 ], [ -92.9711, 29.8065 ], [ -92.9604, 29.7812 ], [ -92.9501, 29.7555 ], [ -92.94, 29.7295 ], [ -92.9298, 29.7037 ], [ -92.9195, 29.6778 ], [ -92.9093, 29.652 ], [ -92.8985, 29.6268 ], [ -92.8871, 29.6021 ], [ -92.8757, 29.5774 ], [ -92.8644, 29.5527 ], [ -92.853, 29.5281 ], [ -92.8422, 29.5028 ], [ -92.832, 29.477 ], [ -92.8217, 29.4512 ], [ -92.8115, 29.4253 ], [ -92.8013, 29.3995 ], [ -92.7956, 29.3871 ], [ -92.7791, 29.3496 ], [ -92.7676, 29.325 ], [ -92.7557, 29.3008 ], [ -92.7435, 29.277 ], [ -92.7311, 29.2533 ], [ -92.7184, 29.23 ], [ -92.7052, 29.2072 ], [ -92.6915, 29.1848 ], [ -92.6777, 29.1626 ], [ -92.6639, 29.1403 ], [ -92.6434, 29.1067 ], [ -92.6368, 29.0953 ], [ -92.6237, 29.0724 ], [ -92.6106, 29.0494 ], [ -92.5972, 29.0268 ], [ -92.5835, 29.0044 ], [ -92.5695, 28.9823 ], [ -92.548, 28.9497 ], [ -92.5336, 28.9281 ], [ -92.5264, 28.9173 ], [ -92.512, 28.8956 ], [ -92.4904, 28.8632 ], [ -92.476, 28.8415 ], [ -92.4688, 28.8307 ], [ -92.4544, 28.809 ], [ -92.44, 28.7874 ], [ -92.4256, 28.7658 ], [ -92.404, 28.7333 ], [ -92.3966, 28.7226 ], [ -92.3818, 28.7014 ], [ -92.3665, 28.6806 ], [ -92.3426, 28.6505 ], [ -92.3259, 28.6311 ], [ -92.3176, 28.6215 ], [ -92.3008, 28.6021 ], [ -92.2844, 28.5825 ], [ -92.2686, 28.5623 ], [ -92.2532, 28.5417 ], [ -92.2379, 28.5209 ], [ -92.2225, 28.5003 ], [ -92.2066, 28.4801 ], [ -92.1901, 28.4606 ], [ -92.1643, 28.4323 ], [ -92.1464, 28.4141 ], [ -92.1375, 28.405 ], [ -92.1104, 28.378 ], [ -92.1015, 28.369 ], [ -92.0744, 28.342 ], [ -92.0655, 28.3329 ], [ -92.0384, 28.3059 ], [ -92.0295, 28.2968 ], [ -92.0116, 28.2786 ], [ -91.994, 28.2602 ], [ -91.9769, 28.2413 ], [ -91.9523, 28.2118 ], [ -91.9445, 28.2016 ], [ -91.9291, 28.1809 ], [ -91.9137, 28.1603 ], [ -91.8898, 28.1302 ], [ -91.8725, 28.1114 ], [ -91.8631, 28.1027 ], [ -91.8339, 28.0779 ], [ -91.8134, 28.0623 ], [ -91.7927, 28.047 ], [ -91.7722, 28.0315 ], [ -91.7523, 28.0153 ], [ -91.7333, 27.9983 ], [ -91.7146, 27.981 ], [ -91.6964, 27.9631 ], [ -91.6783, 27.9452 ], [ -91.6694, 27.9361 ], [ -91.6513, 27.918 ], [ -91.6244, 27.8909 ], [ -91.6153, 27.882 ], [ -91.5884, 27.8548 ], [ -91.5793, 27.8459 ], [ -91.5524, 27.8188 ], [ -91.5433, 27.8098 ], [ -91.5164, 27.7827 ], [ -91.4982, 27.7648 ], [ -91.4893, 27.7557 ], [ -91.4622, 27.7287 ], [ -91.4441, 27.7108 ], [ -91.4347, 27.7022 ], [ -91.4063, 27.6765 ], [ -91.3864, 27.6603 ], [ -91.366, 27.6448 ], [ -91.3452, 27.6295 ], [ -91.3245, 27.6142 ], [ -91.3041, 27.5986 ], [ -91.2941, 27.5905 ], [ -91.2747, 27.5739 ], [ -91.2464, 27.5481 ], [ -91.2372, 27.5393 ], [ -91.2093, 27.5132 ], [ -91.1903, 27.4961 ], [ -91.1704, 27.48 ], [ -91.1602, 27.4722 ], [ -91.1292, 27.4491 ], [ -91.1084, 27.4338 ], [ -91.0877, 27.4185 ], [ -91.0672, 27.4029 ], [ -91.0471, 27.387 ], [ -91.0266, 27.3715 ], [ -91.0059, 27.3562 ], [ -90.9851, 27.3409 ], [ -90.9644, 27.3256 ], [ -90.9437, 27.3103 ], [ -90.9232, 27.2947 ], [ -90.903, 27.2788 ], [ -90.8826, 27.2632 ], [ -90.8618, 27.248 ], [ -90.8411, 27.2327 ], [ -90.8203, 27.2174 ], [ -90.7996, 27.2021 ], [ -90.7791, 27.1865 ], [ -90.759, 27.1706 ], [ -90.7385, 27.155 ], [ -90.7178, 27.1397 ], [ -90.6967, 27.1247 ], [ -90.6754, 27.11 ], [ -90.6538, 27.0956 ], [ -90.6322, 27.0812 ], [ -90.6106, 27.0667 ], [ -90.589, 27.0523 ], [ -90.5674, 27.0379 ], [ -90.5458, 27.0234 ], [ -90.5242, 27.009 ], [ -90.5026, 26.9946 ], [ -90.4813, 26.9799 ], [ -90.4602, 26.9649 ], [ -90.4395, 26.9496 ], [ -90.419, 26.934 ], [ -90.3989, 26.9181 ], [ -90.3784, 26.9025 ], [ -90.3577, 26.8872 ], [ -90.3366, 26.8722 ], [ -90.3153, 26.8575 ], [ -90.2937, 26.8431 ], [ -90.2721, 26.8286 ], [ -90.2505, 26.8142 ], [ -90.2289, 26.7998 ], [ -90.2073, 26.7854 ], [ -90.1857, 26.7709 ], [ -90.1641, 26.7565 ], [ -90.1533, 26.7493 ], [ -90.1209, 26.7276 ], [ -90.0992, 26.7132 ], [ -90.0776, 26.6988 ], [ -90.056, 26.6843 ], [ -90.0344, 26.6699 ], [ -90.0131, 26.6552 ], [ -89.9921, 26.6402 ], [ -89.9713, 26.6249 ], [ -89.9509, 26.6093 ], [ -89.9307, 26.5934 ], [ -89.9103, 26.5779 ], [ -89.8895, 26.5626 ], [ -89.8685, 26.5476 ], [ -89.8472, 26.5328 ], [ -89.8256, 26.5184 ], [ -89.804, 26.504 ], [ -89.7823, 26.4896 ], [ -89.761, 26.4748 ], [ -89.74, 26.4598 ], [ -89.7193, 26.4445 ], [ -89.6988, 26.429 ], [ -89.6786, 26.4131 ], [ -89.6582, 26.3975 ], [ -89.6374, 26.3822 ], [ -89.6164, 26.3672 ], [ -89.5951, 26.3525 ], [ -89.5735, 26.338 ], [ -89.5519, 26.3236 ], [ -89.5303, 26.3092 ], [ -89.509, 26.2945 ], [ -89.4879, 26.2795 ], [ -89.4672, 26.2642 ], [ -89.4467, 26.2486 ], [ -89.4266, 26.2327 ], [ -89.4061, 26.2171 ], [ -89.3854, 26.2018 ], [ -89.3643, 26.1868 ], [ -89.343, 26.1721 ], [ -89.3214, 26.1577 ], [ -89.2998, 26.1432 ], [ -89.2782, 26.1288 ], [ -89.2566, 26.1144 ], [ -89.235, 26.1 ], [ -89.2242, 26.0927 ], [ -89.1918, 26.0711 ], [ -89.1702, 26.0567 ], [ -89.1488, 26.042 ], [ -89.1278, 26.027 ], [ -89.1071, 26.0117 ], [ -89.0968, 26.0039 ], [ -89.0664, 25.9802 ], [ -89.046, 25.9646 ], [ -89.0253, 25.9493 ], [ -89.0042, 25.9343 ], [ -88.9829, 25.9196 ], [ -88.9613, 25.9052 ], [ -88.9397, 25.8907 ], [ -88.9181, 25.8763 ], [ -88.8968, 25.8616 ], [ -88.8757, 25.8466 ], [ -88.855, 25.8313 ], [ -88.8345, 25.8157 ], [ -88.8144, 25.7998 ], [ -88.7939, 25.7843 ], [ -88.7732, 25.769 ], [ -88.7521, 25.7539 ], [ -88.7308, 25.7392 ], [ -88.7092, 25.7248 ], [ -88.6876, 25.7104 ], [ -88.666, 25.6959 ], [ -88.6444, 25.6815 ], [ -88.6228, 25.6671 ], [ -88.6012, 25.6527 ], [ -88.5796, 25.6382 ], [ -88.558, 25.6238 ], [ -88.5366, 25.6091 ], [ -88.5156, 25.5941 ], [ -88.4949, 25.5788 ], [ -88.4744, 25.5632 ], [ -88.4542, 25.5473 ], [ -88.4338, 25.5317 ], [ -88.413, 25.5164 ], [ -88.392, 25.5014 ], [ -88.3707, 25.4867 ], [ -88.3491, 25.4723 ], [ -88.3275, 25.4579 ], [ -88.3059, 25.4434 ], [ -88.2843, 25.429 ], [ -88.2627, 25.4146 ], [ -88.2411, 25.4001 ], [ -88.2195, 25.3857 ], [ -88.1979, 25.3713 ], [ -88.1765, 25.3566 ], [ -88.1555, 25.3416 ], [ -88.1348, 25.3263 ], [ -88.1143, 25.3107 ], [ -88.0941, 25.2948 ], [ -88.0737, 25.2792 ], [ -88.0529, 25.2639 ], [ -88.0319, 25.2489 ], [ -88.0106, 25.2342 ], [ -87.989, 25.2198 ], [ -87.9674, 25.2054 ], [ -87.9458, 25.1909 ], [ -87.9242, 25.1765 ], [ -87.9025, 25.1621 ], [ -87.8809, 25.1476 ], [ -87.8593, 25.1332 ], [ -87.8377, 25.1188 ], [ -87.8164, 25.1041 ], [ -87.7954, 25.0891 ], [ -87.7746, 25.0738 ], [ -87.7542, 25.0582 ], [ -87.734, 25.0423 ], [ -87.7136, 25.0267 ], [ -87.6928, 25.0114 ], [ -87.6718, 24.9964 ], [ -87.6505, 24.9817 ], [ -87.6289, 24.9673 ], [ -87.6072, 24.9528 ], [ -87.5857, 24.9384 ], [ -87.564, 24.924 ], [ -87.5424, 24.9096 ], [ -87.5208, 24.8951 ], [ -87.4992, 24.8807 ], [ -87.4776, 24.8663 ], [ -87.4563, 24.8515 ], [ -87.4353, 24.8365 ], [ -87.4145, 24.8212 ], [ -87.3941, 24.8057 ], [ -87.3739, 24.7898 ], [ -87.3534, 24.7742 ], [ -87.3327, 24.7589 ], [ -87.3117, 24.7439 ], [ -87.2904, 24.7292 ], [ -87.2688, 24.7148 ], [ -87.2471, 24.7003 ], [ -87.2255, 24.6859 ], [ -87.2042, 24.6712 ], [ -87.1832, 24.6562 ], [ -87.1624, 24.6409 ], [ -87.142, 24.6253 ], [ -87.1218, 24.6094 ], [ -87.1014, 24.5938 ], [ -87.0806, 24.5785 ], [ -87.0599, 24.5633 ], [ -87.0391, 24.548 ], [ -87.0184, 24.5327 ], [ -86.9979, 24.5171 ], [ -86.9778, 24.5012 ], [ -86.9573, 24.4856 ], [ -86.9366, 24.4703 ], [ -86.9155, 24.4553 ], [ -86.8942, 24.4406 ], [ -86.8726, 24.4262 ], [ -86.851, 24.4117 ], [ -86.8294, 24.3973 ], [ -86.8081, 24.3826 ], [ -86.7871, 24.3676 ], [ -86.7663, 24.3523 ], [ -86.7459, 24.3367 ], [ -86.7257, 24.3208 ], [ -86.7053, 24.3053 ], [ -86.6845, 24.29 ], [ -86.6635, 24.275 ], [ -86.6422, 24.2602 ], [ -86.6205, 24.2458 ], [ -86.5989, 24.2314 ], [ -86.5773, 24.217 ], [ -86.556, 24.2022 ], [ -86.535, 24.1872 ], [ -86.5142, 24.1719 ], [ -86.4938, 24.1563 ], [ -86.4736, 24.1405 ], [ -86.4532, 24.1249 ], [ -86.4324, 24.1096 ], [ -86.4117, 24.0943 ], [ -86.3909, 24.079 ], [ -86.3702, 24.0637 ], [ -86.3497, 24.0481 ], [ -86.3296, 24.0323 ], [ -86.3091, 24.0167 ], [ -86.2884, 24.0014 ], [ -86.2779, 23.9939 ], [ -86.246, 23.9717 ], [ -86.2244, 23.9572 ], [ -86.2028, 23.9428 ], [ -86.1812, 23.9284 ], [ -86.1599, 23.9136 ], [ -86.1389, 23.8986 ], [ -86.1181, 23.8833 ], [ -86.0977, 23.8678 ], [ -86.0775, 23.8519 ], [ -86.057, 23.8363 ], [ -86.0363, 23.821 ], [ -86.0156, 23.8057 ], [ -85.9948, 23.7904 ], [ -85.9741, 23.7751 ], [ -85.9536, 23.7595 ], [ -85.9334, 23.7437 ], [ -85.913, 23.7281 ], [ -85.8922, 23.7128 ], [ -85.8712, 23.6978 ], [ -85.8499, 23.6831 ], [ -85.8283, 23.6686 ], [ -85.8067, 23.6542 ], [ -85.7851, 23.6398 ], [ -85.7638, 23.6251 ], [ -85.7427, 23.6101 ], [ -85.722, 23.5948 ], [ -85.7015, 23.5792 ], [ -85.6814, 23.5633 ], [ -85.6609, 23.5477 ], [ -85.6402, 23.5324 ], [ -85.6191, 23.5174 ], [ -85.5978, 23.5027 ], [ -85.5762, 23.4883 ], [ -85.5546, 23.4738 ], [ -85.533, 23.4594 ], [ -85.5117, 23.4447 ], [ -85.4906, 23.4297 ], [ -85.4699, 23.4144 ], [ -85.4494, 23.3988 ], [ -85.4293, 23.3829 ], [ -85.4088, 23.3673 ], [ -85.3881, 23.352 ], [ -85.3671, 23.3371 ], [ -85.3457, 23.3223 ], [ -85.3241, 23.3079 ], [ -85.3025, 23.2935 ], [ -85.2809, 23.2791 ], [ -85.2596, 23.2643 ], [ -85.2386, 23.2493 ], [ -85.2178, 23.234 ], [ -85.1974, 23.2184 ], [ -85.1772, 23.2026 ], [ -85.1567, 23.187 ], [ -85.136, 23.1717 ], [ -85.1153, 23.1564 ], [ -85.0945, 23.1411 ], [ -85.0738, 23.1258 ], [ -85.0533, 23.1102 ], [ -85.0331, 23.0944 ], [ -85.0127, 23.0788 ], [ -84.9919, 23.0635 ], [ -84.9709, 23.0485 ], [ -84.9496, 23.0338 ], [ -84.928, 23.0193 ], [ -84.9064, 23.0049 ], [ -84.8848, 22.9905 ], [ -84.8635, 22.9757 ], [ -84.8424, 22.9607 ], [ -84.8217, 22.9454 ], [ -84.8012, 22.9299 ], [ -84.7811, 22.914 ], [ -84.7606, 22.8984 ], [ -84.7399, 22.8831 ], [ -84.7191, 22.8678 ], [ -84.6984, 22.8525 ], [ -84.6776, 22.8372 ], [ -84.6572, 22.8216 ], [ -84.637, 22.8058 ], [ -84.6166, 22.7902 ], [ -84.5958, 22.7749 ], [ -84.5751, 22.7596 ], [ -84.5543, 22.7443 ], [ -84.5336, 22.729 ], [ -84.5131, 22.7134 ], [ -84.493, 22.6976 ], [ -84.4725, 22.682 ], [ -84.4518, 22.6667 ], [ -84.4307, 22.6517 ], [ -84.4094, 22.6369 ], [ -84.3878, 22.6225 ], [ -84.3662, 22.6081 ], [ -84.3446, 22.5937 ], [ -84.3233, 22.5789 ], [ -84.3023, 22.5639 ], [ -84.2815, 22.5486 ], [ -84.2611, 22.5331 ], [ -84.2409, 22.5172 ], [ -84.2204, 22.5016 ], [ -84.1997, 22.4863 ], [ -84.1787, 22.4713 ], [ -84.1573, 22.4566 ], [ -84.1357, 22.4422 ], [ -84.1141, 22.4277 ], [ -84.0925, 22.4133 ], [ -84.0712, 22.3986 ], [ -84.0502, 22.3836 ], [ -84.0294, 22.3683 ], [ -84.009, 22.3527 ], [ -83.9888, 22.3368 ], [ -83.9684, 22.3212 ], [ -83.9476, 22.3059 ], [ -83.9269, 22.2906 ], [ -83.9061, 22.2754 ], [ -83.8854, 22.2601 ], [ -83.8649, 22.2445 ], [ -83.8448, 22.2286 ], [ -83.8243, 22.213 ], [ -83.8036, 22.1977 ], [ -83.7826, 22.1827 ], [ -83.7612, 22.168 ], [ -83.7396, 22.1536 ], [ -83.718, 22.1391 ], [ -83.6964, 22.1247 ], [ -83.6751, 22.11 ], [ -83.6541, 22.095 ], [ -83.6333, 22.0797 ], [ -83.6129, 22.0641 ], [ -83.5927, 22.0482 ], [ -83.5722, 22.0327 ], [ -83.5515, 22.0174 ], [ -83.5308, 22.0021 ], [ -83.51, 21.9868 ], [ -83.4893, 21.9715 ], [ -83.4688, 21.9559 ], [ -83.4487, 21.94 ], [ -83.4279, 21.9247 ], [ -83.4066, 21.91 ], [ -83.3736, 21.8892 ], [ -83.3627, 21.8826 ], [ -83.34, 21.8705 ], [ -83.3065, 21.8537 ], [ -83.2844, 21.8444 ], [ -83.262, 21.8371 ], [ -83.2388, 21.8324 ] ] ] } }
]
}
