{"type":"FeatureCollection","features":[{"type":"Feature","id":1,"geometry":{"type":"Polygon","coordinates":[[[-95.101853089548342,11.585310974921697],[-95.08880333670453,11.675838131424769],[-95.080772593180541,11.76624390912923],[-95.077641224862532,11.856459553066031],[-95.079289596737397,11.946416310064819],[-95.085598072892651,12.036045426055693],[-95.096447019214452,12.125278146969038],[-95.111716801589012,12.214045718735065],[-95.131287784103847,12.302279388183365],[-95.155040332645115,12.389910401244151],[-95.182854812199707,12.47687000474707],[-95.214611586855142,12.563089443723015],[-95.250191023396894,12.64849996500152],[-95.289473486811858,12.73303281451291],[-95.332339341187549,12.816619238187457],[-95.378668952410123,12.899190483753955],[-95.428342685466475,12.980677795344093],[-95.481240905343384,13.061012420686779],[-95.537243977927119,13.140125604812965],[-95.596232267305197,13.217948594552126],[-95.658086140263038,13.29441263583459],[-95.722685959988951,13.369448975489945],[-95.789912092369093,13.442988858549143],[-95.859644903289563,13.514963532740978],[-95.931764757737255,13.58530424219714],[-96.006152019799799,13.653942234646536],[-96.082687055363238,13.720808756019437],[-96.161250230313783,13.78583505314532],[-96.241721908739009,13.848952370155871],[-96.323982456525073,13.91009195478],[-96.407912262041179,13.969185079927627],[-96.493424591071914,14.026198731486431],[-96.580530385668681,14.08120600905022],[-96.669258647168704,14.13429963362131],[-96.759638378708132,14.185572322604742],[-96.851698582523454,14.235116797902037],[-96.945468259952122,14.283025776918237],[-97.040976414130114,14.329391980655544],[-97.138252047294031,14.37430812831758],[-97.23732416168059,14.41786693910808],[-97.338221759526505,14.46016113223061],[-97.440973843068321,14.501283428687429],[-97.545609414542753,14.541326545883521],[-97.65215747528714,14.580383205720523],[-97.760647029336837,14.618546125603359],[-97.871107077129807,14.655908026534348],[-97.983566622701403,14.692561627717112],[-98.098054666489588,14.728599648355214],[-98.21460021252966,14.76411480765239],[-98.333232261259752,14.799199825711526],[-98.453979816715048,14.833947422635561],[-98.57687187933368,14.868450316728854],[-98.701937453150833,14.902801228993667],[-98.82920553950396,14.937092876834924],[-98.958705140629661,14.971417981254945],[-99.090465258764596,15.005869262356725],[-99.224514897044742,15.040539438444455],[-99.360883055908175,15.075521229621188],[-99.499598739390194,15.11090735509049],[-99.640690948828137,15.146790534056038],[-99.784188457131506,15.183263313950931],[-99.930071225606468,15.220381471627775],[-100.07821031935066,15.258118752278733],[-100.22846206627122,15.296437798965371],[-100.38068279517478,15.335301255648574],[-100.53472883486774,15.374671768087751],[-100.69045651415672,15.414511979344525],[-100.8477221618482,15.454784533379666],[-101.00638210584941,15.495452075053379],[-101.1662926758662,15.536477249225811],[-101.32731019980577,15.577822698059208],[-101.48929100737399,15.619451067313037],[-101.6520914255787,15.661325001847501],[-101.81556778502517,15.703407143824791],[-101.97957641272114,15.745660139004372],[-102.14397363927196,15.788046630447752],[-102.30861579168533,15.830529263015194],[-102.47335919876792,15.873070681566844],[-102.63806019022547,15.915633529164154],[-102.80257509396529,15.958180450667385],[-102.96676023879388,16.000674090037364],[-103.13047195441709,16.04307709123492],[-103.29356656784273,16.0853520991202],[-103.45590040877676,16.127461756754826],[-103.61732980602562,16.169368709898208],[-103.77771108749658,16.211035601611854],[-103.93690058289548,16.252425076756026],[-104.09475462012949,16.293499779291494],[-104.25112952890453,16.3342223531792],[-104.40588163622846,16.374555442379915],[-104.55886822688706,16.414461170147035],[-104.71002041640901,16.453861252295098],[-104.8593944780726,16.492608916768233],[-105.00705880621882,16.530550758111133],[-105.1530817951886,16.567533369069849],[-105.29753184022218,16.603403344189132],[-105.44047733566043,16.638007277114298],[-105.58198667584429,16.671191760591398],[-105.72212825691344,16.70280338826592],[-105.86097047230936,16.732688755581762],[-105.99858171817164,16.760694454385714],[-106.13503038794192,16.786667079222468],[-106.27038487686048,16.810453224636774],[-106.40471357926816,16.831899482475251],[-106.53808489130461,16.850852447282762],[-106.67056720641136,16.867158712704565],[-106.80222891982868,16.880664872386092],[-106.93313842589754,16.891217519972713],[-107.06336412075746,16.898663250009122],[-107.19297439695077,16.902848654342051],[-107.32203765151633,16.90362032841557],[-107.45062227789572,16.900824865874995],[-107.57879667042988,16.894308858567115],[-107.70662922525844,16.883918902835262],[-107.83418833672226,16.869501589626793],[-107.96154239916228,16.850903514385834],[-108.0887598078188,16.8279712707577],[-108.21590895613332,16.800551452387765],[-108.34305824114483,16.768490652022138],[-108.47027605539552,16.731635464205453],[-108.59762760512979,16.689836163508289],[-108.72505407198776,16.643086161497308],[-108.85233553036034,16.591564803672895],[-108.97924128615631,16.535463863266841],[-109.1055406470831,16.474975112611503],[-109.23100291815007,16.410290324039352],[-109.35539740796389,16.341601272580817],[-109.47849342243342,16.269099728769618],[-109.60006026836658,16.192977466736863],[-109.71986725257153,16.113426259714231],[-109.83768368095701,16.030637879134929],[-109.95327886123039,15.94480409913001],[-110.06642209840101,15.856116692931153],[-110.17688270107567,15.764767431971563],[-110.28442997516311,15.670948089482863],[-110.38883322747137,15.574850439596275],[-110.4898617648085,15.476666253744781],[-110.58728489308328,15.376587305160172],[-110.68087191910371,15.274805367973499],[-110.77039215057721,15.171512213617916],[-110.85561489341251,15.066899615325099],[-110.93630945441771,14.961159345427575],[-111.01224514040081,14.854483178056341],[-111.0831912581699,14.747062885543869],[-111.14891711363379,14.639090240222572],[-111.20919201449976,14.530757016223447],[-111.2637852657773,14.422254984979702],[-111.31246617697241,14.31377592062239],[-111.35500405219517,14.20551159548387],[-111.39116819915296,14.097653781896668],[-111.42073658422589,13.990390981358814],[-111.44368634125158,13.883836420314708],[-111.46019377422323,13.778028054651145],[-111.47044384670608,13.673000568521559],[-111.47462151956739,13.568788642481991],[-111.47291175727167,13.465426961585138],[-111.46549952248489,13.36295020818568],[-111.45256977697352,13.261393063739035],[-111.43430748340353,13.160790212398524],[-111.41089760623942,13.061176336518827],[-111.38252510724783,12.962586119354057],[-111.34937494819519,12.86505424325884],[-111.31163209444549,12.768615391487288],[-111.26948150596661,12.673304246393968],[-111.22310814812244,12.579155492132372],[-111.17269698178018,12.486203809258541],[-111.11843297050507,12.394483882825057],[-111.06050107696302,12.304030394287395],[-110.99908626381995,12.214878026899555],[-110.93437349374165,12.127061463915538],[-110.86654773029341,12.040615387690139],[-110.79579393614114,11.955574481477299],[-110.72229707305138,11.871973427631701],[-110.64624210548868,11.789846909407458],[-110.56781399432026,11.709229609159252],[-110.48719770401073,11.630156210141138],[-110.40457819542729,11.552661394707741],[-110.32014043393377,11.476779847012494],[-110.2340693803975,11.402546248510703],[-110.14654999838365,11.32999528245648],[-110.05775758734268,11.259158657146429],[-109.96772286991444,11.190023571630661],[-109.87636526864213,11.122542961688453],[-109.78360134622505,11.056668881763642],[-109.68934766266443,10.992353385400577],[-109.59352077976007,10.929548527942359],[-109.49603725751331,10.868206362933449],[-109.39681365772401,10.808278945716893],[-109.29576654129272,10.749718329837208],[-109.19281246912004,10.692476569738062],[-109.08786800300584,10.636505720762557],[-108.98084970295133,10.581757835555777],[-108.87167413165577,10.528184969460881],[-108.76025784822104,10.475739176921593],[-108.64651741444703,10.424372511482375],[-108.53036939213365,10.374037028486214],[-108.41173034218144,10.324684781477629],[-108.29051682459169,10.276267825799664],[-108.16664540116426,10.228738214996781],[-108.04003263369901,10.182048003512705],[-107.91059508219718,10.136149246690536],[-107.77824930845873,10.09099399717536],[-107.64291187248483,10.046534310310335],[-107.50449933607541,10.002722239639809],[-107.36292826103033,9.9595098405068825],[-107.21811520735082,9.9168491673553376],[-107.06997673593753,9.874692273729579],[-106.91842940948953,9.8329912149727079],[-106.76338978710891,9.7916980446291859],[-106.6047744305954,9.750764816243418],[-106.44251801949093,9.7101486105700587],[-106.27674226804112,9.6698583803600968],[-106.10767923550821,9.6299336795957515],[-105.93556240657972,9.5904144606589625],[-105.76062526414455,9.5513406741329163],[-105.58310129378958,9.5127522715002897],[-105.40322397930311,9.4746892024448925],[-105.22122680537268,9.4371914193486646],[-105.03734325578654,9.4002988736942257],[-104.85180681433292,9.3640515142661229],[-104.66485096659875,9.3284892943456157],[-104.47670919637221,9.2936521645158905],[-104.28761498834092,9.2595800744609846],[-104.09780182539384,9.2263129765627809],[-103.90750319311775,9.1938908214044091],[-103.71695257530104,9.1623535604686026],[-103.52638345753041,9.1317411443384913],[-103.33602932179565,9.1020935235973752],[-103.14612365368356,9.0734506497278176],[-102.9568999378817,9.0458524742124382],[-102.76859165817837,9.0193389485338002],[-102.58143229836179,8.9939500214764507],[-102.39565534401879,8.969725646321649],[-102.2114942780384,8.9467057736526954],[-102.02918258510812,8.9249303531533997],[-101.84895375081487,8.9044393381050781],[-101.67104125804752,8.8852726772923347],[-101.49567859149369,8.8674703230970522],[-101.32309923584097,8.8510722261024739],[-101.15353667397824,8.8361183377912198],[-100.98719750356184,8.8226488596573063],[-100.82408959186108,8.8107058529928395],[-100.66413173908836,8.8003322082649333],[-100.5072423245735,8.7915708222357694],[-100.35333972854556,8.7844645916676996],[-100.20234232853551,8.7790564124236425],[-100.0541685056719,8.7753891803665169],[-99.908736638385051,8.7735057922586179],[-99.765965106904048,8.7734491439629778],[-99.625772289659324,8.7752621313424015],[-99.488076566879954,8.7789876511592979],[-99.352796317895638,8.7846685983772659],[-99.21984992113687,8.7923478715571832],[-99.089155756832611,8.8020683638640094],[-98.960632204312674,8.8138729738587926],[-98.834197642906815,8.8278045974043948],[-98.709770451944678,8.8439061294644148],[-98.587269010756131,8.8622204668012614],[-98.466611699570194,8.8827905061770593],[-98.347716896817246,8.9056591434548409],[-98.230502981827044,8.9308692735982618],[-98.114888333929343,8.958463795168143],[-98.000791333353277,8.9884856022288773],[-97.88813035942843,9.0209775915427599],[-97.776823790585354,9.0559826598719724],[-97.666790007952386,9.093543703079547],[-97.557947389060644,9.1337036170284591],[-97.450214314139203,9.1765052984808904],[-97.343509161618385,9.2219916424004964],[-97.237750312626702,9.270205546448949],[-97.132883463401015,9.3211732051794343],[-97.029002065193026,9.3748304816415384],[-96.926249294569175,9.4310828373032223],[-96.824768367665911,9.4898357120486025],[-96.724702497921839,9.5509945448624762],[-96.626194902372731,9.6144647738303775],[-96.529388793557871,9.6801518388364229],[-96.434427387613766,9.7479611788654665],[-96.341453898878228,9.8177982338015681],[-96.250611542588501,9.889568440830999],[-96.16204353308251,9.9631772407371955],[-96.075893086496649,10.038530072504955],[-95.992303416269522,10.115532374219811],[-95.911417737638374,10.19408958576588],[-95.833379265840335,10.274107145228697],[-95.758331215213332,10.355490493391699],[-95.686416801893813,10.438145068340361],[-95.617779239320328,10.521976309059539],[-95.5525617418308,10.606889654534086],[-95.490907526461058,10.692790544648062],[-95.432959806649649,10.779584418386321],[-95.378861796734441,10.867176713834397],[-95.328756712851941,10.955472870876406],[-95.282787770239281,11.044378328497203],[-95.241098181435802,11.133798525681527],[-95.203831163477332,11.22363890141429],[-95.171129930701625,11.313804895579608],[-95.143137697446662,11.404201946262958],[-95.11999767894963,11.494735492449138],[-95.101853089548342,11.585310974921697]]]},"properties":{"objectid":1,"basin":"Pacific","prob2day":"0%","risk2day":"Low","prob7day":"70%","risk7day":"High","idp_source":"gtwo_areas_202610102351","idp_filedate":1791676691000,"idp_ingestdate":1791676781000,"st_area(shape)":95.911964474796676,"st_perimeter(shape)":39.364693733855262}}]}