{"type":"FeatureCollection","features":[{"type":"Feature","id":1,"geometry":{"type":"Polygon","coordinates":[[[-117.92783707222299,19.59078904248048],[-118.01428673134745,19.494071492605428],[-118.097009390371,19.394119118202866],[-118.17600609610435,19.29109026470411],[-118.2512778953585,19.185143282936281],[-118.32282583404492,19.076436518330809],[-118.39065095807518,18.965128320815495],[-118.45475431426013,18.851377036721033],[-118.51513694851127,18.735341014176583],[-118.57179990763956,18.617178602210856],[-118.62474423845572,18.49704814715443],[-118.67397098597212,18.375107998935164],[-118.71948119789886,18.251516503883693],[-118.76127591924819,18.126432010129292],[-118.7993561968309,18.000012865801239],[-118.83372307835731,17.872417419028807],[-118.86437760794018,17.743804017041896],[-118.89132083328974,17.614331008869101],[-118.91455380031755,17.484156741740378],[-118.93407755583445,17.353439562885683],[-118.94989314575196,17.222337821333554],[-118.96200161598171,17.091009865213266],[-118.97040401333447,16.959614040855456],[-118.9751013846211,16.828308697288662],[-118.97609477575321,16.697252182642274],[-118.97338523264227,16.566602845045395],[-118.96697380209918,16.436519030828777],[-118.95686153093482,16.3071590890209],[-118.94304946506065,16.178681367751039],[-118.925538649489,16.051244214249209],[-118.90433013282927,15.925005977543947],[-118.87942496009373,15.800125003965888],[-118.85082417719394,15.67675964254363],[-118.81852883184001,15.555068241406332],[-118.78253996994357,15.435209146884745],[-118.74285863741608,15.317340708906727],[-118.69948588016916,15.201621273802857],[-118.65242274591287,15.088209190601788],[-118.60167475558541,14.97725436189944],[-118.5473081874228,14.868792058207077],[-118.48943310945037,14.762774930218995],[-118.42816055286715,14.659153808401697],[-118.36360155067092,14.557879520523613],[-118.29586713585957,14.458902896151869],[-118.2250683414307,14.362174763055009],[-118.15131619948295,14.267645950800102],[-118.07472174391324,14.175267288055011],[-117.99539600592084,14.084989603487543],[-117.91345001940277,13.996763725765447],[-117.82899481645751,13.910540484455908],[-117.74214143008282,13.82627070822673],[-117.6530008932765,13.743905224846401],[-117.56168423813699,13.66339486388199],[-117.46830249766202,13.584690454900738],[-117.37296670484943,13.507742824771697],[-117.27578789179768,13.43250280396137],[-117.1768770924038,13.358921221137564],[-117.07634533876626,13.286948904068822],[-116.97430366388289,13.216536682322158],[-116.87086309895278,13.14763538456549],[-116.76613467877229,13.080195839466569],[-116.66022943543999,13.014168876592521],[-116.55325840105428,12.949505323711833],[-116.44533260951221,12.886156010391687],[-116.33656309291229,12.824071765299891],[-116.22706088335298,12.763203417104137],[-116.116937013832,12.703501794472402],[-116.00630251824651,12.644917726072322],[-115.89526842869492,12.587402041471194],[-115.78394577727573,12.53090556843739],[-115.67244559698662,12.475379137437358],[-115.56087892082542,12.420773575340377],[-115.44935678178996,12.36703971171346],[-115.33799021287791,12.31412837612379],[-115.22689024528847,12.261990396339854],[-115.11616754509606,12.210576744021637],[-115.00588828531602,12.159855649718622],[-114.89603222400785,12.109828864410701],[-114.78656919431279,12.060501988176327],[-114.67746902847279,12.011880621993271],[-114.56870155783054,11.963970368637717],[-114.46023661462795,11.916776829087553],[-114.35204403020771,11.870305603421002],[-114.24409363681178,11.824562294414477],[-114.13635526758145,11.779552502146373],[-114.02879875206065,11.735281828493726],[-113.9213939242901,11.691755875333513],[-113.81411061561232,11.64898024274413],[-113.70691865737007,11.606960532602614],[-113.59978788180518,11.565702345886677],[-113.49268812115974,11.525211284473357],[-113.38558920677639,11.485492949340255],[-113.27846097179633,11.4465529414652],[-113.17127324666291,11.408396862725169],[-113.06399586451744,11.371030314997199],[-112.95659865670257,11.334458897460308],[-112.84905145456088,11.298688212890852],[-112.74132409123371,11.263723863165865],[-112.63338639806375,11.22957144746448],[-112.52520820729285,11.196236569462258],[-112.4167593502637,11.163724829237594],[-112.30800965921833,11.132041827768262],[-112.19892896639857,11.101193166931239],[-112.08948710314718,11.07118444770424],[-111.97965390170611,11.042021271064925],[-111.86939919431728,11.013709239789705],[-111.75869281232332,10.986253953956918],[-111.64750458886562,10.959661014544338],[-111.53580435438732,10.933936023428885],[-111.42356194113057,10.909084582487651],[-111.31074718133726,10.885112291798976],[-111.19732990814862,10.862024753239893],[-111.08327995110875,10.839827567788177],[-110.96857788216346,10.818530904977422],[-110.85326697938751,10.798171607333927],[-110.73741322064353,10.778796172505508],[-110.62108261257242,10.760451112528983],[-110.50434116451305,10.743182935843947],[-110.38725488400559,10.727038155386708],[-110.26988977859031,10.712063282294764],[-110.15231185670672,10.698304826806464],[-110.03458712589503,10.685809299159985],[-109.91678159549411,10.674623211392202],[-109.79896127214488,10.664793074640841],[-109.68119216428687,10.656365399143965],[-109.56354028035958,10.649386696039301],[-109.44607162790322,10.643903476464402],[-109.32885221625668,10.639962251556824],[-109.21194805116153,10.637609531554801],[-109.09542514285596,10.636891828495209],[-108.9793494970815,10.637855652616395],[-108.8637871240764,10.640547514156594],[-108.74880403138087,10.645013926052002],[-108.63446622563572,10.651301397641532],[-108.52083971617986,10.659456440062797],[-108.40799051145285,10.669525565352671],[-108.29598461809553,10.681555282850184],[-108.18488804454751,10.695592105491414],[-108.07476680014759,10.711682542615392],[-107.96568689063741,10.729873105359673],[-107.85771432625506,10.75021030486181],[-107.7509151136415,10.772740653158735],[-107.6453552612362,10.79751065958942],[-107.54110077747879,10.824566836190684],[-107.43821766990942,10.853955693200817],[-107.3367719469677,10.885723742656751],[-107.23682961619375,10.919917493897344],[-107.13845668512784,10.956583459858905],[-107.04171916310878,10.995768149880348],[-106.94668305767686,11.037518075099229],[-106.85341444292209,11.081877513636471],[-106.76198091099013,11.128839361747282],[-106.67245157567959,11.178345139216958],[-106.58489561284216,11.230334131015468],[-106.49938220102763,11.284745619414934],[-106.41598051878583,11.341518891184023],[-106.33475974376705,11.400593230393383],[-106.25578905362181,11.461907921113777],[-106.17913762600057,11.525402248315231],[-106.10487463945293,11.591015496967771],[-106.03306927162947,11.658686950242725],[-105.96379070107992,11.728355894009439],[-105.89710810455529,11.799961613237997],[-105.83309066060542,11.873443391099784],[-105.77180754688067,11.948740512564768],[-105.71332794193086,12.025792262602977],[-105.6577210234064,12.104537926184491],[-105.60505596805837,12.184916786480642],[-105.55540195533587,12.26686813026015],[-105.5088281628893,12.350331239795025],[-105.46540376836913,12.435245400954614],[-105.42519794942575,12.521549897809678],[-105.38827988460889,12.609184016229506],[-105.35471875066969,12.698087038486165],[-105.32458372705725,12.788198251348376],[-105.29794399052264,12.879456937987413],[-105.2748687196156,12.971802383373415],[-105.25542709198663,13.06517387247635],[-105.23968828618536,13.159510689366982],[-105.22772147896296,13.254752119015222],[-105.21959584886923,13.350837446391154],[-105.21538057445383,13.447705954666219],[-105.21514483246796,13.54529692970965],[-105.21895780056195,13.643549655592267],[-105.22688865818492,13.742403417284038],[-105.23900658298732,13.841797497956293],[-105.25538075172022,13.94167118437781],[-105.27608028807475,14.041963774109036],[-105.30113410165734,14.142624778311017],[-105.33046000972155,14.243631926172611],[-105.3639568025643,14.344967777141335],[-105.40152327318043,14.446614890664819],[-105.44305821276623,14.548555827989219],[-105.48846041341727,14.65077314766279],[-105.53762866632979,14.753249410032367],[-105.59046176359942,14.855967175444903],[-105.6468584964224,14.958909003347969],[-105.70671765689423,15.062057454088347],[-105.76993803621133,15.165395087113723],[-105.83641842736841,15.268904462770877],[-105.90605762066258,15.372568141406759],[-105.97875440908859,15.476368681569511],[-106.0544075829435,15.580288644505458],[-106.1329159343228,15.684310589662118],[-106.21417825622143,15.788417076487008],[-106.29809333893633,15.892590666226397],[-106.3845599745631,15.996813917428483],[-106.47347695519721,16.101069390440159],[-106.56474307203507,16.205339645608319],[-106.65825711717213,16.30960724238048],[-106.753917882704,16.413854741103535],[-106.85162415892768,16.518064701225114],[-106.95127473883804,16.622219683092055],[-107.05276841363127,16.726302246151874],[-107.15600397540305,16.830294950751522],[-107.26088021534957,16.934180357237835],[-107.3672959255664,17.037941024159068],[-107.47514989724988,17.141559513660752],[-107.58434092249547,17.245018383391823],[-107.69476779339885,17.348300194598437],[-107.80632930115621,17.451387506728167],[-107.91892423786317,17.554262879228645],[-108.03245139471602,17.656908873345969],[-108.14680956381022,17.759308047628451],[-108.26189753634213,17.861442963322247],[-108.37762165331657,17.963291489910489],[-108.49395395301241,18.064790683843114],[-108.61090030260681,18.165856582615334],[-108.72846684896581,18.266405053750361],[-108.84665973805636,18.366351962073509],[-108.96548511764399,18.465613173309464],[-109.08494913279617,18.564104554082064],[-109.20505793127842,18.661741970115941],[-109.32581765995695,18.758441287135838],[-109.44723446389929,18.854118370866274],[-109.56931448997165,18.94868908703188],[-109.69206388593949,19.042069301357287],[-109.81548879776972,19.134174880466503],[-109.93959537142916,19.224921689184725],[-110.06438975468336,19.314225594136019],[-110.18987809349915,19.402002460145582],[-110.31606653384335,19.488168154736684],[-110.44296122348157,19.572638541835374],[-110.57056830838064,19.655329488964867],[-110.6988939345074,19.73615686095053],[-110.82794424962731,19.815036523516881],[-110.95772539970733,19.891884342388607],[-111.08824353161361,19.966616184189661],[-111.219504791313,20.039147914644673],[-111.35151532567164,20.109395399478217],[-111.48428128155581,20.177274504414981],[-111.6178088058316,20.242701095179541],[-111.75210404446597,20.305591037496526],[-111.88717314342574,20.365860197090569],[-112.02302225137572,20.42342444058562],[-112.1596575124841,20.478199632806934],[-112.29708507451647,20.530101641277838],[-112.43531108433899,20.579046329025005],[-112.57434168791849,20.624949564470967],[-112.71418303212113,20.667727212441036],[-112.85484126381317,20.707295138659845],[-112.99632252896146,20.743569209751342],[-113.13863184848094,20.776466038776789],[-113.28172321035777,20.805936133345995],[-113.42547979535618,20.83197702931659],[-113.56977956907178,20.854589729432632],[-113.71450049530154,20.873775231941522],[-113.8595205396411,20.889534539587487],[-114.00471766588748,20.901868651517191],[-114.1499698396363,20.910778569575484],[-114.29515502558388,20.916265292909088],[-114.44015118752719,20.918329824262116],[-114.58483629106189,20.916973162781403],[-114.72908830088426,20.912196309412309],[-114.87278518079137,20.904000265100308],[-115.01580489727809,20.892386029891497],[-115.15802541324211,20.877354605630671],[-115.29932469427911,20.858906992363927],[-115.43958070598472,20.837044190137419],[-115.57867141125655,20.811767200795828],[-115.71647477658956,20.783077024385307],[-115.85286876578084,20.750974660951954],[-115.9877313435266,20.71546111234062],[-116.1209404745232,20.676537379496608],[-116.25237412346695,20.63420446156681],[-116.38191025595347,20.588463360395906],[-116.50942683577978,20.53931507603005],[-116.63480182854147,20.486760609414716],[-116.75791319803557,20.430800961495322],[-116.87863890985773,20.371437132317965],[-116.99685692780486,20.308670122828062],[-117.11244521747273,20.242500934870407],[-117.2252817435575,20.172930566692457],[-117.33524446985632,20.099960021038271],[-117.44221136196467,20.023590297954001],[-117.54606038457899,19.943822397485803],[-117.64666950149621,19.860657321478357],[-117.74391667921128,19.774096069977816],[-117.83767988152124,19.684139643030221],[-117.92783707222299,19.59078904248048]]]},"properties":{"objectid":1,"basin":"Pacific","prob2day":"90%","risk2day":"High","prob7day":"90%","risk7day":"High","idp_source":"gtwo_areas_202608312351","idp_filedate":1788220375000,"idp_ingestdate":1788220386000,"st_area(shape)":100.58288527714406,"st_perimeter(shape)":37.473712639701972}},{"type":"Feature","id":2,"geometry":{"type":"Polygon","coordinates":[[[-161.2951208662349,8.6390531264008246],[-161.10993140121312,8.715772165952842],[-160.93356047683446,8.7937826967142314],[-160.76582923503111,8.8730280622953615],[-160.60655881683584,8.9534516072060342],[-160.45557036418089,9.0349966750566182],[-160.31268501899834,9.1176066085582761],[-160.17772392142174,9.2012247540193357],[-160.05050821428259,9.2857944532515262],[-159.93085903861365,9.3712590507647064],[-159.81859753634714,9.4575618919678845],[-159.71354484761653,9.5446463186727897],[-159.61552211525333,9.6324556753892239],[-159.52435048029037,9.7209333075262521],[-159.43985108376043,9.8100225568956034],[-159.36184506849503,9.8996667689063997],[-159.29015357462768,9.9898092871690096],[-159.22459774319123,10.080393455293859],[-159.1649987179164,10.171362616891372],[-159.11117763803747,10.262660116471352],[-159.06295564638589,10.35422929854343],[-159.02015388399448,10.446013505818769],[-158.98259349279539,10.537956082807113],[-158.95009561292213,10.630000374018209],[-158.9224813881055,10.722089722163105],[-158.8995719575797,10.814167472650865],[-158.8811884641762,10.906176967293334],[-158.86715204892784,10.998061552398838],[-158.85728385286743,11.08976457067854],[-158.85140501882648,11.181229365742752],[-158.84933668693847,11.272399282101333],[-158.85089999913558,11.363217663364594],[-158.85591609734993,11.453627854042395],[-158.8642061235137,11.54357319774499],[-158.8755912168611,11.632997038082976],[-158.88989252112287,11.721842719565984],[-158.9069311773319,11.810053585804496],[-158.92652832652098,11.897572980408881],[-158.94850510972296,11.984344247888885],[-158.97268266976931,12.070310731854931],[-158.99888214679356,12.155415776816767],[-159.02692468362716,12.239602725485554],[-159.05663142040365,12.322814923270244],[-159.08782349995448,12.404995712881998],[-159.12032206241318,12.486088438830507],[-159.15394824971187,12.566036444726308],[-159.18852320378275,12.644783075078976],[-159.22386806655794,12.722271673499051],[-159.25980397817096,12.798445584496278],[-159.29615208055398,12.873248150781649],[-159.33273370809408,12.946622775320975],[-159.3694353465639,13.018532696526847],[-159.40630318874108,13.08898977735646],[-159.44340745548959,13.158013194053808],[-159.48081836317684,13.225622122862831],[-159.51860612996884,13.291835740027523],[-159.55684097583028,13.356673222691199],[-159.59559311712857,13.420153747997233],[-159.63493277382838,13.482296491290185],[-159.67493016229707,13.543120630612748],[-159.71565550249937,13.602645341309596],[-159.75717901170194,13.66088979962467],[-159.79957090807088,13.717873183600659],[-159.84290141067149,13.77361466858224],[-159.88724073677051,13.828133431712615],[-159.93265910543329,13.881448650135212],[-159.97922673392654,13.93357949919465],[-160.02701384221496,13.984545156034244],[-160.07609064666593,14.034364796897989],[-160.12652736634479,14.083057598929202],[-160.17839421941761,14.130642738371819],[-160.2317614240504,14.177139392369213],[-160.28669919930852,14.222566736266003],[-160.34327776245868,14.266943948104881],[-160.40156733166694,14.310290203230409],[-160.46163812599863,14.352624678786015],[-160.52356036272047,14.393966551015637],[-160.58740426089784,14.434334997062592],[-160.65324003869674,14.473749193170875],[-160.72113791428325,14.512228315584423],[-160.79116810492403,14.549791542345929],[-160.86340083058377,14.586458047900749],[-160.9379063076299,14.622247010291403],[-161.01475475602709,14.657177604862738],[-161.09401639304204,14.691269009657219],[-161.17576143774008,14.724540400019578],[-161.26006010738797,14.757010953992449],[-161.34698262105104,14.788699846021188],[-161.43659919599602,14.819626255047751],[-161.52898005128824,14.849809355517493],[-161.62419540419447,14.879268325472992],[-161.72231547467933,14.908022340258924],[-161.82341047911024,14.93609057791798],[-161.92755063745187,14.96349221379478],[-162.03480616697095,14.990246425931957],[-162.14524728583351,15.016372388774869],[-162.25894421310488,15.041889280366149],[-162.37596716515247,15.066816276949737],[-162.4963863628403,15.091172554769742],[-162.62027202253574,15.114977290969364],[-162.74769307547498,15.138249652799402],[-162.87864120292909,15.161008203166205],[-163.01298834953263,15.18327057867441],[-163.15059615998473,15.205054333191072],[-163.29132627898451,15.226377018784547],[-163.43504035033183,15.247256191120471],[-163.58160001962511,15.267709403166577],[-163.73086693156355,15.287754208789863],[-163.88270272994694,15.307408161857325],[-164.03696905947444,15.326688818034654],[-164.19352756484517,15.345613728490889],[-164.3522398916576,15.364200449791042],[-164.51296768281225,15.38246653400347],[-164.67557258480687,15.400429534995169],[-164.83991624054198,15.418107008431832],[-165.00586029651538,15.435516506381816],[-165.17326639562756,15.452675583611438],[-165.34199618257767,15.469601793987749],[-165.51191130296419,15.486312691377748],[-165.68287340058689,15.502825829648486],[-165.85474412104426,15.519158763566224],[-166.02738510813614,15.535329045199433],[-166.20065800656167,15.55135423021369],[-166.37442446012065,15.56725187157673],[-166.5485461153109,15.583039523155605],[-166.7228846159322,15.598734738817257],[-166.89730160668373,15.614355074227433],[-167.07165873136529,15.629918080555115],[-167.24581763467603,15.645441313465994],[-167.4196399622144,15.660942326827069],[-167.59298735867958,15.676438674505391],[-167.76572146787137,15.691947909468581],[-167.93770393448889,15.707487586483069],[-168.10879640323134,15.72307525941585],[-168.27886051879781,15.738728482133865],[-168.44775792588749,15.754464808504224],[-168.6153502691995,15.770301792393923],[-168.78149919253363,15.786256987669958],[-168.9460663414884,15.802347948199383],[-169.1089133607629,15.818592227849194],[-169.26990189415702,15.835007381385708],[-169.42889358726916,15.851610961776601],[-169.58575008389917,15.868420522888982],[-169.74033302874619,15.885453619489112],[-169.89250406650939,15.902727804544668],[-170.04212484188787,15.920260632822078],[-170.18905699868148,15.938069657288963],[-170.33316218338797,15.956172432711753],[-170.47430203980721,15.97458651295733],[-170.612338211739,15.993329450993485],[-170.74713676764765,16.012416153982485],[-170.87866551719978,16.031800622500839],[-171.00699401036522,16.051375953237766],[-171.13219622087882,16.071032594378892],[-171.25434612247548,16.090660994109726],[-171.37351768889016,16.110151602414646],[-171.48978489385769,16.129394865680638],[-171.60322171111301,16.148281233891964],[-171.713902114391,16.16670115433493],[-171.82190007742656,16.184545076094537],[-171.9272895739546,16.201703448255671],[-172.0301445768107,16.218066719004014],[-172.1305390615284,16.23352533562587],[-172.22854700094325,16.247969748105504],[-172.32424236879021,16.261290403729276],[-172.41769913880412,16.273377752481451],[-172.50899128471994,16.284122240748957],[-172.59819278027251,16.293414318516113],[-172.68537759919678,16.301144433968602],[-172.77061971522761,16.307203035291991],[-172.85399310209991,16.311480570671961],[-172.93557173354858,16.313867490092719],[-173.01542958330856,16.314254239941363],[-173.09364062511469,16.312531270202101],[-173.17027883270188,16.308589029060556],[-173.24541818070441,16.302317963803148],[-173.31913264105847,16.293608524414026],[-173.39149618839829,16.282351159078871],[-173.4625827964588,16.268436315983308],[-173.53246643897489,16.251754442413699],[-173.60122109058079,16.232195989253626],[-173.66892072321272,16.209651403789394],[-173.73563931240426,16.184011133307308],[-173.80145083009165,16.155165628690952],[-173.86642925090914,16.123005336327367],[-173.93064854949088,16.08742070530144],[-173.99418269867252,16.04830218469823],[-174.05710567128963,16.005540222703246],[-174.1194914428757,15.959025266602907],[-174.18141398626636,15.908647767280797],[-174.24294727519651,15.854298171123844],[-174.30416528340103,15.795866927217048],[-174.36514198461481,15.733244483746091],[-174.42595135257278,15.666321289795803],[-174.48666736100984,15.594987793551979],[-174.54736398366083,15.51913444409945],[-174.60811519426073,15.438651688724576],[-174.6689949665444,15.353429976512359],[-174.73007727514604,15.263359755648366],[-174.79143609200196,15.168331475217542],[-174.85313172654787,15.068251397983772],[-174.91506561938274,14.963209633318058],[-174.97703671896932,14.853414900377516],[-175.03884226505841,14.739077897726929],[-175.10027949470285,14.620409319434657],[-175.1611456494521,14.497619864065598],[-175.22123796815762,14.370920227486636],[-175.28035368877164,14.24052110646403],[-175.33829005284358,14.106633197763983],[-175.39484429742632,13.969467198152813],[-175.44981366406927,13.829233803497345],[-175.50299538982532,13.686143710563954],[-175.55418671534457,13.540407617018047],[-175.60318488037785,13.392236217827303],[-175.64978712287734,13.241840211556678],[-175.69379068259386,13.089430293173621],[-175.73499280017751,12.935217160343825],[-175.77319071268116,12.779411508934118],[-175.80818166075497,12.622224036610135],[-175.83976288414971,12.46386543833944],[-175.86773162081758,12.304546412686932],[-175.8918851114087,12.144477654620175],[-175.91202059477456,11.983869862704125],[-175.92793530976667,11.822933731007026],[-175.93942649613581,11.661879958093721],[-175.94629139273351,11.500919239831205],[-175.94832723931057,11.340262273884946],[-175.94533127471848,11.180119755222677],[-175.93710073960736,11.020702381509864],[-175.92343287192944,10.86222084861339],[-175.90412491053613,10.704885854198949],[-175.87897409697692,10.548908095032687],[-175.84777766830467,10.394498266082223],[-175.81033286516953,10.241867065013196],[-175.76643692552361,10.091225188591693],[-175.71588709001711,9.9427833335840887],[-175.65848059840081,9.7967521967565858],[-175.59401468772759,9.6533424730768047],[-175.52228659954685,9.5127648611095879],[-175.44309357181081,9.3752300567218754],[-175.35623284516959,9.2409487566799271],[-175.26150165757537,9.110131657749946],[-175.15869724877894,8.9829894557988723],[-175.04761685763179,8.8597328484922855],[-174.92805772478408,8.7405725316971257],[-174.79981708818801,8.6257192021795959],[-174.66269218849362,8.5153835576052188],[-174.51648026365316,8.4097762929417286],[-174.36097855341743,8.3091081049552145],[-174.19598429753722,8.2135896913113129],[-174.02135053599835,8.1234035937010276],[-173.83730127283539,8.0385451734211415],[-173.64421184460087,7.9589334375282306],[-173.44245803301175,7.8844871664497305],[-173.23241562158358,7.8151251406129063],[-173.0144603929327,7.7507661404451369],[-172.78896812967537,7.6913289463739147],[-172.55631461352851,7.6367323388265049],[-172.31687562710843,7.5868950982303431],[-172.07102695483002,7.5417360050127513],[-171.81914437751092,7.5011738396011651],[-171.56160367776744,7.4651273833222263],[-171.29878063911514,7.4335154157039938],[-171.03105104417028,7.4062567171739033],[-170.75879067464984,7.3832700690585966],[-170.4823753140694,7.3644742508861327],[-170.20218074414595,7.3497880439831533],[-169.91858274839504,7.3391302287771509],[-169.63195710853367,7.3324195847961278],[-169.34267960717804,7.3295748933667824],[-169.05112602784382,7.330514934017117],[-168.75767215314727,7.3351584889732067],[-168.462693763906,7.3434243368637908],[-168.16656664453495,7.3552312590155111],[-167.86966657765035,7.3704980367551229],[-167.57236934496922,7.3891434487113088],[-167.27505072910779,7.4110862762108241],[-166.97808651268232,7.4362453005803104],[-166.68185247920846,7.4645393004485072],[-166.38672441040313,7.4958870580414327],[-166.09307808888261,7.5302073537864658],[-165.80128929726317,7.5674189663124025],[-165.51173381906042,7.6074406778451475],[-165.22478743509197,7.6501912688121365],[-164.94082592977276,7.6955895187414285],[-164.66022508571905,7.743554208959722],[-164.38336068374846,7.7940041189950193],[-164.11060850737664,7.8468580301740758],[-163.84234434011913,7.9020347229242702],[-163.57894396279357,7.9594529767736049],[-163.32078315981491,8.019031573948098],[-163.06823771200072,8.0806892930765457],[-162.821683403766,8.1443449163849095],[-162.58149601682763,8.2099172225019288],[-162.34805133380195,8.2773249927543588],[-162.12172513640584,8.3464870084687846],[-161.90289320905427,8.4173220491733787],[-161.69193133256488,8.4897488952954063],[-161.48921529135254,8.5636863272623032],[-161.2951208662349,8.6390531264008246]]]},"properties":{"objectid":2,"basin":"Pacific","prob2day":"0%","risk2day":"Low","prob7day":"10%","risk7day":"Low","idp_source":"gtwo_areas_202608312351","idp_filedate":1788220375000,"idp_ingestdate":1788220386000,"st_area(shape)":123.29614066987473,"st_perimeter(shape)":43.407482147106393}}]}