{"type":"FeatureCollection","features":[{"type":"Feature","id":1,"geometry":{"type":"Polygon","coordinates":[[[-17.32039296146587,15.330381781494168],[-17.32374075703018,15.412552806267115],[-17.328296846622038,15.495473127283162],[-17.334039393802868,15.579088948896015],[-17.340946563033356,15.663346475459605],[-17.348996517874866,15.748191911327808],[-17.358167421888879,15.833571459955067],[-17.368437439536081,15.919431326594577],[-17.379784734377836,16.005717715600213],[-17.392187469975624,16.092376830426531],[-17.405623810790132,16.179354876326613],[-17.420071920382668,16.266598056755072],[-17.435509963214088,16.354052576065669],[-17.451916102845757,16.441664639511657],[-17.469268502838986,16.529380450547478],[-17.48754532765463,16.617146213527064],[-17.506724739954677,16.704908132804235],[-17.526784905099191,16.792612412732808],[-17.547703986649537,16.88020525766666],[-17.569460149066515,16.967632871959609],[-17.592031554112793,17.054841459066211],[-17.615396368047811,17.141777224239661],[-17.639532753533615,17.228386371833722],[-17.664418874131627,17.314615106202325],[-17.690032895201853,17.400409629900651],[-17.716352978507018,17.485716149980476],[-17.743357290306562,17.570480868097718],[-17.771023993262531,17.654649990404891],[-17.799331250936348,17.738169720356439],[-17.828257227788697,17.820986262306292],[-17.857780087381002,17.90304582060827],[-17.887877994173948,17.984294600515568],[-17.918529111729015,18.064678804583309],[-17.949711604506831,18.144144638064745],[-17.981409935819727,18.22264041692182],[-18.013658608158096,18.300131230372131],[-18.046515984824737,18.376590164404718],[-18.080040577510545,18.451990357169393],[-18.114290895208512,18.52630494321869],[-18.149325448710385,18.599507059803102],[-18.185202748807683,18.671569843273801],[-18.221981305392831,18.742466429082583],[-18.259719629257347,18.812169955379261],[-18.298476231192979,18.880653556716425],[-18.338309620192717,18.947890369445133],[-18.379278308846722,19.013853531715256],[-18.421440806148155,19.078516178079269],[-18.464855622888535,19.141851445787722],[-18.509581268960289,19.203832470292411],[-18.555676256054255,19.264432388843829],[-18.603199093163482,19.323624337793092],[-18.65220829197898,19.381381452592109],[-18.702762362393003,19.437676870491316],[-18.754919814297864,19.492483726942567],[-18.808739158485253,19.545775159196353],[-18.864278906646121,19.597524302704528],[-18.921597566874084,19.647704294717585],[-18.980753651759471,19.696288271586582],[-19.041805670295332,19.743249367864166],[-19.104812134172505,19.788560722599414],[-19.169831552384096,19.8321954703448],[-19.236922435721681,19.874126747451555],[-19.306143295876268,19.914327690270852],[-19.377552641840794,19.952771436053069],[-19.451208985306323,19.989431121149437],[-19.527170835265736,20.024279880112545],[-19.605496703409983,20.057290851991354],[-19.686238937476844,20.08843660926226],[-19.769339282981377,20.117679657390397],[-19.854643809264246,20.144973786511173],[-19.941995435340914,20.170272500775411],[-20.031237078428319,20.193529305233369],[-20.122211655743172,20.214697703136608],[-20.214762084502468,20.233731198636065],[-20.308731281922974,20.250583295882564],[-20.403962166120948,20.265207499026985],[-20.500297654313158,20.277557312220324],[-20.597580662817222,20.287586240512724],[-20.695654110648547,20.295247785357162],[-20.794360914124752,20.300495453602423],[-20.89354399136198,20.303282747600861],[-20.993046258677794,20.303563172402619],[-21.092710634188279,20.301290232158635],[-21.192380035110432,20.296417430120471],[-21.291897378660963,20.288898270438949],[-21.391105582956186,20.278686258164441],[-21.489847565212813,20.265734896548395],[-21.587966241748518,20.249997689741747],[-21.685304531578765,20.231428142794698],[-21.781705351021003,20.209979758059546],[-21.877011617292169,20.185606041485755],[-21.971066248508464,20.158260495425679],[-22.063712160987336,20.127896625828782],[-22.154792273744306,20.094467935047305],[-22.244149503096992,20.057927928131505],[-22.331626767161424,20.018230108333],[-22.417066982255278,19.975327980701877],[-22.500313065595378,19.92917504938913],[-22.581207936197188,19.879724817646377],[-22.659594510378213,19.826930790523704],[-22.735316941923202,19.770747373292807],[-22.808293520229654,19.711183129298092],[-22.878557450066126,19.648330560107411],[-22.946151819750582,19.582289388844345],[-23.011119718500083,19.513159338632704],[-23.073504234632594,19.441040132596186],[-23.133348458264607,19.366031493858486],[-23.190695476814653,19.288233144644039],[-23.245588379499964,19.207744808975917],[-23.298070256437086,19.124666209078441],[-23.348184195044439,19.039097068974684],[-23.395973285438629,18.951137110889078],[-23.441480615038245,18.860886058844699],[-23.484749273060402,18.768443634166545],[-23.525822349621592,18.673909561777009],[-23.564742932140462,18.577383563001149],[-23.601554109834183,18.478965361862095],[-23.636298971919871,18.378754681483485],[-23.669020607614812,18.276851244989132],[-23.699762105236857,18.173354774603297],[-23.728566553103803,18.068364993449848],[-23.755477041332256,17.961981625551743],[-23.780536657340747,17.854304393133361],[-23.803788491245768,17.745433020217831],[-23.825275631365173,17.63546722813021],[-23.845041166916189,17.524506740893514],[-23.86312818621667,17.412651281631497],[-23.879579778483844,17.300000573467855],[-23.894439032934883,17.186654339526285],[-23.90774903788764,17.072712302031277],[-23.919552882559344,16.958274184106472],[-23.929893655267847,16.843439709774941],[-23.938814445230321,16.728308602160382],[-23.946358330872158,16.612980574494031],[-23.952557890134415,16.497546958325586],[-23.957415497227316,16.382074970783435],[-23.960928129529407,16.266627517645986],[-23.963092763520081,16.151267504691702],[-23.963906374779242,16.036057840397177],[-23.963365941584811,15.921061429641384],[-23.96146844041607,15.806341179102276],[-23.958210846852978,15.69195999545758],[-23.953590139173457,15.57798078538508],[-23.947603292957467,15.464466456461935],[-23.94024728468429,15.351479912667969],[-23.931519091732582,15.239084062479662],[-23.921415690581512,15.127341812574741],[-23.909934057710473,15.016316067832406],[-23.897071170498009,14.90606973582976],[-23.882824005423402,14.796665723244644],[-23.867189538066611,14.68816693675484],[-23.850164746705559,14.580636282138869],[-23.831746606920262,14.474136666074401],[-23.811932096988585,14.368730995239389],[-23.790718191591168,14.264482176311503],[-23.768101868106612,14.161453115069321],[-23.744080103913518,14.059706719089945],[-23.718649874591904,13.959305894151839],[-23.691808158419633,13.860313546932787],[-23.663551930976723,13.762792584110628],[-23.633878168742342,13.666805912363088],[-23.60278384909526,13.572416437468746],[-23.570265948514589,13.479687066105328],[-23.536321443479721,13.388680705850049],[-23.500947311369202,13.299460262481261],[-23.464140527762993,13.212088641777541],[-23.42589807003975,13.126628751315934],[-23.386222961720193,13.043135178146088],[-23.345152054323705,12.961615951415183],[-23.302733963401579,12.882062917869519],[-23.259017316196037,12.804467908067636],[-23.214050739050265,12.728822751668815],[-23.16788285650847,12.655119278332165],[-23.120562297611798,12.583349316817646],[-23.072137687803945,12.51350469858312],[-23.022657652528494,12.445577252388432],[-22.972170819927271,12.379558808792126],[-22.920725816343236,12.315441196554104],[-22.868371266320764,12.253216247132229],[-22.815155798900889,12.192875788387084],[-22.76112803862793,12.134411651776418],[-22.706336612744337,12.077815666060303],[-22.650830148492446,12.023079660897793],[-22.594657270416576,11.970195467746748],[-22.53786660665844,11.919154914467867],[-22.480506783561111,11.869949832518898],[-22.422626426568229,11.822572050659744],[-22.364274162922129,11.777013398549627],[-22.305498618965942,11.73326570674709],[-22.246348421942002,11.691320804911356],[-22.186872196394631,11.651170522701591],[-22.127118570465541,11.612806689777074],[-22.067136170497747,11.576221136696233],[-22.006973621935003,11.54140569221903],[-21.946679552918908,11.508352186004743],[-21.886302587993896,11.477052449511064],[-21.825891355301678,11.447498311498009],[-21.765494480285895,11.419681601624745],[-21.705160589289619,11.393594150449815],[-21.644938309555243,11.36922778673312],[-21.584873452547697,11.346574220524019],[-21.524979109698052,11.325623762526732],[-21.465247259952946,11.30636581962699],[-21.405669534221488,11.288789786119878],[-21.346237559815393,11.272885053602465],[-21.286942966744391,11.25864101547063],[-21.227777382320198,11.246047064220761],[-21.168732436552602,11.235092593248737],[-21.109799757652581,11.22576699415157],[-21.050970974730546,11.218059660325196],[-20.992237716896966,11.211959985165322],[-20.933591612362875,11.207457360269075],[-20.875024290238684,11.204541179931653],[-20.816527378735429,11.203200835750124],[-20.758092506963521,11.203425721120254],[-20.699711304932634,11.205205228538603],[-20.641375399055278,11.208528751400877],[-20.583076420240502,11.21338568130426],[-20.524805996699286,11.219765412543893],[-20.46655575664272,11.227657336716845],[-20.408317330080592,11.237050847218939],[-20.350082344324619,11.247935336546675],[-20.291842428485154,11.2603001971965],[-20.233589212571985,11.274134823463442],[-20.175314323896828,11.289428606045476],[-20.117009392469356,11.306170939237575],[-20.058666046500718,11.324351215536296],[-20.00027591510127,11.343958827438087],[-19.941830626482101,11.364983168338711],[-19.883321809753568,11.387413630734613],[-19.824741094026137,11.411239606222978],[-19.766080108410165,11.436450489098945],[-19.707330480217365,11.463035671858904],[-19.648484575102941,11.490984341953947],[-19.589557053814872,11.520279434748261],[-19.530588358865543,11.550896665848597],[-19.471620367186063,11.582811343468848],[-19.412694956606856,11.615998779420295],[-19.353854004058917,11.650434282816036],[-19.295139386473352,11.686093166366675],[-19.236592981680644,11.722950738286102],[-19.17825666751105,11.76098230948611],[-19.12017231999647,11.80016319177804],[-19.062381817866481,11.840468694274932],[-19.004927038052244,11.881874127888807],[-18.947849857484812,11.924354802632195],[-18.891192153994609,11.967886029416889],[-18.83499580361331,12.012443118255419],[-18.779302685970038,12.058001380059807],[-18.724154677096521,12.104536125741731],[-18.669593653923869,12.152022664414574],[-18.615661494282392,12.200436307889447],[-18.562400076002575,12.249752365279562],[-18.509851276015468,12.299946147496826],[-18.45805697125212,12.350992965453145],[-18.407059039542901,12.402868130060313],[-18.356899358718294,12.45554695043154],[-18.307619804810031,12.50900473747879],[-18.2592622565478,12.563216802113857],[-18.21186859086265,12.618158454349327],[-18.165480684685747,12.673805004197732],[-18.120140414948082,12.73013176347024],[-18.075889660379403,12.78711404128012],[-18.032770297011496,12.844727148539221],[-17.990824203573993,12.902946396159393],[-17.950093256098739,12.961747094153225],[-17.910619252376478,13.021104612787781],[-17.872431021973966,13.081004027813776],[-17.835530198959361,13.141450770236986],[-17.79991499278259,13.202452831433163],[-17.765583615591254,13.264018204576644],[-17.732534275036642,13.326154882841706],[-17.700765182367149,13.388870857604161],[-17.670274547931911,13.452174122937549],[-17.641060580281419,13.516072671117001],[-17.613121491563447,13.580574494417533],[-17.586455491227809,13.645687585114104],[-17.561060788724319,13.711419937280425],[-17.536935593502733,13.777779542292194],[-17.514078117710824,13.844774393323746],[-17.492486569899143,13.912412483549417],[-17.472159160416766,13.98070180434496],[-17.453094099612883,14.049650349783974],[-17.435289597836515,14.119266112141474],[-17.418743864537589,14.189557082793272],[-17.403455109165805,14.260531255812964],[-17.389421543869048,14.332196623475511],[-17.3766413771977,14.404561178955362],[-17.365112819500894,14.477632913628213],[-17.3548340802285,14.551419821567663],[-17.345803370628914,14.625929895048728],[-17.338018900152008,14.701171125447217],[-17.331478880046177,14.77715150773605],[-17.326181517962539,14.853879032391546],[-17.32212502604898,14.931361693487531],[-17.319307613755257,15.009607483298851],[-17.317727490531126,15.088624394100634],[-17.317382867625099,15.168420419067218],[-17.318271954486988,15.249003550473617],[-17.32039296146587,15.330381781494168]]]},"properties":{"objectid":1,"basin":"Atlantic","prob2day":"0%","risk2day":"Low","prob7day":"20%","risk7day":"Low","idp_source":"gtwo_areas_202609211756","idp_filedate":1790013489000,"idp_ingestdate":1790013500000,"st_area(shape)":48.505622721664999,"st_perimeter(shape)":25.207324492725142}},{"type":"Feature","id":2,"geometry":{"type":"Polygon","coordinates":[[[-145.16311472916135,14.524352034718788],[-145.19528679994576,14.582706723836395],[-145.22981577168042,14.639916646136442],[-145.26673366023016,14.696060114582735],[-145.30607248415774,14.751215440340445],[-145.34786425752938,14.805460933675306],[-145.39214099890788,14.858874908450389],[-145.4389347232588,14.911535674931599],[-145.48827744734623,14.963521544283992],[-145.5402011879344,15.014910829471319],[-145.5947379608881,15.065781840759485],[-145.65191978297153,15.116212891112184],[-145.71177867094883,15.166282290795209],[-145.77434664068483,15.216068351873105],[-145.83965570894372,15.265649386410189],[-145.90773789248965,15.315103705571687],[-145.97862520718746,15.36450962142203],[-146.05234966980134,15.41394544512633],[-146.12894329709539,15.463489487849699],[-146.2084381040352,15.513220062556002],[-146.2908661091835,15.563215479510916],[-146.37625932750586,15.613554050778987],[-146.46464977576645,15.664314088424589],[-146.5560694707294,15.715573903612892],[-146.65055042825958,15.767411807509063],[-146.74812466512111,15.819906113076797],[-146.8488241980782,15.873135130581943],[-146.95268104299566,15.927177172088932],[-147.05972721663764,15.982110548762932],[-147.16999473486902,16.038013572668376],[-147.28351561535328,16.094964555869694],[-147.40032187395522,16.153041809531999],[-147.52044552653973,16.212323645719835],[-147.64391858987094,16.27288837469888],[-147.77076057024405,16.334799194527363],[-147.9008916114586,16.397999262655958],[-148.03418447833093,16.462374497385269],[-148.17051164249821,16.527810461783531],[-148.30974557649708,16.594192719818295],[-148.45175875106543,16.661406834557908],[-148.59642363784053,16.729338370869243],[-148.74361271025828,16.797872891820646],[-148.89319843995597,16.866895961379669],[-149.04505329767147,16.936293144413241],[-149.19904975594139,17.005950003090334],[-149.35506028640302,17.075752102277818],[-149.51295736069355,17.145585005044097],[-149.6726134513496,17.215334276255987],[-149.83390103090775,17.284885478981835],[-149.99669256920663,17.354124178088512],[-150.16086053968209,17.422935935744988],[-150.32627741397138,17.491206316818193],[-150.49281566371184,17.558820885275793],[-150.66034776143997,17.625665205085284],[-150.82874617789372,17.691624838415692],[-150.99788338560967,17.756585351932586],[-151.16763185622511,17.820432306905559],[-151.33786406227657,17.883051268201598],[-151.50845247450201,17.944327799788255],[-151.67926956633733,18.004147465633196],[-151.85018780762115,18.062395828804597],[-152.02107967178935,18.118958454169444],[-152.19181763137851,18.173720904796085],[-152.36227415622724,18.226568744651956],[-152.53232171887214,18.27738753680552],[-152.70183279184977,18.326062847022911],[-152.8706798467974,18.372480238372418],[-153.03873702719196,18.416527559999054],[-153.2059084760952,18.45813372139429],[-153.37212428740585,18.497263139982067],[-153.53731541027787,18.53388140770096],[-153.70141279476459,18.567954113791473],[-153.86434738912064,18.599446849292804],[-154.02605014339932,18.628325203445513],[-154.18645200765394,18.654554767288801],[-154.34548393013918,18.678101131861865],[-154.503076860009,18.698929886405267],[-154.65916174731672,18.717006621958149],[-154.8136695421156,18.732296928660446],[-154.96653119176102,18.744766396652039],[-155.11767764720557,18.754380616972014],[-155.26703985670395,18.761105178861044],[-155.41454877120873,18.764905673358271],[-155.5601353380753,18.765747691502895],[-155.70373050825626,18.763596821636156],[-155.84526523000628,18.758418655696516],[-155.98467045337864,18.750178783823969],[-156.12187712752734,18.7388427970576],[-156.25681620160634,18.72437628373865],[-156.38941862476963,18.706744835805694],[-156.51961534707053,18.685914042499178],[-156.64733731676367,18.661849495757735],[-156.77251548480169,18.634516783922606],[-156.89508079853994,18.603881499831516],[-157.01496420983034,18.569909230926385],[-157.1320966651289,18.532565570045165],[-157.24640911628759,18.491816106428303],[-157.35783251066175,18.447626430215735],[-157.466297799204,18.399962132446603],[-157.57173593106828,18.348788802361469],[-157.674078381512,18.294072895248064],[-157.77328823696249,18.235832684430989],[-157.86937757981138,18.174166764384836],[-157.9623627066735,18.109180638176042],[-158.05225991416361,18.040979810669853],[-158.13908549889658,17.969669784033442],[-158.22285575658782,17.895356064031262],[-158.3035869865501,17.818144152830541],[-158.3812954827003,17.738139555296357],[-158.45599754255247,17.655447774495315],[-158.52770946272145,17.570174314393228],[-158.59644754072136,17.482424678955908],[-158.66222807226765,17.39230437124985],[-158.72506735397513,17.299918895240978],[-158.78498168335793,17.205373755794312],[-158.84198735613151,17.108774455077196],[-158.89610066891066,17.010226497055328],[-158.94733791920953,16.909835386593954],[-158.99571540274357,16.807706626759568],[-159.0412494170269,16.703945721517982],[-159.08395625867431,16.598658173935689],[-159.12385222340131,16.491949487978616],[-159.160953608722,16.383925168511837],[-159.19527671035183,16.274690717702583],[-159.22683782580495,16.164351641315307],[-159.25565325169612,16.053013440617917],[-159.2817392846402,15.940781620475548],[-159.30511222035261,15.82776168575333],[-159.32578835724681,15.714059138618495],[-159.34378399013895,15.599779483036855],[-159.35911541744247,15.485028222974222],[-159.37179893397354,15.369910863295843],[-159.3818508381456,15.254532906168834],[-159.38928741578152,15.138999855559007],[-159.39411551971537,15.023416666845833],[-159.39631486573839,14.907886721595048],[-159.39586031869868,14.792513118985369],[-159.39272674434369,14.677398958195511],[-159.38688900572296,14.562647340202716],[-159.37832197038256,14.448361363286438],[-159.36700050227128,14.334644127524598],[-159.35289946623729,14.22159873299529],[-159.33599372802806,14.109328278877115],[-159.31625815339098,13.99793586434879],[-159.29366760627494,13.88752459038767],[-159.26819695152801,13.778197554373776],[-159.23982105579699,13.670057858183725],[-159.20851478303072,13.563208600096971],[-159.17425299897664,13.457752881090755],[-159.13701056848288,13.353793798545098],[-159.09676235639756,13.251434454336732],[-159.05348322846814,13.150777945845675],[-159.00714804954276,13.051927374948548],[-158.95773168446959,12.954985839924689],[-158.90520899899602,12.86005644085219],[-158.84955485797025,12.767242276909712],[-158.79074412713967,12.676646449074497],[-158.72875167045314,12.588372054726676],[-158.6635523536581,12.50252219484355],[-158.59512104160271,12.419199968603778],[-158.52343259913505,12.338508476984771],[-158.44846189290195,12.260550817366493],[-158.37018378685221,12.185430090726243],[-158.28857314583394,12.113249396242793],[-158.2036048355946,12.044111833994066],[-158.11525372188169,11.978120503158834],[-158.02349466864396,11.91537850381502],[-157.92831428317754,11.855965936778716],[-157.82976488444177,11.799834212578958],[-157.72792162878005,11.746890003171245],[-157.62285970131407,11.697039934645431],[-157.51465428266894,11.65019063399069],[-157.40338055616766,11.606248728196363],[-157.28911370333466,11.565120843352361],[-157.171928907493,11.526713606447913],[-157.05190135106642,11.49093364447225],[-156.92910621647863,11.4576875844146],[-156.80361868615336,11.426882051465668],[-156.67551394161504,11.398423673513832],[-156.54486716618669,11.37221907754855],[-156.41175354229208,11.34817488965956],[-156.27624825235489,11.326197735936887],[-156.13842647879886,11.306194244269079],[-155.99836340314846,11.288071040746047],[-155.85613420962599,11.271734751457757],[-155.71181407885658,11.257092005192021],[-155.56547819416326,11.244049426240167],[-155.41720173886907,11.232513642490744],[-155.26705989359914,11.222391280932982],[-155.11512784167647,11.213588966757527],[-154.96148076552484,11.206013328752249],[-154.80619384756793,11.199570992107738],[-154.64934227022951,11.194168583813223],[-154.4910012159333,11.189712730857991],[-154.33124586710301,11.186110059331895],[-154.17015140616238,11.183267197123598],[-154.00779301643448,11.181090770322953],[-153.84424587854437,11.17948740501987],[-153.67958517581513,11.178363728203635],[-153.51388609156979,11.177626366863478],[-153.34722614377142,11.17718715236532],[-153.17971001800285,11.177018417965769],[-153.01145992673415,11.177131531095426],[-152.8425983738158,11.177538509394822],[-152.67324786309831,11.178251370504483],[-152.50353089753281,11.179282132964204],[-152.33356998276841,11.180642814414512],[-152.16348762085693,11.182345433395199],[-151.99340631744752,11.184402006647417],[-151.82344857549128,11.186824552711073],[-151.65373689883873,11.189625088327318],[-151.48439379223964,11.192815633834584],[-151.31554175954449,11.196408205074761],[-151.14730330370443,11.200414820587639],[-150.97980092856992,11.204847498013748],[-150.81315713979009,11.209718254993618],[-150.64749443941676,11.215039110067039],[-150.48293533309905,11.220822081773804],[-150.31960232378813,11.227079185955802],[-150.15761791443512,11.233822442951521],[-149.99710461158847,11.241063868602794],[-149.83818491640068,11.248815481449469],[-149.68098133452088,11.257089299131962],[-149.52561636979954,11.265897341089556],[-149.37221252518779,11.275251623164024],[-149.22089230543546,11.285164163895161],[-149.07177821439299,11.29564698182287],[-148.92499275501154,11.306712094587624],[-148.78065843294024,11.318371519829896],[-148.63889775113023,11.330637275190213],[-148.49983321343197,11.343521379208426],[-148.36358732459527,11.357035849524948],[-148.23028258757128,11.371192702881046],[-148.1000392686972,11.386004200633465],[-147.97290975977751,11.401489924620478],[-147.84886798496944,11.417677922897951],[-147.72788349502719,11.434596716565352],[-147.60992584250354,11.452274827621352],[-147.49496457905201,11.470740774467288],[-147.38296925722537,11.490023079101945],[-147.2739094277778,11.510150261725357],[-147.16775464416142,11.5311508425375],[-147.06447445802974,11.553053342637781],[-146.96403842103621,11.575886283125612],[-146.86641608483436,11.599678183301648],[-146.77157700107765,11.624457565164619],[-146.67949072321821,11.650252948015293],[-146.59012680290954,11.677092852952967],[-146.50345479090578,11.705005801076993],[-146.41944423975977,11.734020312587518],[-146.33806470112498,11.76416490768446],[-146.25928572845353,11.795468108366663],[-146.18307687249958,11.827958433035406],[-146.10940768491665,11.861664404588737],[-146.03824771825751,11.896614541428107],[-145.96956652507498,11.932837365552132],[-145.90333365612324,11.97036139806022],[-145.83951866395509,12.009215158253085],[-145.778091100224,12.049427167230135],[-145.71902051748282,12.091025945191348],[-145.66227646738497,12.134040013236188],[-145.60782850248333,12.178497892463895],[-145.55564617353201,12.224428102175295],[-145.50569903308383,12.271859164369062],[-145.45795663369159,12.320819598345906],[-145.41238852610951,12.371337926104559],[-145.36896433033948,12.423442458302929],[-145.32766453828773,12.477127726163758],[-145.28849243967426,12.532317415016848],[-145.2514541975531,12.588926289816584],[-145.21655597407886,12.646869117316044],[-145.18380393230555,12.706060662469724],[-145.15320423258919,12.766415692030705],[-145.12476303888306,12.827848970054049],[-145.09848651244252,12.890275264192212],[-145.07438081542222,12.953609337600994],[-145.05245211087612,13.017765957932738],[-145.03270656005961,13.08265989014194],[-145.01515032602663,13.14820590008236],[-144.99978957003253,13.214318753607756],[-144.986630454232,13.280913215672513],[-144.97567914257829,13.347904052130446],[-144.96694179542743,13.415206029734634],[-144.96042457493411,13.482733912540198],[-144.95613364505158,13.55040246730016],[-144.95407516613594,13.618126458969016],[-144.95425530124106,13.685820654299903],[-144.95668021252172,13.753399817347827],[-144.96135606303179,13.820778715765243],[-144.96828901312736,13.887872113607273],[-144.97748522586241,13.954594776727674],[-144.98895086339155,14.020861470980265],[-145.00269208876881,14.086586963118009],[-145.01871506324949,14.151686017196084],[-145.03702594898826,14.21607339996757],[-145.05763090903915,14.279663876386905],[-145.08053610465743,14.342372212307907],[-145.10574769799777,14.404113173584221],[-145.13327185211421,14.464801526069721],[-145.16311472916135,14.524352034718788]]]},"properties":{"objectid":2,"basin":"Pacific","prob2day":"40%","risk2day":"Medium","prob7day":"90%","risk7day":"High","idp_source":"gtwo_areas_202609211756","idp_filedate":1790013489000,"idp_ingestdate":1790013500000,"st_area(shape)":85.224709260966549,"st_perimeter(shape)":36.317350378435187}},{"type":"Feature","id":3,"geometry":{"type":"Polygon","coordinates":[[[-93.424513419358732,13.465060378134069],[-93.581879656221076,13.558260084135725],[-93.747790725961124,13.653809045051503],[-93.921834776853359,13.751516320422013],[-94.103599958970847,13.851190967089622],[-94.292674420587957,13.952642044594825],[-94.488646309979117,14.055678611578799],[-94.69110377631813,14.160109727581982],[-94.899634967879365,14.265744450346233],[-95.113828032037929,14.372391838512669],[-95.333271119766266,14.479860950722411],[-95.557552378439425,14.587960847415332],[-95.786259956331833,14.696500584534476],[-96.018982002617236,14.805289222519718],[-96.25530666557006,14.914135820012234],[-96.494822095263373,15.022849435653086],[-96.737116438172961,15.13123912808345],[-96.981777843472571,15.239113955045127],[-97.228394461235268,15.346282976977932],[-97.47655443883616,15.452555251623721],[-97.725845924549674,15.557739836724238],[-97.975857068448875,15.661645792719298],[-98.226176017009493,15.764082178250078],[-98.476390921203972,15.864858050159],[-98.726089928407362,15.963782468885995],[-98.974861187793465,16.060664493072011],[-99.222292847636709,16.155313180459075],[-99.467973056211463,16.247537590587456],[-99.711489961792211,16.337146781199124],[-99.952431715351281,16.423949812733838],[-100.1903864624652,16.507755742034021],[-100.42494235410624,16.58837362864017],[-100.65568753764967,16.665612531193517],[-100.88221016226908,16.739281508335068],[-101.10409837623899,16.809189619605377],[-101.32094032783374,16.875145921846979],[-101.53232416712649,16.936959475499521],[-101.73783804059298,16.994439338304971],[-101.93709264880658,17.047405573908236],[-102.1300048152699,17.095827636836134],[-102.31671198876717,17.139782648450591],[-102.49735648701215,17.179350105223307],[-102.672080628618,17.214609504525129],[-102.84102673129848,17.245640343727018],[-103.00433711366674,17.272522120199824],[-103.16215409343658,17.29533433041513],[-103.314619989221,17.3141564717439],[-103.46187711963324,17.329068041557036],[-103.60406780148776,17.340148537225332],[-103.74133435339758,17.347477456119861],[-103.87381909487522,17.351134294712097],[-104.00166434183581,17.351198551272262],[-104.12501241469107,17.347749721372679],[-104.24400563025551,17.340867304182893],[-104.35878630714228,17.330630795275113],[-104.46949676306508,17.317119692919619],[-104.57627931753638,17.300413493587996],[-104.67927628647135,17.28059169465115],[-104.77862999028173,17.257733793479929],[-104.87448274578202,17.231919287445294],[-104.96697687158525,17.20322767301883],[-105.05625468630461,17.171738448470762],[-105.14245850675456,17.137531109373356],[-105.22573065244757,17.100685154896098],[-105.30621344109733,17.061280081510688],[-105.38404919131705,17.019395385688654],[-105.45938022082044,16.975110564800843],[-105.53234884732137,16.928505117117595],[-105.60309738943289,16.879658539110437],[-105.67176816576813,16.828650327250955],[-105.73850349404091,16.775559979809373],[-105.80344569286433,16.720466994156595],[-105.8667370799522,16.663450865864888],[-105.92851997301824,16.604591094103853],[-105.98893669157496,16.543967174445697],[-106.04812894899169,16.481658554798628],[-106.10616544447959,16.417738530808663],[-106.1629730658542,16.352268454225907],[-106.21846240881302,16.285308304434864],[-106.27254406905342,16.216918063517937],[-106.32512864317226,16.147157708161842],[-106.37612672506822,16.076087221348303],[-106.42544891223741,16.003766580663296],[-106.47300579947796,15.930255767289964],[-106.51870798248729,15.855614759713546],[-106.56246605606356,15.779903539117186],[-106.60419061770273,15.703182083986121],[-106.64379226220302,15.625510375503552],[-106.68118158526187,15.546948393054038],[-106.71626918257664,15.467556116022081],[-106.74896564894544,15.387393523792241],[-106.77918158096509,15.30652059754766],[-106.80682757523232,15.224997316672955],[-106.83181422564587,15.142883661451947],[-106.85405212790329,15.060239610369877],[-106.87345187950052,14.977125143710566],[-106.88992407433648,14.893600241757895],[-106.90337930810847,14.809724884795742],[-106.91372817831268,14.72555905130929],[-106.92088127884784,14.641162721582475],[-106.92474920541139,14.55659587679844],[-106.92524255460012,14.471918494543047],[-106.92227192211141,14.387190556898815],[-106.9157479018441,14.302472041451665],[-106.90558109219353,14.217822930284171],[-106.8916820870586,14.133303200982084],[-106.87396148213662,14.048972835627978],[-106.85232987312503,13.964891811807831],[-106.82669785662068,13.881120111603991],[-106.79697602742164,13.797717713501811],[-106.76307498212464,13.714744596885794],[-106.72490531462847,13.632260742939081],[-106.68237762242921,13.550326130146914],[-106.63542496449043,13.468994073917543],[-106.58411158837902,13.388278964302913],[-106.52854922136936,13.308181101676666],[-106.46884966088305,13.228700768425881],[-106.40512469984492,13.149838246038371],[-106.33748613477718,13.07159381690127],[-106.2660457595041,12.993967761603074],[-106.19091537054783,12.916960363430178],[-106.11220676173258,12.840571902071758],[-106.03003172868125,12.764802661713588],[-105.94450206521805,12.689652922044843],[-105.85572956786518,12.615122966351976],[-105.76382603134618,12.541213076122688],[-105.66890325038457,12.467923531945587],[-105.57107301970399,12.395254617107014],[-105.47044713402789,12.32320661309484],[-105.36713738987856,12.251779800497559],[-105.26125558108009,12.180974462601512],[-105.15291350325549,12.11079087999525],[-105.04222295022885,12.041229335065907],[-104.9292957185225,11.972290109301241],[-104.8142436028599,11.903973484189066],[-104.69717839796459,11.836279743015837],[-104.57821189766082,11.769209165470727],[-104.45745589937019,11.702762034840191],[-104.33502219601741,11.63693863261193],[-104.21102258412486,11.571739240273871],[-104.08556885751665,11.507164139313716],[-103.95877281181572,11.443213611219335],[-103.83074624264486,11.379887939277125],[-103.7016009438284,11.317187404075582],[-103.5714487109891,11.25511228800184],[-103.44040133885062,11.193662872543655],[-103.30857062303573,11.132839438289579],[-103.17606835826803,11.07264226942533],[-103.04300633927102,11.013071645640082],[-102.90949636076834,10.954127850220232],[-102.775648445819,10.895811445242146],[-102.64153182423422,10.838129480491261],[-102.50717493887225,10.781095490764415],[-102.37260445732971,10.724723290547558],[-102.23784704720339,10.669026695225966],[-102.10292937788836,10.614019521983494],[-101.96787811698141,10.559715586205471],[-101.83271993297842,10.50612870327717],[-101.69748149347606,10.453272689483185],[-101.56218946607089,10.401161361108052],[-101.42687052015827,10.34980853263778],[-101.29155132333483,10.29922802125634],[-101.15625854409643,10.249433642348833],[-101.02101885003981,10.200439211300704],[-100.88585890966084,10.152258544396432],[-100.75080539145557,10.104905457021346],[-100.61588496302051,10.058393765460039],[-100.48112429285175,10.012737285997105],[-100.34655004854579,9.9679498331184391],[-100.2121888985987,9.924045223108692],[-100.07806751150633,9.8810372731517759],[-99.94421255486543,9.8389397977335875],[-99.810650697171809,9.7977666122395135],[-99.677408606022254,9.7575315338533528],[-99.544512950811907,9.7182483779604354],[-99.411990398238174,9.6799309599459775],[-99.279867617696311,9.6425930960946289],[-99.148171276782875,9.6062486017916626],[-99.016928043993914,9.5709112933216716],[-98.886164586026723,9.5365949869691917],[-98.755907573175875,9.5033134972202333],[-98.626183672138666,9.4710806403593892],[-98.497019552310405,9.4399102326712523],[-98.368441880388389,9.4098160904403585],[-98.24047732486855,9.3808120281527181],[-98.113152554246881,9.3529118629922436],[-97.986494237019315,9.3261294094448317],[-97.860529042581163,9.3004784855937714],[-97.735284411945941,9.2759735516382307],[-97.610789922017204,9.2526308493343663],[-97.487075514823061,9.2304669253085194],[-97.364171133291052,9.2094983261869174],[-97.242106720348772,9.1897415985960151],[-97.12091221622569,9.171213288262777],[-97.000617564748723,9.1539299427128071],[-96.881252707946032,9.1379081076731836],[-96.762847586946464,9.1231643297701339],[-96.645432146476253,9.109715155630056],[-96.529036325865661,9.0975771318792908],[-96.413690069840754,9.0867668042447463],[-96.29942331863117,9.0773007202521967],[-96.186266016063712,9.0691954265278696],[-96.0742481041666,9.0624674678994666],[-95.963399524068677,9.0571333927919682],[-95.853750219596861,9.0532097469323958],[-95.745330131879996,9.0507130760477708],[-95.638169202946244,9.0496599276636402],[-95.532297376622523,9.050066848406459],[-95.427744594037677,9.0519503840031348],[-95.324540797219925,9.0553270801807457],[-95.222715929096751,9.0602134853642156],[-95.122299931696375,9.0666261452805088],[-95.023322747946338,9.0745816065560234],[-94.92581431807622,9.0840964149177239],[-94.829804586812145,9.0951871178913279],[-94.735323495282955,9.1078702603044235],[-94.642400985516986,9.1221623905819911],[-94.551066999542286,9.1380800544511089],[-94.461351481185829,9.1556397985380045],[-94.373284370677084,9.1748581685697559],[-94.286895611842908,9.1957517120719672],[-94.202215145812204,9.2183369747717165],[-94.119272916411887,9.2426305041945511],[-94.038098863871369,9.2686488451682294],[-93.958722932017622,9.2964085461176182],[-93.881170978158025,9.3259207919111304],[-93.805433311198271,9.3571501204818333],[-93.731481935243039,9.390037047971532],[-93.659288703310892,9.4245218926713505],[-93.588825469319829,9.4605449737716754],[-93.520064086288471,9.4980466077648771],[-93.452976406336006,9.5369671147406621],[-93.387534284279695,9.5772468111915146],[-93.32370957223884,9.6188260163077643],[-93.261474124131439,9.6616450492797412],[-93.200799792975943,9.7056442265999294],[-93.141658431791086,9.7507638683579785],[-93.084021893595434,9.7969442910463158],[-93.027862032306871,9.8441258138553849],[-92.973150700944018,9.8922487550761389],[-92.91985975162612,9.941253432100325],[-92.867961039170495,9.9910801650177632],[-92.817426415696445,10.04166927032071],[-92.768227735121798,10.09296106719961],[-92.720336849565854,10.144895873046266],[-92.673725613845875,10.197414007050895],[-92.628365879181899,10.250455787504734],[-92.584229501290338,10.303961531799416],[-92.541288331391286,10.357871559125272],[-92.499514223402571,10.412126187773481],[-92.458879030342871,10.466665735135678],[-92.419354605230751,10.521430519502985],[-92.380912801984095,10.57636086006579],[-92.343525473621582,10.631397074215727],[-92.307164473161777,10.686479481143294],[-92.271801653623299,10.741548398240127],[-92.237408868924035,10.796544143797348],[-92.203957971183343,10.851407036105968],[-92.171420814319049,10.90607739435643],[-92.139769251349776,10.960495535940368],[-92.108975136193465,11.014601779148904],[-92.079010320969417,11.068336443172427],[-92.049848828760332,11.121641076574576],[-92.021562946172935,11.174513039845067],[-91.994361308727321,11.227027131397108],[-91.968462596471568,11.279263851345775],[-91.944085486755682,11.331303702503988],[-91.921448658728536,11.383227186785405],[-91.900770791538719,11.43511480610357],[-91.882270564334988,11.487047062372142],[-91.866166656266046,11.539104457504834],[-91.852677744682069,11.591367493415248],[-91.842022509631022,11.643916672016928],[-91.834419630261607,11.696832494324269],[-91.83008778482332,11.750195464049568],[-91.829245651565486,11.80408608220705],[-91.832111911435447,11.858584849811109],[-91.83890524088406,11.913772270573986],[-91.849844319959288,11.969728844610643],[-91.865147827809892,12.026535074734056],[-91.885034443584573,12.084271462857885],[-91.90972284463345,12.143018510895672],[-91.939431711004545,12.20285672076119],[-91.97437972094724,12.263866594367983],[-92.014785554509615,12.326128632730331],[-92.060867889041731,12.389723339560589],[-92.112845404591667,12.454731214973719],[-92.170936779408748,12.521232761782642],[-92.235360691742414,12.589308481901071],[-92.306335822540063,12.659038877242551],[-92.384080848252438,12.73050444972074],[-92.46881444982688,12.80378570034992],[-92.560755304613508,12.878963131943124],[-92.660122091761025,12.956117246413953],[-92.767133491317452,13.035328545675952],[-92.882008180632909,13.116677531642893],[-93.004964838856154,13.200244706228375],[-93.136222146035095,13.286110570446624],[-93.275998780419286,13.374355627110617],[-93.424513419358732,13.465060378134069]]]},"properties":{"objectid":3,"basin":"Pacific","prob2day":"0%","risk2day":"Low","prob7day":"50%","risk7day":"Medium","idp_source":"gtwo_areas_202609211756","idp_filedate":1790013489000,"idp_ingestdate":1790013500000,"st_area(shape)":80.118309010383598,"st_perimeter(shape)":36.584652480711895}}]}