{"type":"FeatureCollection","features":[{"type":"Feature","id":1,"geometry":{"type":"Polygon","coordinates":[[[-32.009568904181435,16.166416581859892],[-32.272532317112621,16.230183302017906],[-32.53592560058587,16.292272566226075],[-32.799674417540189,16.352631613058634],[-33.06370443091464,16.411207679291124],[-33.327941305446757,16.467948003497725],[-33.592310701377642,16.522799824252616],[-33.856738283444884,16.575710378331451],[-34.121149714587546,16.626626903408976],[-34.3854706568452,16.675496637160222],[-34.649626773156911,16.722266818159255],[-34.913543727361002,16.766884684081049],[-35.177147182396425,16.809297472600406],[-35.440362799403545,16.849452420492923],[-35.703116244019327,16.887296767232158],[-35.965333177384082,16.922777749593592],[-36.226939262436872,16.955842606151464],[-36.487860163015966,16.986438573681369],[-36.748021541161052,17.01451289075743],[-37.007349060710453,17.040012795054565],[-37.265768383703801,17.06288552424769],[-37.523205173080157,17.083078315112289],[-37.779585093577111,17.100538408021237],[-38.034833805435653,17.115213037951492],[-38.288876973393485,17.127049444376496],[-38.541640260389556,17.135994864971167],[-38.79304932846361,17.141996537410421],[-39.043029841453915,17.145001698469741],[-39.291499316240333,17.144965863184154],[-39.53831847211967,17.141902261480311],[-39.783323836625641,17.135848700857025],[-40.026351850957042,17.126843081443212],[-40.267238954514028,17.114923300669943],[-40.505821587596074,17.100127258666191],[-40.741936189603337,17.082492854661666],[-40.975419199936027,17.062057986986645],[-41.206107058893508,17.038860553971517],[-41.433836205876105,17.012938456644576],[-41.658443082082442,16.984329592436893],[-41.87976412601347,16.953071860578063],[-42.097635777968662,16.919203161197061],[-42.311894477348119,16.882761391725012],[-42.522376665350691,16.843784452290777],[-42.728918780477215,16.802310241224802],[-42.931357263926486,16.758376657756685],[-43.129528554199283,16.712021602015454],[-43.323269091595193,16.663282970532805],[-43.512415315514261,16.612198665236349],[-43.696803667155393,16.55880658265778],[-43.87627058501937,16.503144622926129],[-44.050652510304985,16.445250685271048],[-44.219785881513076,16.385162668922192],[-44.383507138943173,16.322918471310516],[-44.541652722894753,16.258555993464483],[-44.694059072767857,16.192113132814939],[-44.840573156326002,16.123627156368286],[-44.98117883703361,16.053127097837432],[-45.115955712086304,15.980636233475536],[-45.244985343698545,15.906177722623966],[-45.36834929318519,15.829774724623974],[-45.486129122760701,15.751450397917665],[-45.598406395538632,15.671227900947031],[-45.705262671035314,15.589130393053324],[-45.806779512364471,15.505181033577969],[-45.903038482639772,15.419402980063637],[-45.994121141377434,15.331819392750901],[-46.080109052590615,15.242453429182547],[-46.161083776694795,15.151328249599203],[-46.237126876803814,15.058467012442804],[-46.308319913333207,14.963892876155455],[-46.374744449396701,14.867629000078409],[-46.436482047208585,14.769698542653771],[-46.493614267184569,14.670124663222794],[-46.546222672438262,14.568930520227468],[-46.594388825184012,14.466139272109842],[-46.638194285837528,14.361774079110603],[-46.677720617512364,14.255858098772364],[-46.713049381523604,14.14841449133587],[-46.744262140085596,14.039466414343678],[-46.771440455412574,13.929037027137213],[-46.794665888819623,13.817149488158464],[-46.814020001621657,13.703826957648118],[-46.829583375772074,13.589095106753916],[-46.841408352713188,13.473051933699935],[-46.849515481953802,13.355876867623465],[-46.853923613283996,13.237753684984739],[-46.854651599191811,13.118866161344386],[-46.851718292165344,12.999398070464736],[-46.845142543793258,12.879533187906418],[-46.834943205664274,12.759455289230345],[-46.821139129367225,12.639348149997261],[-46.803749166490718,12.519395544868644],[-46.782792170422226,12.399781249405294],[-46.758286990951774,12.280689037369314],[-46.730252481466721,12.162302686120199],[-46.698707492656524,12.044805969420111],[-46.663670876109904,11.92838266282979],[-46.625161485214278,11.813216541910037],[-46.583198170658932,11.699491380423012],[-46.53779978493202,11.587390955728154],[-46.488985178722885,11.477099041587621],[-46.436773204519682,11.368799412662895],[-46.381182713911016,11.262675845414094],[-46.322232559384986,11.158912115401961],[-46.259941591631048,11.057691995489336],[-46.194328664036505,10.959199263035714],[-46.125412626391494,10.863617692702519],[-46.053212332083319,10.771131059151173],[-45.977746632700814,10.68192313794259],[-45.899034286303163,10.596176706389997],[-45.817084947112505,10.513977109256302],[-45.731891650778948,10.435231866557558],[-45.643445667583364,10.359829572077217],[-45.551738265108725,10.287658822296976],[-45.456760711837262,10.218608211000287],[-45.358504275351891,10.152566333769414],[-45.2569602241349,10.08942178618662],[-45.152119828467164,10.029063162934733],[-45.043974354133013,9.9713790586967548],[-44.93251507141332,9.916258069054777],[-44.817733247890942,9.8635887877924802],[-44.699620152048283,9.8132598122906529],[-44.578167051468142,9.7651597354335991],[-44.45336521643145,9.7191771528034678],[-44.325205913621915,9.6752006599826359],[-44.193680411521655,9.6331188516538191],[-44.058779979512337,9.5928203225000175],[-43.920495886076139,9.5541936681034372],[-43.778819397896768,9.5171274831469646],[-43.63374178525504,9.481510362313486],[-43.485254314834663,9.4472309020845842],[-43.333348256916395,9.4141776962438257],[-43.178014878183944,9.3822393403734168],[-43.019245448018864,9.3513044282568671],[-42.857031234004126,9.3212615572751929],[-42.691363505521224,9.2919993203125273],[-42.522233555334196,9.2634063282395687],[-42.349675850859683,9.2353964916549103],[-42.173856614690919,9.2079609324512148],[-41.994967111043195,9.1811054494570499],[-41.81319860323282,9.1548358406017201],[-41.628742357273836,9.1291579029150398],[-41.44178963648244,9.1040774361248964],[-41.252531705973354,9.0796002372612747],[-41.061159829062717,9.0557321042533658],[-40.867865272664062,9.0324788350303606],[-40.672839298294832,9.0098462284208267],[-40.476273172868503,8.9878400823540687],[-40.278358158801893,8.9664661938599011],[-40.079285522109046,8.9457303626662679],[-39.879246527005478,8.9256383849036638],[-39.678432436807384,8.9061960603000898],[-39.477034517528864,8.8874091858853603],[-39.27524403338532,8.8692835604880429],[-39.073252247692949,8.8518249820374422],[-38.871250425566586,8.8350392475633726],[-38.669429832120954,8.8189321558944016],[-38.467981731571513,8.8035095058591537],[-38.267097387234514,8.7887770935881235],[-38.066968065124001,8.7747407188092552],[-37.867785028556114,8.7614061794517397],[-37.66973954264563,8.7487792725455051],[-37.473022871608123,8.7368657978184388],[-37.277826279658939,8.7256715514010921],[-37.084308436884726,8.7151991521193395],[-36.892456526147669,8.705434489610127],[-36.702201537071176,8.6963579703441951],[-36.513474426003825,8.687949997194778],[-36.32620615109289,8.6801909748337494],[-36.140327668686837,8.6730613061345139],[-35.955769935134299,8.6665413948696255],[-35.772463906783742,8.6606116457110147],[-35.590340540883119,8.6552524606327097],[-35.409330795579649,8.6504442443065841],[-35.229365625423156,8.6461674005052487],[-35.050375988560916,8.6424023321021082],[-34.872292840442128,8.6391294437689794],[-34.695047140113331,8.6363291374798337],[-34.518569843023727,8.6339818188060349],[-34.342791905521892,8.6320678897214975],[-34.167644284855726,8.6305677548980952],[-33.993057938273125,8.6294618181085525],[-33.818963822122555,8.6287304813267838],[-33.64529289275265,8.6283541501240393],[-33.471976108310628,8.6283132273736669],[-33.298944424245633,8.6285881168482774],[-33.126128797805677,8.6291592223203679],[-32.953460186238487,8.6300069466634],[-32.780869544993379,8.6311116945491904],[-32.60828783311689,8.632453868851087],[-32.435646005158901,8.6340138733417007],[-32.262885899264688,8.6357759024360803],[-32.0900515894092,8.6377597699975013],[-31.91724316743813,8.6400048051777389],[-31.744561297166001,8.6425505376773231],[-31.572106643306824,8.6454364971967266],[-31.399979872373081,8.6487022143358558],[-31.228281647280085,8.6523872178959209],[-31.057112633640998,8.6565310366781318],[-30.886573496169774,8.6611732021816579],[-30.716764899580312,8.6663532423084462],[-30.547787509485829,8.6721106885575523],[-30.37974198970096,8.6784850688309803],[-30.21272900493949,8.6855159128292598],[-30.046849221714069,8.6932427511521837],[-29.882203302939956,8.7017051135003385],[-29.718891914230312,8.7109425286748774],[-29.557015720299148,8.7209945272757636],[-29.396675385860249,8.7319006381040936],[-29.237971575627569,8.7437003908605107],[-29.081004955214382,8.756433315245431],[-28.925876189334531,8.7701389409594981],[-28.772685941802649,8.7848567986025046],[-28.621534878231898,8.8006264160763976],[-28.47252366243697,8.8174873239809699],[-28.325752960930288,8.8354790520167512],[-28.181323437526487,8.854641129884385],[-28.039335756939522,8.8750130872842874],[-27.899889341020128,8.8966363964526636],[-27.763060297594507,8.9195889647590434],[-27.628904028497971,8.9439810562808475],[-27.497475218806187,8.9699240583487381],[-27.368828550896808,8.9975293609913365],[-27.243018708046804,9.0269083515393049],[-27.120100374432582,9.0581724182226822],[-27.000128233331168,9.0914329501706561],[-26.883156968019534,9.1268013356132656],[-26.76924126087539,9.164388963679869],[-26.658435796075025,9.2043072226003915],[-26.550795257794789,9.2466674997054952],[-26.446374328412389,9.2915811850238015],[-26.345227691204855,9.3391596658860294],[-26.247410029449156,9.3895143314213669],[-26.152976027321699,9.4427565698599665],[-26.061980368099398,9.4989977694316394],[-25.974477735059281,9.5583493192658011],[-25.890522810579114,9.6209226075923766],[-25.810170279734507,9.6868290226414047],[-25.733474824003792,9.7561799535421869],[-25.660491128462695,9.8290867876252719],[-25.591273876388186,9.9056609140200749],[-25.525877749258598,9.9860137218558975],[-25.464357433048974,10.070256598463402],[-25.406767609237647,10.158500932971833],[-25.353162962000965,10.250858113611173],[-25.303599241211884,10.347436622901967],[-25.258184182054208,10.448203322625375],[-25.217099857672167,10.552922564325002],[-25.180534056401484,10.661343125085295],[-25.148674566577881,10.773213782889911],[-25.121709177436458,10.888283313923921],[-25.099825678212369,11.006300496171093],[-25.083211857241281,11.127014106715762],[-25.072055503758349,11.250172922642378],[-25.066544406998673,11.37552572193465],[-25.066866355297918,11.502821281676972],[-25.073209137891297,11.631808378953679],[-25.085760543114475,11.762235790849218],[-25.104708361101871,11.893852294447981],[-25.130240379289944,12.026406668633001],[-25.162544386913794,12.159647688690029],[-25.201808174107839,12.293324132602777],[-25.248219528308482,12.427184778354956],[-25.301966238750765,12.560978403031015],[-25.363236094669901,12.694453783715289],[-25.432216885300875,12.82735969749217],[-25.509096398979523,12.959444921446106],[-25.59406242404151,13.090458233560753],[-25.687302750621313,13.220148410920558],[-25.789005167054711,13.348264230609914],[-25.899357461677369,13.474554469713155],[-26.018547424623819,13.59876790621405],[-26.146762335213452,13.720653602282084],[-26.284052047363957,13.840037791810801],[-26.430143692377385,13.956927925683374],[-26.58471812604057,14.071357441592795],[-26.747456206838365,14.183359776332736],[-26.918038789658283,14.292968367596245],[-27.096146732985233,14.40021665127756],[-27.281460891706672,14.505138065069787],[-27.473662124307452,14.607766044867219],[-27.672431286574465,14.708134029262169],[-27.877449235193922,14.806275455048365],[-28.088396827751296,14.902223758120101],[-28.304954920033424,14.99601237617037],[-28.526804369625836,15.087674745992899],[-28.753626032315424,15.177244304381304],[-28.985100764788342,15.264754489028576],[-29.220909425529442,15.350238736728443],[-29.460732869426238,15.433730483375257],[-29.704251954064318,15.515263167561272],[-29.951147536129781,15.594870225180898],[-30.201100472308838,15.672585093927069],[-30.453791619287699,15.748441209694192],[-30.70890183375252,15.822472011074581],[-30.966111972389513,15.894710933962585],[-31.225102891884831,15.965191415151821],[-31.485555448924686,16.033946892335337],[-31.747150501094609,16.101010802306803],[-32.009568904181435,16.166416581859892]]]},"properties":{"objectid":1,"basin":"Atlantic","prob2day":"0%","risk2day":"Low","prob7day":"40%","risk7day":"Medium","idp_source":"gtwo_areas_202608082328","idp_filedate":1786232302000,"idp_ingestdate":1786232388000,"st_area(shape)":150.8732137451054,"st_perimeter(shape)":51.24861327344199}},{"type":"Feature","id":2,"geometry":{"type":"Polygon","coordinates":[[[-51.494382897852347,15.534595484394231],[-51.607357263027154,15.524235153229881],[-51.718138906585182,15.511925705207261],[-51.826736365790509,15.497679867531986],[-51.933158177907444,15.481510368308989],[-52.037412878401483,15.463429933844509],[-52.139509005436139,15.443451291344161],[-52.23945509357759,15.421587167114183],[-52.337259680989348,15.397850290158885],[-52.432931303137025,15.372253386784507],[-52.526478498184019,15.344809184196606],[-52.617909801595943,15.315530408701534],[-52.707233750636988,15.284429788404168],[-52.794458881671915,15.251520049610747],[-52.879593731065711,15.216813920426205],[-52.962646836082513,15.180324127156894],[-53.043626733087137,15.142063397907634],[-53.122541958444515,15.102044458984722],[-53.199401049418782,15.06028003759377],[-53.274212541475492,15.016782861839715],[-53.346984972778159,14.971565657129531],[-53.41772687879228,14.924641151568039],[-53.486446796782104,14.876022072360911],[-53.553153263112506,14.825721146713704],[-53.617854814148245,14.773751101832033],[-53.680559987153572,14.720124664022137],[-53.74127731849336,14.664854561389063],[-53.800015345431746,14.60795352023888],[-53.856782603434283,14.549434268676691],[-53.911587629765165,14.489309533008679],[-53.964438960789266,14.427592040440459],[-54.015345133770779,14.364294519076907],[-54.064314684175201,14.299429694325056],[-54.111356150166102,14.233010295189104],[-54.156477133712656,14.16505305085775],[-54.199677823672516,14.095606480654681],[-54.240954870970427,14.024734263775372],[-54.280304907645245,13.952500172944781],[-54.317724563937361,13.878967981787071],[-54.353210469187673,13.804201461228615],[-54.386759255435152,13.728264383994258],[-54.418367552020811,13.651220524607652],[-54.448031990084132,13.573133653095738],[-54.475749199865561,13.494067543982112],[-54.501515811605316,13.414085968193035],[-54.525328456442992,13.333252700252046],[-54.547183764618921,13.25163151108552],[-54.56707836637338,13.169286174317619],[-54.5850088919467,13.086280460874718],[-54.600971972478419,13.002678145280299],[-54.614964239108247,12.918542999360056],[-54.626982320277762,12.83393879583889],[-54.637022848925199,12.748929306542379],[-54.645082453492307,12.663578305094859],[-54.651157765118626,12.577949563321852],[-54.655245414943806,12.492106853948314],[-54.657342033208124,12.406113950598467],[-54.657444250151912,12.320034624198684],[-54.655548696015387,12.233932647473864],[-54.651652001938203,12.147871794048172],[-54.645750798160691,12.061915836646676],[-54.63784171492307,11.976128546195582],[-54.627921382465729,11.890573696319166],[-54.61598643192815,11.805315060641647],[-54.602033494450097,11.720416410089399],[-54.586059198473095,11.635941517387266],[-54.568060176935489,11.551954155260205],[-54.548031824409065,11.468517683644336],[-54.525947389660189,11.385688025981779],[-54.501760961399157,11.303514680957903],[-54.475425996112733,11.222046932320211],[-54.44689595028774,11.141334064715466],[-54.41612428310907,11.061425362790374],[-54.383064450164113,10.982370111191813],[-54.347669908839123,10.904217594566489],[-54.309894116520127,10.827017097561168],[-54.26969052969406,10.750817905721931],[-54.227012606646383,10.675669301896903],[-54.181813802964541,10.601620572531544],[-54.134047576933995,10.528721001373242],[-54.083667385041679,10.457019873068816],[-54.03062668557294,10.386566472265031],[-53.974878933216075,10.317410084507912],[-53.916377588055127,10.249599992645699],[-53.855076104778277,10.18318548312368],[-53.790927941671043,10.118215840588732],[-53.723886556119567,10.054740347888867],[-53.653905404610612,9.9928082914696006],[-53.580937943631056,9.9324689550783773],[-53.504937631466419,9.8737716233618471],[-53.425857925502726,9.8167655809669441],[-53.343652281327593,9.761500113439638],[-53.258274157226481,9.7080245045273728],[-53.169677010585474,9.6563880397763455],[-53.077814296992074,9.6066400029339434],[-52.982639474731855,9.5588296786468732],[-52.884106001190901,9.513006352461332],[-52.782167332856034,9.4692193072253872],[-52.676776926214075,9.4275178302837617],[-52.567888239550484,9.3879512035853168],[-52.455454990155545,9.3505677890723291],[-52.339446532731188,9.3153604551210378],[-52.219856455111199,9.2822360589470918],[-52.096680434254495,9.2510940617416964],[-51.969914142623452,9.2218339228973605],[-51.839553257176988,9.1943551009073303],[-51.705593450377307,9.1685570569627544],[-51.568030399183442,9.1443392495568787],[-51.426859776057711,9.1216011389815321],[-51.282077257958974,9.1002421837299039],[-51.133678517349551,9.080161844993313],[-50.981659231188473,9.0612595812647783],[-50.826015071937888,9.0434348528362989],[-50.666741715657508,9.0265871191003839],[-50.503834836608291,9.0106158394495424],[-50.337290109051196,8.9954204741756598],[-50.167103209045763,8.9809004817719256],[-49.993269809953631,8.9669553234295449],[-49.815785587834512,8.9534844567424443],[-49.63464621515061,8.9403873438010351],[-49.449847368860844,8.9275634421992436],[-49.261384722326966,8.9149122122289555],[-49.06925395070914,8.9023331132826797],[-48.873450729167701,8.889725605652302],[-48.673970731064287,8.876989148730388],[-48.47080963245844,8.8640232019093901],[-48.263963107611232,8.850727224581874],[-48.053426830783508,8.8370006770397254],[-47.839196477135602,8.82274301867551],[-47.621267720928472,8.8078537088816802],[-47.399636237322397,8.7922322079501782],[-47.174297700578279,8.7757779743741366],[-46.945247785856509,8.7583904684454978],[-46.712482242961016,8.7399692062140275],[-46.476072206467052,8.7204697359896386],[-46.236305649186249,8.7000087816800828],[-45.993509295717331,8.678731874276707],[-45.748009872457544,8.6567845420730691],[-45.500134104005554,8.6343123133627273],[-45.250208714960081,8.6114607182377085],[-44.998560430819111,8.5883752858908906],[-44.745515976181252,8.5652015446157179],[-44.491402075645169,8.5420850236050683],[-44.236545454708846,8.5191712529510824],[-43.981272838870325,8.4966057609472614],[-43.725910952728157,8.4745340758870498],[-43.47078652088112,8.4531017278625882],[-43.216226268827143,8.4324542460667544],[-42.962556921164833,8.4127371596923126],[-42.710105203392288,8.394095997032764],[-42.459197840108118,8.3766762872809863],[-42.210161556810306,8.360623559629687],[-41.96332307719814,8.3460833441711202],[-41.719009128568302,8.3332011682994107],[-41.477546433720818,8.3221225621066992],[-41.23926171905299,8.3129930547858066],[-41.004481709163429,8.3059581746301774],[-40.773533128650854,8.3011634508327461],[-40.546742703912514,8.2987544134855398],[-40.324437157748491,8.2988765908821165],[-40.10694321655609,8.3016755122152404],[-39.894587604933918,8.3072967066777892],[-39.68769704837996,8.3158857025632642],[-39.486598271492937,8.3275880299637492],[-39.291617999770779,8.3425492180720653],[-39.103082957812148,8.3609147951817704],[-38.921319870215711,8.3828302904856287],[-38.746601321493699,8.4084122848991569],[-38.578896937943227,8.437615371652214],[-38.418071026256712,8.4703378293274909],[-38.263987784308654,8.5064778807497419],[-38.116511413570777,8.5459337478443445],[-37.975506112816731,8.5886036543353157],[-37.840836081719658,8.6343858230474098],[-37.712365520851961,8.6831784750067413],[-37.589958629886723,8.7348798330380077],[-37.47347960759771,8.7893881217645458],[-37.362792654557268,8.8466015613131503],[-37.25776197043848,8.9064183754078385],[-37.158251754015112,8.9687367868733645],[-37.064126206758885,9.0334550167357861],[-36.975249526544303,9.1004712896184401],[-36.891485914842974,9.1696838274468178],[-36.812699571328039,9.2409908521462398],[-36.738754693873886,9.3142905874407802],[-36.669515483952296,9.3894812543565536],[-36.604846140336974,9.4664610766175201],[-36.544610864499703,9.5451282761491711],[-36.488673853415492,9.6253810766754668],[-36.436899309455441,9.7071176992225787],[-36.389151430493996,9.790236367514467],[-36.345294418002879,9.874635303476623],[-36.305192469856479,9.9602127299336871],[-36.268709787526575,10.046866870609733],[-36.235710569786818,10.1344959456315],[-36.206059016310405,10.222998179622437],[-36.179619327669741,10.312271794507865],[-36.156255702638418,10.402215012213162],[-36.135832341789012,10.492726056462459],[-36.118213443895172,10.583703150080453],[-36.103278663479387,10.675046544762381],[-36.091087304535336,10.766680105702449],[-36.081814574782697,10.858542929013083],[-36.075637612785499,10.950574363516182],[-36.072733558906521,11.042713760731601],[-36.073279552609165,11.134900470380558],[-36.077452733356836,11.227073842184211],[-36.085430239713673,11.319173225863835],[-36.097389212941721,11.41113797203991],[-36.113506790705685,11.502907429534389],[-36.133960113368403,11.594420950766391],[-36.158926320393277,11.685617882759232],[-36.188582550344279,11.776437577932029],[-36.223105943584301,11.86681938510668],[-36.262673640476009,11.956702654004403],[-36.307462777784849,12.046026736145109],[-36.357650497672182,12.134730980350582],[-36.413413938702206,12.222754736342154],[-36.474930239438891,12.310037354740246],[-36.542376540245016,12.396518186165508],[-36.615929980584042,12.482136579439725],[-36.695767699919315,12.566831886082809],[-36.78206683681492,12.650543454017338],[-36.875004531633692,12.733210634763111],[-36.974757924738299,12.814772778041402],[-37.08150415289424,12.895169233573426],[-37.195420358262822,12.974339351979665],[-37.316683679408129,13.052222482082016],[-37.445471254894358,13.12875797540039],[-37.581960225084174,13.203885180756629],[-37.726327729441039,13.277543449670588],[-37.878750906528978,13.349672130064903],[-38.039406897610093,13.420210573459315],[-38.208464376829397,13.489099525322956],[-38.38583534642396,13.556322068508791],[-38.571135061134044,13.621910229673517],[-38.763962247959228,13.685898763117564],[-38.963915632999942,13.748322424040794],[-39.170593943255767,13.80921596494494],[-39.383595904827018,13.868614141029923],[-39.60252024291475,13.926551704797475],[-39.826965685417917,13.983063412346723],[-40.056530958436838,14.038184016179514],[-40.290814787172565,14.091948271495653],[-40.529415898624677,14.144390931696307],[-40.771933019792925,14.195546751081849],[-41.017964876777512,14.245450483053503],[-41.267110194779548,14.294136882811017],[-41.518967701697932,14.341640702856296],[-41.773136122733774,14.387996699288408],[-42.029214185785918,14.433239624609143],[-42.286800615156153,14.477404233118989],[-42.545494137844059,14.520525279118488],[-42.80489348174865,14.562637516008692],[-43.064597371171601,14.603775698989466],[-43.324204533112606,14.643974582361238],[-43.583313694571245,14.683268918625856],[-43.841523580748515,14.721693462983069],[-44.098432919543484,14.7592829688341],[-44.353640436157093,14.796072190479322],[-44.606744856689659,14.832095882219335],[-44.857344909040194,14.867388797455192],[-45.105039317510375,14.901985691386699],[-45.349426809999159,14.935921316515703],[-45.590106111707598,14.969230428941273],[-45.826675950534593,15.001947780265994],[-46.05873592941947,15.034107984496018],[-46.286028260395767,15.065722530470566],[-46.50859419806369,15.096754424577171],[-46.726512653436089,15.127160566806879],[-46.939862535727343,15.156897856251192],[-47.148722757748942,15.185923195599116],[-47.353172227815946,15.214193483042948],[-47.553289857840525,15.241665619472883],[-47.749154557037059,15.268296505779233],[-47.940845236418397,15.294043041053612],[-48.128440806997503,15.318862127085652],[-48.312020178888019,15.342710662067532],[-48.491662263102853,15.36554554868826],[-48.667445968856271,15.387323685140075],[-48.839450207161235,15.408001973212606],[-49.007753889030653,15.427537311997469],[-49.172435924578167,15.445886602384917],[-49.333575224816627,15.463006744365885],[-49.491250698960471,15.478854638830683],[-49.645541258022547,15.493387185770132],[-49.796525813015762,15.506561285175337],[-49.94428327405376,15.518333837037062],[-50.088892552149446,15.528661742245731],[-50.230432556517144,15.537501901691542],[-50.368982199069137,15.544811213566788],[-50.504620389019635,15.550546579661045],[-50.637426038280921,15.554664900864623],[-50.767478056067318,15.557123075369759],[-50.894855353391733,15.557878004966085],[-51.019636840367752,15.556886589644535],[-51.141901428008396,15.554105730295362],[-51.261728026427136,15.549492326010181],[-51.37919554573773,15.543003277679247],[-51.494382897852347,15.534595484394231]]]},"properties":{"objectid":2,"basin":"Atlantic","prob2day":"0%","risk2day":"Low","prob7day":"20%","risk7day":"Low","idp_source":"gtwo_areas_202608082328","idp_filedate":1786232302000,"idp_ingestdate":1786232388000,"st_area(shape)":105.79979901392161,"st_perimeter(shape)":43.901917227403558}},{"type":"Feature","id":3,"geometry":{"type":"Polygon","coordinates":[[[-139.67051722179224,13.542744240054787],[-139.69088987976403,13.617209934690891],[-139.71157642181436,13.690544051067263],[-139.7327415659704,13.762806691775552],[-139.7545500293603,13.834057960306779],[-139.7771665282126,13.904357958353216],[-139.80075577965545,13.973766789405943],[-139.82548250171601,14.042344556056548],[-139.85151140972368,14.110151360896737],[-139.87900722170582,14.177247306518098],[-139.90813465479039,14.243692495512391],[-139.93905842610542,14.309547031370528],[-139.97194325187951,14.374871014885571],[-140.00695385014001,14.439724551347126],[-140.04425493711557,14.504167741548144],[-140.08401122993422,14.568260688979763],[-140.12638744662326,14.632063495334194],[-140.17154830251206,14.695636265001781],[-140.21965851562788,14.759039098775531],[-140.2708828030988,14.822332101045788],[-140.32538588115341,14.885575373504821],[-140.38333246781906,14.948829019643654],[-140.44488728022372,15.01215314115467],[-140.51021503369674,15.075607840629459],[-140.57948044716483,15.139253222458365],[-140.65284823685658,15.203149387434394],[-140.73048311900067,15.267356439048569],[-140.81254981252374,15.331934479892482],[-140.8992130327552,15.396943613457154],[-140.99063749682296,15.462443940535593],[-141.08698792365368,15.528495565518085],[-141.18842902767739,15.595158590996334],[-141.29512552692142,15.66249311866261],[-141.40724213941314,15.730559252007993],[-141.52494358138108,15.799417093624129],[-141.64839456905401,15.869126746102609],[-141.77775982135859,15.939748312035135],[-141.91320405272478,16.011341894013356],[-142.05489198297852,16.083967594628916],[-142.20298832654993,16.15768551737284],[-142.35765780236562,16.232555763937512],[-142.5190651266542,16.308638437813784],[-142.687375017443,16.385993640694096],[-142.86275028439803,16.464680571351437],[-143.04518775650968,16.544679533733643],[-143.23439182122547,16.625831840667047],[-143.43003709843327,16.707964654145599],[-143.63179820981946,16.790905137062566],[-143.83934977527184,16.874480452311161],[-144.05236641557752,16.958517764583291],[-144.27052275152369,17.042844234074266],[-144.49349340299807,17.127287026375313],[-144.72095299078782,17.211673302581005],[-144.95257613568003,17.295830226483929],[-145.18803745846185,17.379584960977297],[-145.42701157902107,17.462764668954435],[-145.66917311724549,17.545196513308554],[-145.91419669572085,17.626707656932979],[-146.16175693253632,17.707125263620185],[-146.41152845027767,17.786276494464801],[-146.6631858688327,17.863988515058054],[-146.9164038080892,17.940088486494574],[-147.17085688973359,18.014403571667629],[-147.42621973365371,18.08676093436975],[-147.68216695973732,18.156987737494205],[-147.93837318967087,18.224911143934264],[-148.1945130433422,18.290358316583195],[-148.45026114153836,18.353156417434832],[-148.70529210414722,18.413132611181197],[-148.95928055285515,18.470114059816126],[-149.21190110754998,18.523927927132263],[-149.46282838901885,18.5744013751235],[-149.71173701714955,18.621361566683106],[-149.95830161272917,18.664635664704292],[-150.20219679744417,18.704050833879023],[-150.44309719028303,18.739434235301871],[-150.68067741203285,18.770613032765368],[-150.91461208438011,18.797414388263519],[-151.14457582631326,18.819665466488232],[-151.37024325951873,18.837193429433341],[-151.59128900388433,18.849825439992173],[-151.80738768019719,18.857388661057996],[-152.01821390924442,18.859710255524021],[-152.22344231091384,18.856617387182837],[-152.42274750689185,18.847937218028335],[-152.61580411616694,18.83349691185316],[-152.80229999394948,18.813134913545582],[-152.98214527638331,18.786879189323258],[-153.15543454247009,18.754914959957603],[-153.32226795420263,18.717432206331409],[-153.48274567447322,18.674620912025603],[-153.63696786437535,18.626671056124508],[-153.78503468590196,18.573772622208878],[-153.92704630194518,18.516115590262416],[-154.06310287359867,18.453889943865931],[-154.19330456465386,18.38728566210375],[-154.31775153530504,18.316492727657419],[-154.43654394754506,18.241701123208429],[-154.54978196516547,18.163100827841049],[-154.65756574925985,18.08088182513626],[-154.75999546092171,17.995234096876231],[-154.8571712639426,17.906347622145177],[-154.94919331941608,17.814412385423395],[-155.03616178933504,17.7196183657951],[-155.11817683659166,17.622155546841157],[-155.19533862227951,17.522213908545154],[-155.26774730839148,17.419983433588754],[-155.33550305781978,17.315654102854694],[-155.39870603165795,17.209415898125314],[-155.45745639369753,17.101458800283524],[-155.51185430413275,16.99197279201087],[-155.56199992585582,16.88114785419026],[-155.60799341996028,16.769173968603923],[-155.64993495023768,16.656241117034085],[-155.68792467778158,16.542539280363656],[-155.72206276458485,16.428258441274181],[-155.75244937264034,16.313588579749307],[-155.77918466394101,16.198719677571205],[-155.802368801379,16.083841718320798],[-155.82210194604789,15.969144681082298],[-155.83848426083989,15.85481854853731],[-155.85161590684854,15.74105330246806],[-155.86159704696607,15.628038923757458],[-155.86852784318532,15.515965394187731],[-155.87250845659992,15.405022694641787],[-155.87363905100133,15.295400808700492],[-155.87201978658379,15.187289716347493],[-155.86775082623956,15.080879398465584],[-155.86093233196146,14.976359838635801],[-155.85165252004768,14.873897264847017],[-155.83992587947569,14.773511326386767],[-155.8257388035029,14.67516581115342],[-155.80907763052815,14.578824397328219],[-155.78992869984953,14.484450761293715],[-155.76827834806724,14.392008582130472],[-155.74411291358001,14.30146153712036],[-155.71741873478669,14.212773304444568],[-155.68818215008608,14.125907561384963],[-155.65638949787694,14.040827986122792],[-155.62202711475945,13.957498255939925],[-155.58508134093105,13.875882049017491],[-155.5455385129919,13.795943042637418],[-155.50338496934077,13.717644914980951],[-155.45860704837651,13.640951344229279],[-155.41119108849784,13.565826006764951],[-155.36112342810364,13.492232582567794],[-155.30839040379402,13.42013474712104],[-155.25297835486711,13.349496179505195],[-155.1948736197217,13.280280557002243],[-155.13406253585725,13.212451557793315],[-155.07053144167261,13.145972859160281],[-155.00426667466721,13.080808138385009],[-154.93525457413921,13.016921075447385],[-154.86348147758804,12.954275345830695],[-154.78893372341253,12.892834627716013],[-154.71159764911212,12.832562600183962],[-154.63145959308568,12.773422939617092],[-154.54850589463126,12.71537932419659],[-154.46272288944971,12.658395432103646],[-154.3740969186378,12.602434940620128],[-154.28261431789636,12.547461527927283],[-154.18826142652352,12.493438871306978],[-154.09102458201878,12.44033064894046],[-153.99089012278085,12.388100538109484],[-153.88784438720862,12.336712216995352],[-153.78187371370083,12.286129363779253],[-153.67296443975701,12.236315654843736],[-153.56110290377592,12.18723476926931],[-153.44627544415633,12.1388503843379],[-153.32846839839777,12.091126178230695],[-153.20766810489903,12.044025828229508],[-153.08386094972298,11.997513027804132],[-152.95705746572938,11.951559496873415],[-152.8273315547074,11.906158013881395],[-152.69476738240868,11.861304771098446],[-152.55944911638352,11.816995958996472],[-152.42146092508153,11.773227770745166],[-152.28088697515369,11.729996396816375],[-152.13781143415028,11.687298028581267],[-151.99231846962158,11.645128858310272],[-151.84449225001725,11.603485077374557],[-151.69441694108889,11.562362878044496],[-151.54217671218544,11.521758450791992],[-151.38785572905857,11.481667987887477],[-151.23153816015787,11.442087679802739],[-151.07330817303367,11.403013719707531],[-150.9132499343369,11.364442298973074],[-150.75144761251721,11.326369608071104],[-150.58798537512487,11.288791840171427],[-150.42294738881085,11.251705184846514],[-150.25641782112547,11.215105835266229],[-150.08848084051829,11.178989982801625],[-149.91922061364033,11.143353818823812],[-149.74872130804184,11.108193534704014],[-149.57706709127316,11.073505321813286],[-149.40434213088454,11.039285372422114],[-149.23063059442632,11.005529877901665],[-149.05601664944874,10.97223503052237],[-148.88058446260277,10.939397019856699],[-148.70441820233808,10.907012039973779],[-148.52760203620491,10.875076280446137],[-148.35022013175359,10.843585934443468],[-148.17235665563507,10.812537192437617],[-147.99409577539964,10.781926245799752],[-147.81552165859759,10.751749287699624],[-147.63671847367854,10.722002507709703],[-147.45777038729346,10.692682099899116],[-147.27876156789196,10.66378425294107],[-147.09977618122571,10.635305160904579],[-146.92089839574427,10.607241014261547],[-146.742212378998,10.579588004383027],[-146.56380229853715,10.552342323539563],[-146.38575232191204,10.525500163102208],[-146.20814661577361,10.499057714442131],[-146.03106937465182,10.473011946843997],[-145.85460565192921,10.447385545706481],[-145.67884153700723,10.422232184367942],[-145.50386318403864,10.3976073797769],[-145.32975674267945,10.373566652479155],[-145.15660836618306,10.350165519423342],[-144.98450420690355,10.327459499356564],[-144.81353041629558,10.305504111026039],[-144.64377314581395,10.284354873178984],[-144.47531854871198,10.264067303663296],[-144.30825277644439,10.24469692122608],[-144.14266198046593,10.226299243715289],[-143.97863231402999,10.208929790777347],[-143.81624992859122,10.192644080260209],[-143.65560097560444,10.177497630011771],[-143.496771608323,10.163545959678459],[-143.33984797730221,10.150844587108168],[-143.18491623579558,10.139449031048059],[-143.03206253525769,10.129414809346088],[-142.88137302804273,10.120797440749413],[-142.73293386650465,10.113652443105877],[-142.58683120119889,10.108035336961393],[-142.44315118537884,10.104001638365048],[-142.30197997049913,10.101606866963493],[-142.16340370891396,10.100906541503832],[-142.02750855297722,10.101956178934643],[-141.89438065504311,10.104811299801781],[-141.76410616566693,10.10952742105377],[-141.63677123720277,10.116160062337144],[-141.51246202290395,10.124764740600426],[-141.39126467422523,10.135396975490153],[-141.27326534262136,10.148112284854221],[-141.15855018044641,10.162966187439736],[-141.04720534005429,10.18001420109465],[-140.93931697289992,10.199311845465445],[-140.83497123133719,10.220914638399961],[-140.73425426772019,10.244878098645472],[-140.63725223350366,10.271257744049763],[-140.54405128194099,10.300109093360106],[-140.45473756268831,10.331487664424287],[-140.36939722989814,10.365448976888899],[-140.28811643502536,10.402048548601783],[-140.21098132952466,10.4413418983101],[-140.138066993297,10.483375546144657],[-140.0693397206515,10.528107607979848],[-140.00470406384136,10.575446025613701],[-139.94406386555488,10.625298164378933],[-139.88732296848013,10.677571387809451],[-139.83438521530536,10.732173063036555],[-139.78515444871874,10.789010553594323],[-139.73953451140846,10.847991223915983],[-139.69742924606277,10.90902244113289],[-139.6587424962691,10.97201156787969],[-139.623378102917,11.036865970388362],[-139.59123991049341,11.103493013092191],[-139.56223176078703,11.171800061323893],[-139.53625749738552,11.241694479516752],[-139.51322096117832,11.313083633902693],[-139.49302599755168,11.385874888015792],[-139.47557644739504,11.459975607188653],[-139.46077615339669,11.535293156753937],[-139.44852895914408,11.611734902044248],[-139.4387387073254,11.689208206593605],[-139.43130923972956,11.76762043663399],[-139.42614440084333,11.846878956598687],[-139.42314803155631,11.926891131820412],[-139.42222397455669,12.007564326732449],[-139.42327607433128,12.088805907566723],[-139.42620817266896,12.170523236957933],[-139.43092411225791,12.252623682037438],[-139.43732773488699,12.335014607238463],[-139.44532288504303,12.417603376994407],[-139.45481340451494,12.500297356637816],[-139.46570313599085,12.583003910602145],[-139.47789592305833,12.665630404219939],[-139.49129560750617,12.748084202823861],[-139.50580603202269,12.830272671746513],[-139.52133103929594,12.912103174522031],[-139.5377744729135,12.99348307738228],[-139.55504017556359,13.074319743861224],[-139.57303198903497,13.154520541090221],[-139.59165375691526,13.233992831703972],[-139.61080932099327,13.312643981934343],[-139.63040252485655,13.390381357114052],[-139.65033721029391,13.467112321676439],[-139.67051722179224,13.542744240054787]]]},"properties":{"objectid":3,"basin":"Pacific","prob2day":"20%","risk2day":"Low","prob7day":"80%","risk7day":"High","idp_source":"gtwo_areas_202608082328","idp_filedate":1786232302000,"idp_ingestdate":1786232388000,"st_area(shape)":104.92013701548981,"st_perimeter(shape)":41.182171822046264}},{"type":"Feature","id":4,"geometry":{"type":"Polygon","coordinates":[[[-109.03867259596342,16.842693752714638],[-109.14550633534901,16.941912783048622],[-109.25605997648665,17.03983446398945],[-109.37024113921711,17.136452834830607],[-109.48795744338122,17.231761933966197],[-109.6091165115177,17.325755797991803],[-109.733625962568,17.418428467999547],[-109.86139341727227,17.509773979685576],[-109.99232649637059,17.599786374142013],[-110.12633282060307,17.688459687065063],[-110.26332001070983,17.775787958647527],[-110.4031956865316,17.86176522728357],[-110.54586746880852,17.946385530467978],[-110.69124297828074,18.029642907494349],[-110.83922983478897,18.111531395857355],[-110.98973565997261,18.192045033951274],[-111.14266807367255,18.271177861968908],[-111.29793469752815,18.348923915606349],[-111.45544314958158,18.425277235955832],[-111.61510105327091,18.500231859612768],[-111.77681602663824,18.573781824971377],[-111.94049569222233,18.645921171325142],[-112.10604766896466,18.71664393706817],[-112.27337957850466,18.785944159695362],[-112.44239904068309,18.853815878500143],[-112.61301367713941,18.920253131876677],[-112.78513110681502,18.985249957319809],[-112.95865895134943,19.04880039412302],[-113.13350483058338,19.110898480680476],[-113.30957636615625,19.171538254487018],[-113.48678117700962,19.230713754836074],[-113.66502688568215,19.288419020121808],[-113.84422111021598,19.344648087839118],[-114.02427147314989,19.399394998180753],[-114.2050855943246,19.452653787742236],[-114.3865710944803,19.504418494917729],[-114.56863559435709,19.554683159900037],[-114.75118671289641,19.603441819284683],[-114.93413021823488,19.650686340502375],[-115.11734670018996,19.696379111207136],[-115.30069860385737,19.740461271670483],[-115.48404797503395,19.782873493616989],[-115.6672568604157,19.823556450569868],[-115.85018730579941,19.862450812455165],[-116.03270135608261,19.899497251896776],[-116.21466105706202,19.934636441518705],[-116.39592845453444,19.967809053045528],[-116.57636559429665,19.998955758201816],[-116.75583452214539,20.028017229611578],[-116.93419728297812,20.054934138100123],[-117.11131592349096,20.079647157190664],[-117.28705248948069,20.102096957708568],[-117.46126902584479,20.122224211378409],[-117.63382757927928,20.1399695917234],[-117.80459019468162,20.155273768669645],[-117.97341891694936,20.168077416639619],[-118.14017579367783,20.178321205559314],[-118.30472286976453,20.185945808052736],[-118.46692219010691,20.190891896743778],[-118.62663580140099,20.193100142457752],[-118.78372574854438,20.192511218717925],[-118.93805407823305,20.189065795450233],[-119.08948283626381,20.182704547077321],[-119.23787406663479,20.173368143525124],[-119.38308981694138,20.160997257417648],[-119.52499213118182,20.145532561378729],[-119.66344305695145,20.126914727133112],[-119.79830463824834,20.105084425505993],[-119.92943892176874,20.079982330020641],[-120.05670795240997,20.051549112401744],[-120.17997377686822,20.019725444373876],[-120.29909844004089,19.984451997661722],[-120.41394398862406,19.9456694439898],[-120.52437246661594,19.903318455982117],[-120.6302459216119,19.857339706262565],[-120.73142697857213,19.807674312619554],[-120.82784856515906,19.754317540122543],[-120.91958013961164,19.697369809769043],[-121.00670684704329,19.636943624948458],[-121.0893138325672,19.573151488150813],[-121.16748624219622,19.506105901866022],[-121.24130922194297,19.435919369483429],[-121.31086791512212,19.362704393493118],[-121.37624746864566,19.286573477284264],[-121.43753302762701,19.207639124246327],[-121.49480973717954,19.12601383686922],[-121.54816274331586,19.041810117642967],[-121.59767719025001,18.955140469956859],[-121.64343822489406,18.866117396300922],[-121.68553099056265,18.774853400064501],[-121.72404063506718,18.681460983737566],[-121.75905230172225,18.586052651608725],[-121.79065113654065,18.488740904369365],[-121.81892228463562,18.389638246308152],[-121.84395089291928,18.288857180814375],[-121.8658221047063,18.18651020947874],[-121.88462106600929,18.0827098365898],[-121.90043292284105,17.977568563738373],[-121.91334282031482,17.871198895212956],[-121.92343590354403,17.763713332604368],[-121.93079731764198,17.655224379301785],[-121.93551220862145,17.545844538694666],[-121.93766572159569,17.435686314172187],[-121.93734300167807,17.324862207325168],[-121.93462919488132,17.213484721542784],[-121.92960944541949,17.101666360214494],[-121.9223689002045,16.989519625830212],[-121.91299270255109,16.877157020879963],[-121.90156600027058,16.764691049652356],[-121.88817393667773,16.652234213738097],[-121.8729016586845,16.539899016526533],[-121.85583431050492,16.427797961406952],[-121.83705703725235,16.316043550869324],[-121.81663778180808,16.204738098084874],[-121.79454401659302,16.093924410783075],[-121.77070685084038,15.983623757030898],[-121.74505734432091,15.873857377915783],[-121.71752655500643,15.764646512726529],[-121.68804554266757,15.65601240075182],[-121.65654536707495,15.547976281280512],[-121.62295708530115,15.440559393601291],[-121.58721175801611,15.333782977902274],[-121.54924044409114,15.227668272572885],[-121.50897420149812,15.122236519599824],[-121.46634409000768,15.017508955573987],[-121.42128116849102,14.9135068215827],[-121.37371649581951,14.810251357814025],[-121.32358113176372,14.707763801758176],[-121.27080613429558,14.60606539450248],[-121.21532256318562,14.505177375335734],[-121.15706147640594,14.405120983546681],[-121.09595393462627,14.305917459323439],[-121.0319309958187,14.207588041055374],[-120.96492371885444,14.110153968031341],[-120.89486316350411,14.013636481338665],[-120.8216803877396,13.918056820266202],[-120.74530645133154,13.823436223203259],[-120.66567241315124,13.729795930338071],[-120.58270933296927,13.637157180959264],[-120.49634826875752,13.545541215255014],[-120.40652027938728,13.454969271614743],[-120.3131564246292,13.365462590226514],[-120.21618776245521,13.277042411278387],[-120.11554535353514,13.189729973159899],[-120.01116025584105,13.103546516058998],[-119.90296352824413,13.018513279264539],[-119.79088623051501,12.934651502065321],[-119.67485942062569,12.851982424649293],[-119.55481415834663,12.770527285406047],[-119.43068150254919,12.69030732542285],[-119.30239800426438,12.611343410769905],[-119.17002652790183,12.533647848669432],[-119.03375625035056,12.457224381200376],[-118.893781842458,12.382076381719799],[-118.75029797327278,12.308207222685326],[-118.60349931184368,12.235620275655322],[-118.4535805290181,12.164318913087527],[-118.30073629474413,12.094306505640873],[-118.1451612771711,12.025586427571739],[-117.98705014624716,11.958162048639792],[-117.82659757192033,11.892036743101357],[-117.66399822503797,11.827213881615478],[-117.49944677285021,11.763696836639838],[-117.3331378871037,11.701488979732744],[-117.16526623684723,11.640593684251257],[-116.99602649112956,11.581014320854365],[-116.82561331989871,11.522754261999751],[-116.65422139310272,11.465816881044361],[-116.48204537979035,11.410205547747978],[-116.30927994990969,11.355923636366867],[-116.13611977430804,11.302974517560074],[-115.9627595211349,11.251361563785281],[-115.78939386033829,11.201088146600796],[-115.61621746096694,11.152157639363679],[-115.44342499476761,11.104573413632295],[-115.27121112899033,11.058338840065574],[-115.0997705344825,11.013457292919895],[-114.92929788119216,10.969932142854248],[-114.75998783816812,10.927766762326371],[-114.59203507535835,10.886964523793893],[-114.42563426181164,10.847528798815176],[-114.26098006837537,10.809462958948529],[-114.09826716319895,10.772770376651692],[-113.93769021712973,10.737454425281612],[-113.77944389921646,10.70351847549739],[-113.62372287940724,10.670965898857276],[-113.47072182675083,10.63980006871833],[-113.32063532845757,10.610024359336876],[-113.17359749862555,10.581643672917323],[-113.02957538519576,10.554667138477782],[-112.88850742507753,10.529104608091302],[-112.7503320560794,10.504965932032292],[-112.61498771601021,10.48226096327295],[-112.48241284267846,10.460999552987118],[-112.35254587479221,10.441191553247734],[-112.22532524926078,10.422846815228468],[-112.10068940479209,10.405975190103049],[-111.97857677739626,10.390586531743168],[-111.85892580668053,10.376690689523855],[-111.74167492955428,10.364297516417366],[-111.62676258382606,10.353416863597488],[-111.514127208204,10.344058583137212],[-111.40370723869802,10.336232526210267],[-111.29544111491543,10.329948544889589],[-111.18926727376555,10.325216490348907],[-111.08512415305711,10.322046214661214],[-110.98295019059873,10.320447569899557],[-110.88268382509835,10.320430408136986],[-110.78426349346535,10.322004579647796],[-110.68762763260906,10.325179936504981],[-110.59271468213677,10.329966331681021],[-110.49946307895783,10.33637361455078],[-110.40781126178018,10.34441163898606],[-110.31769766661392,10.354090256160532],[-110.22906073216694,10.365419317247813],[-110.1418388971473,10.378408674321008],[-110.05597059756491,10.393068178553733],[-109.97139427302716,10.409407682019037],[-109.88804836044341,10.427437035890648],[-109.80587129762222,10.447166093140822],[-109.72480152237227,10.468604704043969],[-109.64477747250226,10.491762721572456],[-109.56573758582084,10.516649996899957],[-109.48762030013665,10.543276381200144],[-109.41036405325838,10.571651726546065],[-109.33391495331233,10.601784968601578],[-109.25828587049642,10.6336770705405],[-109.18352404709702,10.667324891031058],[-109.10967701228418,10.702725253667666],[-109.03679229342953,10.739874982944229],[-108.96491741880374,10.778770903354655],[-108.8940999166777,10.819409839392733],[-108.82438731442295,10.861788615552314],[-108.75582714120952,10.905904054528605],[-108.68846692440894,10.951752982614209],[-108.62235419229205,10.999332222504222],[-108.55753647223031,11.048638599591811],[-108.49406129249456,11.09966893747162],[-108.43197618225491,11.152420061536759],[-108.37132866798356,11.206888794482438],[-108.31216627885061,11.263071961701826],[-108.25453654222753,11.32096638768877],[-108.19848698728453,11.380568895138538],[-108.14406514049375,11.441876310343559],[-108.09131853012599,11.504885455999158],[-108.04029468535134,11.569593157498332],[-107.99104113354139,11.63599623843578],[-107.94360540206753,11.704091524204614],[-107.8980350201,11.773875837500043],[-107.85437751501019,11.845346003715235],[-107.81268041596832,11.91849884644472],[-107.77299124854716,11.993331190182403],[-107.73535754371557,12.069839860321451],[-107.69982682794563,12.148021679557019],[-107.66644662860892,12.22787347328233],[-107.63526447577482,12.309392064192537],[-107.60632789591557,12.392574278580241],[-107.57968441730191,12.477416940039916],[-107.55538156820472,12.563916873065352],[-107.53346687599543,12.65207090035193],[-107.51398786984424,12.741875848191967],[-107.49699207802189,12.833328540180105],[-107.48252690379348,12.926425138909167],[-107.47063416563412,13.021131818179015],[-107.46134792806436,13.117373141957046],[-107.45470168543432,13.215070609321288],[-107.4507289311951,13.314145720248916],[-107.44946315879764,13.414519972918526],[-107.4509378634915,13.516114867307408],[-107.45518653782835,13.618851901594098],[-107.4622426761585,13.722652575755887],[-107.47213977283218,13.82743838797137],[-107.48491132219965,13.933130838217721],[-107.50059081591331,14.03965142557297],[-107.51921175012205,14.146921648215653],[-107.54080761737754,14.254863006122946],[-107.56541191203002,14.363396997473615],[-107.59305812842979,14.472445123144041],[-107.62377975912847,14.581928880413614],[-107.65761030027505,14.691769769259565],[-107.69458324352178,14.80188928786049],[-107.73473208321894,14.912208937092885],[-107.77809031461624,15.022650214236137],[-107.82469142936588,15.133134619267423],[-107.87456892361683,15.243583652163977],[-107.92775628992075,15.353918810205073],[-107.98428702262788,15.464061593368001],[-108.04419461518927,15.573933500730618],[-108.10751256195505,15.683456031370895],[-108.17427435727569,15.792550684366745],[-108.2445134937027,15.901138959695345],[-108.31826346558637,16.009142354636083],[-108.39555776817639,16.116482370065455],[-108.47642989312499,16.223080503262736],[-108.56091333568179,16.328858255104535],[-108.64904159019716,16.43373712466871],[-108.74084814922259,16.537638609234591],[-108.83636650710849,16.640484209678675],[-108.93563015820513,16.742195424179613],[-109.03867259596342,16.842693752714638]]]},"properties":{"objectid":4,"basin":"Pacific","prob2day":"0%","risk2day":"Low","prob7day":"20%","risk7day":"Low","idp_source":"gtwo_areas_202608082328","idp_filedate":1786232302000,"idp_ingestdate":1786232388000,"st_area(shape)":105.43522981125204,"st_perimeter(shape)":38.941086116281951}},{"type":"Feature","id":5,"geometry":{"type":"Polygon","coordinates":[[[-137.1332986876842,18.822478766182257],[-137.25212345753147,18.741331463076676],[-137.36535038741039,18.655102732305409],[-137.47298587239999,18.564025741994556],[-137.57503630398213,18.468333661169652],[-137.67150807813522,18.36825965615833],[-137.76240758813958,18.264036897784763],[-137.8477412263764,18.155898553275733],[-137.9275153879247,18.044077790757569],[-138.00173646606498,17.928807780155068],[-138.0704108549769,17.810321687795806],[-138.13354494884021,17.6888526845039],[-138.1911451400361,17.564633936607038],[-138.24321782274421,17.437898614029962],[-138.2897693920437,17.308879883999566],[-138.33080623941635,17.177810916440762],[-138.36633476084046,17.044924877681126],[-138.39636134869721,16.910454938544717],[-138.42089239716631,16.774634265359225],[-138.43993430042752,16.63769602804939],[-138.45349345176129,16.499873394741485],[-138.46157624444805,16.36139953356178],[-138.46418907356679,16.222507612636377],[-138.46133833149872,16.083430801890131],[-138.45303041242352,15.944402267650673],[-138.43927171142025,15.805655179842802],[-138.42006861997072,15.667422706592788],[-138.39542753405334,15.529938016026733],[-138.36535484604923,15.393434276270966],[-138.32985695013804,15.258144657250284],[-138.28894023960027,15.124302326191525],[-138.24261110861568,14.992140451220962],[-138.19087595136398,14.861892201364128],[-138.13374116112561,14.733790745646559],[-138.07122526303539,14.608047558747955],[-138.00344313199486,14.484701843015785],[-137.93055558477232,14.36371064503038],[-137.85272372501981,14.245030506852572],[-137.77010865279203,14.128617969643699],[-137.68287147084163,14.014429576364023],[-137.59117328012269,13.902421868174827],[-137.49517518338791,13.792551387136939],[-137.39503828159133,13.684774673512493],[-137.29092367658632,13.5790482711609],[-137.18299247022622,13.475328721243613],[-137.07140576436444,13.373572564022766],[-136.95632466085431,13.273736343357712],[-136.83791026064995,13.175776599510584],[-136.71632366650391,13.079649875441532],[-136.59172597937038,12.985312711412632],[-136.46427830200196,12.892721650383976],[-136.3341417344534,12.801833233517073],[-136.20147738037673,12.712604002872581],[-136.06644633982665,12.624990500511331],[-135.92920971555583,12.538949267594774],[-135.7899286094177,12.454436845284306],[-135.64876412236629,12.371409776540077],[-135.50587735625487,12.289824603422858],[-135.36142941383628,12.209637866194726],[-135.21558139516515,12.130806107815772],[-135.06849440389351,12.05328586854813],[-134.92032954007612,11.977033692251212],[-134.77124790646565,11.902006119187206],[-134.62141060401609,11.828159691416772],[-134.47097873548017,11.755450951000739],[-134.32011340181197,11.683836439999823],[-134.16897570486481,11.613272698676212],[-134.01772255475203,11.543717584798856],[-133.86643559013027,11.475152544454488],[-133.71513134863272,11.407579432045281],[-133.5638242203114,11.341000774666156],[-133.41252859252046,11.275419099412034],[-133.26125885711048,11.210836931579252],[-133.11002940143561,11.147256798262788],[-132.9588546164473,11.084681226557507],[-132.8077488903989,11.023112743558386],[-132.65672661334247,10.96255387456182],[-132.50580217533002,10.903007147561937],[-132.35498996461507,10.844475088754507],[-132.20430437124963,10.786960225234338],[-132.05375978438644,10.730465082297826],[-131.90337059317824,10.674992188838587],[-131.7531511885764,10.620544069253526],[-131.60311595793502,10.567123252436261],[-131.45327929220548,10.514732263683186],[-131.30365558054052,10.463373629189789],[-131.15425921209288,10.413049876950424],[-131.0051045760153,10.363763533160636],[-130.85620606235977,10.315517124016196],[-130.70757806027916,10.268313177511288],[-130.55923495892614,10.222154218942194],[-130.41119114835271,10.177042775403891],[-130.26346101681241,10.132981373991356],[-130.11605895525651,10.089972540900192],[-129.96899935283778,10.048018803225318],[-129.82229659780967,10.007122687162394],[-129.67596508112348,9.9672867198063955],[-129.53001919103275,9.9285134282522449],[-129.38447331669011,9.8908053377962233],[-129.23934184904698,9.854164976432628],[-129.09463907653208,9.8185951545428907],[-128.95037326301559,9.7841157093725997],[-128.80654333650568,9.7507728741689448],[-128.66314741921792,9.7186151484704624],[-128.5201836342672,9.6876910363124011],[-128.37765010656705,9.6580490381327309],[-128.23554495923241,9.6297376570673805],[-128.09386631537808,9.6028053935542061],[-127.95261229721967,9.5773007507291936],[-127.81178103056999,9.5532722290302559],[-127.67137063764471,9.5307683315933787],[-127.53137924155868,9.5098375606550576],[-127.39180496542673,9.4905284157539427],[-127.25264593416244,9.4728894009252258],[-127.11390027088072,9.4569690175063101],[-126.97556609779707,9.4428157677336344],[-126.83764153982509,9.4304781520452252],[-126.70012471918034,9.4200046735769547],[-126.56301375987704,9.4114438336661124],[-126.42630678592934,9.4048441336499877],[-126.29000191955288,9.4002540766644529],[-126.15409728566112,9.3977221640467974],[-126.01859100646971,9.3972968980335736],[-125.88348120509346,9.3990267790627513],[-125.74876600644598,9.4029603102702595],[-125.61444353364209,9.4091459929933308],[-125.48051190889737,9.4176323294685744],[-125.34696925712541,9.4284678219325997],[-125.21381370054178,9.4417009708232627],[-125.08104336316057,9.457380279276606],[-124.94865636899613,9.4755542486298054],[-124.81665084116332,9.4962713811194703],[-124.68502490187763,9.5195801780828901],[-124.5537767174215,9.545529116575608],[-124.42294519696316,9.5741419135186447],[-124.29268645921263,9.6053710604262506],[-124.16317756629155,9.6391563216071177],[-124.03459558391899,9.6754374613698815],[-123.90711757331724,9.7141542431239714],[-123.78092059930611,9.7552464320773424],[-123.65618172490656,9.7986537907399907],[-123.53307801403901,9.8443160825213454],[-123.41178652972445,9.8921730735286815],[-123.29248433588333,9.9421645262719949],[-123.17534849643584,9.9942302050600347],[-123.0605560735039,10.048309873302173],[-122.94828413190709,10.104343296206309],[-122.83870973556577,10.162270237181815],[-122.73200994570232,10.2220304587388],[-122.62836182803585,10.283563726984539],[-122.52794244558731,10.346809805328405],[-122.43092886137777,10.411708456280394],[-122.33749813932758,10.478199445947837],[-122.24782734245781,10.546222535941411],[-122.1620935355881,10.615717492368503],[-122.08047377994092,10.686624078638431],[-122.00314514123517,10.758882057261246],[-121.93028468249202,10.832431194344281],[-121.86206946673241,10.907211252397531],[-121.79867655697745,10.983161995729631],[-121.74028301804674,11.060223188649388],[-121.68706591206211,11.138334594566004],[-121.63920230384315,11.217435977788284],[-121.59686925641097,11.297467101725488],[-121.56024383368589,11.378367731585683],[-121.52950309778964,11.460077629878867],[-121.50482411444125,11.542536561812994],[-121.48633832495364,11.625680456987652],[-121.4739218962784,11.709423798869352],[-121.46736224846887,11.793673613746421],[-121.46644671524365,11.878336920712457],[-121.47096262582443,11.963320737062475],[-121.48069731303048,12.048532083688826],[-121.49543810698293,12.133877977886527],[-121.51497234140032,12.219265437849799],[-121.53908734640385,12.30460148447105],[-121.56757045391322,12.389793134145975],[-121.60020899584839,12.474747407766813],[-121.63679030322982,12.559371322628579],[-121.67710170797733,12.643571897824984],[-121.72093054201082,12.727256152449627],[-121.76806413545143,12.810331104696843],[-121.81828982201756,12.892703773660344],[-121.87139493093122,12.974281178433785],[-121.92716679591081,13.054970337211444],[-121.98539274707753,13.134678269086976],[-122.04586011635121,13.213311993154093],[-122.10835623565168,13.290778527607074],[-122.17266843689873,13.36698489064031],[-122.23858405021366,13.441838102246777],[-122.30589040931483,13.515245180620752],[-122.37437484342416,13.587113144855891],[-122.44382468536082,13.657349013146586],[-122.51402726704464,13.725859803687115],[-122.58476991949607,13.792552537369829],[-122.65583997373568,13.857334231489745],[-122.72702476258263,13.920111904241139],[-122.79811161705737,13.980792575616988],[-122.86888786818048,14.03928326381174],[-122.93914084877105,14.095490987019559],[-123.00867522248342,14.149336284741878],[-123.07749715327094,14.20089685570548],[-123.14574280388717,14.250351794499863],[-123.21355050355282,14.297881885540733],[-123.28105858148825,14.343667913243735],[-123.34840536691405,14.387890662024574],[-123.41572918995007,14.430730915399579],[-123.48316837981679,14.472369458683715],[-123.55086126483542,14.512987076292688],[-123.61894617512581,14.552764551742825],[-123.68756144080777,14.591882669449774],[-123.75684538930318,14.630522214728558],[-123.82693635163122,14.668863970196185],[-123.89797265701242,14.707088722066999],[-123.97009263376793,14.745377253857328],[-124.04343461201762,14.783910349982818],[-124.11813692098201,14.822868794859119],[-124.19433789078096,14.86243337200267],[-124.27217584883624,14.902784866728382],[-124.35178912616715,14.944104063451903],[-124.4333160519941,14.986571745689673],[-124.51689495463836,15.030368698756604],[-124.60266416511905,15.075675706169022],[-124.69076201085801,15.12267355234269],[-124.78132682197514,15.171543021693253],[-124.8744969285903,15.222464898636304],[-124.97041065992391,15.275619968486922],[-125.06920634429724,15.331189013862058],[-125.17102231093082,15.389352820076738],[-125.27599689084377,15.450292171546607],[-125.38426841235724,15.514187851788051],[-125.49597520469183,15.581220646116037],[-125.61125559796739,15.651571338046949],[-125.73024465956331,15.725414837624783],[-125.85297856740686,15.802747868619406],[-125.97937917131162,15.883361156991953],[-126.10936194939438,15.967033953354417],[-126.24284238336918,16.053545507419358],[-126.3797359522523,16.14267506889945],[-126.51995813685846,16.234201889305893],[-126.6634244171031,16.327905217451985],[-126.81005027290166,16.423564304848924],[-126.95975118506902,16.520958400310064],[-127.11244263172199,16.619866755346607],[-127.26804009547396,16.720068619671224],[-127.42645905534101,16.82134324299642],[-127.58761499033943,16.923469875934188],[-127.75142338218325,17.026227769096408],[-127.91779970988858,17.129396173095074],[-128.08665945516964,17.232754336743369],[-128.25791809614316,17.336081510653344],[-128.43149111362391,17.439156945436821],[-128.60729398752738,17.541759891705794],[-128.78524219866847,17.643669599172824],[-128.96525122696244,17.744665317550528],[-129.14723655142564,17.844526297450784],[-129.33111365377204,17.943031790384964],[-129.51679801301782,18.039961044266931],[-129.70420510907843,18.135093310607942],[-129.89325042276869,18.228207840019934],[-130.08384943490341,18.319083882215523],[-130.27591762359936,18.407500686907326],[-130.46937046967133,18.493237504707224],[-130.66412345393417,18.576073586227153],[-130.86009205630324,18.65578818117973],[-131.0571917557948,18.732160540176949],[-131.2553378263795,18.804970230391973],[-131.45441177338455,18.874048253024625],[-131.65422430121043,18.939333472162161],[-131.85457719568097,19.000778330755509],[-132.05527224531778,19.058335272654858],[-132.25611123504535,19.111956742609721],[-132.45689595428479,19.161595184470343],[-132.65742818796042,19.20720304208686],[-132.85750972549334,19.248732759309519],[-133.056942351808,19.286136779988567],[-133.2555278545268,19.319367548873402],[-133.45306802127209,19.348377508915064],[-133.64936463966632,19.373119104862951],[-133.8442194955332,19.393544780567311],[-134.03743437649518,19.409606979878333],[-134.22881106927537,19.421258146646267],[-134.41815136149603,19.428450725620621],[-134.60525703988037,19.431137159752268],[-134.78992989205079,19.429269893790718],[-134.971971703831,19.422801370686841],[-135.15118426374266,19.411684036089525],[-135.32736935850897,19.395870332050322],[-135.50032877395364,19.375312704218061],[-135.66986429949776,19.349963596442933],[-135.83577772006566,19.319775451675866],[-135.99787082327975,19.284700713767052],[-136.15594539766187,19.244691828365319],[-136.30980322813639,19.19970123842154],[-136.45924610322498,19.149681386886641],[-136.60407580875147,19.094584720308717],[-136.74409413323758,19.034363680739432],[-136.87910286340633,18.968970712028863],[-137.00890378598086,18.898358258926635],[-137.1332986876842,18.822478766182257]]]},"properties":{"objectid":5,"basin":"Pacific","prob2day":"10%","risk2day":"Low","prob7day":"50%","risk7day":"Medium","idp_source":"gtwo_areas_202608082328","idp_filedate":1786232302000,"idp_ingestdate":1786232388000,"st_area(shape)":110.07434083408359,"st_perimeter(shape)":42.217259840466262}}]}