{
"type": "FeatureCollection",
"name": "al092021_2021082718_initialradii",
"features": [
{ "type": "Feature", "properties": { "RADII": 34.0, "STORMID": "al092021", "BASIN": "al", "STORMNUM": 9.0, "ADVNUM": "5A", "VALIDTIME": "2021082718", "SYNOPTIME": "2021082712", "TIMEZONE": "UTC", "TAU": 0.0, "NE": 80.0, "SE": 60.0, "SW": 37.0, "NW": 60.0 }, "geometry": { "type": "Polygon", "coordinates": [ [ [ -82.6885, 22.7652 ], [ -82.7105, 22.7615 ], [ -82.7324, 22.7575 ], [ -82.7541, 22.7531 ], [ -82.7757, 22.7483 ], [ -82.7971, 22.7432 ], [ -82.8183, 22.7378 ], [ -82.8394, 22.7321 ], [ -82.8603, 22.726 ], [ -82.8809, 22.7195 ], [ -82.9014, 22.7128 ], [ -82.9217, 22.7057 ], [ -82.9418, 22.6983 ], [ -82.9616, 22.6906 ], [ -82.9813, 22.6826 ], [ -83.0007, 22.6743 ], [ -83.0199, 22.6657 ], [ -83.0388, 22.6568 ], [ -83.0576, 22.6477 ], [ -83.076, 22.6382 ], [ -83.0942, 22.6285 ], [ -83.1122, 22.6184 ], [ -83.1299, 22.6082 ], [ -83.1473, 22.5976 ], [ -83.1645, 22.5868 ], [ -83.1814, 22.5758 ], [ -83.198, 22.5645 ], [ -83.2144, 22.553 ], [ -83.2304, 22.5412 ], [ -83.2462, 22.5292 ], [ -83.2617, 22.517 ], [ -83.2768, 22.5046 ], [ -83.2917, 22.4919 ], [ -83.3063, 22.4791 ], [ -83.3206, 22.466 ], [ -83.3345, 22.4528 ], [ -83.3482, 22.4394 ], [ -83.3615, 22.4258 ], [ -83.3745, 22.412 ], [ -83.3872, 22.3981 ], [ -83.3996, 22.3839 ], [ -83.4116, 22.3697 ], [ -83.4233, 22.3552 ], [ -83.4347, 22.3406 ], [ -83.4456, 22.3258 ], [ -83.4562, 22.3108 ], [ -83.4663, 22.2957 ], [ -83.4761, 22.2804 ], [ -83.4855, 22.2649 ], [ -83.4945, 22.2494 ], [ -83.5031, 22.2337 ], [ -83.5114, 22.2178 ], [ -83.5192, 22.202 ], [ -83.5268, 22.186 ], [ -83.534, 22.17 ], [ -83.5408, 22.1539 ], [ -83.5472, 22.1378 ], [ -83.5534, 22.1217 ], [ -83.5591, 22.1055 ], [ -83.5646, 22.0893 ], [ -83.5696, 22.073 ], [ -83.5744, 22.0568 ], [ -83.5788, 22.0405 ], [ -83.5828, 22.0242 ], [ -83.5865, 22.008 ], [ -83.5898, 21.9917 ], [ -83.5929, 21.9755 ], [ -83.5955, 21.9593 ], [ -83.5979, 21.9431 ], [ -83.5999, 21.9269 ], [ -83.6015, 21.9108 ], [ -83.6029, 21.8947 ], [ -83.6039, 21.8787 ], [ -83.6046, 21.8628 ], [ -83.6049, 21.8469 ], [ -83.605, 21.831 ], [ -83.6047, 21.8153 ], [ -83.6041, 21.7996 ], [ -83.6032, 21.784 ], [ -83.602, 21.7685 ], [ -83.6005, 21.7531 ], [ -83.5987, 21.7378 ], [ -83.5965, 21.7226 ], [ -83.5941, 21.7075 ], [ -83.5914, 21.6925 ], [ -83.5884, 21.6776 ], [ -83.5851, 21.6629 ], [ -83.5816, 21.6483 ], [ -83.5777, 21.6338 ], [ -83.5736, 21.6195 ], [ -83.5693, 21.6053 ], [ -83.5646, 21.5912 ], [ -83.5597, 21.5774 ], [ -83.5545, 21.5636 ], [ -83.5491, 21.55 ], [ -83.5435, 21.5366 ], [ -83.5376, 21.5234 ], [ -83.5314, 21.5103 ], [ -83.5251, 21.4974 ], [ -83.5185, 21.4847 ], [ -83.5117, 21.4721 ], [ -83.5046, 21.4598 ], [ -83.4974, 21.4476 ], [ -83.4899, 21.4356 ], [ -83.4822, 21.4239 ], [ -83.4744, 21.4123 ], [ -83.4663, 21.4009 ], [ -83.4581, 21.3897 ], [ -83.4496, 21.3788 ], [ -83.441, 21.368 ], [ -83.4322, 21.3574 ], [ -83.4233, 21.3471 ], [ -83.4142, 21.337 ], [ -83.4049, 21.3271 ], [ -83.3955, 21.3174 ], [ -83.3859, 21.3079 ], [ -83.3762, 21.2987 ], [ -83.3664, 21.2897 ], [ -83.3564, 21.2809 ], [ -83.3463, 21.2723 ], [ -83.3361, 21.264 ], [ -83.3258, 21.2559 ], [ -83.3153, 21.248 ], [ -83.3048, 21.2404 ], [ -83.2941, 21.233 ], [ -83.2834, 21.2258 ], [ -83.2726, 21.2189 ], [ -83.2617, 21.2122 ], [ -83.2507, 21.2057 ], [ -83.2397, 21.1995 ], [ -83.2286, 21.1935 ], [ -83.2174, 21.1878 ], [ -83.2066, 21.1819 ], [ -83.1964, 21.1756 ], [ -83.1868, 21.1689 ], [ -83.1778, 21.1616 ], [ -83.1694, 21.1538 ], [ -83.1615, 21.1454 ], [ -83.1542, 21.1365 ], [ -83.1474, 21.1271 ], [ -83.141, 21.117 ], [ -83.1348, 21.1066 ], [ -83.1283, 21.0963 ], [ -83.1216, 21.086 ], [ -83.1146, 21.0758 ], [ -83.1074, 21.0657 ], [ -83.0999, 21.0557 ], [ -83.0921, 21.0457 ], [ -83.0841, 21.0359 ], [ -83.0759, 21.0261 ], [ -83.0674, 21.0164 ], [ -83.0586, 21.0069 ], [ -83.0497, 20.9974 ], [ -83.0404, 20.988 ], [ -83.0309, 20.9788 ], [ -83.0212, 20.9697 ], [ -83.0113, 20.9607 ], [ -83.0011, 20.9519 ], [ -82.9906, 20.9431 ], [ -82.98, 20.9346 ], [ -82.9691, 20.9261 ], [ -82.958, 20.9179 ], [ -82.9466, 20.9098 ], [ -82.935, 20.9018 ], [ -82.9232, 20.894 ], [ -82.9112, 20.8864 ], [ -82.899, 20.879 ], [ -82.8866, 20.8717 ], [ -82.8739, 20.8647 ], [ -82.861, 20.8578 ], [ -82.848, 20.8511 ], [ -82.8347, 20.8446 ], [ -82.8213, 20.8384 ], [ -82.8076, 20.8323 ], [ -82.7938, 20.8265 ], [ -82.7797, 20.8208 ], [ -82.7655, 20.8154 ], [ -82.7512, 20.8102 ], [ -82.7366, 20.8053 ], [ -82.7219, 20.8006 ], [ -82.707, 20.7961 ], [ -82.6919, 20.7918 ], [ -82.6767, 20.7878 ], [ -82.6614, 20.7841 ], [ -82.6459, 20.7806 ], [ -82.6302, 20.7774 ], [ -82.6145, 20.7744 ], [ -82.5985, 20.7717 ], [ -82.5825, 20.7693 ], [ -82.5664, 20.7671 ], [ -82.5501, 20.7652 ], [ -82.5337, 20.7636 ], [ -82.5172, 20.7622 ], [ -82.5006, 20.7612 ], [ -82.4839, 20.7604 ], [ -82.4672, 20.7599 ], [ -82.4503, 20.7598 ], [ -82.4334, 20.7599 ], [ -82.4164, 20.7603 ], [ -82.3993, 20.761 ], [ -82.3822, 20.762 ], [ -82.365, 20.7633 ], [ -82.3478, 20.7649 ], [ -82.3305, 20.7668 ], [ -82.3132, 20.769 ], [ -82.2959, 20.7715 ], [ -82.2785, 20.7744 ], [ -82.2611, 20.7775 ], [ -82.2438, 20.781 ], [ -82.2264, 20.7848 ], [ -82.209, 20.7889 ], [ -82.1916, 20.7933 ], [ -82.1743, 20.7981 ], [ -82.1569, 20.8031 ], [ -82.1396, 20.8085 ], [ -82.1224, 20.8142 ], [ -82.1051, 20.8202 ], [ -82.0879, 20.8266 ], [ -82.0708, 20.8333 ], [ -82.0538, 20.8403 ], [ -82.0368, 20.8476 ], [ -82.0199, 20.8552 ], [ -82.0031, 20.8632 ], [ -81.9864, 20.8715 ], [ -81.9699, 20.8802 ], [ -81.9535, 20.8893 ], [ -81.9373, 20.8987 ], [ -81.9213, 20.9085 ], [ -81.9054, 20.9186 ], [ -81.8898, 20.9291 ], [ -81.8743, 20.9399 ], [ -81.859, 20.951 ], [ -81.8439, 20.9624 ], [ -81.8289, 20.9742 ], [ -81.8142, 20.9862 ], [ -81.7996, 20.9985 ], [ -81.7852, 21.0111 ], [ -81.771, 21.024 ], [ -81.757, 21.0371 ], [ -81.7432, 21.0506 ], [ -81.7296, 21.0643 ], [ -81.7162, 21.0783 ], [ -81.7031, 21.0925 ], [ -81.6902, 21.107 ], [ -81.6775, 21.1218 ], [ -81.6651, 21.1369 ], [ -81.653, 21.1522 ], [ -81.6411, 21.1678 ], [ -81.6294, 21.1836 ], [ -81.6181, 21.1996 ], [ -81.607, 21.2159 ], [ -81.5961, 21.2325 ], [ -81.5856, 21.2492 ], [ -81.5754, 21.2662 ], [ -81.5654, 21.2835 ], [ -81.5558, 21.3009 ], [ -81.5465, 21.3186 ], [ -81.5374, 21.3364 ], [ -81.5287, 21.3545 ], [ -81.5204, 21.3728 ], [ -81.5123, 21.3913 ], [ -81.5046, 21.4099 ], [ -81.4972, 21.4288 ], [ -81.4902, 21.4478 ], [ -81.4835, 21.467 ], [ -81.4772, 21.4864 ], [ -81.4712, 21.5059 ], [ -81.4655, 21.5256 ], [ -81.4603, 21.5455 ], [ -81.4554, 21.5655 ], [ -81.4509, 21.5856 ], [ -81.4467, 21.6059 ], [ -81.443, 21.6263 ], [ -81.4396, 21.6468 ], [ -81.4366, 21.6675 ], [ -81.434, 21.6882 ], [ -81.4318, 21.7091 ], [ -81.43, 21.73 ], [ -81.4286, 21.7511 ], [ -81.4276, 21.7722 ], [ -81.427, 21.7934 ], [ -81.4269, 21.8147 ], [ -81.4271, 21.836 ], [ -81.4277, 21.8574 ], [ -81.4288, 21.8788 ], [ -81.4303, 21.9003 ], [ -81.4322, 21.9218 ], [ -81.4345, 21.9434 ], [ -81.4373, 21.9649 ], [ -81.4405, 21.9865 ], [ -81.4441, 22.0081 ], [ -81.4481, 22.0297 ], [ -81.4526, 22.0512 ], [ -81.4575, 22.0728 ], [ -81.4628, 22.0943 ], [ -81.4686, 22.1158 ], [ -81.4748, 22.1373 ], [ -81.4815, 22.1587 ], [ -81.4885, 22.1801 ], [ -81.4961, 22.2014 ], [ -81.504, 22.2226 ], [ -81.5124, 22.2438 ], [ -81.5212, 22.2649 ], [ -81.5305, 22.2858 ], [ -81.5402, 22.3067 ], [ -81.5503, 22.3275 ], [ -81.5608, 22.3482 ], [ -81.5718, 22.3687 ], [ -81.5833, 22.3891 ], [ -81.5951, 22.4094 ], [ -81.6074, 22.4296 ], [ -81.6201, 22.4495 ], [ -81.6335, 22.4691 ], [ -81.648, 22.4878 ], [ -81.6635, 22.5058 ], [ -81.68, 22.523 ], [ -81.6974, 22.5393 ], [ -81.7157, 22.5547 ], [ -81.735, 22.5692 ], [ -81.7551, 22.5829 ], [ -81.7761, 22.5955 ], [ -81.7976, 22.6075 ], [ -81.8192, 22.6192 ], [ -81.841, 22.6304 ], [ -81.863, 22.6412 ], [ -81.8851, 22.6516 ], [ -81.9074, 22.6617 ], [ -81.9298, 22.6713 ], [ -81.9523, 22.6805 ], [ -81.9749, 22.6893 ], [ -81.9976, 22.6978 ], [ -82.0205, 22.7058 ], [ -82.0434, 22.7134 ], [ -82.0664, 22.7206 ], [ -82.0895, 22.7274 ], [ -82.1126, 22.7338 ], [ -82.1358, 22.7398 ], [ -82.1591, 22.7454 ], [ -82.1824, 22.7506 ], [ -82.2057, 22.7554 ], [ -82.229, 22.7598 ], [ -82.2524, 22.7638 ], [ -82.2757, 22.7674 ], [ -82.2991, 22.7706 ], [ -82.3225, 22.7734 ], [ -82.3458, 22.7758 ], [ -82.3691, 22.7777 ], [ -82.3924, 22.7793 ], [ -82.4156, 22.7806 ], [ -82.4388, 22.7814 ], [ -82.4619, 22.7818 ], [ -82.485, 22.7818 ], [ -82.508, 22.7815 ], [ -82.5309, 22.7808 ], [ -82.5538, 22.7797 ], [ -82.5765, 22.7782 ], [ -82.5991, 22.7763 ], [ -82.6217, 22.7741 ], [ -82.6441, 22.7715 ], [ -82.6664, 22.7685 ], [ -82.6885, 22.7652 ] ] ] } },
{ "type": "Feature", "properties": { "RADII": 50.0, "STORMID": "al092021", "BASIN": "al", "STORMNUM": 9.0, "ADVNUM": "5A", "VALIDTIME": "2021082718", "SYNOPTIME": "2021082712", "TIMEZONE": "UTC", "TAU": 0.0, "NE": 48.0, "SE": 38.0, "SW": 27.0, "NW": 38.0 }, "geometry": { "type": "Polygon", "coordinates": [ [ [ -82.693, 22.3156 ], [ -82.7065, 22.3137 ], [ -82.7199, 22.3117 ], [ -82.7333, 22.3094 ], [ -82.7465, 22.3069 ], [ -82.7597, 22.3042 ], [ -82.7728, 22.3013 ], [ -82.7857, 22.2981 ], [ -82.7986, 22.2948 ], [ -82.8114, 22.2913 ], [ -82.8241, 22.2875 ], [ -82.8367, 22.2836 ], [ -82.8492, 22.2795 ], [ -82.8615, 22.2752 ], [ -82.8738, 22.2706 ], [ -82.8859, 22.2659 ], [ -82.8979, 22.261 ], [ -82.9098, 22.2559 ], [ -82.9215, 22.2507 ], [ -82.9331, 22.2452 ], [ -82.9445, 22.2396 ], [ -82.9558, 22.2338 ], [ -82.967, 22.2279 ], [ -82.978, 22.2217 ], [ -82.9889, 22.2154 ], [ -82.9996, 22.209 ], [ -83.0102, 22.2023 ], [ -83.0206, 22.1956 ], [ -83.0309, 22.1886 ], [ -83.0409, 22.1816 ], [ -83.0509, 22.1743 ], [ -83.0606, 22.167 ], [ -83.0702, 22.1595 ], [ -83.0796, 22.1518 ], [ -83.0888, 22.144 ], [ -83.0979, 22.1361 ], [ -83.1067, 22.1281 ], [ -83.1154, 22.1199 ], [ -83.1239, 22.1116 ], [ -83.1322, 22.1032 ], [ -83.1404, 22.0947 ], [ -83.1483, 22.0861 ], [ -83.156, 22.0774 ], [ -83.1636, 22.0685 ], [ -83.1709, 22.0595 ], [ -83.178, 22.0505 ], [ -83.1849, 22.0413 ], [ -83.1916, 22.032 ], [ -83.198, 22.0226 ], [ -83.2043, 22.0132 ], [ -83.2103, 22.0036 ], [ -83.2161, 21.994 ], [ -83.2217, 21.9843 ], [ -83.2271, 21.9746 ], [ -83.2323, 21.9647 ], [ -83.2373, 21.9549 ], [ -83.2421, 21.945 ], [ -83.2466, 21.935 ], [ -83.251, 21.925 ], [ -83.2551, 21.9149 ], [ -83.259, 21.9049 ], [ -83.2628, 21.8947 ], [ -83.2663, 21.8846 ], [ -83.2696, 21.8744 ], [ -83.2727, 21.8643 ], [ -83.2756, 21.8541 ], [ -83.2782, 21.8438 ], [ -83.2807, 21.8336 ], [ -83.283, 21.8234 ], [ -83.285, 21.8132 ], [ -83.2869, 21.8029 ], [ -83.2885, 21.7927 ], [ -83.2899, 21.7825 ], [ -83.2912, 21.7723 ], [ -83.2922, 21.7621 ], [ -83.293, 21.7519 ], [ -83.2936, 21.7418 ], [ -83.2941, 21.7317 ], [ -83.2943, 21.7216 ], [ -83.2943, 21.7115 ], [ -83.2942, 21.7015 ], [ -83.2938, 21.6915 ], [ -83.2932, 21.6816 ], [ -83.2925, 21.6717 ], [ -83.2916, 21.6618 ], [ -83.2904, 21.652 ], [ -83.2891, 21.6423 ], [ -83.2876, 21.6326 ], [ -83.2859, 21.623 ], [ -83.2841, 21.6134 ], [ -83.282, 21.604 ], [ -83.2798, 21.5945 ], [ -83.2774, 21.5852 ], [ -83.2749, 21.5759 ], [ -83.2721, 21.5667 ], [ -83.2692, 21.5576 ], [ -83.2662, 21.5486 ], [ -83.2629, 21.5396 ], [ -83.2595, 21.5308 ], [ -83.256, 21.522 ], [ -83.2522, 21.5134 ], [ -83.2484, 21.5048 ], [ -83.2443, 21.4963 ], [ -83.2402, 21.4879 ], [ -83.2358, 21.4797 ], [ -83.2314, 21.4715 ], [ -83.2268, 21.4635 ], [ -83.222, 21.4555 ], [ -83.2171, 21.4477 ], [ -83.2121, 21.44 ], [ -83.207, 21.4324 ], [ -83.2017, 21.4249 ], [ -83.1963, 21.4175 ], [ -83.1908, 21.4103 ], [ -83.1851, 21.4032 ], [ -83.1794, 21.3962 ], [ -83.1735, 21.3893 ], [ -83.1675, 21.3826 ], [ -83.1614, 21.376 ], [ -83.1552, 21.3695 ], [ -83.1489, 21.3631 ], [ -83.1425, 21.3569 ], [ -83.1361, 21.3508 ], [ -83.1295, 21.3449 ], [ -83.1228, 21.3391 ], [ -83.1161, 21.3334 ], [ -83.1092, 21.3279 ], [ -83.1023, 21.3225 ], [ -83.0953, 21.3173 ], [ -83.0882, 21.3122 ], [ -83.0811, 21.3072 ], [ -83.0739, 21.3024 ], [ -83.0668, 21.2976 ], [ -83.06, 21.2925 ], [ -83.0534, 21.2873 ], [ -83.0471, 21.2819 ], [ -83.041, 21.2763 ], [ -83.0351, 21.2704 ], [ -83.0295, 21.2643 ], [ -83.0241, 21.258 ], [ -83.0189, 21.2514 ], [ -83.0137, 21.2447 ], [ -83.0083, 21.2381 ], [ -83.0028, 21.2315 ], [ -82.9972, 21.225 ], [ -82.9914, 21.2186 ], [ -82.9854, 21.2122 ], [ -82.9793, 21.206 ], [ -82.973, 21.1998 ], [ -82.9666, 21.1937 ], [ -82.9601, 21.1877 ], [ -82.9534, 21.1817 ], [ -82.9466, 21.1759 ], [ -82.9396, 21.1702 ], [ -82.9325, 21.1645 ], [ -82.9252, 21.159 ], [ -82.9178, 21.1535 ], [ -82.9103, 21.1482 ], [ -82.9026, 21.143 ], [ -82.8949, 21.1379 ], [ -82.8869, 21.1329 ], [ -82.8789, 21.128 ], [ -82.8707, 21.1232 ], [ -82.8624, 21.1186 ], [ -82.854, 21.1141 ], [ -82.8455, 21.1097 ], [ -82.8368, 21.1055 ], [ -82.8281, 21.1013 ], [ -82.8192, 21.0974 ], [ -82.8102, 21.0935 ], [ -82.8011, 21.0898 ], [ -82.7919, 21.0862 ], [ -82.7826, 21.0828 ], [ -82.7732, 21.0795 ], [ -82.7637, 21.0764 ], [ -82.7541, 21.0734 ], [ -82.7444, 21.0706 ], [ -82.7346, 21.0679 ], [ -82.7248, 21.0654 ], [ -82.7148, 21.0631 ], [ -82.7048, 21.0609 ], [ -82.6947, 21.0589 ], [ -82.6845, 21.057 ], [ -82.6743, 21.0553 ], [ -82.664, 21.0538 ], [ -82.6536, 21.0524 ], [ -82.6431, 21.0512 ], [ -82.6326, 21.0502 ], [ -82.6221, 21.0494 ], [ -82.6115, 21.0487 ], [ -82.6008, 21.0482 ], [ -82.5901, 21.0479 ], [ -82.5794, 21.0478 ], [ -82.5686, 21.0479 ], [ -82.5578, 21.0481 ], [ -82.547, 21.0485 ], [ -82.5361, 21.0491 ], [ -82.5252, 21.0499 ], [ -82.5143, 21.0509 ], [ -82.5033, 21.0521 ], [ -82.4924, 21.0534 ], [ -82.4815, 21.055 ], [ -82.4705, 21.0567 ], [ -82.4595, 21.0587 ], [ -82.4486, 21.0608 ], [ -82.4376, 21.0631 ], [ -82.4267, 21.0656 ], [ -82.4158, 21.0683 ], [ -82.4049, 21.0712 ], [ -82.394, 21.0743 ], [ -82.3831, 21.0775 ], [ -82.3723, 21.081 ], [ -82.3615, 21.0847 ], [ -82.3507, 21.0885 ], [ -82.34, 21.0926 ], [ -82.3293, 21.0968 ], [ -82.3187, 21.1013 ], [ -82.3081, 21.1059 ], [ -82.2976, 21.1107 ], [ -82.2872, 21.1157 ], [ -82.2768, 21.1209 ], [ -82.2665, 21.1263 ], [ -82.2562, 21.1319 ], [ -82.2461, 21.1377 ], [ -82.236, 21.1437 ], [ -82.2261, 21.1499 ], [ -82.2162, 21.1563 ], [ -82.2065, 21.1629 ], [ -82.1969, 21.1696 ], [ -82.1874, 21.1766 ], [ -82.178, 21.1838 ], [ -82.1688, 21.1911 ], [ -82.1596, 21.1987 ], [ -82.1506, 21.2064 ], [ -82.1418, 21.2142 ], [ -82.133, 21.2223 ], [ -82.1244, 21.2305 ], [ -82.1159, 21.2389 ], [ -82.1075, 21.2474 ], [ -82.0993, 21.2561 ], [ -82.0912, 21.2649 ], [ -82.0833, 21.274 ], [ -82.0755, 21.2831 ], [ -82.0679, 21.2925 ], [ -82.0604, 21.3019 ], [ -82.0531, 21.3116 ], [ -82.046, 21.3213 ], [ -82.039, 21.3312 ], [ -82.0323, 21.3413 ], [ -82.0257, 21.3515 ], [ -82.0192, 21.3618 ], [ -82.013, 21.3723 ], [ -82.0069, 21.3829 ], [ -82.001, 21.3936 ], [ -81.9953, 21.4044 ], [ -81.9898, 21.4154 ], [ -81.9845, 21.4265 ], [ -81.9794, 21.4376 ], [ -81.9745, 21.449 ], [ -81.9698, 21.4604 ], [ -81.9654, 21.4719 ], [ -81.9611, 21.4835 ], [ -81.957, 21.4953 ], [ -81.9532, 21.5071 ], [ -81.9495, 21.519 ], [ -81.9461, 21.531 ], [ -81.9429, 21.5431 ], [ -81.94, 21.5553 ], [ -81.9372, 21.5675 ], [ -81.9347, 21.5798 ], [ -81.9324, 21.5922 ], [ -81.9304, 21.6047 ], [ -81.9286, 21.6172 ], [ -81.927, 21.6298 ], [ -81.9256, 21.6424 ], [ -81.9246, 21.6551 ], [ -81.9237, 21.6679 ], [ -81.9231, 21.6807 ], [ -81.9227, 21.6935 ], [ -81.9226, 21.7064 ], [ -81.9227, 21.7193 ], [ -81.9231, 21.7322 ], [ -81.9237, 21.7451 ], [ -81.9246, 21.7581 ], [ -81.9257, 21.7711 ], [ -81.927, 21.7841 ], [ -81.9287, 21.7971 ], [ -81.9305, 21.8101 ], [ -81.9327, 21.8231 ], [ -81.9351, 21.8361 ], [ -81.9377, 21.849 ], [ -81.9406, 21.862 ], [ -81.9438, 21.875 ], [ -81.9472, 21.8879 ], [ -81.9508, 21.9008 ], [ -81.9548, 21.9137 ], [ -81.959, 21.9265 ], [ -81.9634, 21.9393 ], [ -81.9681, 21.952 ], [ -81.973, 21.9647 ], [ -81.9782, 21.9774 ], [ -81.9837, 21.99 ], [ -81.9894, 22.0025 ], [ -81.9954, 22.0149 ], [ -82.0016, 22.0273 ], [ -82.0081, 22.0396 ], [ -82.0148, 22.0518 ], [ -82.0218, 22.064 ], [ -82.029, 22.076 ], [ -82.0365, 22.088 ], [ -82.0442, 22.0999 ], [ -82.0522, 22.1116 ], [ -82.0606, 22.1231 ], [ -82.0695, 22.1342 ], [ -82.0789, 22.1449 ], [ -82.0889, 22.1551 ], [ -82.0994, 22.1649 ], [ -82.1104, 22.1742 ], [ -82.1218, 22.1831 ], [ -82.1337, 22.1914 ], [ -82.1461, 22.1992 ], [ -82.1587, 22.2067 ], [ -82.1715, 22.214 ], [ -82.1843, 22.221 ], [ -82.1973, 22.2278 ], [ -82.2104, 22.2343 ], [ -82.2235, 22.2407 ], [ -82.2368, 22.2468 ], [ -82.2501, 22.2526 ], [ -82.2635, 22.2583 ], [ -82.277, 22.2637 ], [ -82.2906, 22.2688 ], [ -82.3042, 22.2737 ], [ -82.3179, 22.2784 ], [ -82.3316, 22.2829 ], [ -82.3454, 22.2871 ], [ -82.3592, 22.291 ], [ -82.3731, 22.2948 ], [ -82.387, 22.2983 ], [ -82.401, 22.3015 ], [ -82.4149, 22.3045 ], [ -82.4289, 22.3073 ], [ -82.443, 22.3099 ], [ -82.457, 22.3122 ], [ -82.471, 22.3142 ], [ -82.4851, 22.3161 ], [ -82.4991, 22.3176 ], [ -82.5132, 22.319 ], [ -82.5272, 22.3201 ], [ -82.5412, 22.321 ], [ -82.5552, 22.3217 ], [ -82.5691, 22.3221 ], [ -82.5831, 22.3223 ], [ -82.597, 22.3222 ], [ -82.6108, 22.3219 ], [ -82.6247, 22.3214 ], [ -82.6385, 22.3207 ], [ -82.6522, 22.3198 ], [ -82.6659, 22.3186 ], [ -82.6795, 22.3172 ], [ -82.693, 22.3156 ] ] ] } },
{ "type": "Feature", "properties": { "RADII": 64.0, "STORMID": "al092021", "BASIN": "al", "STORMNUM": 9.0, "ADVNUM": "5A", "VALIDTIME": "2021082718", "SYNOPTIME": "2021082712", "TIMEZONE": "UTC", "TAU": 0.0, "NE": 17.0, "SE": 17.0, "SW": 17.0, "NW": 17.0 }, "geometry": { "type": "Polygon", "coordinates": [ [ [ -82.6974, 21.8825 ], [ -82.7027, 21.8825 ], [ -82.708, 21.8824 ], [ -82.7133, 21.8823 ], [ -82.7186, 21.882 ], [ -82.7239, 21.8817 ], [ -82.7292, 21.8812 ], [ -82.7345, 21.8807 ], [ -82.7398, 21.8801 ], [ -82.745, 21.8794 ], [ -82.7503, 21.8787 ], [ -82.7555, 21.8778 ], [ -82.7607, 21.8769 ], [ -82.7659, 21.8758 ], [ -82.7711, 21.8747 ], [ -82.7763, 21.8735 ], [ -82.7814, 21.8722 ], [ -82.7865, 21.8709 ], [ -82.7916, 21.8694 ], [ -82.7966, 21.8679 ], [ -82.8016, 21.8663 ], [ -82.8066, 21.8646 ], [ -82.8116, 21.8628 ], [ -82.8165, 21.861 ], [ -82.8214, 21.8591 ], [ -82.8263, 21.8571 ], [ -82.8311, 21.855 ], [ -82.8358, 21.8528 ], [ -82.8406, 21.8506 ], [ -82.8453, 21.8482 ], [ -82.8499, 21.8458 ], [ -82.8545, 21.8434 ], [ -82.859, 21.8408 ], [ -82.8636, 21.8382 ], [ -82.868, 21.8355 ], [ -82.8724, 21.8328 ], [ -82.8767, 21.8299 ], [ -82.881, 21.827 ], [ -82.8853, 21.8241 ], [ -82.8895, 21.821 ], [ -82.8936, 21.8179 ], [ -82.8977, 21.8147 ], [ -82.9017, 21.8115 ], [ -82.9056, 21.8082 ], [ -82.9095, 21.8048 ], [ -82.9133, 21.8014 ], [ -82.9171, 21.7979 ], [ -82.9207, 21.7943 ], [ -82.9244, 21.7907 ], [ -82.9279, 21.7871 ], [ -82.9314, 21.7833 ], [ -82.9348, 21.7796 ], [ -82.9381, 21.7757 ], [ -82.9414, 21.7718 ], [ -82.9446, 21.7679 ], [ -82.9477, 21.7639 ], [ -82.9507, 21.7598 ], [ -82.9537, 21.7558 ], [ -82.9566, 21.7516 ], [ -82.9594, 21.7474 ], [ -82.9621, 21.7432 ], [ -82.9648, 21.7389 ], [ -82.9673, 21.7346 ], [ -82.9698, 21.7302 ], [ -82.9722, 21.7258 ], [ -82.9745, 21.7214 ], [ -82.9768, 21.7169 ], [ -82.9789, 21.7124 ], [ -82.981, 21.7079 ], [ -82.9829, 21.7033 ], [ -82.9848, 21.6987 ], [ -82.9867, 21.6941 ], [ -82.9884, 21.6894 ], [ -82.99, 21.6847 ], [ -82.9915, 21.68 ], [ -82.993, 21.6753 ], [ -82.9944, 21.6705 ], [ -82.9956, 21.6657 ], [ -82.9968, 21.6609 ], [ -82.9979, 21.6561 ], [ -82.9989, 21.6512 ], [ -82.9998, 21.6464 ], [ -83.0006, 21.6415 ], [ -83.0014, 21.6366 ], [ -83.002, 21.6317 ], [ -83.0025, 21.6268 ], [ -83.003, 21.6219 ], [ -83.0034, 21.617 ], [ -83.0036, 21.6121 ], [ -83.0038, 21.6071 ], [ -83.0039, 21.6022 ], [ -83.0039, 21.5973 ], [ -83.0038, 21.5923 ], [ -83.0036, 21.5874 ], [ -83.0033, 21.5825 ], [ -83.0029, 21.5776 ], [ -83.0024, 21.5726 ], [ -83.0019, 21.5677 ], [ -83.0012, 21.5629 ], [ -83.0005, 21.558 ], [ -82.9996, 21.5531 ], [ -82.9987, 21.5482 ], [ -82.9977, 21.5434 ], [ -82.9966, 21.5386 ], [ -82.9954, 21.5338 ], [ -82.9941, 21.529 ], [ -82.9927, 21.5242 ], [ -82.9912, 21.5195 ], [ -82.9897, 21.5148 ], [ -82.988, 21.5101 ], [ -82.9863, 21.5054 ], [ -82.9845, 21.5008 ], [ -82.9825, 21.4962 ], [ -82.9806, 21.4916 ], [ -82.9785, 21.4871 ], [ -82.9763, 21.4826 ], [ -82.9741, 21.4781 ], [ -82.9717, 21.4737 ], [ -82.9693, 21.4693 ], [ -82.9668, 21.465 ], [ -82.9642, 21.4607 ], [ -82.9616, 21.4564 ], [ -82.9589, 21.4522 ], [ -82.956, 21.448 ], [ -82.9531, 21.4439 ], [ -82.9502, 21.4398 ], [ -82.9471, 21.4357 ], [ -82.944, 21.4318 ], [ -82.9408, 21.4278 ], [ -82.9375, 21.4239 ], [ -82.9342, 21.4201 ], [ -82.9308, 21.4163 ], [ -82.9273, 21.4126 ], [ -82.9238, 21.409 ], [ -82.9201, 21.4054 ], [ -82.9165, 21.4018 ], [ -82.9127, 21.3983 ], [ -82.9089, 21.3949 ], [ -82.905, 21.3916 ], [ -82.9011, 21.3883 ], [ -82.8971, 21.385 ], [ -82.893, 21.3819 ], [ -82.8889, 21.3788 ], [ -82.8847, 21.3757 ], [ -82.8805, 21.3728 ], [ -82.8762, 21.3699 ], [ -82.8719, 21.3671 ], [ -82.8675, 21.3643 ], [ -82.863, 21.3616 ], [ -82.8585, 21.359 ], [ -82.854, 21.3565 ], [ -82.8494, 21.354 ], [ -82.8448, 21.3516 ], [ -82.8401, 21.3493 ], [ -82.8354, 21.3471 ], [ -82.8306, 21.3449 ], [ -82.8258, 21.3429 ], [ -82.821, 21.3409 ], [ -82.8161, 21.3389 ], [ -82.8112, 21.3371 ], [ -82.8062, 21.3353 ], [ -82.8013, 21.3336 ], [ -82.7963, 21.332 ], [ -82.7912, 21.3305 ], [ -82.7862, 21.3291 ], [ -82.7811, 21.3277 ], [ -82.776, 21.3264 ], [ -82.7708, 21.3253 ], [ -82.7657, 21.3241 ], [ -82.7605, 21.3231 ], [ -82.7553, 21.3222 ], [ -82.7501, 21.3213 ], [ -82.7448, 21.3206 ], [ -82.7396, 21.3199 ], [ -82.7343, 21.3193 ], [ -82.7291, 21.3188 ], [ -82.7238, 21.3183 ], [ -82.7185, 21.318 ], [ -82.7132, 21.3177 ], [ -82.708, 21.3176 ], [ -82.7027, 21.3175 ], [ -82.6974, 21.3175 ], [ -82.6921, 21.3176 ], [ -82.6868, 21.3177 ], [ -82.6815, 21.318 ], [ -82.6762, 21.3183 ], [ -82.6709, 21.3188 ], [ -82.6657, 21.3193 ], [ -82.6604, 21.3199 ], [ -82.6552, 21.3206 ], [ -82.6499, 21.3213 ], [ -82.6447, 21.3222 ], [ -82.6395, 21.3231 ], [ -82.6344, 21.3241 ], [ -82.6292, 21.3253 ], [ -82.6241, 21.3264 ], [ -82.6189, 21.3277 ], [ -82.6139, 21.3291 ], [ -82.6088, 21.3305 ], [ -82.6038, 21.332 ], [ -82.5988, 21.3336 ], [ -82.5938, 21.3353 ], [ -82.5888, 21.3371 ], [ -82.5839, 21.3389 ], [ -82.5791, 21.3409 ], [ -82.5742, 21.3429 ], [ -82.5694, 21.3449 ], [ -82.5647, 21.3471 ], [ -82.5599, 21.3493 ], [ -82.5553, 21.3516 ], [ -82.5506, 21.354 ], [ -82.546, 21.3565 ], [ -82.5415, 21.359 ], [ -82.537, 21.3616 ], [ -82.5326, 21.3643 ], [ -82.5282, 21.3671 ], [ -82.5238, 21.3699 ], [ -82.5195, 21.3728 ], [ -82.5153, 21.3757 ], [ -82.5111, 21.3788 ], [ -82.507, 21.3819 ], [ -82.503, 21.385 ], [ -82.4989, 21.3883 ], [ -82.495, 21.3916 ], [ -82.4911, 21.3949 ], [ -82.4873, 21.3983 ], [ -82.4836, 21.4018 ], [ -82.4799, 21.4054 ], [ -82.4763, 21.409 ], [ -82.4727, 21.4126 ], [ -82.4692, 21.4163 ], [ -82.4658, 21.4201 ], [ -82.4625, 21.424 ], [ -82.4592, 21.4278 ], [ -82.456, 21.4318 ], [ -82.4529, 21.4357 ], [ -82.4499, 21.4398 ], [ -82.4469, 21.4439 ], [ -82.444, 21.448 ], [ -82.4412, 21.4522 ], [ -82.4384, 21.4564 ], [ -82.4358, 21.4607 ], [ -82.4332, 21.465 ], [ -82.4307, 21.4693 ], [ -82.4283, 21.4737 ], [ -82.426, 21.4781 ], [ -82.4237, 21.4826 ], [ -82.4215, 21.4871 ], [ -82.4195, 21.4916 ], [ -82.4175, 21.4962 ], [ -82.4156, 21.5008 ], [ -82.4137, 21.5054 ], [ -82.412, 21.5101 ], [ -82.4104, 21.5148 ], [ -82.4088, 21.5195 ], [ -82.4073, 21.5242 ], [ -82.406, 21.529 ], [ -82.4047, 21.5338 ], [ -82.4035, 21.5386 ], [ -82.4024, 21.5434 ], [ -82.4013, 21.5483 ], [ -82.4004, 21.5531 ], [ -82.3996, 21.558 ], [ -82.3988, 21.5629 ], [ -82.3981, 21.5677 ], [ -82.3976, 21.5727 ], [ -82.3971, 21.5776 ], [ -82.3967, 21.5825 ], [ -82.3964, 21.5874 ], [ -82.3962, 21.5923 ], [ -82.3961, 21.5973 ], [ -82.3961, 21.6022 ], [ -82.3962, 21.6071 ], [ -82.3964, 21.6121 ], [ -82.3967, 21.617 ], [ -82.397, 21.6219 ], [ -82.3975, 21.6268 ], [ -82.398, 21.6317 ], [ -82.3987, 21.6366 ], [ -82.3994, 21.6415 ], [ -82.4002, 21.6464 ], [ -82.4011, 21.6512 ], [ -82.4021, 21.6561 ], [ -82.4032, 21.6609 ], [ -82.4044, 21.6657 ], [ -82.4057, 21.6705 ], [ -82.407, 21.6753 ], [ -82.4085, 21.68 ], [ -82.41, 21.6847 ], [ -82.4117, 21.6894 ], [ -82.4134, 21.6941 ], [ -82.4152, 21.6987 ], [ -82.4171, 21.7033 ], [ -82.4191, 21.7079 ], [ -82.4211, 21.7124 ], [ -82.4233, 21.7169 ], [ -82.4255, 21.7214 ], [ -82.4278, 21.7259 ], [ -82.4302, 21.7302 ], [ -82.4327, 21.7346 ], [ -82.4353, 21.7389 ], [ -82.4379, 21.7432 ], [ -82.4406, 21.7474 ], [ -82.4435, 21.7516 ], [ -82.4463, 21.7558 ], [ -82.4493, 21.7598 ], [ -82.4523, 21.7639 ], [ -82.4555, 21.7679 ], [ -82.4586, 21.7718 ], [ -82.4619, 21.7757 ], [ -82.4652, 21.7796 ], [ -82.4686, 21.7833 ], [ -82.4721, 21.7871 ], [ -82.4757, 21.7907 ], [ -82.4793, 21.7943 ], [ -82.483, 21.7979 ], [ -82.4867, 21.8014 ], [ -82.4905, 21.8048 ], [ -82.4944, 21.8082 ], [ -82.4984, 21.8115 ], [ -82.5024, 21.8147 ], [ -82.5064, 21.8179 ], [ -82.5106, 21.821 ], [ -82.5147, 21.8241 ], [ -82.519, 21.827 ], [ -82.5233, 21.8299 ], [ -82.5276, 21.8328 ], [ -82.532, 21.8355 ], [ -82.5365, 21.8382 ], [ -82.541, 21.8408 ], [ -82.5455, 21.8434 ], [ -82.5501, 21.8458 ], [ -82.5548, 21.8482 ], [ -82.5595, 21.8506 ], [ -82.5642, 21.8528 ], [ -82.569, 21.855 ], [ -82.5738, 21.8571 ], [ -82.5786, 21.8591 ], [ -82.5835, 21.861 ], [ -82.5884, 21.8628 ], [ -82.5934, 21.8646 ], [ -82.5984, 21.8663 ], [ -82.6034, 21.8679 ], [ -82.6085, 21.8694 ], [ -82.6135, 21.8709 ], [ -82.6186, 21.8722 ], [ -82.6238, 21.8735 ], [ -82.6289, 21.8747 ], [ -82.6341, 21.8758 ], [ -82.6393, 21.8769 ], [ -82.6445, 21.8778 ], [ -82.6498, 21.8787 ], [ -82.655, 21.8794 ], [ -82.6603, 21.8801 ], [ -82.6656, 21.8807 ], [ -82.6708, 21.8812 ], [ -82.6761, 21.8817 ], [ -82.6814, 21.882 ], [ -82.6867, 21.8823 ], [ -82.692, 21.8824 ], [ -82.6974, 21.8825 ] ] ] } }
]
}
