{"type":"FeatureCollection","features":[{"type":"Feature","id":1,"geometry":{"type":"Point","coordinates":[-71.23765772542356,20.391393119996621]},"properties":{"objectid":1,"basin":"Atlantic","prob2day":"0%","risk2day":"nearZero","prob7day":"0%","risk7day":"nearZero","idp_source":"gtwo_points_202608311757","idp_filedate":1788199391000,"idp_ingestdate":1788199506000}},{"type":"Feature","id":2,"geometry":{"type":"Point","coordinates":[-107.40238104704758,10.936649997499501]},"properties":{"objectid":2,"basin":"Pacific","prob2day":"90%","risk2day":"High","prob7day":"90%","risk7day":"High","idp_source":"gtwo_points_202608311757","idp_filedate":1788199391000,"idp_ingestdate":1788199506000}}]}