{"type":"FeatureCollection","features":[{"type":"Feature","id":1,"geometry":{"type":"MultiPolygon","coordinates":[[[[-71.337657726123041,20.491393119796783],[-71.337551302150757,20.489359824596363],[-71.337235862245109,20.487274276087135],[-71.336717151275423,20.485137909587024],[-71.336000916808757,20.482952161313335],[-71.33509290371444,20.480718469282067],[-71.333998858660266,20.478438269710523],[-71.332724528314202,20.476112997916687],[-71.331275658444781,20.473744091017124],[-71.329657994820479,20.471332986128573],[-71.327877284109263,20.468881119468222],[-71.325939272079609,20.466389928152807],[-71.323849705399482,20.463860847500257],[-71.321614329837359,20.461295314627193],[-71.319238891161774,20.458694765750977],[-71.316729136940012,20.456060637988173],[-71.314090812041229,20.453394367556143],[-71.311329662234016,20.450697391571509],[-71.308451435085544,20.447971146251518],[-71.305461876364404,20.445217066914267],[-71.302366731839072,20.442436592474905],[-71.299171747278194,20.439631157352153],[-71.295882670248943,20.43680219866269],[-71.292505245620475,20.433951153523083],[-71.289045219161437,20.431079458150634],[-71.285508338438945,20.428188548762648],[-71.281900349221644,20.425279862475804],[-71.278226997278011,20.422354835507406],[-71.2744940292759,20.419414904974019],[-71.270707190084636,20.416461506193684],[-71.266872228170712,20.413496076283025],[-71.262994887503964,20.410520052358663],[-71.259080914752303,20.407534870637903],[-71.255136056583638,20.404541966438728],[-71.25116605966582,20.401542778676458],[-71.247176668868065,20.398538741769642],[-71.24317363085828,20.395531293734336],[-71.239162692304319,20.392521869888526],[-71.237657718229002,20.391393086721735],[-71.237156055707317,20.391769373857642],[-71.233144038866214,20.39477906660079],[-71.229138487251248,20.397787143262178],[-71.225145146631121,20.400792167624559],[-71.221169761874876,20.403792702571309],[-71.217218080549856,20.406787311885068],[-71.213295847525217,20.409774559348591],[-71.209408810368188,20.412753007845197],[-71.205562714847304,20.415721220258263],[-71.201763306731095,20.418677761269805],[-71.198016331788153,20.421621193763201],[-71.194327536686387,20.424550081521204],[-71.190702668093536,20.427462988326397],[-71.187147471778303,20.430358476162894],[-71.183667693509165,20.433235109712712],[-71.180269079953973,20.43609145185917],[-71.176957376881319,20.438926066385022],[-71.173738330959111,20.441737517072909],[-71.170617687056506,20.444524366806206],[-71.167601192740733,20.447285179367668],[-71.164694594679702,20.450018518539935],[-71.161903636843249,20.452722946307063],[-71.15923406679866,20.455397028250388],[-71.156691631213675,20.458039325454649],[-71.154282074957678,20.460648403501182],[-71.152011144698463,20.463222825273306],[-71.149884587103884,20.465761153654455],[-71.147908147942587,20.468261952427326],[-71.146087572982992,20.47072378537456],[-71.144428608893065,20.473145215379532],[-71.142937002340659,20.475524806224939],[-71.141618498195044,20.477861120794216],[-71.140478843124015,20.480152723769322],[-71.139523783795482,20.482398177134314],[-71.138759065977979,20.484596045571209],[-71.138190435440151,20.486744891963326],[-71.137823638849738,20.48884328009342],[-71.137664421975387,20.490889773744186],[-71.137717723893729,20.49288303652304],[-71.137981448285075,20.494822611574421],[-71.138449879957875,20.496708497099576],[-71.13911727314354,20.498540691299979],[-71.139977879375522,20.500319194175631],[-71.141025955583245,20.502044007525058],[-71.142255753300276,20.503715129549732],[-71.143661526757967,20.505332561148919],[-71.145237531087105,20.506896302322616],[-71.146978018720461,20.508406352171562],[-71.148877243889558,20.509862711595019],[-71.150929460825864,20.511265380592988],[-71.153128922861413,20.512614359165468],[-71.155469884227671,20.513909646413197],[-71.157946598256785,20.515151243235437],[-71.160553319180224,20.516339149632188],[-71.163284301229396,20.517473364704131],[-71.16613379773645,20.518553890249962],[-71.169096062033532,20.519580724470984],[-71.172165349251372,20.520553867367198],[-71.175335912722062,20.5214733207373],[-71.178602005777861,20.522339082782594],[-71.181957881750748,20.523151153503079],[-71.185397796670884,20.523909534697395],[-71.188916002071721,20.52461422456696],[-71.192506753084103,20.525265224011036],[-71.196164303040064,20.525862533029624],[-71.199882906171069,20.526406150723403],[-71.203656815809268,20.52689607889107],[-71.207480286186126,20.527332314834609],[-71.211347570633791,20.52771486125198],[-71.215252924282936,20.528043716344598],[-71.219190599566389,20.528318881011671],[-71.223154850715673,20.528540355253313],[-71.227139931062879,20.528708139069522],[-71.231140096638057,20.528822231560866],[-71.235149598075395,20.528882633626779],[-71.239162692304319,20.528889344367883],[-71.24317363085828,20.528842365582818],[-71.247176668868065,20.528741695473002],[-71.25116605966582,20.528587334937697],[-71.255136056583638,20.528379283077584],[-71.259080914752303,20.528117541691358],[-71.262994887503964,20.527802108980268],[-71.266872228170712,20.527432984944426],[-71.270707190084636,20.527010171382472],[-71.2744940292759,20.526533666495652],[-71.278226997278011,20.526003471183401],[-71.281900349221644,20.525419584546341],[-71.285508338438945,20.524782008383113],[-71.289045219161437,20.524090740895133],[-71.292505245620475,20.523345782981664],[-71.295882670248943,20.522547133743387],[-71.299171747278194,20.521694794079622],[-71.302366731839072,20.520788763990424],[-71.305461876364404,20.519829043475738],[-71.308451435085544,20.518815631636244],[-71.311329662234016,20.517748529371261],[-71.314090812041229,20.516627736680846],[-71.316729136940012,20.515453253564942],[-71.319238891161774,20.51422507912423],[-71.321614329837359,20.512943214258087],[-71.323849705399482,20.511607658966454],[-71.325939272079609,20.510218412350014],[-71.327877284109263,20.508775476207404],[-71.329657994820479,20.507278847840723],[-71.331275658444781,20.505728529947817],[-71.332724528314202,20.504124520730215],[-71.333998858660266,20.502466821986388],[-71.33509290371444,20.50075543101849],[-71.336000916808757,20.498990350524423],[-71.336717151275423,20.497171578705547],[-71.337235862245109,20.495299116461183],[-71.337551302150757,20.493372963791387],[-71.337657726123041,20.491393119796783]]],[[[-71.241168790207382,20.388759501250149],[-71.245176496597935,20.385750884995502],[-71.249173429110328,20.382744963109701],[-71.253153841076767,20.379743170910729],[-71.257111987628036,20.376746945515265],[-71.261042121196851,20.373757723140557],[-71.264938496014679,20.370776940903227],[-71.268795365413666,20.367806034121315],[-71.2726069845246,20.364846440810709],[-71.276367605780251,20.361899596289504],[-71.280071484311463,20.358966937674154],[-71.283712873450213,20.356049901182132],[-71.287286026528818,20.353149923930005],[-71.290785198677895,20.350268442135018],[-71.294204641430952,20.347406892913909],[-71.297538611717471,20.344566711584605],[-71.300781360171527,20.341749335263728],[-71.303927142823284,20.338956200168639],[-71.306970213004831,20.336188744315223],[-71.30990482494758,20.333448402122201],[-71.312725231084414,20.33073661160546],[-71.315425686546064,20.328054808982415],[-71.318000444664676,20.325404430470257],[-71.320443759671662,20.32278691228629],[-71.322749884899167,20.320203692446569],[-71.324913073679284,20.317656206269021],[-71.326927582042174,20.315145889971006],[-71.328787661521233,20.312674181568354],[-71.330487566347983,20.310242515479842],[-71.332021551653156,20.307852330620676],[-71.333383870768898,20.305505062308896],[-71.334568776127981,20.303202146761805],[-71.335570523760566,20.30094502109597],[-71.336383365200049,20.29873512152875],[-71.337001556476537,20.29657388427745],[-71.337419350022856,20.294462747358068],[-71.337631000070473,20.292403146088475],[-71.337631000070473,20.290396487008422],[-71.337419350022856,20.288443488676194],[-71.337001556476537,20.286544180769454],[-71.336383365200049,20.284698564187522],[-71.335570523760566,20.282906638031079],[-71.334568776127981,20.281168402300068],[-71.333383870768898,20.279483856994545],[-71.332021551653156,20.277853003013831],[-71.330487566347983,20.276275839458549],[-71.328787661521233,20.274752366328755],[-71.326927582042174,20.27328258452377],[-71.324913073679284,20.271866492244953],[-71.322749884899167,20.270504092190265],[-71.320443759671662,20.269195381661689],[-71.318000444664676,20.267940362457921],[-71.315425686546064,20.266739033679585],[-71.312725231084414,20.265591395326794],[-71.30990482494758,20.264497447399435],[-71.306970213004831,20.263457190796885],[-71.303927142823284,20.262470624619766],[-71.300781360171527,20.261537748868136],[-71.297538611717471,20.260658564441314],[-71.294204641430952,20.259833070439981],[-71.290785198677895,20.259061266864137],[-71.287286026528818,20.258343153713724],[-71.283712873450213,20.25767873188812],[-71.280071484311463,20.257068000487948],[-71.276367605780251,20.256510959513321],[-71.2726069845246,20.256007609863445],[-71.268795365413666,20.255557950639059],[-71.264938496014679,20.255161981840104],[-71.261042121196851,20.254819703466694],[-71.257111987628036,20.254531116418036],[-71.253153841076767,20.254296219794867],[-71.249173429110328,20.254115013597129],[-71.245176496597935,20.25398749782488],[-71.241168790207382,20.25391367337744],[-71.237156055707317,20.253893539355488],[-71.233144038866214,20.253927095759025],[-71.229138487251248,20.254014343487313],[-71.225145146631121,20.25415528164109],[-71.221169761874876,20.254349910220299],[-71.217218080549856,20.254598229225053],[-71.213295847525217,20.254900239554559],[-71.209408810368188,20.255255940309553],[-71.205562714847304,20.255665331489979],[-71.201763306731095,20.25612841399527],[-71.198016331788153,20.256645186026674],[-71.194327536686387,20.257215650282149],[-71.190702668093536,20.257839804063849],[-71.187147471778303,20.258517648270981],[-71.183667693509165,20.259249183802922],[-71.180269079953973,20.260034410659671],[-71.176957376881319,20.260873327042532],[-71.173738330959111,20.261765934750201],[-71.170617687056506,20.262712232883359],[-71.167601192740733,20.263712221442006],[-71.164694594679702,20.264765901325404],[-71.161903636843249,20.265873270734971],[-71.15923406679866,20.267034332368667],[-71.156691631213675,20.268249083528531],[-71.154282074957678,20.269517526013146],[-71.152011144698463,20.270839658923251],[-71.149884587103884,20.272215482258844],[-71.147908147942587,20.273644996019868],[-71.146087572982992,20.275128201105758],[-71.144428608893065,20.27666509661708],[-71.142937002340659,20.278255682553834],[-71.141618498195044,20.279899959815452],[-71.140478843124015,20.281597927502503],[-71.139523783795482,20.283349585615042],[-71.138759065977979,20.285154935052333],[-71.138190435440151,20.287013974015849],[-71.137823638849738,20.288926704304117],[-71.137664421975387,20.290893125917194],[-71.137717723893729,20.292913136332288],[-71.137981448285075,20.294985756187828],[-71.138449879957875,20.297109552863731],[-71.13911727314354,20.299283090142637],[-71.139977879375522,20.301504930907981],[-71.141025955583245,20.303773638942403],[-71.142255753300276,20.306087777129335],[-71.143661526757967,20.308445909251475],[-71.145237531087105,20.310846599990725],[-71.146978018720461,20.313288410431937],[-71.148877243889558,20.31576990615639],[-71.150929460825864,20.318289649148142],[-71.153128922861413,20.320846203189888],[-71.155469884227671,20.323438132963588],[-71.157946598256785,20.326064000453414],[-71.160553319180224,20.328722369441948],[-71.163284301229396,20.331411803711887],[-71.16613379773645,20.334130867046042],[-71.169096062033532,20.336878122327619],[-71.172165349251372,20.339652132440108],[-71.175335912722062,20.342451462964789],[-71.178602005777861,20.345274674986399],[-71.181957881750748,20.348120333186955],[-71.185397796670884,20.350987000449834],[-71.188916002071721,20.353873240557732],[-71.192506753084103,20.356777617293346],[-71.196164303040064,20.359698693539997],[-71.199882906171069,20.362635033979757],[-71.203656815809268,20.365585199697364],[-71.207480286186126,20.368547756274097],[-71.211347570633791,20.371521266593334],[-71.215252924282936,20.37450429353845],[-71.219190599566389,20.377495401791521],[-71.223154850715673,20.380493153336488],[-71.227139931062879,20.383496112855482],[-71.231140096638057,20.386502843231767],[-71.235149598075395,20.389511907348776],[-71.237657718229002,20.391393086721735],[-71.241168790207382,20.388759501250149]]]]},"properties":{"objectid":1,"basin":"Atlantic","prob2day":"0%","risk2day":"nearZero","prob7day":"0%","risk7day":"nearZero","idp_source":"gtwo_areas_202608311757","idp_filedate":1788199391000,"idp_ingestdate":1788199504000,"st_area(shape)":0.035743736392227693,"st_perimeter(shape)":1.0345477043363811}},{"type":"Feature","id":2,"geometry":{"type":"Polygon","coordinates":[[[-117.92783707222299,19.59078904248048],[-118.01328586954713,19.493985586665644],[-118.09498313506356,19.393994283309667],[-118.17296018406518,19.290963681528808],[-118.24724832824768,19.18504233133865],[-118.31787888380336,19.076378780956134],[-118.38488316242791,18.965121581296103],[-118.44829247851499,18.851419280575499],[-118.50813814555886,18.735420427910583],[-118.56445147705392,18.617273574216199],[-118.61726378739377,18.497127267709402],[-118.66660638917341,18.375130057506283],[-118.7125105967865,18.251430494521856],[-118.75500772372737,18.126177126073628],[-118.79412908259098,17.999518503975935],[-118.82990598867036,17.871603175546227],[-118.86236975545978,17.742579690800255],[-118.8915516955542,17.612596599753431],[-118.91748312244806,17.481802451522071],[-118.94019535143423,17.350345795222438],[-118.95971969510776,17.218375179970735],[-118.97608746696295,17.086039155782544],[-118.98932998049412,16.953486271774182],[-118.99947855009492,16.820865077061796],[-119.00656448836037,16.688324121661026],[-119.01061911058338,16.556011954688074],[-119.0116737284597,16.424077125259259],[-119.00975965728225,16.292668183390106],[-119.00490821054541,16.161933678196817],[-118.99715070084409,16.032022158795712],[-118.98651844167267,15.903082175202371],[-118.97304274832408,15.775262275633679],[-118.95675493339337,15.64871101100448],[-118.93768631037483,15.523576929531828],[-118.91586819276279,15.400008581231191],[-118.89133189495089,15.27815451521883],[-118.86410873043349,15.158163280611063],[-118.83423001270484,15.040183427423358],[-118.80172679085859,14.924355207626888],[-118.76662653108946,14.810706238502235],[-118.72895411673898,14.699182959126404],[-118.68873437179371,14.589730018026046],[-118.64599212293803,14.482292063727925],[-118.600752195957,14.376813745657955],[-118.55303941573635,14.273239710544317],[-118.50287860806122,14.171514607813037],[-118.45029459961597,14.071583085091447],[-118.3953122143871,13.973389790906253],[-118.33795627905891,13.87687937468354],[-118.27825161941661,13.781996483151318],[-118.21622305944652,13.688685765735613],[-118.15189542673244,13.596891870963191],[-118.08529354616013,13.506559446461438],[-118.01644224351463,13.417633141656324],[-117.94536634368171,13.330057603275918],[-117.87209067334578,13.243777481645623],[-117.79664005739266,13.158737423493449],[-117.71903932160734,13.074882077346103],[-117.63931329087558,12.992156092629727],[-117.55748679278116,12.910504117870857],[-117.47358465131049,12.829870799797732],[-117.3876316922487,12.750200787836206],[-117.29965274228016,12.671438730513159],[-117.20967262539125,12.593529275455808],[-117.11771616826644,12.516417071191029],[-117.02380819669082,12.440046767144736],[-116.92797353555011,12.364363010944317],[-116.83023701062945,12.289310450217215],[-116.73062344861319,12.214833735288778],[-116.62915767348773,12.140877511987753],[-116.52586451193758,12.067386430639374],[-116.42076878884842,11.994305138871198],[-116.3138953309047,11.921578285209819],[-116.20526896299214,11.849150518182],[-116.09491451089588,11.77696648541513],[-115.98285685436025,11.704971089943967],[-115.86912742289218,11.633139999711375],[-115.75377036690884,11.561508630918695],[-115.63683130002437,11.49011926429273],[-115.51835583405438,11.419014181459431],[-115.39838958081441,11.348235664944127],[-115.27697815301923,11.277825995473449],[-115.15416716338376,11.207827453774087],[-115.03000222462288,11.138282322371424],[-114.90452894765269,11.069232882891356],[-114.77779294608752,11.000721416060628],[-114.64983983174272,10.932790202605929],[-114.5207152173333,10.865481525951793],[-114.39046471467475,10.798837665925703],[-114.25913393648187,10.732900904153553],[-114.12676849457029,10.667713523160728],[-113.99341400255406,10.603317802774541],[-113.85911607224887,10.539756026419639],[-113.72392031547008,10.477070473923391],[-113.58787234493269,10.415303426911748],[-113.45101777335145,10.354497167910097],[-113.31340221254197,10.294693976745748],[-113.17507127521907,10.23593613594403],[-113.03607057319829,10.178265927130951],[-112.89644572009382,10.12172563193252],[-112.75624232682185,10.066357530175992],[-112.61550600609723,10.012203904386809],[-112.47428237153412,9.959307037090241],[-112.33261703404878,9.9077092072142818],[-112.19055560635604,9.8574526990829554],[-112.04814370117077,9.8085797916241972],[-111.90542693030847,9.7611327673634491],[-111.76245090738337,9.7151539079266627],[-111.61926124241234,9.6706854949397894],[-111.47590354990882,9.6277698091295179],[-111.33242344168838,9.5864491321219134],[-111.18886653046593,9.5467657464421904],[-111.0452784271576,9.5087619319177747],[-110.9017084703695,9.47248206019907],[-110.75822775150942,9.4379827067366477],[-110.61491523375093,9.4053248644510745],[-110.47184989465683,9.3745695316587216],[-110.32911070819256,9.3457777066759604],[-110.18677665102155,9.3190103878192758],[-110.04492669800862,9.294328573405096],[-109.90363982581721,9.271793262649112],[-109.76299500931214,9.2514654538677519],[-109.6230712242575,9.2334061453774439],[-109.4839474464174,9.2176763363939358],[-109.34570265155605,9.2043370252336558],[-109.20841581543743,9.1934492093137123],[-109.07216591292644,9.1850738887491161],[-108.93703191978716,9.1792720609569756],[-108.80309281268308,9.1761047242537757],[-108.67042756557959,9.1756328787544703],[-108.53911515603954,9.1779175218762816],[-108.40923455802834,9.1830196519355241],[-108.28086474820947,9.1910002681480023],[-108.15408470144774,9.2019203688300877],[-108.02897339440653,9.2158409522982652],[-107.90560980195067,9.2328230168688492],[-107.78407289984438,9.2529275617577014],[-107.66444166385162,9.2762155852811929],[-107.54679506973656,9.3027480848563755],[-107.43121209236409,9.3325860614976932],[-107.31777170839752,9.3657905117228779],[-107.20655289270172,9.4024224338483577],[-107.09763462194013,9.4425428279892571],[-106.99109587007825,9.4862126915626277],[-106.88701561377945,9.5334930237841604],[-106.78547282880788,9.5844448220710206],[-106.6865464909277,9.6391290865382757],[-106.59031557500367,9.6976068146029206],[-106.49685905679991,9.7599390045815539],[-106.40625591297993,9.8261866565890728],[-106.31858374154632,9.8964064926656192],[-106.23388848796327,9.9705569236632527],[-106.15218443975999,10.048498045648444],[-106.0734845103018,10.130085681109449],[-105.99780161115535,10.21517564983651],[-105.92514865658512,10.303623773418565],[-105.85553855725851,10.395285874343756],[-105.78898422744004,10.490017774201078],[-105.72549857869637,10.587675293679979],[-105.66509452439271,10.688114254369452],[-105.60778497519635,10.791190477858379],[-105.55358284627124,10.896759786634959],[-105.50250104828467,11.004678000489491],[-105.45455249460184,11.114800941910062],[-105.40975009768874,11.226984432485722],[-105.36810677001131,11.341084292905919],[-105.32963542403547,11.456956344759647],[-105.29434897222717,11.574456410535049],[-105.26226032795165,11.693440311821064],[-105.23338240277559,11.813763868407932],[-105.2077281091648,11.935282902783854],[-105.18531036138398,12.057853237437087],[-105.16614207010036,12.181330692157871],[-105.1502361486792,12.305571088535032],[-105.13760550868716,12.430430249956203],[-105.12826306438882,12.555763995312248],[-105.12222172825005,12.68142814889012],[-105.11949441093822,12.807278529580628],[-105.12009402671788,12.933170959872029],[-105.1240334871556,13.058961262252581],[-105.13132570561675,13.184505256512523],[-105.14198359456714,13.309658765140057],[-105.15602006647276,13.434277609724063],[-105.1734480329003,13.558217611853422],[-105.19428040811425,13.681334592217809],[-105.21853010368125,13.80348437240599],[-105.24621003206721,13.924522774006959],[-105.27733307875849,14.044305679763454],[-105.31189262474476,14.162732882716512],[-105.34982816184009,14.279825492652492],[-105.39106995211648,14.395625393697117],[-105.43554826034386,14.510174470875256],[-105.4831933503927,14.623514609212009],[-105.53393548433502,14.735687691034229],[-105.5877049260414,14.846735603165712],[-105.64443194028172,14.956700228832631],[-105.7040467882286,15.065623453060027],[-105.76647973645061,15.173547159973566],[-105.83166104522098,15.280513234598232],[-105.89952098020899,15.386563560160312],[-105.96998980528519,15.491740022584111],[-106.0429977816222,15.596084505995293],[-106.11847517488928,15.699638893620204],[-106.19635224715836,15.80244507228241],[-106.27655926319932,15.904544924308937],[-106.35902648598346,16.005980334724825],[-106.44368417848193,16.106793189454265],[-106.53046260456546,16.20702537082434],[-106.6192920281045,16.306718764759353],[-106.71010271207041,16.405915255384855],[-106.80282492123303,16.504656726826624],[-106.89738891676501,16.602985064109532],[-106.99372496433551,16.700942151359357],[-107.09176332601658,16.798569872701592],[-107.19143426657803,16.895910114060655],[-107.29266804809185,16.993004758662835],[-107.39539493532789,17.089895690633739],[-107.49954519125748,17.186624794998409],[-107.60504907975115,17.283233956781828],[-107.71183686378015,17.379765060109548],[-107.81983880721509,17.476259989107348],[-107.92898517302723,17.572760628800097],[-108.03920622508713,17.669308863313518],[-108.15043222726536,17.765946576773217],[-108.26259344253327,17.862715655103557],[-108.37562492005389,17.95964798826418],[-108.48950336378908,18.056688502672387],[-108.60422692293406,18.153737341205499],[-108.71979392564907,18.25069427891799],[-108.8362026991951,18.347459089965184],[-108.95345157083324,18.443931549401611],[-109.07153886872374,18.540011430483275],[-109.19046292012757,18.635598508264707],[-109.31022205320511,18.730592556901115],[-109.43081459431795,18.824893351447145],[-109.55223887162651,18.918400665158686],[-109.67449321239172,19.011014273989701],[-109.79757594477394,19.102633950296706],[-109.92148539603409,19.193159470033663],[-110.04621989253394,19.282490607355783],[-110.17177776423233,19.370527136418332],[-110.29815733659171,19.457168831376634],[-110.42535693777239,19.542315467285107],[-110.55337489503529,19.625866818299187],[-110.68220953654077,19.707722657674651],[-110.81185918954986,19.787782761365463],[-110.94232218222282,19.86594690352689],[-111.07359684002205,19.942114858314199],[-111.20568149290648,20.01618639898328],[-111.33857446723778,20.088061302387359],[-111.47227409117625,20.157639340883009],[-111.6067786910836,20.224820288625551],[-111.74208659512016,20.289503921568894],[-111.8781961314462,20.35159001386819],[-112.01510562732273,20.410978338779444],[-112.15281340911145,20.467568672256562],[-112.29131780587193,20.521260786656114],[-112.43061714486527,20.571954458831328],[-112.57070975245301,20.619549461138888],[-112.7115939576949,20.66394556863321],[-112.85326808695254,20.705042555469674],[-112.99573046838628,20.742740196702869],[-113.13897836985581,20.776939200883533],[-113.28296106330231,20.807582581571012],[-113.42756122407116,20.834672057369687],[-113.57265661990698,20.858213670824398],[-113.71812502215198,20.878213462681288],[-113.86384419765153,20.894677474585933],[-114.0096919168484,20.907611749982436],[-114.1555459483867,20.917022329616941],[-114.30128406091058,20.922915255135081],[-114.44678402486278,20.925296569081524],[-114.59192360888733,20.924172313101906],[-114.73658058162846,20.919548529741007],[-114.88063271262951,20.911431259744973],[-115.02395777053459,20.899826545658698],[-115.16643352488717,20.884740429127646],[-115.30793774523067,20.866178952696657],[-115.44834819930986,20.844148157111874],[-115.5875426575675,20.818654084918251],[-115.72539888954702,20.789702777761136],[-115.86179466209387,20.757300278185426],[-115.99660774655018,20.721452626937321],[-116.12971591155997,20.682165866561661],[-116.26099692576742,20.639446039603172],[-116.39032855781659,20.593299186808167],[-116.51758857815025,20.543731350721373],[-116.64265475541254,20.490748572988366],[-116.76540485824751,20.434356896153986],[-116.88571665619861,20.374562360064999],[-117.00346791880929,20.311371009064942],[-117.11853641382436,20.244788883900014],[-117.23079991258578,20.174822026215679],[-117.34013618193916,20.101476478556776],[-117.44642299142782,20.024758282568826],[-117.54953811149454,19.944673479897347],[-117.6493593107835,19.861228113087066],[-117.7457643579387,19.774428222884296],[-117.83863102160427,19.684279851833821],[-117.92783707222299,19.59078904248048]]]},"properties":{"objectid":2,"basin":"Pacific","prob2day":"90%","risk2day":"High","prob7day":"90%","risk7day":"High","idp_source":"gtwo_areas_202608311757","idp_filedate":1788199391000,"idp_ingestdate":1788199504000,"st_area(shape)":117.12702158293945,"st_perimeter(shape)":39.968334127474307}},{"type":"Feature","id":3,"geometry":{"type":"Polygon","coordinates":[[[-161.2951208662349,8.6390531264008246],[-161.0693027920901,8.7104527479960439],[-160.85506150088747,8.7835260124156775],[-160.65214950459588,8.8582059606367238],[-160.46031931428485,8.9344256318375983],[-160.27932344012459,9.0121180660960363],[-160.10891439408394,9.0912163034897731],[-159.94884468723245,9.1716533831972242],[-159.79886683153896,9.2533623461954448],[-159.65873333717369,9.3362762307635876],[-159.52819671520615,9.4203280787779704],[-159.40700947760521,9.5054509285176891],[-159.29492413544043,9.5915778209597988],[-159.19169319888195,9.6786417952827719],[-159.09706918079797,9.7665758915642868],[-159.0108045904594,9.855313149882079],[-158.93265194163371,9.9447866103139404],[-158.86236374269248,10.03492931203823],[-158.7996925065039,10.12567429513274],[-158.74439074413746,10.216954600574468],[-158.69621096576338,10.308703267541887],[-158.65490568424985,10.400853335213412],[-158.62022740976707,10.493337844565986],[-158.59192865338457,10.586089834778193],[-158.56976192617188,10.679042345927655],[-158.55347974009786,10.772128418092166],[-158.5428346053327,10.865281091349402],[-158.53757903474457,10.958433404877894],[-158.53746553760439,11.051518398755263],[-158.54224662588101,11.144469113958564],[-158.55167481154325,11.237218588767007],[-158.56550260476132,11.329699865056853],[-158.58348251660479,11.421845980207934],[-158.60536705904246,11.513589976096682],[-158.63090874314389,11.6048648919014],[-158.65986007907929,11.695603767699879],[-158.69197357971686,11.785739643569855],[-158.72700175522675,11.875205558689743],[-158.76469711667852,11.963934553137278],[-158.80481217514168,12.051859667889516],[-158.84709944258512,12.138913941225553],[-158.89131143007836,12.225030414122443],[-158.93720064869089,12.310142126657979],[-158.98451960859299,12.394182117111143],[-159.03302082265276,12.477083427358423],[-159.08245680104045,12.558779096578178],[-159.13258005482558,12.639202163948823],[-159.18314309597702,12.718285670447472],[-159.23389843556427,12.795962655252481],[-159.28459858375754,12.872166158441587],[-159.33499629983928,12.946829290239691],[-159.3849281769937,13.019908806746173],[-159.43443631248576,13.091419433460203],[-159.48359371777576,13.161384615707561],[-159.53247340252543,13.229827796116012],[-159.5811483772957,13.296772420011337],[-159.62969165264758,13.362241932719144],[-159.67817623914203,13.426259777766688],[-159.72667514823942,13.48884940047958],[-159.77526138870203,13.550034244385017],[-159.82400797199023,13.609837754808666],[-159.87298790776566,13.668283375277667],[-159.92227420838793,13.725394551117802],[-159.97193988261941,13.781194726755359],[-160.02205794102107,13.835707346616914],[-160.07270139505326,13.888955854229437],[-160.12394325527694,13.940963695818027],[-160.17585653045444,13.991754314909826],[-160.2285142329454,14.041351155931238],[-160.28198937241152,14.089777664207986],[-160.33635495941377,14.137057282367834],[-160.39168400451311,14.183213457535203],[-160.44804951827058,14.228269631438479],[-160.5055245112471,14.27224925120214],[-160.56418199310443,14.315175759453894],[-160.6240949753028,14.357072600620143],[-160.68533646840322,14.397963220926044],[-160.74797948206736,14.437871063898626],[-160.81209702685624,14.476819573064972],[-160.87776211423011,14.514832194650182],[-160.94504775474999,14.551932371282021],[-161.01402695717826,14.588143549185588],[-161.08477273297515,14.623489171887911],[-161.15735809360106,14.65799268471477],[-161.23185604781827,14.69167753119325],[-161.30833960798643,14.724567156649073],[-161.3868817828679,14.756685004609437],[-161.46755558392297,14.788054520399953],[-161.55043402081333,14.818699148447081],[-161.63559010499927,14.848642332277961],[-161.72309684704177,14.877907518117581],[-161.81302725660254,14.906518148593818],[-161.90545434424251,14.934497669931659],[-162.00045112142203,14.961869524758924],[-162.09809059780278,14.988657159300601],[-162.19844578304637,15.014884017083887],[-162.30158968951247,15.040573543434448],[-162.40759532686278,15.065749181879369],[-162.51653570565821,15.090434377744486],[-162.62848383556047,15.114652574556828],[-162.74351177834581,15.138427139401074],[-162.86163459226253,15.161776750296951],[-162.98277898256393,15.18471281874173],[-163.10686405703052,15.207246131204158],[-163.2338089198457,15.229387472354119],[-163.3635326778907,15.251147630458945],[-163.49595443624816,15.272537391087894],[-163.63099330269867,15.293567539810226],[-163.76856838142558,15.31424886399401],[-163.90859877841081,15.334592149208447],[-164.05100360053567,15.354608181922174],[-164.19570195288273,15.374307748603826],[-164.34261294233335,15.393701635722039],[-164.49165567397009,15.412800627946751],[-164.64274925377495,15.431615513545239],[-164.79581278772989,15.450157078086818],[-164.95076538271616,15.468436107140747],[-165.1075261429171,15.486463388075038],[-165.26601417611326,15.50424970555963],[-165.42614858648801,15.521805847861742],[-165.58784848182191,15.53914260055069],[-165.75103296629828,15.556270749195846],[-165.9156211467984,15.57320108026579],[-166.08153212930424,15.589944380229099],[-166.24868501889841,15.606511436453786],[-166.41699892246223,15.622913032710414],[-166.58639294597759,15.639159957266372],[-166.75678619452717,15.655262996590182],[-166.92809777499224,15.671232935351838],[-167.10024679245544,15.687080560919298],[-167.27315235289868,15.702816658861877],[-167.44673356320331,15.718452016547474],[-167.6209095284519,15.733997419545403],[-167.79559935462643,15.749463653424982],[-167.97072214770887,15.764861505554165],[-168.14619701368116,15.780201761502212],[-168.32194305852525,15.795495208637135],[-168.49787938822311,15.810752631628759],[-168.67392510965601,15.82598481784521],[-168.84999932610793,15.841202553755011],[-169.02602114625881,15.856416624927419],[-169.20190967429195,15.871637816931866],[-169.37758401798797,15.886876918035455],[-169.55296328063082,15.902144712908296],[-169.72796657000112,15.917451988018968],[-169.90251299208083,15.932809529836049],[-170.07652165195259,15.948228125727553],[-170.24991165649766,15.963718559464098],[-170.42260211079869,15.979291620212223],[-170.59451212083763,15.99495809174266],[-170.76556231065203,16.010726599453164],[-170.9357082186593,16.02655603803089],[-171.10494029675721,16.042355569653978],[-171.27325051489927,16.058032197228272],[-171.44063084393821,16.073492922760295],[-171.60707325292822,16.088644747357364],[-171.77256971272197,16.103394673925209],[-171.93711219327304,16.11764970267177],[-172.10069266453476,16.131316837402267],[-172.26330309735997,16.144303078324526],[-172.4249354608028,16.156515428344505],[-172.585581725716,16.167860888569294],[-172.74523386115371,16.178246461005529],[-172.90388383886798,16.187579147659676],[-173.06152362881235,16.195765950538316],[-173.21814520004088,16.202713870748653],[-173.37374052250703,16.208329910297266],[-173.52830156796293,16.212521072089942],[-173.68182030546265,16.215194357233941],[-173.8342887049597,16.216256766836466],[-173.98569873730682,16.215615303803361],[-174.13604237155812,16.213176969241886],[-174.28531157856642,16.208848766057827],[-174.43349832918446,16.202537694459181],[-174.58059459246638,16.194150757351736],[-174.72659233836563,16.183594956742013],[-174.87148353863432,16.170777293737274],[-175.01526016142722,16.155604771243361],[-175.15791417759715,16.137984389468158],[-175.29943755799684,16.117823151317509],[-175.43982227168041,16.095028058797993],[-175.57906028950069,16.069506113016814],[-175.71714358141108,16.041164315980552],[-175.85406411736506,16.009909670594936],[-175.98981386731606,15.975649177068021],[-176.12438480211685,15.938289838305536],[-176.25776889082158,15.897738655414742],[-176.38995810518233,15.853902630402217],[-176.52094441335393,15.80668876617375],[-176.65071978708843,15.756004062937279],[-176.77927619633931,15.701755523598649],[-176.90660561016071,15.64385015016444],[-177.03269999940537,15.582194943741797],[-177.15755133402678,15.516696906337302],[-177.28115158487768,15.447263039058157],[-177.40349272101219,15.373800345709526],[-177.52456671328312,15.296215826499349],[-177.6443655316439,15.214416483434093],[-177.76288114514867,15.128309318520394],[-177.88010552554948,15.037801333764662],[-177.99602019897293,14.942813263821222],[-178.11048528396861,14.843425485597834],[-178.22328257173322,14.739821371759035],[-178.33419254764789,14.632186011775161],[-178.4429956988923,14.520704493317851],[-178.54947250994829,14.405561907656079],[-178.65340346709627,14.286943341562107],[-178.75456905661659,14.165033886304968],[-178.85274976389042,14.040018629556243],[-178.94772607519815,13.912082659887005],[-179.03927847592087,13.781411068566115],[-179.12718745233897,13.648188942365948],[-179.21123348893428,13.512601372555423],[-179.29119707378587,13.374833445906916],[-179.36685869137543,13.2350702536894],[-179.43799882708413,13.09349688357446],[-179.50439796719235,12.950298425032429],[-179.56583659887986,12.805659966634266],[-179.6220952057291,12.659766598749684],[-179.67295427581911,12.512803409949527],[-179.71819429273236,12.364955488804924],[-179.75759574364858,12.21640792478604],[-179.79093911484819,12.067345806463948],[-179.818004890813,11.917954224208245],[-179.83857355872269,11.76841826569057],[-179.85242560305906,11.618923021280523],[-179.85934151100184,11.469653578649854],[-179.85910176793217,11.320795028168163],[-179.8514868592311,11.172532457507032],[-179.83627727027974,11.025050957935491],[-179.8132534882578,10.878535616225861],[-179.78219599854643,10.733171523647059],[-179.74288528742599,10.589143766971404],[-179.69510183937831,10.446637436568608],[-179.63862614068378,10.305837621908836],[-179.57323867852213,10.166929411563217],[-179.49871993737514,10.030097895001973],[-179.41485040352322,9.8955281607961183],[-179.32141056234749,9.7634052975166128],[-179.21818090012837,9.6339143955330542],[-179.10494190314623,9.507240543416458],[-178.9814740558829,9.3835688297378397],[-178.84755784551808,9.2630843448667406],[-178.70297375743289,9.1459721764749133],[-178.54750227700839,9.0324174140325795],[-178.38092389142437,8.922605147909394],[-178.20301908516257,8.816720464877676],[-178.01356834450343,8.7149484562064004],[-177.81235215482801,8.6174742095672627],[-177.59915100331608,8.5244828153298045],[-177.37381312397642,8.4361357836396564],[-177.13663715468087,8.3524378845008869],[-176.8881054692919,8.2733299452209508],[-176.62870098486249,8.1987526024507815],[-176.3589066175463,8.1286464973381385],[-176.07920528349698,8.0629522656346921],[-175.79007989976748,8.0016105475888253],[-175.4920133816122,7.9445619807509615],[-175.1854886469834,7.8917472035707306],[-174.87098861023611,7.8431068553971954],[-174.54899619022191,7.7985815728814032],[-174.21999430129588,7.7581119962717366],[-173.88446586051097,7.7216387631185626],[-173.54289378492015,7.6891025118715675],[-173.19576099067712,7.6604438809804378],[-172.84355039393546,7.6356035079956541],[-172.48674491174819,7.6145220331654286],[-172.12582745936967,7.5971400940402418],[-171.76128095295354,7.5833983281704604],[-171.39358831135141,7.5732373758044105],[-171.02323244801897,7.566597873593139],[-170.65069628180788,7.563420460885709],[-170.27646272797244,7.5636457752324873],[-169.90101470266632,7.5672144559824801],[-169.52483512294251,7.5740671415854308],[-169.14840690405529,7.5841444704910828],[-168.77221296395703,7.597387080249689],[-168.39673621880138,7.6137356102103695],[-168.02245958474197,7.633130697923491],[-167.64986597703313,7.6555129818387968],[-167.2794383136272,7.6808231022045561],[-166.91165951067779,7.709001694772553],[-166.54701248433861,7.7399893997911136],[-166.18598015166259,7.7737268548106613],[-165.82904542700479,7.8101546982808259],[-165.47669122921678,7.8492135695507272],[-165.12940047355292,7.8908441061706753],[-164.78765607616691,7.9349869465904703],[-164.451940955011,7.981582729259685],[-164.1227380244402,8.0305720935274394],[-163.80053020150751,8.0818956760447236],[-163.48580040416525,8.1354941170599773],[-163.17903154676839,8.1913080532241906],[-162.88070654636994,8.2492781247857465],[-162.59130832002288,8.3093449683956919],[-162.31131978388083,8.3714492234030899],[-162.0412238540975,8.4355315282575702],[-161.78150344682652,8.5015325214088762],[-161.53264147912088,8.5693928413066942],[-161.2951208662349,8.6390531264008246]]]},"properties":{"objectid":3,"basin":"Pacific","prob2day":"0%","risk2day":"Low","prob7day":"20%","risk7day":"Low","idp_source":"gtwo_areas_202608311757","idp_filedate":1788199391000,"idp_ingestdate":1788199504000,"st_area(shape)":150.4324080418144,"st_perimeter(shape)":50.336881764010421}}]}