{"type":"FeatureCollection","features":[{"type":"Feature","id":1,"geometry":{"type":"Polygon","coordinates":[[[-18.703409036997357,38.781881832580666],[-18.632161480867524,38.740587704459131],[-18.559077564877612,38.700291741970489],[-18.484203120277641,38.660993660029533],[-18.407583980116442,38.622693171752644],[-18.329265976543468,38.585389990255976],[-18.249294942607378,38.549083829555229],[-18.167716708659043,38.513774401867295],[-18.084577108646499,38.479461423006398],[-17.999921974719257,38.446144605189545],[-17.913797139026599,38.413823661532888],[-17.826248432818772,38.382498306052128],[-17.737321690043814,38.352168252762795],[-17.647062741052537,38.322833213881836],[-17.555517419792977,38.294492904324215],[-17.462731557515212,38.267147037206144],[-17.368750987268129,38.240795324744568],[-17.27362154120101,38.215437482753771],[-17.177389050564102,38.191073222551324],[-17.080099349305385,38.167702259052135],[-16.98179826777573,38.145324305372526],[-16.882531639923116,38.123939075528085],[-16.782345296997732,38.103546281735646],[-16.681285072048297,38.084145638010909],[-16.579396796324943,38.065736859268782],[-16.476726302876443,38.048319656826834],[-16.373319423852195,38.03189374649935],[-16.26922199140165,38.016458839603899],[-16.164479838573584,38.002014651055447],[-16.059138795718695,37.988560893070883],[-15.953244697684511,37.97609728146449],[-15.846843373922468,37.964623527553897],[-15.739980659279865,37.954139345354633],[-15.632702384107631,37.944644448882343],[-15.525057455337162,37.936138343509867],[-15.417119181205123,37.928618875360939],[-15.308972508074646,37.922083102753163],[-15.200702456053364,37.91652807770879],[-15.092394042550893,37.911950854048825],[-14.984132287674811,37.908348482896315],[-14.876002207935414,37.905718017172887],[-14.768088824339657,37.904056509800228],[-14.660477154297098,37.903361012800644],[-14.553252216116732,37.903628579095823],[-14.446499029006873,37.904856260708016],[-14.340302612175662,37.907041111458284],[-14.234747983032889,37.910180181570297],[-14.129920160786639,37.914270525764323],[-14.02590416464534,37.91930919606267],[-13.922785012018551,37.925293244487762],[-13.820647723013849,37.932219723061905],[-13.719577315040908,37.94008568560605],[-13.619658808207305,37.948888184142504],[-13.520977219922656,37.95862427069369],[-13.423617568495843,37.969290999080499],[-13.327664874034554,37.980885420425977],[-13.233204153948407,37.993404587651753],[-13.140320427445658,38.006845553679511],[-13.049098712835189,38.021205370531561],[-12.959624029325369,38.036481091129588],[-12.871981395225077,38.052669768395219],[-12.786255829742629,38.069768454350822],[-12.702532350287584,38.087774201018703],[-12.620895976068311,38.106684061320493],[-12.541431727192332,38.126495088177933],[-12.464224620169944,38.147204333613274],[-12.389359674209459,38.168808851447466],[-12.31691849109535,38.191305480563642],[-12.246921323560116,38.214687267403633],[-12.17933536073815,38.23894397228662],[-12.114126039884695,38.264065247613246],[-12.051258800053461,38.290040747582566],[-11.990699080298214,38.316860123695903],[-11.932412318773345,38.344513028353731],[-11.876363953633415,38.372989115755217],[-11.822519424831455,38.402278037401629],[-11.770844170521912,38.432369447492135],[-11.721303627959912,38.463252996628626],[-11.673863237997921,38.494918339909589],[-11.628488436991631,38.527355127936971],[-11.585144664894244,38.560553014909829],[-11.54379736075947,38.594501653228861],[-11.504411961842436,38.629190696193803],[-11.46695390719691,38.664609795305978],[-11.431388635876715,38.700748603865122],[-11.397681586036242,38.737596775171198],[-11.365798196729259,38.775143961624678],[-11.335703907009588,38.813379815626149],[-11.307364154132301,38.852293989576083],[-11.280744377151166,38.891876137673762],[-11.255810015119948,38.932115912319659],[-11.232526506193153,38.973002965014985],[-11.210859289424548,39.014526949958906],[-11.190773803867842,39.056677518652691],[-11.172235486778163,39.099444325295508],[-11.155209777209336,39.142817021388566],[-11.139662114215071,39.186785260231716],[-11.125557936849191,39.231338694225485],[-11.112862682366767,39.276466976669781],[-11.101541790720944,39.322159759965075],[-11.091561008533574,39.368406479775388],[-11.082904648030933,39.415183563970459],[-11.075585791650838,39.462447276720582],[-11.069619998563951,39.510152147403801],[-11.06502282794105,39.558252704498841],[-11.061809837154158,39.606703479182386],[-11.059996584474675,39.655458999033726],[-11.059598629972641,39.704473795229603],[-11.060631531919512,39.753702396248741],[-11.063110847687369,39.803099332368447],[-11.067052136446819,39.852619132067446],[-11.072470956469317,39.902216325623101],[-11.079382866925641,39.951845442413401],[-11.087803426087135,40.001461011816389],[-11.09774819312446,40.05101756321011],[-11.109232725409811,40.100469626871927],[-11.122272581214531,40.14977173038119],[-11.136883320608604,40.1988784058139],[-11.153080501863542,40.247744180749464],[-11.170879682351313,40.296323584565926],[-11.190296422142012,40.344571148439911],[-11.211346278607721,40.392441400850089],[-11.234044810919158,40.439888870275297],[-11.258407577347668,40.486868088791425],[-11.284450136164708,40.533333583078559],[-11.312188046540996,40.579239884313381],[-11.341636866747876,40.62454152187388],[-11.372812155056806,40.669193025138156],[-11.405729470638448,40.713148922584878],[-11.440404371764203,40.756363745390672],[-11.476852416705526,40.79879202203432],[-11.515089163733762,40.840388281893865],[-11.555130172919007,40.88110705434724],[-11.596990992640087,40.920902892154913],[-11.640678853446218,40.959752309521605],[-11.686177048631748,40.997695002522505],[-11.733464593416102,41.034781956422307],[-11.782520505716661,41.071064157385081],[-11.83332379985336,41.106592591575009],[-11.885853494642959,41.141418244256727],[-11.940088603506126,41.175592102493681],[-11.996008145259566,41.209165150651302],[-12.053591134223325,41.242188375793035],[-12.112816587415466,41.274712764082949],[-12.173663520954619,41.306789299886418],[-12.236110950959471,41.338468970266888],[-12.300137894448142,41.369802761388485],[-12.365723366639941,41.400841658515901],[-12.432846384552874,41.431636646913887],[-12.501485963406367,41.462238713645888],[-12.571621121117744,41.492698844875918],[-12.643230872006995,41.523068025868838],[-12.716294233092242,41.553397241889343],[-12.790790221391489,41.583737480000821],[-12.866697852124048,41.614139725468078],[-12.943996142307981,41.644654964455185],[-13.022664108062031,41.675334182226891],[-13.102680764605452,41.706228365846528],[-13.184025128956421,41.737388500578959],[-13.266676218132829,41.768865572588254],[-13.350613046454782,41.800710567139106],[-13.435814631839662,41.832974470395641],[-13.522259990406098,41.865708269421248],[-13.609928137373515,41.898962948581357],[-13.698798089759919,41.932789494040094],[-13.788848863683995,41.967238891961415],[-13.880059475264432,42.00236212850956],[-13.972402949336526,42.038194493081562],[-14.065818786707496,42.074683441887487],[-14.160234831172374,42.111745898254753],[-14.255578918432207,42.149298752235779],[-14.351778880590757,42.187258895681623],[-14.448762551550374,42.225543221342718],[-14.546457765213574,42.264068619271484],[-14.644792355482707,42.302751982218354],[-14.743694154461537,42.341510201135009],[-14.843090996951844,42.380260166973301],[-14.942910716855977,42.418918772483494],[-15.043081147177077,42.457402908617496],[-15.143530120918228,42.495629466326932],[-15.244185472881156,42.533515338362349],[-15.344975035169625,42.570977414775996],[-15.445826643484679,42.60793258831842],[-15.54666812993014,42.644297750840678],[-15.647427328408355,42.679989792395133],[-15.748032071922466,42.714925604832956],[-15.848410195274141,42.749022080904467],[-15.948489531466578,42.782196111561461],[-16.048197913502804,42.814364587755676],[-16.147463176184488,42.845444402237547],[-16.246213152514827,42.875352445059434],[-16.344375675496906,42.904005608072509],[-16.441878579932393,42.931320784027093],[-16.538649698824429,42.957214862975718],[-16.634616865176042,42.981604737668647],[-16.729707912889751,43.004407298158412],[-16.823850676767165,43.025539438094768],[-16.916972988912164,43.044918047530018],[-17.009002683227095,43.062460017416015],[-17.09986759361442,43.078082240503136],[-17.189498847293862,43.091706569302858],[-17.277865854725292,43.103312520856321],[-17.364962727147997,43.112916817157554],[-17.450783987690727,43.120536801632227],[-17.53532415858291,43.126189815907424],[-17.618577762053974,43.129893202509436],[-17.700539320333235,43.131664303065293],[-17.781203357448874,43.131520461000605],[-17.860564395630206,43.129479017043138],[-17.938616956207454,43.125557314618504],[-18.015355563208573,43.119772696253051],[-18.09077473796367,43.112142502674487],[-18.164869004500815,43.102684077308481],[-18.237632884150173,43.091414762681325],[-18.309060900040379,43.078351900419989],[-18.379147575300237,43.063512833050936],[-18.447887431259801,43.046914902201138],[-18.515274991947194,43.028575451296206],[-18.58130477869247,43.008511821963168],[-18.645971314624319,42.986741355829054],[-18.709269121972284,42.96328139631953],[-18.771192724764319,42.938149285061627],[-18.831736643431213,42.911362364581635],[-18.890895402001092,42.882937976506582],[-18.948663522703271,42.852893464262138],[-19.00503552866661,42.821246169475273],[-19.060005941221107,42.788013433773074],[-19.113569284394828,42.753212600581207],[-19.165720079517939,42.716861011526589],[-19.216452849719133,42.678976008236361],[-19.2657621181271,42.639574935035398],[-19.313642406072063,42.598675131752088],[-19.360088237581977,42.5562939418121],[-19.405094054846643,42.512449223952672],[-19.448651879080842,42.467174468027451],[-19.490750934607831,42.420521242061795],[-19.531380289268782,42.372542119523359],[-19.570529010005657,42.323289672980195],[-19.608186163760308,42.272816475899788],[-19.644340818373962,42.221175102648999],[-19.678982042587052,42.168418126695315],[-19.712098902442278,42.114598120606956],[-19.743680464881436,42.059767657851296],[-19.773715799544391,42.003979311895876],[-19.802193972473731,41.947285657107557],[-19.829104051510626,41.889739266953768],[-19.854435103597041,41.831392713103355],[-19.878176197473408,41.772298570822556],[-19.900316399182373,41.712509412679424],[-19.920844777464367,41.652077812141442],[-19.939750399261413,41.591056342676211],[-19.957022331515248,41.529497578650478],[-19.97264964296653,41.467454091733089],[-19.986621400557055,41.404978457190168],[-19.998926671228787,41.342123247589939],[-20.009554522822839,41.278941036399885],[-20.018494023180494,41.21548439708738],[-20.025734240142924,41.151805902220758],[-20.031264239752716,41.087958127066031],[-20.035073090750416,41.023993644191478],[-20.037149860077875,40.95996502706447],[-20.037483615576264,40.895924848253287],[-20.036063424187546,40.831925682124677],[-20.032878353752892,40.768020103045444],[-20.027917473012849,40.704260682684492],[-20.021169847110627,40.640699994509305],[-20.012624560974587,40.577390556229318],[-20.002273264399491,40.51437558296692],[-19.990112992320633,40.451678789844436],[-19.976141455063953,40.389321434137003],[-19.960356366552958,40.327324774918566],[-19.94275543801291,40.265710070363582],[-19.923336381568618,40.204498580445261],[-19.902096909344777,40.143711562438796],[-19.879034732566708,40.0833702745187],[-19.85414756335922,40.023495976658126],[-19.827433113847007,39.964109926132323],[-19.798889097054087,39.905233382015126],[-19.768513223306456,39.846887603380367],[-19.736303205628303,39.789093847503182],[-19.702256756144266,39.731873374356894],[-19.66637158607972,39.675247441216584],[-19.628645407559361,39.619237307156141],[-19.589075933607319,39.563864231249397],[-19.547660874549592,39.509149471670924],[-19.504397944309574,39.455114286595176],[-19.459284853213262,39.401779935096101],[-19.412319313385467,39.349167674448779],[-19.363499037850204,39.297298765525738],[-19.312821737832792,39.24619446470291],[-19.26028512545804,39.195876031953446],[-19.205886912850644,39.146364724552541],[-19.149624811235924,39.097681802473346],[-19.091496534537328,39.049848522991113],[-19.031499792181535,39.002886146078936],[-18.969632298091938,38.956815928112746],[-18.905891763493969,38.911659129965017],[-18.840275900512268,38.867437008910997],[-18.772782421271586,38.824170824024463],[-18.703409036997357,38.781881832580666]]]},"properties":{"objectid":1,"basin":"Atlantic","prob2day":"20%","risk2day":"Low","prob7day":"20%","risk7day":"Low","idp_source":"gtwo_areas_202608211120","idp_filedate":1787311381000,"idp_ingestdate":1787311396000,"st_area(shape)":35.039069398113135,"st_perimeter(shape)":22.856500879982526}},{"type":"Feature","id":2,"geometry":{"type":"Polygon","coordinates":[[[-55.631594539955927,30.431217098290574],[-55.672494883731758,30.477289789392387],[-55.715974506518137,30.522581934608752],[-55.761905123622455,30.567158103463839],[-55.810158449452786,30.61108286458267],[-55.860606200215841,30.654420786590151],[-55.913120091219128,30.697236438111247],[-55.967571836870661,30.739594389569561],[-56.023833152477891,30.78155920869068],[-56.081775753348211,30.823195464998832],[-56.141271354789069,30.864567726219718],[-56.202191672107858,30.905740562776884],[-56.264408420612028,30.946778543295295],[-56.327793315608915,30.987746235500538],[-56.392218071506704,31.028708209816159],[-56.457554404512052,31.06972903396786],[-56.523674029033089,31.110873277479925],[-56.590448661276582,31.152205508977204],[-56.657750014751286,31.193790297983981],[-56.725449806563233,31.235692213125276],[-56.793419750221176,31.27797582302594],[-56.86153156193194,31.320705697210315],[-56.929656957902182,31.363946403403929],[-56.997667650741391,31.407762512030445],[-57.0654353575556,31.452218590815448],[-57.132831793652258,31.497379209283224],[-57.199728672540118,31.543308936058679],[-57.265997711325213,31.590072340666154],[-57.331510624415671,31.63773399083118],[-57.396139127118886,31.686358456977359],[-57.459754934742307,31.736010306830337],[-57.522229761694007,31.786754109914398],[-57.583435324180755,31.838654434854448],[-57.643243337509887,31.891775850275394],[-57.70154254295386,31.946168976317324],[-57.758356907445204,32.00177364473808],[-57.813774881105758,32.05847685662178],[-57.867885313356396,32.116165289296816],[-57.920777050020718,32.174725618292769],[-57.972538940519598,32.234044520938028],[-58.023259831575842,32.294008672762175],[-58.07302857261044,32.354504750194224],[-58.121934010346195,32.415419428763755],[-58.170064992405344,32.47663938579916],[-58.217510367309501,32.538051297729339],[-58.26435898268079,32.599541840983306],[-58.310699687040824,32.66099769019138],[-58.356621327112464,32.722305523581213],[-58.40221275231653,32.783352015783066],[-58.447562808476732,32.844023845024594],[-58.492760345913098,32.904207685936115],[-58.537894210449338,32.963790215845904],[-58.583053250606895,33.022658110283714],[-58.628326314907383,33.080698045678389],[-58.673802250073663,33.137796698458999],[-58.719569904627292,33.193840745953821],[-58.765718127089769,33.248716862793117],[-58.81233576418407,33.302311726305277],[-58.859511665330956,33.354512012019882],[-58.907334676354139,33.405204397265265],[-58.955893646674326,33.454275557571066],[-59.005277423014547,33.50161216936624],[-59.055574854795623,33.547100909079859],[-59.106874788740413,33.590628452241447],[-59.159266072471155,33.632081477078657],[-59.212837555408726,33.671346658221864],[-59.267678083376722,33.708310672099969],[-59.323871780757941,33.74286383200041],[-59.381417933490752,33.774961724903847],[-59.440242450028904,33.804616400826376],[-59.500268818750897,33.831841770481446],[-59.56142052893415,33.856651746381146],[-59.62362106895705,33.879060237440171],[-59.686793926298549,33.899081157069872],[-59.750862589336919,33.916728415084435],[-59.815750547349751,33.932015923995834],[-59.881381288715374,33.944957593618199],[-59.947678301812061,33.95556733466492],[-60.014565075018083,33.96385906054735],[-60.081965096711713,33.969846681079616],[-60.149801855271278,33.973544106975112],[-60.217998839075051,33.974965250745868],[-60.286479537400623,33.974124023105333],[-60.355167437726948,33.971034333867578],[-60.423986028432353,33.965710096443956],[-60.49285879879443,33.958165220648539],[-60.561709237191451,33.948413617194831],[-60.630460831102369,33.936469199494127],[-60.699037069804831,33.922345876461179],[-60.767361441677053,33.906057559708756],[-60.835357435996741,33.88761816174889],[-60.902948539343527,33.867041592395708],[-60.970058240994888,33.844341763261923],[-61.036610030228587,33.819532585960246],[-61.10252739452352,33.79262797030475],[-61.167733823157278,33.763641829706842],[-61.232152803608869,33.732588073081274],[-61.295707824256567,33.699480613839398],[-61.358322375277282,33.664333360896023],[-61.419919943250648,33.627160226763181],[-61.480424529168602,33.58797539285024],[-61.539790826984984,33.546809250846422],[-61.598021111085302,33.503717317700193],[-61.655121745072393,33.458757272330388],[-61.711099094347617,33.411986794555048],[-61.765959523413187,33.363463562393633],[-61.819709397670465,33.313245255664185],[-61.872355082520926,33.261389552386106],[-61.923902942466725,33.207954131478118],[-61.974359342909224,33.152996672758377],[-62.023730648350636,33.096574855145604],[-62.072023224192321,33.038746356659203],[-62.119243435835756,32.979568857117215],[-62.165397646883775,32.919100034539099],[-62.210492224536438,32.857397568742954],[-62.254533532396465,32.794519138647502],[-62.297527934966126,32.730522423171465],[-62.339481798546046,32.665465100334245],[-62.380401487638437,32.599404849953999],[-62.420293367644661,32.532399350949447],[-62.459163803066929,32.464506281339936],[-62.49701915840734,32.395783321842998],[-62.533865799966577,32.326288149578602],[-62.569710092246851,32.256078444364846],[-62.60455840064958,32.185211885120566],[-62.638417088777487,32.113746150764371],[-62.671292522931481,32.041738920215153],[-62.703191068512865,31.96924787239152],[-62.734119089124533,31.896330686212366],[-62.764082951067223,31.823045040596298],[-62.793089017943714,31.749448614462153],[-62.821143656954121,31.675599086728596],[-62.848253230801845,31.601554137213782],[-62.874424097693861,31.527371434943916],[-62.899654501254133,31.453100013654876],[-62.92391934500165,31.378764065109635],[-62.947189364097767,31.304383340219147],[-62.969435291905086,31.229977590793339],[-62.990627863584905,31.155566566843731],[-63.010737810701301,31.081170020180423],[-63.029735870214154,31.006807702613514],[-63.047592773687427,30.932499365053786],[-63.064279257181852,30.858264759311339],[-63.079766053160711,30.784123635397577],[-63.094023895885982,30.710095745122658],[-63.107023519619645,30.636200840296681],[-63.118735658623621,30.56245867183037],[-63.129131046260682,30.488888990634564],[-63.138180417692013,30.415511548519305],[-63.14585450538101,30.342346096395374],[-63.152124044488971,30.269412385173553],[-63.156959768378499,30.196730167563317],[-63.160332411311629,30.124319193576071],[-63.162212707550282,30.052199214122595],[-63.162571391356494,29.980389981012934],[-63.161379195193604,29.908911246057301],[-63.158606855122173,29.837782760166419],[-63.15422510360554,29.767024274251014],[-63.148204674905685,29.696655540121242],[-63.140516303284642,29.626696308687826],[-63.131130723004333,29.557166330861605],[-63.120018668326793,29.488085359351999],[-63.107150872614568,29.419473143271091],[-63.092498069230373,29.351349435328302],[-63.076030994234884,29.28373398643447],[-63.057720379192006,29.216646548399638],[-63.03753696016247,29.150106871235266],[-63.015456884427579,29.084136765299604],[-62.991486604622992,29.018769560367048],[-62.965643103546256,28.954042587295703],[-62.937943377484771,28.889993185037611],[-62.908404421826503,28.826658690746115],[-62.877043231959476,28.764076439776034],[-62.843876802372392,28.702283771079294],[-62.808922128453332,28.641318020910091],[-62.772196205590319,28.581216526421713],[-62.733716029171319,28.522016624767559],[-62.693498595483675,28.463755653101032],[-62.651560898116827,28.406470948575532],[-62.607919932458799,28.350199848344459],[-62.562592694796933,28.29497968866184],[-62.515596180519196,28.240847808479714],[-62.466947384114349,28.187841543152842],[-62.41666330097047,28.13599822983457],[-62.364760926475469,28.085355207476994],[-62.311257256017427,28.035949811434818],[-62.256169284984423,27.987819378861388],[-62.199514007865048,27.941001247809481],[-62.141308420946757,27.895532755432441],[-62.081569518718197,27.851451237984406],[-62.020314297466768,27.808794032618664],[-61.95755975168106,27.767598476488615],[-61.893322876749266,27.727901907647038],[-61.827620667159977,27.689741661448636],[-61.760470120099853,27.653155076845451],[-61.691888229158337,27.618179490091563],[-61.621891989723451,27.584852238340261],[-61.550498398082482,27.553210658745058],[-61.477724448724189,27.523292088459243],[-61.403587137935972,27.495133864636273],[-61.328104839766411,27.468770400733547],[-61.251311978464912,27.444202133821534],[-61.173253330376781,27.421407578197318],[-61.093973843617903,27.400364881234452],[-61.013518468102689,27.38105219300445],[-60.931932151947137,27.363447662679619],[-60.84925984416634,27.347529438532888],[-60.76554649377556,27.333275669736508],[-60.680837050689206,27.320664505462673],[-60.595176462123902,27.30967409398437],[-60.508609677094796,27.300282585373168],[-60.421181645516413,27.292468127002621],[-60.3329373164039,27.28620886984362],[-60.2439216378732,27.281482960370454],[-60.154179558040084,27.27826854955407],[-60.063756027718398,27.276543785667343],[-59.972695995024026,27.276286817882465],[-59.881044408072853,27.27747579357316],[-59.788846215880028,27.280088863710262],[-59.696146369259395,27.284104176566643],[-59.6029898145282,27.289499880415292],[-59.509421501600912,27.296254125327778],[-59.415486380392053,27.304345059576974],[-59.321229398118135,27.313750831435868],[-59.22669550469368,27.324449590975973],[-59.131929649133895,27.336419486470277],[-59.036976779554607,27.349638667990291],[-58.941881844971078,27.364085282909627],[-58.846689794398401,27.379737480400536],[-58.751445577751099,27.396573410534586],[-58.656194142245738,27.414571220685445],[-58.560980437796843,27.433709060924571],[-58.465849413419562,27.453965080424268],[-58.370846446206428,27.475317548865917],[-58.276029931835751,27.497748435741869],[-58.181473310744593,27.52124398592133],[-58.087250865135218,27.545790681694768],[-57.993436874512042,27.571375005352365],[-57.900105619278804,27.597983439184532],[-57.807331380738503,27.625602466380883],[-57.715188439294934,27.654218569231716],[-57.62375107535172,27.683818229128121],[-57.533093568413335,27.714387931058297],[-57.44329019978278,27.745914154614695],[-57.354415250763111,27.778383384785513],[-57.26654299995937,27.811782102961843],[-57.179747729573933,27.846096791433922],[-57.094103720010537,27.881313933391482],[-57.0096852507736,27.917420011124761],[-56.926566602266746,27.954401506924171],[-56.844822056692465,27.99224490397927],[-56.764525892655683,28.030936683681148],[-56.685752391459573,28.070463329219422],[-56.608575834407134,28.110811323783707],[-56.533070500103406,28.151967148765038],[-56.459310670750767,28.193917286453768],[-56.387370625853578,28.236648220938775],[-56.317324646714951,28.280146433611151],[-56.249247013738568,28.32439840766051],[-56.183212006428846,28.369390624477887],[-56.119293906088785,28.415109567252841],[-56.057566994021442,28.461541719175159],[-55.998105548831916,28.508673561635703],[-55.940983851823205,28.556491577824204],[-55.886276184298367,28.604982250030957],[-55.834056826661083,28.654132061445637],[-55.784399927114805,28.703927435902585],[-55.737358355003948,28.754345583681868],[-55.692940355313056,28.805344383236843],[-55.651148551364429,28.856879277656674],[-55.611985569178557,28.908905713627917],[-55.575454032077801,28.961379135139111],[-55.541556566981853,29.014254987078118],[-55.510295796313812,29.067488714332853],[-55.48167434609411,29.12103576179112],[-55.455694840544368,29.174851574340835],[-55.432359904785642,29.228891596869857],[-55.411672163039782,29.283111273366728],[-55.393634241327049,29.337466049618627],[-55.378248762969918,29.391911370513469],[-55.365518353089385,29.446402680039796],[-55.355445636806564,29.500895423984787],[-55.348033239242454,29.555345045437662],[-55.343283783719528,29.60970699108492],[-55.341199896258104,29.663936705814479],[-55.341784201979237,29.717989632715501],[-55.345039324205345,29.771821218474599],[-55.350967888057482,29.825386906180938],[-55.359572518656705,29.878642141621697],[-55.370855841124069,29.931542370584054],[-55.384820479681252,29.984043035258026],[-55.401469059449425,30.036099583229316],[-55.42080420465021,30.087667457587258],[-55.442828540404719,30.138702104118977],[-55.467544690934631,30.189158966813011],[-55.494955282260378,30.238993491456597],[-55.52506293770432,30.288161121138955],[-55.557870282387512,30.336617303445962],[-55.593379942330387,30.384317480567404],[-55.631594539955927,30.431217098290574]]]},"properties":{"objectid":2,"basin":"Atlantic","prob2day":"10%","risk2day":"Low","prob7day":"20%","risk7day":"Low","idp_source":"gtwo_areas_202608211120","idp_filedate":1787311381000,"idp_ingestdate":1787311396000,"st_area(shape)":36.796156227529998,"st_perimeter(shape)":22.53383083359029}},{"type":"Feature","id":3,"geometry":{"type":"Polygon","coordinates":[[[-114.9770167156488,19.890587029867675],[-115.14950005428398,19.93754019142682],[-115.3188492897628,19.97990295425808],[-115.48505855490828,20.017743201887413],[-115.64812198254339,20.051128817840834],[-115.80803370549103,20.08012768474498],[-115.9647878556749,20.104807684327284],[-116.11837856591796,20.125236701912399],[-116.26879996904324,20.141482618328325],[-116.41604619877296,20.153613318000339],[-116.56011138523218,20.161696682655929],[-116.70098966394175,20.165800596720317],[-116.83867516592608,20.165992942820196],[-116.9731620240081,20.162341602682943],[-117.1044443710108,20.154914460733892],[-117.23251633885786,20.143779399599737],[-117.35737206217084,20.129004302806493],[-117.47900567197411,20.110657052081422],[-117.59741130109057,20.088805530950651],[-117.71258308324258,20.063517622940083],[-117.8245151494545,20.034861209777148],[-117.9332016334485,20.002904175887124],[-118.03863666804767,19.967714403896764],[-118.14081438607496,19.929359776432705],[-118.23972891855465,19.887908177020904],[-118.33537440010838,19.843427487388794],[-118.4277449626598,19.795985591961653],[-118.51683473813256,19.745650373366175],[-118.60263846639202,19.69249337806707],[-118.68515511321783,19.636611696872478],[-118.76438544393301,19.578113302387123],[-118.84033023285389,19.517106205886819],[-118.91299025159873,19.453698416848624],[-118.98236627268523,19.387997948346765],[-119.04845906953034,19.320112811657054],[-119.11126941465164,19.250151017155872],[-119.17079808146622,19.178220576118861],[-119.2270458415922,19.10442949982172],[-119.28001346844673,19.028885800439468],[-119.32970173544663,18.951697488348543],[-119.3761114142103,18.872972574824587],[-119.41924327815468,18.792819072042676],[-119.45909809979736,18.711344989479812],[-119.49567665165608,18.628658340210393],[-119.5289797071477,18.54486713551006],[-119.55900803878984,18.460079384855874],[-119.58576241910026,18.37440310132223],[-119.60924362059654,18.287946295285451],[-119.62945241759491,18.200816977121917],[-119.6463895808144,18.113123160805344],[-119.66005588457131,18.024972854913472],[-119.67045210048394,17.936474071621262],[-119.67757900196926,17.847734823103735],[-119.68143736154491,17.758863118838008],[-119.68202795262783,17.669966971898361],[-119.67934707091052,17.581146816772332],[-119.67333280616396,17.492404578908349],[-119.66388254304485,17.403673292988231],[-119.65089282984013,17.314884581758179],[-119.63426021483696,17.225970066165758],[-119.613881248121,17.136861367158531],[-119.58965247797937,17.047490106583268],[-119.56147045449779,16.957787906286967],[-119.52923172416462,16.867686388116454],[-119.49283283796501,16.777117172119915],[-119.45217034418596,16.686011881942932],[-119.40714079201382,16.59430213673437],[-119.35764072973581,16.501919560139754],[-119.30356670563884,16.40879577220727],[-119.2448152707081,16.314862394783859],[-119.18128297233119,16.22005104971629],[-119.11286635879532,16.12429335795224],[-119.03946198108548,16.027520942237857],[-118.96096638569003,15.929665422621269],[-118.87727612359413,15.830658420949533],[-118.78828774308477,15.730431559968679],[-118.69389779244909,15.628916459726952],[-118.59400281997409,15.526044742071349],[-118.48849937664482,15.421748028848583],[-118.37728400984906,15.315957941006332],[-118.26025326877323,15.208606101290684],[-118.13730370260367,15.099624129749941],[-118.00833789767574,14.988946744596717],[-117.87343213628395,14.876597738295118],[-117.73285827359035,14.762701197502395],[-117.58689860138924,14.647386558942685],[-117.43583540967632,14.530783260239389],[-117.27995098844724,14.413020739016019],[-117.11952762769778,14.294228431097338],[-116.95484761832284,14.174535775905497],[-116.78619325121747,14.054072208365881],[-116.61384681547804,13.932967167001323],[-116.43809060110027,13.811350088535903],[-116.25920689987845,13.689350411492455],[-116.07747800090891,13.56709757079642],[-115.89318619418742,13.444721005869837],[-115.70661377150827,13.322350152537638],[-115.5180430219678,13.200114449322541],[-115.32775623646103,13.078143332049251],[-115.13603570498373,12.956566238341338],[-114.94316371753143,12.835512606721579],[-114.74942256499929,12.715111872115358],[-114.55509453648358,12.595493473944828],[-114.36046192377864,12.476786848034749],[-114.16580701688025,12.359121432008635],[-113.97141210488462,12.242626663489887],[-113.77755947958622,12.12743197920264],[-113.58453143008131,12.013666816770296],[-113.392610247265,11.901460613816425],[-113.20207672735899,11.790942310639252],[-113.01306582622681,11.682192446924034],[-112.82544632199006,11.575203221951256],[-112.63905866592461,11.46995743528754],[-112.45374331020548,11.366437883801439],[-112.26934070610861,11.264627365260822],[-112.08569130490969,11.164508679232313],[-111.90263555788459,11.066064623483726],[-111.72001391720841,10.969277996682365],[-111.53766683415699,10.874131595696724],[-111.35543475910674,10.780608219194107],[-111.17315814513222,10.688690666741024],[-110.99067744260981,10.598361734306707],[-110.80783310281532,10.509604222357098],[-110.62446557792401,10.422400926861428],[-110.44041532011084,10.336734648285528],[-110.25552277885305,10.252588182598686],[-110.06962840722514,10.169944330266787],[-109.88257265650282,10.088785887259007],[-109.69419597706258,10.009095654041346],[-109.50433882197893,9.9308564265829773],[-109.31284164072906,9.8540510053497314],[-109.11954488728662,9.7786621863110099],[-108.92428901022953,9.7046727690332091],[-108.72691446353156,9.6320655521836329],[-108.5272616975692,9.5608233317315126],[-108.32517116361822,9.4909289090420543],[-108.12048338400086,9.4223650926750224],[-107.91315897290815,9.3551383649437412],[-107.70352503085542,9.2893274255204119],[-107.49197831894418,9.2250247058256605],[-107.27891559827611,9.1623226363806793],[-107.06473362725501,9.1013136477068315],[-106.84982916788169,9.0420901694259328],[-106.63459898125791,8.9847446311599128],[-106.41943982578721,8.9293694652287741],[-106.20474846437003,8.8760570994556929],[-105.9909216563093,8.8248999670599915],[-105.77835616180732,8.7759904958648463],[-105.56744874196579,8.7294211172908831],[-105.35859615788627,8.6852842609600316],[-105.15219516887186,8.6436723582928607],[-104.94864253602412,8.6046778389113001],[-104.74833501954544,8.568393133336599],[-104.55166938053736,8.534910671190687],[-104.35904237920232,8.5043228838941332],[-104.17085077664194,8.476722201068867],[-103.98749133215915,8.4522010523368181],[-103.80936080685564,8.430851870017932],[-103.63685596183308,8.4127670819354421],[-103.47037355639441,8.3980391204092371],[-103.31031035254063,8.3867604150612465],[-103.15706310957472,8.3790233964127765],[-103.01102858859838,8.374920494085643],[-102.87260355071322,8.3745441386012658],[-102.74209854890881,8.3779668827655769],[-102.61937061256361,8.3851567026198381],[-102.50412814729606,8.3960473028408842],[-102.39607947688626,8.4105723710182474],[-102.29493292241636,8.4286655938421973],[-102.2003968058678,8.4502606562044775],[-102.11217944922208,8.4752912456945637],[-102.02998917536007,8.5036910472041995],[-101.9535343053638,8.535393749222294],[-101.88252316211413,8.5703330366404771],[-101.81666406579393,8.6084425952496986],[-101.75566534018321,8.6496561126396045],[-101.69923530726351,8.6939072755005213],[-101.6470822872177,8.7411297687239653],[-101.59891460382579,8.7912572790003765],[-101.55444057817004,8.8442234930199106],[-101.5133685331312,8.899962097472951],[-101.47540678979141,8.9584067781504473],[-101.4402636701322,9.0194912217426122],[-101.40764749703425,9.0831491140405092],[-101.37726659068051,9.1493141417344077],[-101.3488292757504,9.2179199915145205],[-101.32204387152734,9.2889003491719109],[-101.29661870179154,9.3621889013967916],[-101.27226208762517,9.4377193339802261],[-101.24868235190894,9.5154253336123702],[-101.22558781572502,9.5952405869836639],[-101.20272290703645,9.6770962150184232],[-101.18017133114193,9.7608992368104737],[-101.15820268320715,9.8465434667077716],[-101.13708846406126,9.9339225814621273],[-101.11710017183538,10.022930260523253],[-101.09850930915718,10.11346018154228],[-101.08158737415789,10.205406023069656],[-101.06660586856589,10.298661462756456],[-101.05383629051232,10.393120179153073],[-101.04355014262489,10.488675849910692],[-101.03601892213544,10.58522215447897],[-101.03151413167171,10.682652769609774],[-101.03030727026419,10.78086137475276],[-101.03266983784266,10.879741647559115],[-101.03887333523613,10.979187265679911],[-101.04918926237445,11.079091907665543],[-101.0638891182881,11.179349252066459],[-101.08324440380608,11.279852977433109],[-101.10752661975761,11.380496760517246],[-101.13700726607237,11.481174280768585],[-101.17195784178085,11.581779216737573],[-101.21264984771221,11.682205245176078],[-101.25935478379614,11.78234604463438],[-101.31234415086175,11.882095294562305],[-101.37188944793957,11.981346671711663],[-101.43826217585865,12.079993854632846],[-101.51173383454875,12.177930521876249],[-101.59255969387465,12.275054670536747],[-101.68069078934838,12.371345258277188],[-101.77580795517287,12.466853142658522],[-101.87758263572994,12.561631683155781],[-101.98568627450186,12.655734238344564],[-102.09979031497096,12.749214166800471],[-102.21956620241821,12.842124827099212],[-102.34468537852729,12.934519576917069],[-102.47481928678059,13.026451776628335],[-102.60963937245896,13.11797478390929],[-102.74881707904484,13.20914195643627],[-102.89202384822192,13.30000665368425],[-103.03893112617044,13.390622234228886],[-103.18921035457413,13.48104205664572],[-103.34253297781459,13.571319478611201],[-103.49857044027351,13.661507860499512],[-103.65699418453391,13.751660559087668],[-103.81747565497739,13.841830933850645],[-103.97968629418705,13.932072342464778],[-104.14329754654443,14.022438144404987],[-104.3079808564313,14.112981698246926],[-104.47340766553123,14.203756362566196],[-104.63924942002461,14.294815495039188],[-104.80517756159509,14.386212455140821],[-104.97086353372498,14.478000601446752],[-105.13597878169531,14.570233291633258],[-105.30019474808904,14.662963885175316],[-105.46318672908416,14.756245262209234],[-105.62481772285952,14.850107011329669],[-105.78521913925175,14.944545417437212],[-105.94454302663928,15.039554200566045],[-106.102941435199,15.13512708434763],[-106.26056641420854,15.231257788816038],[-106.41757001474429,15.327940038502106],[-106.57410428608387,15.425167552540643],[-106.73032127660554,15.522934054563109],[-106.886373038285,15.621233265502951],[-107.04241161950057,15.720058908991575],[-107.19858907132846,15.819404705063221],[-107.35505744124782,15.919264375550654],[-107.51196878213347,16.019631644085223],[-107.66947514056517,16.120500231600545],[-107.82772856941784,16.221863859929329],[-107.98688111617048,16.323716251803717],[-108.14708483100003,16.426051127257836],[-108.30849176498288,16.528862210822524],[-108.47125396739659,16.632143221632532],[-108.63552348661949,16.735887884218641],[-108.80145237462727,16.840089918614979],[-108.96919267889893,16.944743047553743],[-109.13889645141001,17.049840992867644],[-109.31071574053891,17.15537747638956],[-109.48480259736186,17.261346219952202],[-109.66130907025729,17.367740946287768],[-109.84038684247872,17.474555195565983],[-110.0220882878441,17.581733617212819],[-110.20623257337445,17.689106046906659],[-110.39260542659906,17.796485860034579],[-110.58099257594654,17.903686427486775],[-110.77117974804685,18.010521125549644],[-110.96295267312729,18.116803325113494],[-111.15609707691846,18.222346401565346],[-111.35039868784907,18.326963726694771],[-111.54564323344835,18.430468675888847],[-111.74161644304434,18.532674620937144],[-111.93810404236757,18.633394935428043],[-112.13489176074609,18.732442993849247],[-112.33176532570911,18.829632169788965],[-112.52851046568537,18.924775835036883],[-112.72491290730471,19.0176873640807],[-112.92075837899591,19.108180130508742],[-113.11583260828814,19.196067507909277],[-113.30992132361013,19.281162869870684],[-113.50281025249109,19.363279588182593],[-113.69428512246031,19.442231038231967],[-113.88413166194653,19.51783059270781],[-114.07213559937833,19.589891626097824],[-114.25808266138563,19.65822750929226],[-114.44175857549777,19.722651618577459],[-114.62294907104268,19.782977325743104],[-114.80143987465038,19.839018005276841],[-114.9770167156488,19.890587029867675]]]},"properties":{"objectid":3,"basin":"Pacific","prob2day":"20%","risk2day":"Low","prob7day":"60%","risk7day":"Medium","idp_source":"gtwo_areas_202608211120","idp_filedate":1787311381000,"idp_ingestdate":1787311396000,"st_area(shape)":113.78285322038762,"st_perimeter(shape)":46.733602604887551}},{"type":"Feature","id":4,"geometry":{"type":"Polygon","coordinates":[[[-112.41904017216609,7.6368785838797066],[-112.36580648897819,7.6810013703171194],[-112.31280635343035,7.726542640330706],[-112.26014177202507,7.7735054821923768],[-112.20791475216396,7.8218929859726813],[-112.1562272985509,7.8717082408427927],[-112.10518142038615,7.9229543350746212],[-112.05487912237351,7.9756343587387732],[-112.00542241191471,8.0297514010064788],[-111.95691329641141,8.0853085501495912],[-111.90945378236609,8.1423088953393972],[-111.86314587538175,8.2007555266463896],[-111.81809158286018,8.2606515332417985],[-111.77439291220304,8.3220000033975907],[-111.73215186901342,8.3848040271842592],[-111.6914704606931,8.4490666928737141],[-111.65245069374441,8.514791090536562],[-111.61519457556909,8.5819803084445994],[-111.5798041108709,8.6506374357691698],[-111.54638130885024,8.7207655625807661],[-111.5150281751101,8.792367778050675],[-111.48584671615293,8.8654471704506932],[-111.45893893848114,8.9400068289521073],[-111.43440684949638,9.0160498436255239],[-111.41235245570118,9.0935793018434197],[-111.39287776359782,9.1725982954750975],[-111.37608477968871,9.2531099118930342],[-111.362075512275,9.3351172402685734],[-111.35095196606028,9.4186233697728312],[-111.34281614844639,9.5036313904764143],[-111.33777006593567,9.5901443906512327],[-111.33591572592991,9.6781654594685165],[-111.33735513493144,9.7676976860994955],[-111.34219029944268,9.8587441606146626],[-111.35052322686533,9.9513079712859849],[-111.3624559228025,10.045392207284692],[-111.37809039375657,10.140999958681277],[-111.39752864802858,10.238134312848388],[-111.42087269122163,10.336798360755893],[-111.44822452983806,10.436995190675646],[-111.4796861712797,10.538727891778933],[-111.51535962204883,10.641999553236928],[-111.5553468895472,10.746813265120238],[-111.59974997847866,10.853172114801396],[-111.64867089804341,10.961079193250328],[-111.70221165294532,11.070537588738887],[-111.76047425148545,11.181550390438304],[-111.82356069926675,11.294120687519865],[-111.89157300279174,11.408251569154743],[-111.9646131694621,11.523946124514168],[-112.0427829962382,11.641207357333826],[-112.12611309244517,11.760009423796021],[-112.21445956565634,11.880255759196075],[-112.30765227493242,12.001839164346109],[-112.40552107753558,12.124652438259545],[-112.50789583252657,12.248588379050602],[-112.61460639896603,12.373539787531286],[-112.72548263501551,12.499399462715189],[-112.84035439883633,12.626060203615623],[-112.95905154859003,12.7534148101455],[-113.08140394423657,12.881356081318245],[-113.20724144393739,13.00977681524796],[-113.33639390495466,13.138569813646143],[-113.4686911872484,13.26762787372752],[-113.60396314898003,13.396843796304267],[-113.74203964741173,13.526110380389866],[-113.88275054340278,13.65532042409842],[-114.02592569331603,13.784366729141368],[-114.17139495711149,13.913142092733551],[-114.31898819205134,14.041539314787713],[-114.46853525719627,14.169451195216652],[-114.61986601250635,14.296770533033794],[-114.77281031434444,14.42339012815205],[-114.92719802177118,14.549202778685412],[-115.08285899384737,14.674101284546794],[-115.23962308963377,14.79797844474956],[-115.39732016639249,14.920727060105889],[-115.55578008318417,15.042239928729884],[-115.71483269817037,15.162409849634969],[-115.87430787041177,15.281129622734056],[-116.03403545806987,15.398292047939776],[-116.19384532020524,15.513789923366403],[-116.3535673149795,15.62751604892668],[-116.51303130145328,15.739363224533349],[-116.67206713688876,15.849224248300573],[-116.83050468034662,15.956991921040469],[-116.98817379088763,16.0625590408672],[-117.14490432667327,16.165818407693507],[-117.30052614586486,16.266662820532872],[-117.45486910752322,16.364985079298094],[-117.60776307070904,16.460677983901974],[-117.75903789178517,16.553634331559294],[-117.908523431611,16.643746923082176],[-118.05604954834786,16.730908557484099],[-118.20144609925796,16.815012034677807],[-118.34454294340202,16.895950153676779],[-118.48516993984077,16.973615713494496],[-118.62315694673561,17.047901513144438],[-118.75833382314732,17.118700353438726],[-118.89053042633799,17.185905032491405],[-119.01957806597488,17.249409390730932],[-119.14539503505273,17.309169744488258],[-119.26803445832348,17.365239245494934],[-119.38756105549822,17.417679374103955],[-119.50403954808661,17.466551613366391],[-119.61753465849762,17.511917444534561],[-119.72811110644233,17.553838348860836],[-119.8358336134304,17.592375807597591],[-119.94076690187092,17.627591303795782],[-120.04297569147491,17.659546317808463],[-120.14252470375197,17.688302331787327],[-120.23947865931257,17.713920827884067],[-120.33390228146504,17.736463286451624],[-120.42586028902105,17.755991189641804],[-120.51541740528893,17.772566019606245],[-120.60263834908045,17.786249257597319],[-120.68758784370391,17.797102384867287],[-120.77033060976976,17.805186884467275],[-120.8509313669889,17.810564235850961],[-120.92945483866976,17.813295922968621],[-121.00596574542271,17.813443425273988],[-121.08052880785812,17.811068225818133],[-121.15320874748562,17.806231805853315],[-121.22407028491563,17.798995647531228],[-121.29317814255717,17.789421231204983],[-121.36059704012121,17.777570039925536],[-121.42639170001684,17.76350355404594],[-121.49062684375372,17.747283255717832],[-121.55336719104292,17.728970627092906],[-121.61467746429344,17.708627149423535],[-121.67462238321633,17.686314303962092],[-121.73326667111991,17.662093572860215],[-121.79067504771518,17.636026437370333],[-121.84691223451193,17.608174379644026],[-121.90204295301976,17.578598880933725],[-121.95613192384911,17.547361423391123],[-122.00924386850966,17.514523487369161],[-122.06144350851099,17.480146555918964],[-122.11279556446362,17.444292109393473],[-122.16336475787716,17.407021630843701],[-122.213215809362,17.368396600622759],[-122.26241344132717,17.328478500882227],[-122.31102237438296,17.287328813773854],[-122.35910732913982,17.245009020550015],[-122.40673302800673,17.201580602462968],[-122.45396419069476,17.157105040765146],[-122.50086553961285,17.111643818507559],[-122.54750179537149,17.065258416043207],[-122.59393767948023,17.018010316423101],[-122.64023791254954,16.969960999100977],[-122.68646386251714,16.921170295073182],[-122.73259977056284,16.871660015597399],[-122.77855274930982,16.82141395758822],[-122.82422655780931,16.77041426500648],[-122.86952495601184,16.71864308091358],[-122.91435170386796,16.666082549270357],[-122.95861056042895,16.612714814037588],[-123.00220528654467,16.558522018276676],[-123.04503964036701,16.50348630504908],[-123.08701738184658,16.447589820114274],[-123.12804227093397,16.390814704734964],[-123.16801806757968,16.333143103771363],[-123.20684853083492,16.274557161184191],[-123.24443742065034,16.215039019135588],[-123.28068849607712,16.154570823384915],[-123.31550551796516,16.093134715195106],[-123.34879224446644,16.030712840325464],[-123.38045243553137,15.967287341837505],[-123.41038985200998,15.902840361893311],[-123.43850825205408,15.837354046252358],[-123.4647113956143,15.770810537076784],[-123.48890304354052,15.703191978327254],[-123.51098695398463,15.634480514863981],[-123.53086688689723,15.564658287949783],[-123.54844660222881,15.493707443343965],[-123.5636298590307,15.421610124108099],[-123.57632041725338,15.348348473303531],[-123.58642203774673,15.273904634891153],[-123.59383847776343,15.198260752831629],[-123.59847349905266,15.121398970186476],[-123.60023085976627,15.043301431815792],[-123.59901431985486,14.963950279881658],[-123.59472763926902,14.883327658344911],[-123.58727457795931,14.801415711166271],[-123.57655889497693,14.718196581407256],[-123.56248435027243,14.633652413927905],[-123.54495470289714,14.547765351789678],[-123.52387371370082,14.460517538054091],[-123.49914514083548,14.371891116681809],[-123.47067274425166,14.281868231633723],[-123.43836028479922,14.190431026870556],[-123.40211152063006,14.097561644554389],[-123.36183021169484,14.003242230444698],[-123.31742011794398,13.907454925804302],[-123.26878499932815,13.810181876392619],[-123.21582861489856,13.711405224371731],[-123.15845472370643,13.611107114601793],[-123.096567087501,13.509269689244888],[-123.0300694635348,13.405875093161171],[-122.9588656126578,13.300905469412044],[-122.88287160294203,13.194348496386112],[-122.80214659179171,13.086256184575404],[-122.71684205291831,12.976722052680714],[-122.62711099787418,12.865840310082376],[-122.53310643821146,12.753705165261294],[-122.43498138638176,12.640410827597748],[-122.33288885393739,12.526051506471958],[-122.22698185332979,12.410721412163582],[-122.11741339521194,12.294514752254145],[-122.00433649203541,12.177525737023302],[-121.88790415535237,12.059848576750539],[-121.76826939761452,11.941577479017553],[-121.64558522947465,11.822806653204623],[-121.52000466428376,11.703630309591233],[-121.39168071359398,11.58414265755772],[-121.26076638805824,11.464437905584987],[-121.12741470102753,11.344610263053312],[-120.99177866315466,11.224753939342975],[-120.85401128689131,11.104963143834141],[-120.71426558289022,10.985332086806523],[-120.57269456540178,10.865954975841589],[-120.42945124417946,10.746926021219053],[-120.2846886316749,10.628339432319081],[-120.13855973944032,10.510289417622687],[-119.99121758082663,10.392870187409358],[-119.84281516558735,10.276175950160109],[-119.69350550617406,10.160300916154483],[-119.54344161593775,10.04533929387344],[-119.39277650463191,9.9313852926972572],[-119.2416631847081,9.8185331220061016],[-119.09025466861794,9.7068769911803088],[-118.93870396791368,9.5965111087008381],[-118.78716409414756,9.4875296857465514],[-118.63578805977107,9.3800269298990315],[-118.48472887543716,9.2740970514379342],[-118.33413955449674,9.1698342588441051],[-118.18417310760276,9.0673327623972],[-118.03498254720671,8.9666867705781215],[-117.88672088486084,8.8679904927671487],[-117.73954113211744,8.7713381392438805],[-117.5935963023274,8.6768239175898429],[-117.44903940524426,8.5845420380847486],[-117.30602345421892,8.494586710108706],[-117.16470145990434,8.4070521430421081],[-117.02522643475208,8.3220325462651203],[-116.88775139121361,8.2396221282587589],[-116.75242933994201,8.1599150984031894],[-116.61941329338867,8.0830056669780674],[-116.48885626400528,8.0089880424643525],[-116.36091126244469,7.9379564351415297],[-116.23571139646367,7.8699927138927706],[-116.1132574493717,7.8050967177394455],[-115.99349622087379,7.7432348246275637],[-115.87637435329367,7.6843733090810815],[-115.76183849075363,7.6284784501204967],[-115.64983527287944,7.5755165231691421],[-115.54031134289409,7.5254538054488762],[-115.43321334312117,7.4782565732823514],[-115.3284879149852,7.4338911056901225],[-115.22608170080974,7.3923236771960887],[-115.12594134381789,7.3535205659215421],[-115.0280134845346,7.3174480490883411],[-114.93224476618292,7.2840724030191382],[-114.83858182928788,7.2533599049357917],[-114.74697131797183,7.2252768311609543],[-114.65735987365917,7.1997894598158609],[-114.56969413777415,7.1768640663237306],[-114.48392075353985,7.1564669288058553],[-114.3999863614813,7.1385643235847738],[-114.31783760572085,7.123122527882515],[-114.23742112678349,7.1101078189208238],[-114.15868356699292,7.0994864730224663],[-114.08157156867287,7.0912247665099244],[-114.00603177504627,7.0852889784037529],[-113.93201082573893,7.0816453832279649],[-113.85945536577242,7.0802602591037953],[-113.7883120347725,7.0810998832531595],[-113.71852747686148,7.0841305319985963],[-113.65004833256438,7.0893184825620779],[-113.5828212451043,7.0966300121654626],[-113.51679285500614,7.1060313971314031],[-113.45190980639234,7.1174889146818145],[-113.38811874068722,7.1309688411392358],[-113.32536629931519,7.1464374546249587],[-113.26359912459981,7.1638610314615789],[-113.2027638588649,7.1832058479716352],[-113.14280714533339,7.2044381813770997],[-113.08367562363105,7.2275243097992075],[-113.02531593788012,7.2524305086611776],[-112.96767473040438,7.2791230551849821],[-112.91069864172886,7.3075682274918563],[-112.85433431417715,7.3377323010050191],[-112.79852839097236,7.3695815529464426],[-112.74322751353884,7.4030822605380422],[-112.68837832420019,7.4382007010016764],[-112.63392746528018,7.4749031506599977],[-112.57982157820317,7.513155887634241],[-112.52600730529281,7.5529251864483058],[-112.47243128977209,7.5941773270221802],[-112.41904017216609,7.6368785838797066]]]},"properties":{"objectid":4,"basin":"Pacific","prob2day":"60%","risk2day":"Medium","prob7day":"80%","risk7day":"High","idp_source":"gtwo_areas_202608211120","idp_filedate":1787311381000,"idp_ingestdate":1787311396000,"st_area(shape)":76.075308257463888,"st_perimeter(shape)":34.407990526851613}}]}