{"type":"FeatureCollection","features":[{"type":"Feature","id":1,"geometry":{"type":"Point","coordinates":[-54.702487291255352,30.584654186341766]},"properties":{"objectid":1,"basin":"Atlantic","prob2day":"10%","risk2day":"Low","prob7day":"30%","risk7day":"Low","idp_source":"gtwo_points_202609160514","idp_filedate":1789535881000,"idp_ingestdate":1789535889000}},{"type":"Feature","id":2,"geometry":{"type":"Point","coordinates":[-111.49766696176079,27.601914581792641]},"properties":{"objectid":2,"basin":"Pacific","prob2day":"30%","risk2day":"Low","prob7day":"30%","risk7day":"Low","idp_source":"gtwo_points_202609160514","idp_filedate":1789535881000,"idp_ingestdate":1789535889000}},{"type":"Feature","id":3,"geometry":{"type":"Point","coordinates":[-109.38374674041961,11.709645380130326]},"properties":{"objectid":3,"basin":"Pacific","prob2day":"0%","risk2day":"Low","prob7day":"20%","risk7day":"Low","idp_source":"gtwo_points_202609160514","idp_filedate":1789535881000,"idp_ingestdate":1789535889000}}]}