{"type":"FeatureCollection","features":[{"type":"Feature","id":1,"geometry":{"type":"Polygon","coordinates":[[[-108.44163244318258,12.225879267114635],[-108.39603792790797,12.288432766758945],[-108.35319706749056,12.352693096909036],[-108.31308294252369,12.418633580975097],[-108.27566863180181,12.486227542367317],[-108.24092721322023,12.55544830269713],[-108.20883176737209,12.626269184475404],[-108.17935537305192,12.698663512011592],[-108.152471108155,12.772604606917241],[-108.12815205237524,12.84806579260237],[-108.1063712854064,12.925020391577959],[-108.0871018851438,13.003441727254028],[-108.07031693218056,13.083303121242182],[-108.05598950441203,13.164577896952494],[-108.04409268153194,13.247239377795211],[-108.03459954233489,13.33126088538171],[-108.02748316561548,13.416615743122179],[-108.02271663106757,13.503277274426807],[-108.02027301748569,13.591218801806406],[-108.02012540366434,13.680413646872466],[-108.02224686929748,13.77083513393444],[-108.02661049317965,13.862456585503139],[-108.03318935410533,13.955251323190168],[-108.04195653176845,14.049192671304866],[-108.05288510406422,14.144253952358156],[-108.06594815158581,14.240408488860794],[-108.08111875222852,14.337629603323649],[-108.09836998568619,14.435890618257588],[-108.11767493075337,14.535164857971949],[-108.13900666712391,14.635425644078339],[-108.16233827269303,14.736646299986887],[-108.18764282805398,14.838800147309087],[-108.21489341020265,14.941860510354388],[-108.24406310063148,15.04580071163366],[-108.27514111467059,15.150590895453604],[-108.30824483363205,15.256175977439568],[-108.34355275495557,15.362488836690602],[-108.38124375199743,15.469462282158759],[-108.42149669991267,15.577029120097961],[-108.46449047295687,15.685122156762247],[-108.51040394538569,15.793674201103613],[-108.55941599055541,15.902618057577456],[-108.61170548272173,16.011886536034922],[-108.66745129703963,16.121412441830842],[-108.72683230686539,16.231128582118515],[-108.79002738555528,16.340967764051186],[-108.8572154091637,16.450862794782267],[-108.92857525104688,16.56074648146506],[-109.00428578546052,16.67055163125292],[-109.08452588576091,16.780211051299091],[-109.16947442710301,16.889657548756986],[-109.25931028284316,16.998823929880587],[-109.35421232813633,17.107643001823192],[-109.45435943723817,17.216047572637478],[-109.55993048260558,17.323970448577484],[-109.67110434029297,17.431344435897131],[-109.78805988365662,17.538102343548474],[-109.91097598605279,17.644176977785435],[-110.0400315235359,17.749501145761428],[-110.17540536946211,17.854007653730378],[-110.31727639718787,17.957629309745016],[-110.46582348096877,18.060298920059267],[-110.6212254968591,18.161949291826488],[-110.7836613164165,18.262513233099355],[-110.95330981569532,18.361923549232529],[-111.13034986895121,18.460113049178005],[-111.31496034864108,18.557014539189765],[-111.50730722734659,18.652563251892673],[-111.70732482937728,18.746737992064823],[-111.91474711548688,18.839555244279268],[-112.12930143911001,18.931032739569389],[-112.35071515188264,19.021188208069475],[-112.57871560903806,19.110039379014268],[-112.8130301622121,19.197603982537885],[-113.05338616573886,19.283899747875182],[-113.29951097125422,19.368944405160335],[-113.55113193309217,19.452755683628027],[-113.8079764037879,19.535351314311868],[-114.06977173587683,19.616749025547222],[-114.33624528459211,19.696966548367641],[-114.60712440067044,19.776021612007924],[-114.88213643934512,19.853931946602188],[-115.16100875225203,19.930715281385289],[-115.44346869282583,20.006389346491289],[-115.72924361450112,20.080971871155043],[-116.01806087071253,20.154480586410102],[-116.30964781309598,20.226933221491095],[-116.6037317968848,20.29834750473367],[-116.90004017461428,20.368741168070585],[-117.1983002979203,20.438131940736639],[-117.49823952203622,20.506537551966574],[-117.79958519859792,20.573975730995357],[-118.10206468104008,20.640464209755635],[-118.40540532279732,20.706020715683621],[-118.7093344773042,20.770662979812812],[-119.01357949709603,20.834408732277325],[-119.31786773560742,20.897275701412639],[-119.62192654627302,20.959281619151568],[-119.92548328072871,21.020444212930215],[-120.22826529420786,21.080781213782132],[-120.53000060744199,21.140308535210863],[-120.8304573581205,21.198933056015846],[-121.12946586575703,21.256392661592201],[-121.42686179633472,21.312410695297501],[-121.72248081673621,21.366710502288015],[-122.01615859474327,21.419015428619275],[-122.30773079813775,21.469048819447607],[-122.59703309290285,21.516534019029905],[-122.88390114682039,21.561194373421756],[-123.16817062677291,21.602753226880054],[-123.44967720054228,21.640933925460445],[-123.72825653411167,21.67545981431914],[-124.00374429436363,21.706054237713033],[-124.27597615087859,21.73244054079845],[-124.54478776784111,21.754342070530299],[-124.81001481483173,21.771482169366777],[-125.07149295693432,21.783584185162169],[-125.32905786283004,21.790371461274049],[-125.58254519850203,21.791567342858741],[-125.83179063263151,21.786895175971722],[-126.07662983030235,21.776078305769317],[-126.31689846019572,21.758840076508477],[-126.55243218919406,21.734903834244676],[-126.78306668328071,21.703992923234978],[-127.00863761113675,21.665830689534857],[-127.2289806396447,21.620140478300584],[-127.44393143568709,21.566645633789108],[-127.65332566524717,21.505069502056017],[-127.85699899700603,21.435135427358205],[-128.0547870978462,21.356566755751317],[-128.24652563465025,21.269086831492245],[-128.43205027430065,21.172419000636523],[-128.61119668457923,21.06628660834042],[-128.78380055485161,20.950413188617915],[-128.94972013847354,20.824711053072804],[-129.10887859557062,20.689635528457018],[-129.26121068482513,20.545738983767251],[-129.40665116491925,20.393573789798722],[-129.54513479363573,20.23369231374943],[-129.67659633055609,20.066646924616009],[-129.80097053436259,19.892989993193794],[-129.91819216373727,19.713273886680668],[-130.02819597646305,19.528050975871963],[-130.13091673212142,19.337873627965678],[-130.22628918849517,19.143294213757088],[-130.3142481051658,18.94486510134351],[-130.39472823991628,18.743138660620843],[-130.46766435232792,18.538667258787086],[-130.53299120018363,18.332003267536891],[-130.59064354216565,18.123699054068254],[-130.64055613785541,17.914306987377699],[-130.68266374593503,17.704379437361297],[-130.7169011232881,17.494468773015626],[-130.74320303039542,17.285127363337267],[-130.76150422503986,17.07690757732297],[-130.77173946590352,16.870361783969315],[-130.77384351256796,16.666042352272882],[-130.76775112191666,16.464501652129684],[-130.75339705443042,16.266292051637038],[-130.73071606699278,16.071965919791523],[-130.69964292008461,15.882075625589778],[-130.66011237148865,15.697173538927814],[-130.61205917988713,15.517812028802211],[-130.55541810306289,15.344543463310345],[-130.49012390149676,15.177920213247376],[-130.41611133207221,15.018494645811415],[-130.33331515437078,14.866819130898307],[-130.2417112081057,14.723347753296309],[-130.14150520959765,14.587984625490208],[-130.03298278982379,14.460442665896437],[-129.9164296607002,14.340434603174515],[-129.79213153414287,14.227673163285999],[-129.66037412116867,14.121871072192391],[-129.52144313459291,14.022741058553152],[-129.37562428633169,13.929995847430575],[-129.22320328650238,13.843348167484066],[-129.06446584881979,13.762510744675239],[-128.89969768340126,13.687196306764292],[-128.7291845030623,13.61711757881335],[-128.55321201971884,13.551987289481985],[-128.37206594438771,13.491518165630964],[-128.18603198898501,13.435422933221901],[-127.99539586542676,13.383414319115673],[-127.80044328562906,13.335205051072364],[-127.60145996060862,13.29050785595291],[-127.39873160318086,13.249035460618131],[-127.19254392436255,13.210500591029586],[-126.98318263606973,13.174615974947415],[-126.77093345021848,13.141094339232495],[-126.55608207782552,13.109648410745706],[-126.33891423170633,13.079990916347867],[-126.11971562377693,13.051834582899801],[-125.89877196505404,13.024892137262441],[-125.67636896655449,12.998876306296609],[-125.4527923419929,12.973499816863182],[-125.22832780148678,12.948475396722301],[-125.00326105785143,12.923515771835525],[-124.77787782210373,12.898333669063732],[-124.55246380615961,12.872641816167004],[-124.32730472193526,12.846152940006334],[-124.10267273575806,12.818596892332835],[-123.8786825579536,12.789902616812469],[-123.65534730963054,12.760127501882835],[-123.43267842207143,12.729331077267545],[-123.21068732476016,12.697572869992086],[-122.98938544628123,12.664912410679335],[-122.76878421791724,12.631409227254153],[-122.54889506915202,12.597122850339417],[-122.3297294285702,12.562112806960613],[-122.1112987274542,12.526438626841298],[-121.89361439528801,12.490159839704972],[-121.67668786155548,12.453335973476555],[-121.46053055663981,12.416026557879491],[-121.24515390912552,12.378291121738016],[-121.0305693502952,12.340189192976993],[-120.81678830783403,12.301780302219299],[-120.60382221392393,12.263123978289116],[-120.39168249714942,12.224279748211927],[-120.18038058789375,12.185307143509988],[-119.96992791564071,12.146265692108159],[-119.76033590987424,12.107214921931245],[-119.55161600007824,12.068214363602124],[-119.34377961753523,12.029323545945033],[-119.13683819082974,11.990601996884777],[-118.93080315034501,11.952109246144914],[-118.72568592466558,11.913904822549682],[-118.52149794507403,11.876048254923148],[-118.31825064105414,11.838599072988984],[-118.1159554420899,11.801616804671937],[-117.91462377856442,11.765160979695622],[-117.71426707906238,11.729291126884164],[-117.51489677396683,11.694066775061742],[-117.31652429366113,11.659547453052653],[-117.11916160992024,11.625792175268828],[-116.9228371440189,11.592844338495581],[-116.72759833429558,11.560729284728836],[-116.53349367759103,11.529471349623236],[-116.34057167344389,11.499094869732573],[-116.14888081689611,11.469624180711492],[-115.95846960748628,11.44108361821452],[-115.76938654295452,11.413497519694943],[-115.58168011924204,11.386890220807175],[-115.39539883498816,11.361286056306596],[-115.21059118793289,11.336709364545698],[-115.02730567491687,11.313184479380368],[-114.84559079457944,11.290735738263834],[-114.66549504376115,11.269387475951419],[-114.4870669202021,11.249164030795498],[-114.31035492164222,11.230089736652189],[-114.13540754492215,11.212188930075172],[-113.96227328958054,11.195485948517842],[-113.79100065065938,11.180005125836033],[-113.62163812769734,11.16577080038229],[-113.45423421753503,11.152807306911825],[-113.28883741791242,11.1411389819786],[-113.12549622656951,11.130790160337767],[-112.96425914124626,11.121785180341931],[-112.80517465878336,11.1141483767463],[-112.64829127692082,11.107904085205519],[-112.49365749429785,11.103076643172699],[-112.34132180685583,11.099690385403107],[-112.19133271323403,11.097769648450651],[-112.04373871207179,11.097338768869236],[-111.89858829841114,11.098422082313391],[-111.75592997179069,11.101043924437704],[-111.61581222995034,11.105228631796081],[-111.47828348879187,11.111000503170828],[-111.34337913843638,11.118377748034789],[-111.211107246702,11.12736580818563],[-111.08147244329854,11.137968518332571],[-110.95447935703658,11.15018971228551],[-110.83013261582744,11.164033224753666],[-110.70843684848165,11.179502888647505],[-110.58939668380981,11.196602538676359],[-110.47301675062243,11.215336009549333],[-110.3593016768308,11.235707134177062],[-110.24825609214486,11.257719748167972],[-110.13988462537509,11.281377684432755],[-110.03419190353344,11.306684777680459],[-109.93118255632982,11.333644862620474],[-109.83086121347412,11.362261772163208],[-109.73323250197831,11.392539341917256],[-109.63830105065284,11.424481404793141],[-109.54607148920775,11.458091794600762],[-109.45654844555423,11.493374346948713],[-109.36973654850283,11.530332895646779],[-109.28564042686412,11.568971273605541],[-109.20426470944869,11.609293316433536],[-109.12561402416776,11.651302857041344],[-109.04969300073128,11.695003731037502],[-108.97650626705047,11.740399770433214],[-108.90605845193591,11.787494811736337],[-108.83835418419812,11.836292687857394],[-108.77339809264777,11.886797232606341],[-108.71119480519599,11.939012281591658],[-108.65174895155275,11.992941666824606],[-108.59506515962931,12.048589223913666],[-108.54114805913554,12.105958787568113],[-108.49000227708331,12.16505418979915],[-108.44163244318258,12.225879267114635]]]},"properties":{"objectid":1,"basin":"Pacific","prob2day":"10%","risk2day":"Low","prob7day":"60%","risk7day":"Medium","idp_source":"gtwo_areas_202609061132","idp_filedate":1788694674000,"idp_ingestdate":1788694813000,"st_area(shape)":178.87809521747184,"st_perimeter(shape)":55.447295842978789}}]}