{"type":"FeatureCollection","features":[{"type":"Feature","id":1,"geometry":{"type":"LineString","coordinates":[[-88.82,30.4],[-88.62,30.36],[-88.4,30.4],[-88.07,30.25],[-88.028,30.222],[-87.55,30.27],[-86.8,30.39],[-86.4,30.38],[-86.17,30.33],[-85.98,30.28],[-85.7,30.12],[-85.59,30.05],[-85.5,29.96],[-85.39,29.93],[-85.3,29.8],[-85.3,29.69],[-85.22,29.68]]},"properties":{"objectid":1,"name":"Ocean Springs, MS to Indian Pass, FL...5-7 ft","folderpath":"Peak Storm Surge Forecast: AL092026, adv: 004, forecast cycle: 2026100712/Lines","symbolid":0,"altmode":-1,"base":0,"clamped":0,"extruded":0,"snippet":" ","popupinfo":"{\"peak_surge_range\": \"5-7 ft\", \"color\": \"orange\"}","idp_source":"AL092026pss_polylines","idp_subset":"al092026","idp_filedate":1791385385000,"idp_ingestdate":1791385499000,"st_length(shape)":3.9553534402632198,"shape_leng":3.9553534400000001}},{"type":"Feature","id":2,"geometry":{"type":"LineString","coordinates":[[-89.1,29.12],[-89.1,29.19],[-89.18,29.32],[-89.39,29.34],[-89.59,29.51],[-89.8,29.57],[-89.67,29.66],[-89.56,29.66],[-89.468,29.73],[-89.34,29.86],[-89.426,30.04],[-89.6,30.15],[-89.33,30.31],[-88.82,30.4]]},"properties":{"objectid":2,"name":"Mouth of the Mississippi River, LA to Ocean Springs, MS...3-5 ft","folderpath":"Peak Storm Surge Forecast: AL092026, adv: 004, forecast cycle: 2026100712/Lines","symbolid":1,"altmode":-1,"base":0,"clamped":0,"extruded":0,"snippet":" ","popupinfo":"{\"peak_surge_range\": \"3-5 ft\", \"color\": \"yellow\"}","idp_source":"AL092026pss_polylines","idp_subset":"al092026","idp_filedate":1791385385000,"idp_ingestdate":1791385499000,"st_length(shape)":2.7177117371473418,"shape_leng":2.7177117399999999}},{"type":"Feature","id":3,"geometry":{"type":"LineString","coordinates":[[-91.29,29.48],[-91.29,29.26],[-91.19,29.22],[-90.96,29.17],[-90.82,29.11],[-90.69,29.13],[-90.65,29.21],[-90.47,29.31],[-90.4,29.27],[-90.3,29.23],[-90.19,29.11],[-89.96,29.25],[-89.82,29.31],[-89.65,29.28],[-89.5,29.23],[-89.38,29.16],[-89.24,29.06],[-89.1,29.12]]},"properties":{"objectid":3,"name":"Morgan City, LA to Mouth of the Mississippi River, LA...1-2 ft","folderpath":"Peak Storm Surge Forecast: AL092026, adv: 004, forecast cycle: 2026100712/Lines","symbolid":2,"altmode":-1,"base":0,"clamped":0,"extruded":0,"snippet":" ","popupinfo":"{\"peak_surge_range\": \"1-2 ft\", \"color\": \"blue\"}","idp_source":"AL092026pss_polylines","idp_subset":"al092026","idp_filedate":1791385385000,"idp_ingestdate":1791385499000,"st_length(shape)":2.7089904276372554,"shape_leng":2.7089904300000001}},{"type":"Feature","id":4,"geometry":{"type":"LineString","coordinates":[[-85.22,29.68],[-85.1,29.63],[-85.03,29.72],[-84.99,29.73],[-84.83,29.75],[-84.67,29.85],[-84.38,29.96],[-84.315,30.07],[-84.2,30.1],[-84.08,30.1],[-83.99,30.09]]},"properties":{"objectid":4,"name":"Indian Pass, FL to Aucilla River, FL...3-5 ft","folderpath":"Peak Storm Surge Forecast: AL092026, adv: 004, forecast cycle: 2026100712/Lines","symbolid":1,"altmode":-1,"base":0,"clamped":0,"extruded":0,"snippet":" ","popupinfo":"{\"peak_surge_range\": \"3-5 ft\", \"color\": \"yellow\"}","idp_source":"AL092026pss_polylines","idp_subset":"al092026","idp_filedate":1791385385000,"idp_ingestdate":1791385499000,"st_length(shape)":1.4025064425187184,"shape_leng":1.40250644}},{"type":"Feature","id":5,"geometry":{"type":"LineString","coordinates":[[-83.99,30.09],[-83.71,29.94],[-83.59,29.82],[-83.53,29.72],[-83.4,29.67],[-83.39,29.52],[-83.29,29.44],[-83.21,29.41],[-83.17,29.3],[-83.09,29.25],[-83.02,29.17],[-82.87,29.16],[-82.81,29.15],[-82.75,29.03]]},"properties":{"objectid":5,"name":"Aucilla River, FL to Yankeetown, FL...2-4 ft","folderpath":"Peak Storm Surge Forecast: AL092026, adv: 004, forecast cycle: 2026100712/Lines","symbolid":1,"altmode":-1,"base":0,"clamped":0,"extruded":0,"snippet":" ","popupinfo":"{\"peak_surge_range\": \"2-4 ft\", \"color\": \"yellow\"}","idp_source":"AL092026pss_polylines","idp_subset":"al092026","idp_filedate":1791385385000,"idp_ingestdate":1791385499000,"st_length(shape)":1.770104574688764,"shape_leng":1.77010457}}]}