{
"type": "FeatureCollection",
"name": "al092021-017_5day_pts",
"features": [
{ "type": "Feature", "properties": { "ADVDATE": "400 AM CDT Mon Aug 30 2021", "ADVISNUM": "17", "BASIN": "AL", "DATELBL": "4:00 AM Mon", "DVLBL": "S", "FCSTPRD": 120.0, "FLDATELBL": "2021-08-30 1:00 AM Mon CDT", "GUST": 70.0, "LAT": 31.0, "LON": -90.8, "MAXWIND": 50.0, "MSLP": 990.0, "SSNUM": 0.0, "STORMNAME": "Tropical Storm Ida", "STORMNUM": 9.0, "STORMSRC": "Tropical Cyclone", "STORMTYPE": "TS", "TCDVLP": "Tropical Storm", "TAU": 0.0, "TCDIR": 355.0, "TCSPD": 7.0, "TIMEZONE": "CDT", "VALIDTIME": "30/0600" }, "geometry": { "type": "Point", "coordinates": [ -90.8, 31.0 ] } },
{ "type": "Feature", "properties": { "ADVDATE": "400 AM CDT Mon Aug 30 2021", "ADVISNUM": "17", "BASIN": "AL", "DATELBL": "1:00 PM Mon", "DVLBL": "D", "FCSTPRD": 120.0, "FLDATELBL": "2021-08-30 1:00 PM Mon CDT", "GUST": 45.0, "LAT": 32.2, "LON": -90.6, "MAXWIND": 30.0, "MSLP": 9999.0, "SSNUM": 0.0, "STORMNAME": "Tropical Storm Ida", "STORMNUM": 9.0, "STORMSRC": "Tropical Cyclone", "STORMTYPE": "TD", "TCDVLP": "Tropical Depression", "TAU": 12.0, "TCDIR": 9999.0, "TCSPD": 9999.0, "TIMEZONE": "CDT", "VALIDTIME": "30/1800" }, "geometry": { "type": "Point", "coordinates": [ -90.6, 32.2 ] } },
{ "type": "Feature", "properties": { "ADVDATE": "400 AM CDT Mon Aug 30 2021", "ADVISNUM": "17", "BASIN": "AL", "DATELBL": "1:00 AM Tue", "DVLBL": "D", "FCSTPRD": 120.0, "FLDATELBL": "2021-08-31 1:00 AM Tue CDT", "GUST": 35.0, "LAT": 33.7, "LON": -89.4, "MAXWIND": 25.0, "MSLP": 9999.0, "SSNUM": 0.0, "STORMNAME": "Tropical Storm Ida", "STORMNUM": 9.0, "STORMSRC": "Tropical Cyclone", "STORMTYPE": "TD", "TCDVLP": "Tropical Depression", "TAU": 24.0, "TCDIR": 9999.0, "TCSPD": 9999.0, "TIMEZONE": "CDT", "VALIDTIME": "31/0600" }, "geometry": { "type": "Point", "coordinates": [ -89.4, 33.7 ] } },
{ "type": "Feature", "properties": { "ADVDATE": "400 AM CDT Mon Aug 30 2021", "ADVISNUM": "17", "BASIN": "AL", "DATELBL": "1:00 PM Tue", "DVLBL": "D", "FCSTPRD": 120.0, "FLDATELBL": "2021-08-31 1:00 PM Tue CDT", "GUST": 35.0, "LAT": 35.1, "LON": -87.2, "MAXWIND": 25.0, "MSLP": 9999.0, "SSNUM": 0.0, "STORMNAME": "Tropical Storm Ida", "STORMNUM": 9.0, "STORMSRC": "Tropical Cyclone", "STORMTYPE": "TD", "TCDVLP": "Tropical Depression", "TAU": 36.0, "TCDIR": 9999.0, "TCSPD": 9999.0, "TIMEZONE": "CDT", "VALIDTIME": "31/1800" }, "geometry": { "type": "Point", "coordinates": [ -87.2, 35.1 ] } },
{ "type": "Feature", "properties": { "ADVDATE": "400 AM CDT Mon Aug 30 2021", "ADVISNUM": "17", "BASIN": "AL", "DATELBL": "1:00 AM Wed", "DVLBL": "D", "FCSTPRD": 120.0, "FLDATELBL": "2021-09-01 1:00 AM Wed CDT", "GUST": 30.0, "LAT": 36.6, "LON": -84.3, "MAXWIND": 20.0, "MSLP": 9999.0, "SSNUM": 0.0, "STORMNAME": "Tropical Storm Ida", "STORMNUM": 9.0, "STORMSRC": "Post-Tropical Cyclone", "STORMTYPE": "STD", "TCDVLP": "Subtropical Depression", "TAU": 48.0, "TCDIR": 9999.0, "TCSPD": 9999.0, "TIMEZONE": "CDT", "VALIDTIME": "01/0600" }, "geometry": { "type": "Point", "coordinates": [ -84.3, 36.6 ] } },
{ "type": "Feature", "properties": { "ADVDATE": "400 AM CDT Mon Aug 30 2021", "ADVISNUM": "17", "BASIN": "AL", "DATELBL": "1:00 PM Wed", "DVLBL": "D", "FCSTPRD": 120.0, "FLDATELBL": "2021-09-01 1:00 PM Wed CDT", "GUST": 30.0, "LAT": 38.1, "LON": -80.8, "MAXWIND": 20.0, "MSLP": 9999.0, "SSNUM": 0.0, "STORMNAME": "Tropical Storm Ida", "STORMNUM": 9.0, "STORMSRC": "Post-Tropical Cyclone", "STORMTYPE": "STD", "TCDVLP": "Subtropical Depression", "TAU": 60.0, "TCDIR": 9999.0, "TCSPD": 9999.0, "TIMEZONE": "CDT", "VALIDTIME": "01/1800" }, "geometry": { "type": "Point", "coordinates": [ -80.8, 38.1 ] } },
{ "type": "Feature", "properties": { "ADVDATE": "400 AM CDT Mon Aug 30 2021", "ADVISNUM": "17", "BASIN": "AL", "DATELBL": "1:00 AM Thu", "DVLBL": "D", "FCSTPRD": 120.0, "FLDATELBL": "2021-09-02 1:00 AM Thu CDT", "GUST": 35.0, "LAT": 39.0, "LON": -77.4, "MAXWIND": 25.0, "MSLP": 9999.0, "SSNUM": 0.0, "STORMNAME": "Tropical Storm Ida", "STORMNUM": 9.0, "STORMSRC": "Post-Tropical Cyclone", "STORMTYPE": "STD", "TCDVLP": "Subtropical Depression", "TAU": 72.0, "TCDIR": 9999.0, "TCSPD": 9999.0, "TIMEZONE": "CDT", "VALIDTIME": "02/0600" }, "geometry": { "type": "Point", "coordinates": [ -77.4, 39.0 ] } },
{ "type": "Feature", "properties": { "ADVDATE": "400 AM CDT Mon Aug 30 2021", "ADVISNUM": "17", "BASIN": "AL", "DATELBL": "1:00 AM Fri", "DVLBL": "D", "FCSTPRD": 120.0, "FLDATELBL": "2021-09-03 1:00 AM Fri CDT", "GUST": 40.0, "LAT": 40.1, "LON": -71.5, "MAXWIND": 30.0, "MSLP": 9999.0, "SSNUM": 0.0, "STORMNAME": "Tropical Storm Ida", "STORMNUM": 9.0, "STORMSRC": "Post-Tropical Cyclone", "STORMTYPE": "STD", "TCDVLP": "Subtropical Depression", "TAU": 96.0, "TCDIR": 9999.0, "TCSPD": 9999.0, "TIMEZONE": "CDT", "VALIDTIME": "03/0600" }, "geometry": { "type": "Point", "coordinates": [ -71.5, 40.1 ] } },
{ "type": "Feature", "properties": { "ADVDATE": "400 AM CDT Mon Aug 30 2021", "ADVISNUM": "17", "BASIN": "AL", "DATELBL": "1:00 AM Sat", "DVLBL": "D", "FCSTPRD": 120.0, "FLDATELBL": "2021-09-04 1:00 AM Sat CDT", "GUST": 40.0, "LAT": 40.5, "LON": -67.2, "MAXWIND": 30.0, "MSLP": 9999.0, "SSNUM": 0.0, "STORMNAME": "Tropical Storm Ida", "STORMNUM": 9.0, "STORMSRC": "Post-Tropical Cyclone", "STORMTYPE": "STD", "TCDVLP": "Subtropical Depression", "TAU": 120.0, "TCDIR": 9999.0, "TCSPD": 9999.0, "TIMEZONE": "CDT", "VALIDTIME": "04/0600" }, "geometry": { "type": "Point", "coordinates": [ -67.2, 40.5 ] } }
]
}
