{
"type": "FeatureCollection",
"name": "al092021_2021083009_forecastradii",
"features": [
{ "type": "Feature", "properties": { "RADII": 34.0, "STORMID": "al092021", "BASIN": "al", "STORMNUM": 9.0, "ADVNUM": "17", "VALIDTIME": "2021083009", "SYNOPTIME": "2021083006", "TIMEZONE": "UTC", "TAU": 0.0, "NE": 70.0, "SE": 130.0, "SW": 40.0, "NW": 0.0 }, "geometry": { "type": "Polygon", "coordinates": [ [ [ -90.788, 32.1645 ], [ -90.8, 31.0 ], [ -90.8, 31.0 ], [ -90.8, 31.0 ], [ -90.8, 31.0 ], [ -90.8, 31.0 ], [ -90.8, 31.0 ], [ -90.8, 31.0 ], [ -90.8, 31.0 ], [ -90.8, 31.0 ], [ -90.8, 31.0 ], [ -90.8, 31.0 ], [ -90.8, 31.0 ], [ -90.8, 31.0 ], [ -90.8, 31.0 ], [ -90.8, 31.0 ], [ -90.8, 31.0 ], [ -90.8, 31.0 ], [ -90.8, 31.0 ], [ -90.8, 31.0 ], [ -90.8, 31.0 ], [ -90.8, 31.0 ], [ -90.8, 31.0 ], [ -90.8, 31.0 ], [ -90.8, 31.0 ], [ -90.8, 31.0 ], [ -90.8, 31.0 ], [ -90.8, 31.0 ], [ -90.8, 31.0 ], [ -90.8, 31.0 ], [ -90.8, 31.0 ], [ -90.8, 31.0 ], [ -90.8, 31.0 ], [ -90.8, 31.0 ], [ -90.8, 31.0 ], [ -90.8, 31.0 ], [ -90.8, 31.0 ], [ -90.8, 31.0 ], [ -90.8, 31.0 ], [ -90.8, 31.0 ], [ -90.8, 31.0 ], [ -90.8, 31.0 ], [ -90.8, 31.0 ], [ -90.8, 31.0 ], [ -90.8, 31.0 ], [ -90.8, 31.0 ], [ -90.8, 31.0 ], [ -90.8, 31.0 ], [ -90.8, 31.0 ], [ -90.8, 31.0 ], [ -90.8, 31.0 ], [ -90.8, 31.0 ], [ -90.8, 31.0 ], [ -90.8, 31.0 ], [ -90.8, 31.0 ], [ -90.8, 31.0 ], [ -90.8, 31.0 ], [ -90.8, 31.0 ], [ -90.8, 31.0 ], [ -90.8, 31.0 ], [ -90.8, 31.0 ], [ -90.8, 31.0 ], [ -90.8, 31.0 ], [ -90.8, 31.0 ], [ -90.8, 31.0 ], [ -90.8, 31.0 ], [ -90.8, 31.0 ], [ -90.8, 31.0 ], [ -90.8, 31.0 ], [ -90.8, 31.0 ], [ -90.8, 31.0 ], [ -90.8, 31.0 ], [ -90.8, 31.0 ], [ -90.8, 31.0 ], [ -90.8, 31.0 ], [ -90.8, 31.0 ], [ -90.8, 31.0 ], [ -90.8, 31.0 ], [ -90.8, 31.0 ], [ -90.8, 31.0 ], [ -90.8, 31.0 ], [ -90.8, 31.0 ], [ -90.8, 31.0 ], [ -90.8, 31.0 ], [ -90.8, 31.0 ], [ -90.8, 31.0 ], [ -90.8, 31.0 ], [ -90.8, 31.0 ], [ -90.8, 31.0 ], [ -90.8, 31.0 ], [ -90.8, 31.0 ], [ -91.5763, 30.9919 ], [ -91.576, 30.9803 ], [ -91.5754, 30.9687 ], [ -91.5746, 30.9571 ], [ -91.5735, 30.9455 ], [ -91.5723, 30.9339 ], [ -91.5708, 30.9224 ], [ -91.569, 30.9109 ], [ -91.567, 30.8994 ], [ -91.5648, 30.8879 ], [ -91.5624, 30.8765 ], [ -91.5597, 30.8651 ], [ -91.5568, 30.8538 ], [ -91.5537, 30.8425 ], [ -91.5503, 30.8312 ], [ -91.5467, 30.82 ], [ -91.5429, 30.8089 ], [ -91.5389, 30.7978 ], [ -91.5346, 30.7868 ], [ -91.5301, 30.7758 ], [ -91.5254, 30.7649 ], [ -91.5205, 30.7541 ], [ -91.5154, 30.7434 ], [ -91.51, 30.7327 ], [ -91.5044, 30.7221 ], [ -91.4986, 30.7116 ], [ -91.4926, 30.7012 ], [ -91.4864, 30.6909 ], [ -91.48, 30.6807 ], [ -91.4734, 30.6706 ], [ -91.4666, 30.6605 ], [ -91.4596, 30.6506 ], [ -91.4523, 30.6408 ], [ -91.4449, 30.6311 ], [ -91.4373, 30.6215 ], [ -91.4295, 30.612 ], [ -91.4215, 30.6027 ], [ -91.4133, 30.5934 ], [ -91.405, 30.5843 ], [ -91.3964, 30.5753 ], [ -91.3877, 30.5665 ], [ -91.3788, 30.5578 ], [ -91.3697, 30.5492 ], [ -91.3605, 30.5407 ], [ -91.3511, 30.5324 ], [ -91.3415, 30.5242 ], [ -91.3317, 30.5162 ], [ -91.3218, 30.5083 ], [ -91.3118, 30.5006 ], [ -91.3016, 30.493 ], [ -91.2912, 30.4856 ], [ -91.2807, 30.4783 ], [ -91.27, 30.4712 ], [ -91.2592, 30.4642 ], [ -91.2483, 30.4575 ], [ -91.2372, 30.4508 ], [ -91.226, 30.4444 ], [ -91.2147, 30.4381 ], [ -91.2033, 30.432 ], [ -91.1917, 30.426 ], [ -91.18, 30.4202 ], [ -91.1682, 30.4146 ], [ -91.1563, 30.4092 ], [ -91.1443, 30.404 ], [ -91.1322, 30.3989 ], [ -91.1199, 30.3941 ], [ -91.1076, 30.3894 ], [ -91.0952, 30.3848 ], [ -91.0827, 30.3805 ], [ -91.0701, 30.3764 ], [ -91.0575, 30.3724 ], [ -91.0447, 30.3687 ], [ -91.0319, 30.3651 ], [ -91.0191, 30.3617 ], [ -91.0061, 30.3586 ], [ -90.9931, 30.3556 ], [ -90.98, 30.3528 ], [ -90.9669, 30.3502 ], [ -90.9537, 30.3478 ], [ -90.9405, 30.3456 ], [ -90.9273, 30.3436 ], [ -90.914, 30.3418 ], [ -90.9007, 30.3402 ], [ -90.8873, 30.3388 ], [ -90.8739, 30.3376 ], [ -90.8605, 30.3366 ], [ -90.8471, 30.3358 ], [ -90.8336, 30.3352 ], [ -90.8202, 30.3348 ], [ -90.8067, 30.3346 ], [ -90.7785, 28.8373 ], [ -90.7354, 28.8379 ], [ -90.6923, 28.8392 ], [ -90.6493, 28.8412 ], [ -90.6063, 28.8437 ], [ -90.5634, 28.8469 ], [ -90.5205, 28.8508 ], [ -90.4778, 28.8553 ], [ -90.4351, 28.8604 ], [ -90.3925, 28.8662 ], [ -90.35, 28.8726 ], [ -90.3077, 28.8797 ], [ -90.2655, 28.8874 ], [ -90.2234, 28.8957 ], [ -90.1816, 28.9046 ], [ -90.1399, 28.9142 ], [ -90.0983, 28.9244 ], [ -90.057, 28.9352 ], [ -90.0159, 28.9466 ], [ -89.9751, 28.9586 ], [ -89.9344, 28.9713 ], [ -89.894, 28.9845 ], [ -89.8539, 28.9984 ], [ -89.814, 29.0128 ], [ -89.7744, 29.0279 ], [ -89.7352, 29.0435 ], [ -89.6962, 29.0597 ], [ -89.6575, 29.0765 ], [ -89.6192, 29.0939 ], [ -89.5812, 29.1119 ], [ -89.5435, 29.1304 ], [ -89.5063, 29.1495 ], [ -89.4694, 29.1691 ], [ -89.4328, 29.1893 ], [ -89.3967, 29.21 ], [ -89.361, 29.2313 ], [ -89.3257, 29.253 ], [ -89.2908, 29.2754 ], [ -89.2563, 29.2982 ], [ -89.2223, 29.3215 ], [ -89.1888, 29.3454 ], [ -89.1557, 29.3697 ], [ -89.1231, 29.3946 ], [ -89.091, 29.4199 ], [ -89.0593, 29.4457 ], [ -89.0282, 29.472 ], [ -88.9976, 29.4987 ], [ -88.9676, 29.5259 ], [ -88.938, 29.5535 ], [ -88.909, 29.5816 ], [ -88.8806, 29.6101 ], [ -88.8527, 29.639 ], [ -88.8253, 29.6683 ], [ -88.7986, 29.6981 ], [ -88.7724, 29.7282 ], [ -88.7469, 29.7587 ], [ -88.7219, 29.7896 ], [ -88.6975, 29.8209 ], [ -88.6738, 29.8525 ], [ -88.6507, 29.8845 ], [ -88.6282, 29.9168 ], [ -88.6064, 29.9495 ], [ -88.5852, 29.9824 ], [ -88.5646, 30.0157 ], [ -88.5447, 30.0493 ], [ -88.5255, 30.0832 ], [ -88.507, 30.1173 ], [ -88.4891, 30.1518 ], [ -88.4719, 30.1864 ], [ -88.4554, 30.2214 ], [ -88.4396, 30.2566 ], [ -88.4245, 30.292 ], [ -88.4102, 30.3276 ], [ -88.3965, 30.3635 ], [ -88.3835, 30.3995 ], [ -88.3713, 30.4358 ], [ -88.3598, 30.4722 ], [ -88.349, 30.5087 ], [ -88.339, 30.5455 ], [ -88.3296, 30.5823 ], [ -88.3211, 30.6194 ], [ -88.3132, 30.6565 ], [ -88.3062, 30.6937 ], [ -88.2999, 30.7311 ], [ -88.2943, 30.7685 ], [ -88.2895, 30.806 ], [ -88.2854, 30.8436 ], [ -88.2821, 30.8812 ], [ -88.2796, 30.9189 ], [ -88.2778, 30.9566 ], [ -89.4413, 31.0031 ], [ -89.4415, 31.0234 ], [ -89.442, 31.0437 ], [ -89.443, 31.064 ], [ -89.4443, 31.0843 ], [ -89.4461, 31.1046 ], [ -89.4483, 31.1248 ], [ -89.4509, 31.145 ], [ -89.4539, 31.1652 ], [ -89.4574, 31.1853 ], [ -89.4612, 31.2053 ], [ -89.4654, 31.2253 ], [ -89.4701, 31.2453 ], [ -89.4752, 31.2651 ], [ -89.4807, 31.2849 ], [ -89.4865, 31.3046 ], [ -89.4928, 31.3242 ], [ -89.4995, 31.3437 ], [ -89.5066, 31.3631 ], [ -89.5141, 31.3824 ], [ -89.522, 31.4016 ], [ -89.5303, 31.4206 ], [ -89.5389, 31.4395 ], [ -89.548, 31.4583 ], [ -89.5574, 31.477 ], [ -89.5673, 31.4955 ], [ -89.5775, 31.5139 ], [ -89.5881, 31.5321 ], [ -89.599, 31.5501 ], [ -89.6104, 31.568 ], [ -89.6221, 31.5857 ], [ -89.6341, 31.6033 ], [ -89.6466, 31.6206 ], [ -89.6594, 31.6378 ], [ -89.6725, 31.6547 ], [ -89.686, 31.6715 ], [ -89.6998, 31.6881 ], [ -89.714, 31.7044 ], [ -89.7286, 31.7206 ], [ -89.7434, 31.7365 ], [ -89.7586, 31.7522 ], [ -89.7741, 31.7676 ], [ -89.7899, 31.7829 ], [ -89.8061, 31.7978 ], [ -89.8225, 31.8126 ], [ -89.8393, 31.8271 ], [ -89.8564, 31.8413 ], [ -89.8737, 31.8553 ], [ -89.8914, 31.869 ], [ -89.9093, 31.8825 ], [ -89.9275, 31.8957 ], [ -89.946, 31.9086 ], [ -89.9648, 31.9212 ], [ -89.9838, 31.9336 ], [ -90.0031, 31.9457 ], [ -90.0226, 31.9574 ], [ -90.0424, 31.9689 ], [ -90.0624, 31.9801 ], [ -90.0826, 31.991 ], [ -90.1031, 32.0016 ], [ -90.1237, 32.0118 ], [ -90.1446, 32.0218 ], [ -90.1657, 32.0315 ], [ -90.187, 32.0408 ], [ -90.2085, 32.0498 ], [ -90.2302, 32.0585 ], [ -90.2521, 32.0668 ], [ -90.2741, 32.0749 ], [ -90.2963, 32.0826 ], [ -90.3186, 32.0899 ], [ -90.3411, 32.097 ], [ -90.3638, 32.1037 ], [ -90.3866, 32.11 ], [ -90.4095, 32.116 ], [ -90.4326, 32.1217 ], [ -90.4557, 32.127 ], [ -90.479, 32.132 ], [ -90.5024, 32.1366 ], [ -90.5258, 32.1409 ], [ -90.5494, 32.1448 ], [ -90.573, 32.1484 ], [ -90.5967, 32.1516 ], [ -90.6205, 32.1545 ], [ -90.6443, 32.157 ], [ -90.6682, 32.1592 ], [ -90.6921, 32.161 ], [ -90.716, 32.1624 ], [ -90.74, 32.1635 ], [ -90.764, 32.1642 ], [ -90.788, 32.1645 ] ] ] } },
{ "type": "Feature", "properties": { "RADII": 50.0, "STORMID": "al092021", "BASIN": "al", "STORMNUM": 9.0, "ADVNUM": "17", "VALIDTIME": "2021083009", "SYNOPTIME": "2021083006", "TIMEZONE": "UTC", "TAU": 0.0, "NE": 40.0, "SE": 40.0, "SW": 0.0, "NW": 0.0 }, "geometry": { "type": "Polygon", "coordinates": [ [ [ -90.7932, 31.6655 ], [ -90.8, 31.0 ], [ -90.8, 31.0 ], [ -90.8, 31.0 ], [ -90.8, 31.0 ], [ -90.8, 31.0 ], [ -90.8, 31.0 ], [ -90.8, 31.0 ], [ -90.8, 31.0 ], [ -90.8, 31.0 ], [ -90.8, 31.0 ], [ -90.8, 31.0 ], [ -90.8, 31.0 ], [ -90.8, 31.0 ], [ -90.8, 31.0 ], [ -90.8, 31.0 ], [ -90.8, 31.0 ], [ -90.8, 31.0 ], [ -90.8, 31.0 ], [ -90.8, 31.0 ], [ -90.8, 31.0 ], [ -90.8, 31.0 ], [ -90.8, 31.0 ], [ -90.8, 31.0 ], [ -90.8, 31.0 ], [ -90.8, 31.0 ], [ -90.8, 31.0 ], [ -90.8, 31.0 ], [ -90.8, 31.0 ], [ -90.8, 31.0 ], [ -90.8, 31.0 ], [ -90.8, 31.0 ], [ -90.8, 31.0 ], [ -90.8, 31.0 ], [ -90.8, 31.0 ], [ -90.8, 31.0 ], [ -90.8, 31.0 ], [ -90.8, 31.0 ], [ -90.8, 31.0 ], [ -90.8, 31.0 ], [ -90.8, 31.0 ], [ -90.8, 31.0 ], [ -90.8, 31.0 ], [ -90.8, 31.0 ], [ -90.8, 31.0 ], [ -90.8, 31.0 ], [ -90.8, 31.0 ], [ -90.8, 31.0 ], [ -90.8, 31.0 ], [ -90.8, 31.0 ], [ -90.8, 31.0 ], [ -90.8, 31.0 ], [ -90.8, 31.0 ], [ -90.8, 31.0 ], [ -90.8, 31.0 ], [ -90.8, 31.0 ], [ -90.8, 31.0 ], [ -90.8, 31.0 ], [ -90.8, 31.0 ], [ -90.8, 31.0 ], [ -90.8, 31.0 ], [ -90.8, 31.0 ], [ -90.8, 31.0 ], [ -90.8, 31.0 ], [ -90.8, 31.0 ], [ -90.8, 31.0 ], [ -90.8, 31.0 ], [ -90.8, 31.0 ], [ -90.8, 31.0 ], [ -90.8, 31.0 ], [ -90.8, 31.0 ], [ -90.8, 31.0 ], [ -90.8, 31.0 ], [ -90.8, 31.0 ], [ -90.8, 31.0 ], [ -90.8, 31.0 ], [ -90.8, 31.0 ], [ -90.8, 31.0 ], [ -90.8, 31.0 ], [ -90.8, 31.0 ], [ -90.8, 31.0 ], [ -90.8, 31.0 ], [ -90.8, 31.0 ], [ -90.8, 31.0 ], [ -90.8, 31.0 ], [ -90.8, 31.0 ], [ -90.8, 31.0 ], [ -90.8, 31.0 ], [ -90.8, 31.0 ], [ -90.8, 31.0 ], [ -90.8, 31.0 ], [ -90.8, 31.0 ], [ -90.8, 31.0 ], [ -90.8, 31.0 ], [ -90.8, 31.0 ], [ -90.8, 31.0 ], [ -90.8, 31.0 ], [ -90.8, 31.0 ], [ -90.8, 31.0 ], [ -90.8, 31.0 ], [ -90.8, 31.0 ], [ -90.8, 31.0 ], [ -90.8, 31.0 ], [ -90.8, 31.0 ], [ -90.8, 31.0 ], [ -90.8, 31.0 ], [ -90.8, 31.0 ], [ -90.8, 31.0 ], [ -90.8, 31.0 ], [ -90.8, 31.0 ], [ -90.8, 31.0 ], [ -90.8, 31.0 ], [ -90.8, 31.0 ], [ -90.8, 31.0 ], [ -90.8, 31.0 ], [ -90.8, 31.0 ], [ -90.8, 31.0 ], [ -90.8, 31.0 ], [ -90.8, 31.0 ], [ -90.8, 31.0 ], [ -90.8, 31.0 ], [ -90.8, 31.0 ], [ -90.8, 31.0 ], [ -90.8, 31.0 ], [ -90.8, 31.0 ], [ -90.8, 31.0 ], [ -90.8, 31.0 ], [ -90.8, 31.0 ], [ -90.8, 31.0 ], [ -90.8, 31.0 ], [ -90.8, 31.0 ], [ -90.8, 31.0 ], [ -90.8, 31.0 ], [ -90.8, 31.0 ], [ -90.8, 31.0 ], [ -90.8, 31.0 ], [ -90.8, 31.0 ], [ -90.8, 31.0 ], [ -90.8, 31.0 ], [ -90.8, 31.0 ], [ -90.8, 31.0 ], [ -90.8, 31.0 ], [ -90.8, 31.0 ], [ -90.8, 31.0 ], [ -90.8, 31.0 ], [ -90.8, 31.0 ], [ -90.8, 31.0 ], [ -90.8, 31.0 ], [ -90.8, 31.0 ], [ -90.8, 31.0 ], [ -90.8, 31.0 ], [ -90.8, 31.0 ], [ -90.8, 31.0 ], [ -90.8, 31.0 ], [ -90.8, 31.0 ], [ -90.8, 31.0 ], [ -90.8, 31.0 ], [ -90.8, 31.0 ], [ -90.8, 31.0 ], [ -90.8, 31.0 ], [ -90.8, 31.0 ], [ -90.8, 31.0 ], [ -90.8, 31.0 ], [ -90.8, 31.0 ], [ -90.8, 31.0 ], [ -90.8, 31.0 ], [ -90.8, 31.0 ], [ -90.8, 31.0 ], [ -90.8, 31.0 ], [ -90.8, 31.0 ], [ -90.8, 31.0 ], [ -90.8, 31.0 ], [ -90.8, 31.0 ], [ -90.8, 31.0 ], [ -90.8, 31.0 ], [ -90.8, 31.0 ], [ -90.8, 31.0 ], [ -90.8, 31.0 ], [ -90.8, 31.0 ], [ -90.8, 31.0 ], [ -90.8, 31.0 ], [ -90.7933, 30.3346 ], [ -90.7798, 30.3348 ], [ -90.7664, 30.3352 ], [ -90.7529, 30.3358 ], [ -90.7395, 30.3366 ], [ -90.7261, 30.3376 ], [ -90.7127, 30.3388 ], [ -90.6994, 30.3402 ], [ -90.686, 30.3418 ], [ -90.6727, 30.3436 ], [ -90.6595, 30.3456 ], [ -90.6463, 30.3478 ], [ -90.6331, 30.3502 ], [ -90.62, 30.3528 ], [ -90.6069, 30.3556 ], [ -90.5939, 30.3586 ], [ -90.581, 30.3617 ], [ -90.5681, 30.3651 ], [ -90.5553, 30.3687 ], [ -90.5425, 30.3724 ], [ -90.5299, 30.3764 ], [ -90.5173, 30.3805 ], [ -90.5048, 30.3849 ], [ -90.4924, 30.3894 ], [ -90.4801, 30.3941 ], [ -90.4679, 30.3989 ], [ -90.4557, 30.404 ], [ -90.4437, 30.4092 ], [ -90.4318, 30.4146 ], [ -90.42, 30.4202 ], [ -90.4083, 30.426 ], [ -90.3967, 30.432 ], [ -90.3853, 30.4381 ], [ -90.374, 30.4444 ], [ -90.3628, 30.4508 ], [ -90.3517, 30.4575 ], [ -90.3408, 30.4642 ], [ -90.33, 30.4712 ], [ -90.3193, 30.4783 ], [ -90.3088, 30.4856 ], [ -90.2984, 30.493 ], [ -90.2882, 30.5006 ], [ -90.2782, 30.5083 ], [ -90.2683, 30.5162 ], [ -90.2585, 30.5242 ], [ -90.2489, 30.5324 ], [ -90.2395, 30.5407 ], [ -90.2303, 30.5492 ], [ -90.2212, 30.5578 ], [ -90.2123, 30.5665 ], [ -90.2036, 30.5753 ], [ -90.195, 30.5843 ], [ -90.1867, 30.5934 ], [ -90.1785, 30.6027 ], [ -90.1705, 30.612 ], [ -90.1627, 30.6215 ], [ -90.1551, 30.6311 ], [ -90.1477, 30.6408 ], [ -90.1404, 30.6506 ], [ -90.1334, 30.6605 ], [ -90.1266, 30.6706 ], [ -90.12, 30.6807 ], [ -90.1136, 30.6909 ], [ -90.1074, 30.7012 ], [ -90.1014, 30.7116 ], [ -90.0956, 30.7221 ], [ -90.09, 30.7327 ], [ -90.0847, 30.7434 ], [ -90.0795, 30.7541 ], [ -90.0746, 30.7649 ], [ -90.0699, 30.7758 ], [ -90.0654, 30.7868 ], [ -90.0611, 30.7978 ], [ -90.0571, 30.8089 ], [ -90.0533, 30.82 ], [ -90.0497, 30.8312 ], [ -90.0463, 30.8425 ], [ -90.0432, 30.8538 ], [ -90.0403, 30.8651 ], [ -90.0376, 30.8765 ], [ -90.0352, 30.8879 ], [ -90.033, 30.8994 ], [ -90.031, 30.9109 ], [ -90.0293, 30.9224 ], [ -90.0277, 30.9339 ], [ -90.0265, 30.9455 ], [ -90.0254, 30.9571 ], [ -90.0246, 30.9687 ], [ -90.0241, 30.9803 ], [ -90.0237, 30.9919 ], [ -90.0236, 31.0035 ], [ -90.0238, 31.0151 ], [ -90.0242, 31.0267 ], [ -90.0248, 31.0383 ], [ -90.0256, 31.0499 ], [ -90.0267, 31.0615 ], [ -90.028, 31.073 ], [ -90.0296, 31.0846 ], [ -90.0314, 31.0961 ], [ -90.0334, 31.1076 ], [ -90.0357, 31.119 ], [ -90.0382, 31.1304 ], [ -90.0409, 31.1418 ], [ -90.0439, 31.1532 ], [ -90.0471, 31.1644 ], [ -90.0505, 31.1757 ], [ -90.0541, 31.1869 ], [ -90.058, 31.198 ], [ -90.0621, 31.2091 ], [ -90.0665, 31.2201 ], [ -90.071, 31.231 ], [ -90.0758, 31.2419 ], [ -90.0808, 31.2527 ], [ -90.0861, 31.2634 ], [ -90.0915, 31.274 ], [ -90.0972, 31.2846 ], [ -90.103, 31.2951 ], [ -90.1091, 31.3054 ], [ -90.1154, 31.3157 ], [ -90.122, 31.3259 ], [ -90.1287, 31.336 ], [ -90.1356, 31.346 ], [ -90.1428, 31.3559 ], [ -90.1501, 31.3657 ], [ -90.1576, 31.3753 ], [ -90.1654, 31.3849 ], [ -90.1733, 31.3943 ], [ -90.1814, 31.4036 ], [ -90.1898, 31.4128 ], [ -90.1983, 31.4219 ], [ -90.207, 31.4308 ], [ -90.2158, 31.4396 ], [ -90.2249, 31.4483 ], [ -90.2341, 31.4569 ], [ -90.2435, 31.4653 ], [ -90.2531, 31.4735 ], [ -90.2629, 31.4816 ], [ -90.2728, 31.4896 ], [ -90.2829, 31.4974 ], [ -90.2931, 31.505 ], [ -90.3035, 31.5126 ], [ -90.314, 31.5199 ], [ -90.3247, 31.5271 ], [ -90.3356, 31.5341 ], [ -90.3466, 31.541 ], [ -90.3577, 31.5477 ], [ -90.369, 31.5542 ], [ -90.3804, 31.5606 ], [ -90.3919, 31.5668 ], [ -90.4036, 31.5728 ], [ -90.4154, 31.5786 ], [ -90.4273, 31.5843 ], [ -90.4393, 31.5898 ], [ -90.4514, 31.5951 ], [ -90.4636, 31.6002 ], [ -90.476, 31.6052 ], [ -90.4884, 31.6099 ], [ -90.501, 31.6145 ], [ -90.5136, 31.6189 ], [ -90.5263, 31.6231 ], [ -90.5391, 31.627 ], [ -90.552, 31.6309 ], [ -90.565, 31.6345 ], [ -90.578, 31.6379 ], [ -90.5911, 31.6411 ], [ -90.6043, 31.6441 ], [ -90.6175, 31.647 ], [ -90.6308, 31.6496 ], [ -90.6441, 31.652 ], [ -90.6575, 31.6543 ], [ -90.671, 31.6563 ], [ -90.6844, 31.6581 ], [ -90.698, 31.6597 ], [ -90.7115, 31.6612 ], [ -90.7251, 31.6624 ], [ -90.7387, 31.6634 ], [ -90.7523, 31.6642 ], [ -90.7659, 31.6648 ], [ -90.7795, 31.6653 ], [ -90.7932, 31.6655 ] ] ] } }
]
}
