{
"type": "FeatureCollection",
"name": "al092021_2021083009_initialradii",
"features": [
{ "type": "Feature", "properties": { "RADII": 34.0, "STORMID": "al092021", "BASIN": "al", "STORMNUM": 9.0, "ADVNUM": "17", "VALIDTIME": "2021083009", "SYNOPTIME": "2021083006", "TIMEZONE": "UTC", "TAU": 0.0, "NE": 70.0, "SE": 130.0, "SW": 40.0, "NW": 0.0 }, "geometry": { "type": "Polygon", "coordinates": [ [ [ -90.7922, 31.5881 ], [ -90.8041, 31.5752 ], [ -90.8155, 31.5622 ], [ -90.8264, 31.5489 ], [ -90.8367, 31.5355 ], [ -90.8464, 31.522 ], [ -90.8557, 31.5084 ], [ -90.8643, 31.4946 ], [ -90.8725, 31.4808 ], [ -90.88, 31.4668 ], [ -90.887, 31.4528 ], [ -90.8935, 31.4387 ], [ -90.8994, 31.4246 ], [ -90.9048, 31.4104 ], [ -90.9097, 31.3962 ], [ -90.9139, 31.382 ], [ -90.9177, 31.3678 ], [ -90.9209, 31.3536 ], [ -90.9235, 31.3394 ], [ -90.9256, 31.3253 ], [ -90.9271, 31.3112 ], [ -90.9282, 31.2971 ], [ -90.9286, 31.2831 ], [ -90.9286, 31.2692 ], [ -90.928, 31.2554 ], [ -90.9269, 31.2417 ], [ -90.9253, 31.2281 ], [ -90.9232, 31.2146 ], [ -90.9206, 31.2013 ], [ -90.9174, 31.1881 ], [ -90.9138, 31.1751 ], [ -90.9097, 31.1622 ], [ -90.9051, 31.1495 ], [ -90.9, 31.1371 ], [ -90.8944, 31.1248 ], [ -90.8884, 31.1127 ], [ -90.8819, 31.1008 ], [ -90.8749, 31.0892 ], [ -90.8675, 31.0778 ], [ -90.8597, 31.0667 ], [ -90.8514, 31.0558 ], [ -90.8428, 31.0452 ], [ -90.8346, 31.0357 ], [ -90.828, 31.028 ], [ -90.823, 31.022 ], [ -90.8196, 31.0178 ], [ -90.818, 31.0153 ], [ -90.8182, 31.0144 ], [ -90.8202, 31.0151 ], [ -90.8242, 31.0173 ], [ -90.8302, 31.0209 ], [ -90.8372, 31.0252 ], [ -90.8445, 31.0292 ], [ -90.8519, 31.033 ], [ -90.8595, 31.0366 ], [ -90.8673, 31.04 ], [ -90.8752, 31.0432 ], [ -90.8832, 31.0461 ], [ -90.8914, 31.0489 ], [ -90.8998, 31.0513 ], [ -90.9082, 31.0536 ], [ -90.9168, 31.0556 ], [ -90.9255, 31.0573 ], [ -90.9343, 31.0589 ], [ -90.9432, 31.0601 ], [ -90.9522, 31.0611 ], [ -90.9613, 31.0619 ], [ -90.9704, 31.0624 ], [ -90.9796, 31.0627 ], [ -90.9889, 31.0627 ], [ -90.9983, 31.0624 ], [ -91.0076, 31.0619 ], [ -91.017, 31.0611 ], [ -91.0265, 31.0601 ], [ -91.0359, 31.0588 ], [ -91.0454, 31.0572 ], [ -91.0549, 31.0553 ], [ -91.0643, 31.0532 ], [ -91.0738, 31.0508 ], [ -91.0832, 31.0482 ], [ -91.0927, 31.0453 ], [ -91.102, 31.0421 ], [ -91.1114, 31.0386 ], [ -91.1206, 31.0349 ], [ -91.1299, 31.0309 ], [ -91.139, 31.0267 ], [ -91.1481, 31.0221 ], [ -91.1571, 31.0174 ], [ -91.166, 31.0123 ], [ -91.1748, 31.007 ], [ -91.1835, 31.0014 ], [ -91.1921, 30.9956 ], [ -91.2005, 30.9895 ], [ -91.2088, 30.9832 ], [ -91.217, 30.9766 ], [ -91.225, 30.9698 ], [ -91.2329, 30.9627 ], [ -91.2406, 30.9553 ], [ -91.2482, 30.9478 ], [ -91.2555, 30.9399 ], [ -91.2627, 30.9319 ], [ -91.2697, 30.9236 ], [ -91.2765, 30.9151 ], [ -91.2831, 30.9063 ], [ -91.2894, 30.8974 ], [ -91.2956, 30.8882 ], [ -91.3015, 30.8788 ], [ -91.3072, 30.8692 ], [ -91.3126, 30.8593 ], [ -91.3178, 30.8493 ], [ -91.3227, 30.8391 ], [ -91.3274, 30.8287 ], [ -91.3318, 30.8181 ], [ -91.3359, 30.8073 ], [ -91.3398, 30.7963 ], [ -91.3434, 30.7852 ], [ -91.3466, 30.7739 ], [ -91.3496, 30.7624 ], [ -91.3523, 30.7508 ], [ -91.3547, 30.739 ], [ -91.3567, 30.7271 ], [ -91.3584, 30.715 ], [ -91.3598, 30.7028 ], [ -91.3609, 30.6905 ], [ -91.3617, 30.678 ], [ -91.3621, 30.6655 ], [ -91.3622, 30.6528 ], [ -91.3619, 30.64 ], [ -91.3612, 30.6271 ], [ -91.3603, 30.6142 ], [ -91.3589, 30.6011 ], [ -91.3572, 30.588 ], [ -91.3556, 30.5744 ], [ -91.3544, 30.56 ], [ -91.3536, 30.5448 ], [ -91.3531, 30.5288 ], [ -91.3531, 30.5118 ], [ -91.3533, 30.494 ], [ -91.3538, 30.4753 ], [ -91.3545, 30.4557 ], [ -91.3554, 30.4352 ], [ -91.356, 30.4141 ], [ -91.356, 30.3928 ], [ -91.3553, 30.3713 ], [ -91.3538, 30.3497 ], [ -91.3517, 30.3279 ], [ -91.3488, 30.3061 ], [ -91.3452, 30.284 ], [ -91.3409, 30.2619 ], [ -91.3359, 30.2397 ], [ -91.3301, 30.2175 ], [ -91.3236, 30.1952 ], [ -91.3163, 30.1728 ], [ -91.3083, 30.1504 ], [ -91.2996, 30.1281 ], [ -91.2901, 30.1057 ], [ -91.2799, 30.0833 ], [ -91.2689, 30.061 ], [ -91.2571, 30.0388 ], [ -91.2446, 30.0166 ], [ -91.2314, 29.9945 ], [ -91.2174, 29.9725 ], [ -91.2026, 29.9506 ], [ -91.1871, 29.9289 ], [ -91.1709, 29.9073 ], [ -91.1539, 29.8859 ], [ -91.1361, 29.8647 ], [ -91.1177, 29.8437 ], [ -91.0984, 29.8228 ], [ -91.0785, 29.8023 ], [ -91.0578, 29.7819 ], [ -91.0364, 29.7619 ], [ -91.0143, 29.7421 ], [ -90.9914, 29.7226 ], [ -90.9678, 29.7034 ], [ -90.9436, 29.6845 ], [ -90.9186, 29.666 ], [ -90.893, 29.6478 ], [ -90.8666, 29.63 ], [ -90.8396, 29.6126 ], [ -90.8119, 29.5956 ], [ -90.7836, 29.579 ], [ -90.7545, 29.5629 ], [ -90.7249, 29.5472 ], [ -90.6946, 29.5319 ], [ -90.6637, 29.5172 ], [ -90.6322, 29.5029 ], [ -90.6001, 29.4891 ], [ -90.5674, 29.4758 ], [ -90.534, 29.4631 ], [ -90.5002, 29.4509 ], [ -90.4658, 29.4393 ], [ -90.4308, 29.4282 ], [ -90.3953, 29.4177 ], [ -90.3592, 29.4078 ], [ -90.3227, 29.3986 ], [ -90.2856, 29.3899 ], [ -90.2481, 29.3819 ], [ -90.2101, 29.3745 ], [ -90.1717, 29.3678 ], [ -90.1328, 29.3617 ], [ -90.0935, 29.3563 ], [ -90.0538, 29.3517 ], [ -90.0137, 29.3477 ], [ -89.9732, 29.3444 ], [ -89.9323, 29.3418 ], [ -89.8911, 29.34 ], [ -89.8496, 29.3389 ], [ -89.8078, 29.3386 ], [ -89.7656, 29.339 ], [ -89.7232, 29.3402 ], [ -89.6806, 29.3421 ], [ -89.6376, 29.3449 ], [ -89.5945, 29.3484 ], [ -89.5512, 29.3527 ], [ -89.5076, 29.3578 ], [ -89.4639, 29.3638 ], [ -89.42, 29.3705 ], [ -89.3761, 29.3781 ], [ -89.3319, 29.3865 ], [ -89.2878, 29.3957 ], [ -89.2435, 29.4058 ], [ -89.2004, 29.4178 ], [ -89.1598, 29.4328 ], [ -89.1219, 29.4507 ], [ -89.0866, 29.4715 ], [ -89.0542, 29.495 ], [ -89.0247, 29.5212 ], [ -88.9983, 29.55 ], [ -88.975, 29.5813 ], [ -88.9548, 29.6151 ], [ -88.9367, 29.6501 ], [ -88.9195, 29.6852 ], [ -88.9031, 29.7204 ], [ -88.8875, 29.7557 ], [ -88.8728, 29.7911 ], [ -88.8589, 29.8265 ], [ -88.8458, 29.862 ], [ -88.8336, 29.8975 ], [ -88.8222, 29.9331 ], [ -88.8116, 29.9686 ], [ -88.8018, 30.0041 ], [ -88.7929, 30.0396 ], [ -88.7848, 30.0751 ], [ -88.7775, 30.1105 ], [ -88.771, 30.1458 ], [ -88.7653, 30.1811 ], [ -88.7604, 30.2162 ], [ -88.7563, 30.2513 ], [ -88.7531, 30.2862 ], [ -88.7505, 30.321 ], [ -88.7488, 30.3557 ], [ -88.7479, 30.3902 ], [ -88.7477, 30.4245 ], [ -88.7483, 30.4586 ], [ -88.7497, 30.4925 ], [ -88.7517, 30.5262 ], [ -88.7546, 30.5597 ], [ -88.7582, 30.593 ], [ -88.7625, 30.626 ], [ -88.7675, 30.6587 ], [ -88.7732, 30.6912 ], [ -88.7797, 30.7234 ], [ -88.7868, 30.7553 ], [ -88.7946, 30.7869 ], [ -88.8031, 30.8182 ], [ -88.8122, 30.8492 ], [ -88.822, 30.8798 ], [ -88.8325, 30.9101 ], [ -88.8435, 30.94 ], [ -88.8552, 30.9696 ], [ -88.8675, 30.9988 ], [ -88.8804, 31.0276 ], [ -88.8939, 31.056 ], [ -88.908, 31.084 ], [ -88.9227, 31.1116 ], [ -88.9378, 31.1388 ], [ -88.9536, 31.1656 ], [ -88.9698, 31.1919 ], [ -88.9866, 31.2178 ], [ -89.0039, 31.2432 ], [ -89.0216, 31.2682 ], [ -89.0399, 31.2927 ], [ -89.0586, 31.3168 ], [ -89.0778, 31.3404 ], [ -89.0974, 31.3635 ], [ -89.1174, 31.3861 ], [ -89.1378, 31.4082 ], [ -89.1586, 31.4299 ], [ -89.1798, 31.451 ], [ -89.2014, 31.4716 ], [ -89.2233, 31.4917 ], [ -89.2456, 31.5113 ], [ -89.2682, 31.5304 ], [ -89.2911, 31.5489 ], [ -89.3143, 31.567 ], [ -89.3378, 31.5845 ], [ -89.3615, 31.6014 ], [ -89.3855, 31.6179 ], [ -89.4098, 31.6338 ], [ -89.4342, 31.6491 ], [ -89.4589, 31.664 ], [ -89.4837, 31.6783 ], [ -89.5088, 31.692 ], [ -89.534, 31.7052 ], [ -89.5593, 31.7179 ], [ -89.5848, 31.73 ], [ -89.6104, 31.7415 ], [ -89.6361, 31.7526 ], [ -89.6619, 31.7631 ], [ -89.6878, 31.773 ], [ -89.7137, 31.7824 ], [ -89.7398, 31.7912 ], [ -89.7661, 31.7993 ], [ -89.7925, 31.8067 ], [ -89.8191, 31.8135 ], [ -89.8459, 31.8195 ], [ -89.8727, 31.8248 ], [ -89.8997, 31.8295 ], [ -89.9267, 31.8334 ], [ -89.9538, 31.8367 ], [ -89.9808, 31.8393 ], [ -90.0077, 31.8414 ], [ -90.0344, 31.8429 ], [ -90.0609, 31.8439 ], [ -90.0872, 31.8443 ], [ -90.1134, 31.8442 ], [ -90.1393, 31.8437 ], [ -90.1649, 31.8426 ], [ -90.1903, 31.8409 ], [ -90.2154, 31.8388 ], [ -90.2403, 31.8362 ], [ -90.2648, 31.8331 ], [ -90.2891, 31.8296 ], [ -90.3131, 31.8256 ], [ -90.3367, 31.8211 ], [ -90.36, 31.8161 ], [ -90.3829, 31.8108 ], [ -90.4055, 31.805 ], [ -90.4277, 31.7987 ], [ -90.4495, 31.7921 ], [ -90.4709, 31.785 ], [ -90.4919, 31.7776 ], [ -90.5126, 31.7698 ], [ -90.5328, 31.7615 ], [ -90.5525, 31.753 ], [ -90.5718, 31.7441 ], [ -90.5907, 31.7348 ], [ -90.6091, 31.7252 ], [ -90.6271, 31.7153 ], [ -90.6446, 31.705 ], [ -90.6616, 31.6945 ], [ -90.6781, 31.6837 ], [ -90.6942, 31.6726 ], [ -90.7097, 31.6612 ], [ -90.7247, 31.6496 ], [ -90.7393, 31.6378 ], [ -90.7533, 31.6257 ], [ -90.7668, 31.6134 ], [ -90.7798, 31.6008 ], [ -90.7922, 31.5881 ] ] ] } },
{ "type": "Feature", "properties": { "RADII": 50.0, "STORMID": "al092021", "BASIN": "al", "STORMNUM": 9.0, "ADVNUM": "17", "VALIDTIME": "2021083009", "SYNOPTIME": "2021083006", "TIMEZONE": "UTC", "TAU": 0.0, "NE": 40.0, "SE": 40.0, "SW": 0.0, "NW": 0.0 }, "geometry": { "type": "Polygon", "coordinates": [ [ [ -90.7956, 31.3361 ], [ -90.8024, 31.3287 ], [ -90.8088, 31.3212 ], [ -90.815, 31.3137 ], [ -90.8209, 31.306 ], [ -90.8265, 31.2983 ], [ -90.8317, 31.2905 ], [ -90.8367, 31.2827 ], [ -90.8413, 31.2747 ], [ -90.8456, 31.2668 ], [ -90.8496, 31.2588 ], [ -90.8533, 31.2507 ], [ -90.8567, 31.2426 ], [ -90.8598, 31.2346 ], [ -90.8625, 31.2264 ], [ -90.865, 31.2183 ], [ -90.8671, 31.2102 ], [ -90.8689, 31.2021 ], [ -90.8705, 31.194 ], [ -90.8717, 31.1859 ], [ -90.8725, 31.1778 ], [ -90.8731, 31.1698 ], [ -90.8734, 31.1618 ], [ -90.8734, 31.1539 ], [ -90.8731, 31.146 ], [ -90.8725, 31.1381 ], [ -90.8715, 31.1304 ], [ -90.8703, 31.1227 ], [ -90.8688, 31.115 ], [ -90.8671, 31.1075 ], [ -90.865, 31.1001 ], [ -90.8626, 31.0927 ], [ -90.86, 31.0855 ], [ -90.8571, 31.0783 ], [ -90.8539, 31.0713 ], [ -90.8505, 31.0644 ], [ -90.8468, 31.0576 ], [ -90.8428, 31.051 ], [ -90.8386, 31.0445 ], [ -90.8341, 31.0381 ], [ -90.8294, 31.0319 ], [ -90.8244, 31.0258 ], [ -90.8196, 31.0202 ], [ -90.8152, 31.0153 ], [ -90.8113, 31.0112 ], [ -90.808, 31.0077 ], [ -90.8052, 31.0049 ], [ -90.8029, 31.0027 ], [ -90.8013, 31.0012 ], [ -90.8003, 31.0003 ], [ -90.8, 31.0 ], [ -90.8, 31.0 ], [ -90.8, 31.0 ], [ -90.8, 31.0 ], [ -90.8, 31.0 ], [ -90.8, 31.0 ], [ -90.8, 31.0 ], [ -90.8, 31.0 ], [ -90.8, 31.0 ], [ -90.8, 31.0 ], [ -90.8, 31.0 ], [ -90.8, 31.0 ], [ -90.8, 31.0 ], [ -90.8, 31.0 ], [ -90.8, 31.0 ], [ -90.8, 31.0 ], [ -90.8, 31.0 ], [ -90.8, 31.0 ], [ -90.8, 31.0 ], [ -90.8, 31.0 ], [ -90.8, 31.0 ], [ -90.8, 31.0 ], [ -90.8, 31.0 ], [ -90.8, 31.0 ], [ -90.8, 31.0 ], [ -90.8, 31.0 ], [ -90.8, 31.0 ], [ -90.8, 31.0 ], [ -90.8, 31.0 ], [ -90.8, 31.0 ], [ -90.8, 31.0 ], [ -90.8, 31.0 ], [ -90.8, 31.0 ], [ -90.8, 31.0 ], [ -90.8, 31.0 ], [ -90.8, 31.0 ], [ -90.8, 31.0 ], [ -90.8, 31.0 ], [ -90.8, 31.0 ], [ -90.8, 31.0 ], [ -90.8, 31.0 ], [ -90.8, 31.0 ], [ -90.8, 31.0 ], [ -90.8, 31.0 ], [ -90.8, 31.0 ], [ -90.8, 31.0 ], [ -90.8, 31.0 ], [ -90.8, 31.0 ], [ -90.8, 31.0 ], [ -90.8, 31.0 ], [ -90.8, 31.0 ], [ -90.8, 31.0 ], [ -90.8, 31.0 ], [ -90.8, 31.0 ], [ -90.8, 31.0 ], [ -90.8, 31.0 ], [ -90.8, 31.0 ], [ -90.8, 31.0 ], [ -90.8, 31.0 ], [ -90.8, 31.0 ], [ -90.8, 31.0 ], [ -90.8, 31.0 ], [ -90.8, 31.0 ], [ -90.8, 31.0 ], [ -90.8, 31.0 ], [ -90.8, 31.0 ], [ -90.8, 31.0 ], [ -90.8, 31.0 ], [ -90.8, 31.0 ], [ -90.8, 31.0 ], [ -90.8, 31.0 ], [ -90.8, 31.0 ], [ -90.8, 31.0 ], [ -90.8, 31.0 ], [ -90.8, 31.0 ], [ -90.8, 31.0 ], [ -90.8, 31.0 ], [ -90.8, 31.0 ], [ -90.8, 31.0 ], [ -90.8, 31.0 ], [ -90.8, 31.0 ], [ -90.8, 31.0 ], [ -90.8003, 30.9997 ], [ -90.8013, 30.9988 ], [ -90.8029, 30.9973 ], [ -90.8052, 30.9951 ], [ -90.808, 30.9923 ], [ -90.8113, 30.9889 ], [ -90.8152, 30.9847 ], [ -90.8196, 30.9798 ], [ -90.8244, 30.9742 ], [ -90.8294, 30.9681 ], [ -90.8341, 30.9619 ], [ -90.8385, 30.9555 ], [ -90.8427, 30.949 ], [ -90.8467, 30.9424 ], [ -90.8504, 30.9356 ], [ -90.8538, 30.9287 ], [ -90.857, 30.9217 ], [ -90.8599, 30.9145 ], [ -90.8625, 30.9073 ], [ -90.8648, 30.8999 ], [ -90.8669, 30.8925 ], [ -90.8687, 30.8849 ], [ -90.8702, 30.8773 ], [ -90.8714, 30.8696 ], [ -90.8723, 30.8618 ], [ -90.8729, 30.854 ], [ -90.8732, 30.8461 ], [ -90.8732, 30.8382 ], [ -90.8729, 30.8302 ], [ -90.8723, 30.8221 ], [ -90.8714, 30.8141 ], [ -90.8702, 30.806 ], [ -90.8687, 30.7979 ], [ -90.8668, 30.7898 ], [ -90.8647, 30.7817 ], [ -90.8623, 30.7735 ], [ -90.8595, 30.7654 ], [ -90.8564, 30.7573 ], [ -90.8531, 30.7493 ], [ -90.8494, 30.7412 ], [ -90.8454, 30.7332 ], [ -90.8411, 30.7253 ], [ -90.8365, 30.7173 ], [ -90.8315, 30.7095 ], [ -90.8263, 30.7017 ], [ -90.8208, 30.694 ], [ -90.8149, 30.6863 ], [ -90.8088, 30.6788 ], [ -90.8023, 30.6713 ], [ -90.7956, 30.6639 ], [ -90.7886, 30.6567 ], [ -90.7812, 30.6495 ], [ -90.7736, 30.6425 ], [ -90.7657, 30.6356 ], [ -90.7575, 30.6288 ], [ -90.749, 30.6221 ], [ -90.7402, 30.6156 ], [ -90.7312, 30.6093 ], [ -90.7218, 30.6031 ], [ -90.7122, 30.597 ], [ -90.7024, 30.5912 ], [ -90.6922, 30.5855 ], [ -90.6819, 30.58 ], [ -90.6712, 30.5746 ], [ -90.6604, 30.5695 ], [ -90.6492, 30.5646 ], [ -90.6378, 30.5599 ], [ -90.6262, 30.5553 ], [ -90.6144, 30.551 ], [ -90.6023, 30.547 ], [ -90.5901, 30.5431 ], [ -90.5776, 30.5395 ], [ -90.5648, 30.5361 ], [ -90.5519, 30.533 ], [ -90.5388, 30.5301 ], [ -90.5255, 30.5274 ], [ -90.5121, 30.5251 ], [ -90.4984, 30.5229 ], [ -90.4846, 30.5211 ], [ -90.4706, 30.5195 ], [ -90.4564, 30.5182 ], [ -90.4421, 30.5172 ], [ -90.4277, 30.5164 ], [ -90.4131, 30.5159 ], [ -90.3984, 30.5158 ], [ -90.3835, 30.5159 ], [ -90.3686, 30.5163 ], [ -90.3535, 30.5171 ], [ -90.3384, 30.5181 ], [ -90.3231, 30.5194 ], [ -90.3081, 30.5214 ], [ -90.2937, 30.5242 ], [ -90.28, 30.5279 ], [ -90.267, 30.5324 ], [ -90.2546, 30.5377 ], [ -90.243, 30.5439 ], [ -90.2322, 30.5508 ], [ -90.2221, 30.5585 ], [ -90.2129, 30.5669 ], [ -90.2042, 30.5758 ], [ -90.1956, 30.5847 ], [ -90.1873, 30.5939 ], [ -90.1791, 30.6031 ], [ -90.1711, 30.6124 ], [ -90.1633, 30.6219 ], [ -90.1557, 30.6315 ], [ -90.1483, 30.6412 ], [ -90.1411, 30.651 ], [ -90.1341, 30.6609 ], [ -90.1273, 30.6709 ], [ -90.1207, 30.681 ], [ -90.1143, 30.6912 ], [ -90.1081, 30.7015 ], [ -90.1021, 30.7119 ], [ -90.0963, 30.7224 ], [ -90.0907, 30.733 ], [ -90.0854, 30.7436 ], [ -90.0802, 30.7544 ], [ -90.0753, 30.7652 ], [ -90.0706, 30.776 ], [ -90.0661, 30.787 ], [ -90.0619, 30.798 ], [ -90.0578, 30.8091 ], [ -90.054, 30.8202 ], [ -90.0504, 30.8314 ], [ -90.0471, 30.8426 ], [ -90.044, 30.8539 ], [ -90.0411, 30.8652 ], [ -90.0384, 30.8766 ], [ -90.036, 30.888 ], [ -90.0337, 30.8995 ], [ -90.0318, 30.911 ], [ -90.03, 30.9225 ], [ -90.0285, 30.934 ], [ -90.0273, 30.9455 ], [ -90.0262, 30.9571 ], [ -90.0254, 30.9687 ], [ -90.0249, 30.9803 ], [ -90.0245, 30.9919 ], [ -90.0244, 31.0035 ], [ -90.0246, 31.0151 ], [ -90.0249, 31.0267 ], [ -90.0256, 31.0383 ], [ -90.0264, 31.0499 ], [ -90.0275, 31.0614 ], [ -90.0288, 31.073 ], [ -90.0304, 31.0845 ], [ -90.0322, 31.096 ], [ -90.0342, 31.1075 ], [ -90.0365, 31.1189 ], [ -90.0389, 31.1303 ], [ -90.0417, 31.1417 ], [ -90.0446, 31.153 ], [ -90.0478, 31.1643 ], [ -90.0513, 31.1755 ], [ -90.0549, 31.1867 ], [ -90.0588, 31.1978 ], [ -90.0629, 31.2089 ], [ -90.0672, 31.2199 ], [ -90.0718, 31.2308 ], [ -90.0766, 31.2416 ], [ -90.0816, 31.2524 ], [ -90.0868, 31.2631 ], [ -90.0922, 31.2738 ], [ -90.0979, 31.2843 ], [ -90.1038, 31.2948 ], [ -90.1098, 31.3051 ], [ -90.1161, 31.3154 ], [ -90.1227, 31.3256 ], [ -90.1294, 31.3357 ], [ -90.1363, 31.3457 ], [ -90.1434, 31.3555 ], [ -90.1508, 31.3653 ], [ -90.1583, 31.375 ], [ -90.166, 31.3845 ], [ -90.174, 31.3939 ], [ -90.1821, 31.4032 ], [ -90.1904, 31.4124 ], [ -90.1989, 31.4215 ], [ -90.2076, 31.4304 ], [ -90.2168, 31.4389 ], [ -90.2268, 31.4467 ], [ -90.2377, 31.4537 ], [ -90.2493, 31.4599 ], [ -90.2617, 31.4654 ], [ -90.2749, 31.47 ], [ -90.2887, 31.4738 ], [ -90.3032, 31.4767 ], [ -90.3183, 31.4788 ], [ -90.3337, 31.4802 ], [ -90.349, 31.4814 ], [ -90.3642, 31.4822 ], [ -90.3793, 31.4827 ], [ -90.3943, 31.483 ], [ -90.4091, 31.4829 ], [ -90.4239, 31.4825 ], [ -90.4385, 31.4818 ], [ -90.4529, 31.4809 ], [ -90.4672, 31.4797 ], [ -90.4814, 31.4781 ], [ -90.4954, 31.4764 ], [ -90.5092, 31.4743 ], [ -90.5228, 31.472 ], [ -90.5362, 31.4694 ], [ -90.5495, 31.4666 ], [ -90.5625, 31.4635 ], [ -90.5754, 31.4601 ], [ -90.588, 31.4565 ], [ -90.6004, 31.4527 ], [ -90.6126, 31.4487 ], [ -90.6246, 31.4444 ], [ -90.6363, 31.4399 ], [ -90.6478, 31.4352 ], [ -90.6591, 31.4303 ], [ -90.6701, 31.4252 ], [ -90.6808, 31.4199 ], [ -90.6913, 31.4144 ], [ -90.7015, 31.4088 ], [ -90.7115, 31.4029 ], [ -90.7212, 31.3969 ], [ -90.7306, 31.3907 ], [ -90.7397, 31.3844 ], [ -90.7486, 31.3779 ], [ -90.7571, 31.3712 ], [ -90.7654, 31.3644 ], [ -90.7734, 31.3575 ], [ -90.7811, 31.3505 ], [ -90.7885, 31.3433 ], [ -90.7956, 31.3361 ] ] ] } }
]
}
