{"type":"FeatureCollection","features":[{"type":"Feature","id":1,"geometry":{"type":"Polygon","coordinates":[[[-16.173327705209317,44.725872039962837],[-16.344852398918931,44.740395871572389],[-16.519668825355893,44.753775295193861],[-16.697514092900917,44.765957809305576],[-16.878125309935001,44.776890911486532],[-17.061239584838859,44.786522099315562],[-17.246594026892694,44.794798872170361],[-17.433925744477392,44.801668726730497],[-17.62297184507446,44.807079161474292],[-17.813469438863365,44.81097767487995],[-18.005155632426352,44.813311765425794],[-18.197767536842207,44.814028929791448],[-18.391042257793856,44.813076667354437],[-18.584716906360029,44.81040247569382],[-18.77852859002229,44.805953852388541],[-18.972214416262148,44.799678295916749],[-19.165511496158501,44.791523304756879],[-19.358156935394106,44.781436376487761],[-19.549887845047863,44.769365008688339],[-19.740441331701959,44.755256700736311],[-19.929554504636542,44.739058950210506],[-20.116964473131816,44.720719253790662],[-20.302408344669232,44.700185111753626],[-20.48562322852905,44.677404020779079],[-20.666346232192723,44.652323479345227],[-20.844314465839773,44.624890985031072],[-21.019265036052445,44.595054036314878],[-21.190935053010151,44.562760131674906],[-21.359061625093773,44.527956768690046],[-21.523381859784877,44.490591444939355],[-21.683632867262872,44.450611659800416],[-21.839551754110062,44.407964909952796],[-21.990875630505798,44.362598694774078],[-22.137341603931759,44.314460510943945],[-22.278686783667979,44.263497856940717],[-22.414648277196136,44.209658232141862],[-22.544963194695526,44.152889133227063],[-22.669368643647886,44.09313805777532],[-22.787615327485241,44.030360079254422],[-22.899638515704794,43.964613086125155],[-23.005506489332902,43.896029068287021],[-23.105290467480984,43.824741650606825],[-23.199061668361196,43.750884457951543],[-23.286891311085014,43.674591116087299],[-23.368850613864595,43.595995249881014],[-23.445010794012831,43.515230485098982],[-23.515443071540403,43.432430446607952],[-23.580218664659526,43.347728759274958],[-23.639408790683035,43.26125904796686],[-23.693084669621669,43.173154938449784],[-23.741317519687641,43.083550056490083],[-23.784178558193787,42.992578026055185],[-23.821739005150846,42.900372472911442],[-23.854070077871654,42.807067021925661],[-23.881242994568424,42.71279529886408],[-23.903328975251895,42.617690928593618],[-23.920399237234903,42.521887536880456],[-23.932524999628924,42.425518747692195],[-23.939777480646114,42.328718186795015],[-23.942227898498572,42.231619479055837],[-23.939947472297888,42.134356251140218],[-23.933007419356784,42.037062126116382],[-23.921478959686112,41.93987073064983],[-23.905433310598653,41.842915689607537],[-23.884941691205938,41.74633062695699],[-23.860075319720124,41.650249170263123],[-23.830905415252573,41.55480494259416],[-23.797503195116235,41.460131569716339],[-23.759939878422529,41.366362677395784],[-23.71828668338361,41.273631890499473],[-23.672614829110955,41.182072833894324],[-23.62299553381672,41.091819133346462],[-23.569500015713004,41.003004412823543],[-23.512199493012076,40.915762298991069],[-23.4511651848253,40.830226416715902],[-23.386468304868231,40.746529973579584],[-23.318179418445254,40.664755793545169],[-23.246367839903769,40.584888838149482],[-23.171102736102284,40.506902829202375],[-23.092453275698006,40.430771485815569],[-23.010488627348138,40.356468528899654],[-22.925277959709945,40.283967679365048],[-22.836890439641934,40.2132426563237],[-22.745395236700688,40.144267179786652],[-22.650861517744715,40.077014970664493],[-22.553358453229919,40.011459748968377],[-22.452955209115487,39.947575235608781],[-22.349720955857322,39.885335149697539],[-22.243724859414613,39.824713213044504],[-22.135036090243261,39.765683143862134],[-22.023723814302457,39.708218663960338],[-21.909857202048101,39.652293492450838],[-21.793505421238081,39.597881351143599],[-21.674737639630223,39.544955958251023],[-21.553623024982471,39.493491035582963],[-21.43023074685135,39.44346030315063],[-21.304629972994746,39.394837480065803],[-21.176889871170488,39.347596288138334],[-21.047079610035837,39.301710446480058],[-20.915268358247999,39.257153676001508],[-20.781525283564861,39.213899696713781],[-20.645919554643626,39.171922228628091],[-20.508520339242125,39.131194991755592],[-20.369396806017676,39.091691707006817],[-20.228618123627371,39.053386094392863],[-20.086253458929832,39.01625187482432],[-19.942371982380962,38.98026276741291],[-19.797042859939893,38.945392492169901],[-19.650335261163264,38.911614770905089],[-19.502318354708166,38.878903322730309],[-19.353061307433279,38.847231867656717],[-19.202633288895015,38.816574126594787],[-19.051103466851373,38.786903819555789],[-18.898542084649364,38.758198719795246],[-18.745025663803233,38.730460270725075],[-18.590632998414037,38.70369848179962],[-18.435442884381473,38.67792337326523],[-18.279534118504614,38.653144968965307],[-18.122985499381173,38.629373290045464],[-17.965875822910789,38.606618357651257],[-17.808283884993159,38.584890192928185],[-17.650288484226053,38.564198818820557],[-17.49196841650911,38.54455425647393],[-17.333402478641347,38.525966527933065],[-17.174669467421836,38.508445654343632],[-17.015848181448291,38.49200165775045],[-16.857017414821712,38.476644560198451],[-16.698255967039131,38.462384381933816],[-16.539642633100925,38.449231146800116],[-16.38125621070543,38.437194874144268],[-16.22317549665172,38.426285587809787],[-16.06547928773881,38.416513308042852],[-15.908246381665037,38.407888056888453],[-15.751555574330155,38.400419857290728],[-15.595485662533179,38.394118728596595],[-15.440115443073125,38.388994693750249],[-15.285523714547651,38.385057774796621],[-15.131789271957189,38.382317992881212],[-14.978990912100812,38.380785370048955],[-14.827207433576064,38.380469928344667],[-14.676517631383433,38.381381688014642],[-14.527000304120634,38.383530672003076],[-14.378734247687248,38.386926901455467],[-14.231798258882407,38.391580398416806],[-14.086271135404445,38.397501184931912],[-13.94223167315306,38.404699282146282],[-13.799758669826645,38.413184711205588],[-13.658930921324838,38.422967494154705],[-13.519827225346035,38.434057653937714],[-13.382526378689306,38.446465210800966],[-13.247105802190902,38.46019968316898],[-13.113611267745682,38.475259017889528],[-12.982056900105704,38.491629586636236],[-12.852455445362409,38.509297260160565],[-12.724819652304973,38.528247906515844],[-12.599162267924214,38.548467396453304],[-12.475496039210725,38.569941599825142],[-12.35383371585317,38.592656385583894],[-12.234188043942936,38.616597622682264],[-12.116571771370047,38.641751182771031],[-12.000997645125096,38.668102933004093],[-11.887478414896805,38.695638745032227],[-11.776026825877182,38.724344487808025],[-11.666655626855572,38.754206030284195],[-11.559377565721945,38.785209242312817],[-11.454205390366326,38.817339994645181],[-11.3511518468801,38.850584155334673],[-11.250229684052556,38.884927595132581],[-11.151451649773662,38.920356182991611],[-11.054830490134862,38.95685578786447],[-10.960378954824762,38.994412281401821],[-10.868109789934749,39.033011531656996],[-10.778035744254055,39.072639408482075],[-10.690169563874122,39.113281781728972],[-10.604523998483614,39.154924521249825],[-10.521111793274486,39.19755349599717],[-10.439945697935457,39.241154575823145],[-10.361038459457234,39.285713630579721],[-10.284402824830352,39.331216530118922],[-10.210051541944949,39.377649143393398],[-10.137997359590315,39.424997340255175],[-10.068253023857835,39.473246989657014],[-10.000831283536797,39.522383963249467],[-9.935744884718531,39.572394128186602],[-9.8730065770917008,39.623263355219819],[-9.8126291067477496,39.674977514201089],[-9.754625221576589,39.727522474982379],[-9.699007664072326,39.780884096623879],[-9.6457849337275547,39.835041669537588],[-9.5949538100701375,39.889956325923833],[-9.5465090671395956,39.945586089026961],[-9.5004454780762444,40.001888983889614],[-9.4567578160202856,40.058823032856822],[-9.4154408550112976,40.116346260071964],[-9.3764893681896524,40.174416689678651],[-9.3398981286955518,40.232992344920945],[-9.3056619105685741,40.292031249043077],[-9.2737754860497148,40.351491427087865],[-9.2442336291784954,40.411330902299426],[-9.2170311130952882,40.47150769792205],[-9.192162710940238,40.531979838099176],[-9.1696231967529798,40.592705346075036],[-9.1494073427745093,40.653642245993012],[-9.1315099239437245,40.714748561097338],[-9.1159257125015074,40.775982315531564],[-9.1026494824874931,40.837301533439188],[-9.09167600704194,40.898664237164951],[-9.0830000584058439,40.960028452651102],[-9.0766164115180459,41.021352201343177],[-9.0725198395188613,41.082593507384615],[-9.0707051146491722,41.143710395818232],[-9.0711670118479901,41.204660888988997],[-9.0739003033561971,41.265403011939611],[-9.0788997623140517,41.325894787014931],[-9.0861601636605087,41.386094238358567],[-9.0956762787371304,41.445959390113899],[-9.1074428824829283,41.50544826552516],[-9.1214547471387277,41.564518888735847],[-9.1377066467442205,41.623129282990192],[-9.1561933544396084,41.681237472431576],[-9.1769096442645264,41.738801480304232],[-9.1998502884599134,41.795779330751657],[-9.2250100610653476,41.852129047917401],[-9.2523837352210876,41.907808654146208],[-9.2819660840673919,41.962776174481007],[-9.313749665714397,42.016993787933131],[-9.3477077478141837,42.070459852340434],[-9.3838036677049672,42.123191349601257],[-9.4220006790879438,42.175205417196366],[-9.4622620383622689,42.226519193506135],[-9.5045509992290818,42.277149814212692],[-9.5488308171883318,42.32711441769635],[-9.5950647468404782,42.37643014053873],[-9.643216041886717,42.425114120220599],[-9.6932479587262037,42.473183493323688],[-9.7451237501608148,42.5206553982282],[-9.7988066734890822,42.567546971515696],[-9.8542599815128256,42.613875350667058],[-9.9114469297318806,42.659657672263904],[-9.9703307736461397,42.704911074686493],[-10.03087476605748,42.749652693617065],[-10.093042164264318,42.793899667435824],[-10.156796221068589,42.837669133623763],[-10.222100191970128,42.880978228762388],[-10.288917331569451,42.923844089433317],[-10.357210895366393,42.966283854016808],[-10.426944137062151,43.008314659993687],[-10.49808031215656,43.049953643046365],[-10.570582675250137,43.09121794155493],[-10.644414480943396,43.132124693000321],[-10.719538983836912,43.172691033964213],[-10.795919439430463,43.212934101927431],[-10.873519102324565,43.252871033471592],[-10.95230122711979,43.2925189669769],[-11.032229068416655,43.331895038125651],[-11.113265880815618,43.371016386197425],[-11.195374919816572,43.409900146874406],[-11.278519440020034,43.44856345763759],[-11.362662696026462,43.487023455967858],[-11.447767942436485,43.525297279346091],[-11.533798434749826,43.563402064353909],[-11.620717426667795,43.601354949371569],[-11.708489136864046,43.639172691466683],[-11.797121449694998,43.676854919219295],[-11.886682832346708,43.714377487631111],[-11.977246218038374,43.751714501623098],[-12.06888453909005,43.78884006341832],[-12.161670726023033,43.825728278837119],[-12.255677712955958,43.862353252800517],[-12.350978429510803,43.898689087531523],[-12.447645809806147,43.934709888850421],[-12.545752785262721,43.970389760778971],[-12.645372287301086,44.005702807338821],[-12.746577248241294,44.040623132551673],[-12.849440600403284,44.075124840439173],[-12.954035275207673,44.109182035922345],[-13.060434205873776,44.142768823922211],[-13.168710323822268,44.175859307561154],[-13.278936560473767,44.208427590860765],[-13.391185848148268,44.240447778742123],[-13.505531120065029,44.27189397612625],[-13.622045305846086,44.302740285236098],[-13.740801340509336,44.332960812791441],[-13.861872153676813,44.362529661015174],[-13.985330678567834,44.391420935727751],[-14.111249846603016,44.419608740051444],[-14.239702590102297,44.447067178907332],[-14.370761841385729,44.473770355417741],[-14.50450053277325,44.499692375402958],[-14.640991594786158,44.524807342884742],[-14.780307961543087,44.549089360985363],[-14.922522562666018,44.57251253552522],[-15.067708332273583,44.595050969626698],[-15.215938201786457,44.616678767311384],[-15.36728510262526,44.637370033500417],[-15.521821967109986,44.657098872215329],[-15.679621728459892,44.675839388377199],[-15.840757316296958,44.69356568510841],[-16.005301664739932,44.710251868229307],[-16.173327705209317,44.725872039962837]]]},"properties":{"objectid":1,"basin":"Atlantic","prob2day":"20%","risk2day":"Low","prob7day":"20%","risk7day":"Low","idp_source":"gtwo_areas_202608202340","idp_filedate":1787269671000,"idp_ingestdate":1787269685000,"st_area(shape)":75.771709240428663,"st_perimeter(shape)":35.129267463945958}},{"type":"Feature","id":2,"geometry":{"type":"Polygon","coordinates":[[[-114.9770167156488,19.890587029867675],[-115.14950005428398,19.93754019142682],[-115.3188492897628,19.97990295425808],[-115.48505855490828,20.017743201887413],[-115.64812198254339,20.051128817840834],[-115.80803370549103,20.08012768474498],[-115.9647878556749,20.104807684327284],[-116.11837856591796,20.125236701912399],[-116.26879996904324,20.141482618328325],[-116.41604619877296,20.153613318000339],[-116.56011138523218,20.161696682655929],[-116.70098966394175,20.165800596720317],[-116.83867516592608,20.165992942820196],[-116.9731620240081,20.162341602682943],[-117.1044443710108,20.154914460733892],[-117.23251633885786,20.143779399599737],[-117.35737206217084,20.129004302806493],[-117.47900567197411,20.110657052081422],[-117.59741130109057,20.088805530950651],[-117.71258308324258,20.063517622940083],[-117.8245151494545,20.034861209777148],[-117.9332016334485,20.002904175887124],[-118.03863666804767,19.967714403896764],[-118.14081438607496,19.929359776432705],[-118.23972891855465,19.887908177020904],[-118.33537440010838,19.843427487388794],[-118.4277449626598,19.795985591961653],[-118.51683473813256,19.745650373366175],[-118.60263846639202,19.69249337806707],[-118.68515511321783,19.636611696872478],[-118.76438544393301,19.578113302387123],[-118.84033023285389,19.517106205886819],[-118.91299025159873,19.453698416848624],[-118.98236627268523,19.387997948346765],[-119.04845906953034,19.320112811657054],[-119.11126941465164,19.250151017155872],[-119.17079808146622,19.178220576118861],[-119.2270458415922,19.10442949982172],[-119.28001346844673,19.028885800439468],[-119.32970173544663,18.951697488348543],[-119.3761114142103,18.872972574824587],[-119.41924327815468,18.792819072042676],[-119.45909809979736,18.711344989479812],[-119.49567665165608,18.628658340210393],[-119.5289797071477,18.54486713551006],[-119.55900803878984,18.460079384855874],[-119.58576241910026,18.37440310132223],[-119.60924362059654,18.287946295285451],[-119.62945241759491,18.200816977121917],[-119.6463895808144,18.113123160805344],[-119.66005588457131,18.024972854913472],[-119.67045210048394,17.936474071621262],[-119.67757900196926,17.847734823103735],[-119.68143736154491,17.758863118838008],[-119.68202795262783,17.669966971898361],[-119.67934707091052,17.581146816772332],[-119.67333280616396,17.492404578908349],[-119.66388254304485,17.403673292988231],[-119.65089282984013,17.314884581758179],[-119.63426021483696,17.225970066165758],[-119.613881248121,17.136861367158531],[-119.58965247797937,17.047490106583268],[-119.56147045449779,16.957787906286967],[-119.52923172416462,16.867686388116454],[-119.49283283796501,16.777117172119915],[-119.45217034418596,16.686011881942932],[-119.40714079201382,16.59430213673437],[-119.35764072973581,16.501919560139754],[-119.30356670563884,16.40879577220727],[-119.2448152707081,16.314862394783859],[-119.18128297233119,16.22005104971629],[-119.11286635879532,16.12429335795224],[-119.03946198108548,16.027520942237857],[-118.96096638569003,15.929665422621269],[-118.87727612359413,15.830658420949533],[-118.78828774308477,15.730431559968679],[-118.69389779244909,15.628916459726952],[-118.59400281997409,15.526044742071349],[-118.48849937664482,15.421748028848583],[-118.37728400984906,15.315957941006332],[-118.26025326877323,15.208606101290684],[-118.13730370260367,15.099624129749941],[-118.00833789767574,14.988946744596717],[-117.87343213628395,14.876597738295118],[-117.73285827359035,14.762701197502395],[-117.58689860138924,14.647386558942685],[-117.43583540967632,14.530783260239389],[-117.27995098844724,14.413020739016019],[-117.11952762769778,14.294228431097338],[-116.95484761832284,14.174535775905497],[-116.78619325121747,14.054072208365881],[-116.61384681547804,13.932967167001323],[-116.43809060110027,13.811350088535903],[-116.25920689987845,13.689350411492455],[-116.07747800090891,13.56709757079642],[-115.89318619418742,13.444721005869837],[-115.70661377150827,13.322350152537638],[-115.5180430219678,13.200114449322541],[-115.32775623646103,13.078143332049251],[-115.13603570498373,12.956566238341338],[-114.94316371753143,12.835512606721579],[-114.74942256499929,12.715111872115358],[-114.55509453648358,12.595493473944828],[-114.36046192377864,12.476786848034749],[-114.16580701688025,12.359121432008635],[-113.97141210488462,12.242626663489887],[-113.77755947958622,12.12743197920264],[-113.58453143008131,12.013666816770296],[-113.392610247265,11.901460613816425],[-113.20207672735899,11.790942310639252],[-113.01306582622681,11.682192446924034],[-112.82544632199006,11.575203221951256],[-112.63905866592461,11.46995743528754],[-112.45374331020548,11.366437883801439],[-112.26934070610861,11.264627365260822],[-112.08569130490969,11.164508679232313],[-111.90263555788459,11.066064623483726],[-111.72001391720841,10.969277996682365],[-111.53766683415699,10.874131595696724],[-111.35543475910674,10.780608219194107],[-111.17315814513222,10.688690666741024],[-110.99067744260981,10.598361734306707],[-110.80783310281532,10.509604222357098],[-110.62446557792401,10.422400926861428],[-110.44041532011084,10.336734648285528],[-110.25552277885305,10.252588182598686],[-110.06962840722514,10.169944330266787],[-109.88257265650282,10.088785887259007],[-109.69419597706258,10.009095654041346],[-109.50433882197893,9.9308564265829773],[-109.31284164072906,9.8540510053497314],[-109.11954488728662,9.7786621863110099],[-108.92428901022953,9.7046727690332091],[-108.72691446353156,9.6320655521836329],[-108.5272616975692,9.5608233317315126],[-108.32517116361822,9.4909289090420543],[-108.12048338400086,9.4223650926750224],[-107.91315897290815,9.3551383649437412],[-107.70352503085542,9.2893274255204119],[-107.49197831894418,9.2250247058256605],[-107.27891559827611,9.1623226363806793],[-107.06473362725501,9.1013136477068315],[-106.84982916788169,9.0420901694259328],[-106.63459898125791,8.9847446311599128],[-106.41943982578721,8.9293694652287741],[-106.20474846437003,8.8760570994556929],[-105.9909216563093,8.8248999670599915],[-105.77835616180732,8.7759904958648463],[-105.56744874196579,8.7294211172908831],[-105.35859615788627,8.6852842609600316],[-105.15219516887186,8.6436723582928607],[-104.94864253602412,8.6046778389113001],[-104.74833501954544,8.568393133336599],[-104.55166938053736,8.534910671190687],[-104.35904237920232,8.5043228838941332],[-104.17085077664194,8.476722201068867],[-103.98749133215915,8.4522010523368181],[-103.80936080685564,8.430851870017932],[-103.63685596183308,8.4127670819354421],[-103.47037355639441,8.3980391204092371],[-103.31031035254063,8.3867604150612465],[-103.15706310957472,8.3790233964127765],[-103.01102858859838,8.374920494085643],[-102.87260355071322,8.3745441386012658],[-102.74209854890881,8.3779668827655769],[-102.61937061256361,8.3851567026198381],[-102.50412814729606,8.3960473028408842],[-102.39607947688626,8.4105723710182474],[-102.29493292241636,8.4286655938421973],[-102.2003968058678,8.4502606562044775],[-102.11217944922208,8.4752912456945637],[-102.02998917536007,8.5036910472041995],[-101.9535343053638,8.535393749222294],[-101.88252316211413,8.5703330366404771],[-101.81666406579393,8.6084425952496986],[-101.75566534018321,8.6496561126396045],[-101.69923530726351,8.6939072755005213],[-101.6470822872177,8.7411297687239653],[-101.59891460382579,8.7912572790003765],[-101.55444057817004,8.8442234930199106],[-101.5133685331312,8.899962097472951],[-101.47540678979141,8.9584067781504473],[-101.4402636701322,9.0194912217426122],[-101.40764749703425,9.0831491140405092],[-101.37726659068051,9.1493141417344077],[-101.3488292757504,9.2179199915145205],[-101.32204387152734,9.2889003491719109],[-101.29661870179154,9.3621889013967916],[-101.27226208762517,9.4377193339802261],[-101.24868235190894,9.5154253336123702],[-101.22558781572502,9.5952405869836639],[-101.20272290703645,9.6770962150184232],[-101.18017133114193,9.7608992368104737],[-101.15820268320715,9.8465434667077716],[-101.13708846406126,9.9339225814621273],[-101.11710017183538,10.022930260523253],[-101.09850930915718,10.11346018154228],[-101.08158737415789,10.205406023069656],[-101.06660586856589,10.298661462756456],[-101.05383629051232,10.393120179153073],[-101.04355014262489,10.488675849910692],[-101.03601892213544,10.58522215447897],[-101.03151413167171,10.682652769609774],[-101.03030727026419,10.78086137475276],[-101.03266983784266,10.879741647559115],[-101.03887333523613,10.979187265679911],[-101.04918926237445,11.079091907665543],[-101.0638891182881,11.179349252066459],[-101.08324440380608,11.279852977433109],[-101.10752661975761,11.380496760517246],[-101.13700726607237,11.481174280768585],[-101.17195784178085,11.581779216737573],[-101.21264984771221,11.682205245176078],[-101.25935478379614,11.78234604463438],[-101.31234415086175,11.882095294562305],[-101.37188944793957,11.981346671711663],[-101.43826217585865,12.079993854632846],[-101.51173383454875,12.177930521876249],[-101.59255969387465,12.275054670536747],[-101.68069078934838,12.371345258277188],[-101.77580795517287,12.466853142658522],[-101.87758263572994,12.561631683155781],[-101.98568627450186,12.655734238344564],[-102.09979031497096,12.749214166800471],[-102.21956620241821,12.842124827099212],[-102.34468537852729,12.934519576917069],[-102.47481928678059,13.026451776628335],[-102.60963937245896,13.11797478390929],[-102.74881707904484,13.20914195643627],[-102.89202384822192,13.30000665368425],[-103.03893112617044,13.390622234228886],[-103.18921035457413,13.48104205664572],[-103.34253297781459,13.571319478611201],[-103.49857044027351,13.661507860499512],[-103.65699418453391,13.751660559087668],[-103.81747565497739,13.841830933850645],[-103.97968629418705,13.932072342464778],[-104.14329754654443,14.022438144404987],[-104.3079808564313,14.112981698246926],[-104.47340766553123,14.203756362566196],[-104.63924942002461,14.294815495039188],[-104.80517756159509,14.386212455140821],[-104.97086353372498,14.478000601446752],[-105.13597878169531,14.570233291633258],[-105.30019474808904,14.662963885175316],[-105.46318672908416,14.756245262209234],[-105.62481772285952,14.850107011329669],[-105.78521913925175,14.944545417437212],[-105.94454302663928,15.039554200566045],[-106.102941435199,15.13512708434763],[-106.26056641420854,15.231257788816038],[-106.41757001474429,15.327940038502106],[-106.57410428608387,15.425167552540643],[-106.73032127660554,15.522934054563109],[-106.886373038285,15.621233265502951],[-107.04241161950057,15.720058908991575],[-107.19858907132846,15.819404705063221],[-107.35505744124782,15.919264375550654],[-107.51196878213347,16.019631644085223],[-107.66947514056517,16.120500231600545],[-107.82772856941784,16.221863859929329],[-107.98688111617048,16.323716251803717],[-108.14708483100003,16.426051127257836],[-108.30849176498288,16.528862210822524],[-108.47125396739659,16.632143221632532],[-108.63552348661949,16.735887884218641],[-108.80145237462727,16.840089918614979],[-108.96919267889893,16.944743047553743],[-109.13889645141001,17.049840992867644],[-109.31071574053891,17.15537747638956],[-109.48480259736186,17.261346219952202],[-109.66130907025729,17.367740946287768],[-109.84038684247872,17.474555195565983],[-110.0220882878441,17.581733617212819],[-110.20623257337445,17.689106046906659],[-110.39260542659906,17.796485860034579],[-110.58099257594654,17.903686427486775],[-110.77117974804685,18.010521125549644],[-110.96295267312729,18.116803325113494],[-111.15609707691846,18.222346401565346],[-111.35039868784907,18.326963726694771],[-111.54564323344835,18.430468675888847],[-111.74161644304434,18.532674620937144],[-111.93810404236757,18.633394935428043],[-112.13489176074609,18.732442993849247],[-112.33176532570911,18.829632169788965],[-112.52851046568537,18.924775835036883],[-112.72491290730471,19.0176873640807],[-112.92075837899591,19.108180130508742],[-113.11583260828814,19.196067507909277],[-113.30992132361013,19.281162869870684],[-113.50281025249109,19.363279588182593],[-113.69428512246031,19.442231038231967],[-113.88413166194653,19.51783059270781],[-114.07213559937833,19.589891626097824],[-114.25808266138563,19.65822750929226],[-114.44175857549777,19.722651618577459],[-114.62294907104268,19.782977325743104],[-114.80143987465038,19.839018005276841],[-114.9770167156488,19.890587029867675]]]},"properties":{"objectid":2,"basin":"Pacific","prob2day":"20%","risk2day":"Low","prob7day":"70%","risk7day":"High","idp_source":"gtwo_areas_202608202340","idp_filedate":1787269671000,"idp_ingestdate":1787269685000,"st_area(shape)":113.78285322038762,"st_perimeter(shape)":46.733602604887551}},{"type":"Feature","id":3,"geometry":{"type":"Polygon","coordinates":[[[-111.27092992167843,8.2808295770234963],[-111.22415215489792,8.3202076743448288],[-111.17814388223428,8.3603276880724593],[-111.1329921157934,8.4012171302665024],[-111.08878386588259,8.4429035147855416],[-111.0456061446078,8.4854143536896345],[-111.00354596137691,8.528777159038782],[-110.96269032919525,8.573019444691738],[-110.9231262574707,8.6181687209098641],[-110.88494075920858,8.664252502451177],[-110.84822084291744,8.7112983013756207],[-110.81305352160263,8.7593336297433666],[-110.77952580557138,8.8083859996143019],[-110.74772470603028,8.8584829248472374],[-110.7177372341859,8.9096519175021172],[-110.68965040124493,8.9619204896389988],[-110.66355121751457,9.0153161551165795],[-110.63952669510081,9.0698664250955972],[-110.61766384431087,9.1255988125353156],[-110.59804967635137,9.1825408294958493],[-110.58077120242893,9.2407199898357817],[-110.56591543375015,9.3001638056152842],[-110.55356938062232,9.3608997888943009],[-110.54382005515134,9.4229554526321522],[-110.53675446764447,9.4863583097883293],[-110.53245963020765,9.5511358724227193],[-110.53102255224888,9.6173156525954369],[-110.53253024587406,9.6849251632658024],[-110.53706972228974,9.7539919182925132],[-110.54472799270263,9.8245434279369874],[-110.55559206741987,9.8966072069571851],[-110.56974895764819,9.9702107656144676],[-110.58728567459411,10.045381618666909],[-110.60828922946428,10.122147277275189],[-110.63284663346525,10.20053525529795],[-110.6610448969044,10.280573063895929],[-110.69297103188751,10.362288216028503],[-110.72871204962132,10.445708224654993],[-110.76835495951366,10.530860602734776],[-110.8119867745699,10.617772861428534],[-110.85969450419793,10.706472514595021],[-110.91156516050364,10.79698707339486],[-110.9676857537944,10.889344052586068],[-111.0281432961761,10.983570962430122],[-111.09302479795599,11.079695317684923],[-111.16241727034065,11.177744628611833],[-111.23640772453678,11.277746409069664],[-111.31508317175087,11.379728172017678],[-111.39853062318963,11.483717428616558],[-111.48683708826093,11.589741693624376],[-111.58008938032054,11.697828363987924],[-111.67830654521077,11.807966429307385],[-111.78134151589813,11.920050721064058],[-111.88902223948469,12.033961906417005],[-112.00117666307244,12.14958065522319],[-112.11763273286425,12.266787633742467],[-112.23821839416348,12.385463511831745],[-112.36276159587084,12.50548895575082],[-112.49109028328985,12.626744635356772],[-112.62303240262321,12.749111217808604],[-112.7584159018723,12.872469372064018],[-112.89706872634054,12.996699764382754],[-113.0388188231301,13.121683064621891],[-113.18349413934294,13.247299940839753],[-113.33092262118191,13.373431060195401],[-113.48093221395044,13.499957091646593],[-113.63335086654916,13.62675870235239],[-113.78800652428157,13.753716561270437],[-113.94472713424977,13.880711336459171],[-114.10334064265646,14.007623695976918],[-114.2636749966037,14.134334307882114],[-114.42555814139502,14.260723840233197],[-114.58881802593106,14.386672960189117],[-114.75328259461594,14.512062337606949],[-114.91877979545109,14.636772640545075],[-115.08513757373993,14.760684535263238],[-115.25218387748384,14.883678691618456],[-115.41974665288564,15.005635776769793],[-115.58765384524867,15.126436458775686],[-115.7557334034737,15.245961407493098],[-115.92381327286415,15.364091288282452],[-116.09172139962283,15.480706771900145],[-116.25928573085173,15.595688524605862],[-116.42633421365292,15.70891721535736],[-116.59269479422926,15.820273512212964],[-116.75819541878343,15.929638082331792],[-116.92266403441755,16.036891595570808],[-117.08592858733437,16.141914719089129],[-117.24781702463588,16.244588120045819],[-117.40815729342427,16.344792468297896],[-117.56677733810358,16.442408431903743],[-117.72350510757457,16.537316677123101],[-117.87816854803998,16.629397873812991],[-118.03059560480324,16.718532689132417],[-118.18061422586572,16.804601792039193],[-118.32805235743024,16.887485850591645],[-118.47273794569952,16.96706553194889],[-118.61449893777564,17.043221505068516],[-118.75316327986138,17.115834437109697],[-118.88855891905877,17.184784997030135],[-119.02051532951873,17.249954977940035],[-119.14895362091278,17.311293632895001],[-119.27393694183633,17.368854782722167],[-119.39554065817475,17.422701242368589],[-119.51384013761219,17.472895825881778],[-119.62891074423538,17.519501350906751],[-119.74082784662772,17.562580629692434],[-119.84966680977539,17.602196478984467],[-119.95550299956369,17.638411713729738],[-120.05841178367677,17.671289148875246],[-120.15846852710075,17.700891599367935],[-120.25574859662032,17.727281880154806],[-120.35032735812098,17.750522807082007],[-120.44228017838742,17.770677194197276],[-120.5316824242044,17.787807857346877],[-120.61860946055805,17.801977610578433],[-120.70313665423311,17.813249270637471],[-120.78533937201433,17.821685651571727],[-120.86529297978711,17.827349568328032],[-120.9430728443362,17.830303835853499],[-121.01875433064777,17.830611269994279],[-121.09241280640578,17.828334685697314],[-121.16412363659646,17.823536897909662],[-121.23396218890377,17.816280721578153],[-121.30200382831396,17.806628971649843],[-121.36832392161159,17.794644463071677],[-121.43299783558155,17.780390011689803],[-121.4961009361092,17.763928432451337],[-121.55770858908005,17.745322540303107],[-121.61789616127874,17.724635149292851],[-121.67673901949007,17.701929076166095],[-121.73431252870017,17.677267134970464],[-121.79069205569374,17.650712141552219],[-121.84595296635621,17.622326909959042],[-121.90017062837171,17.592174256936573],[-121.95342040672631,17.560316995633002],[-122.00577766910408,17.526817941894649],[-122.05731777959176,17.491739910668457],[-122.10811610587348,17.455145717800804],[-122.15824801383468,17.417098178238462],[-122.20778887026006,17.377660106029225],[-122.25681404193438,17.336894317019244],[-122.30539889294448,17.294863626155575],[-122.35361879187366,17.251630848385105],[-122.40154910370808,17.207258799554097],[-122.44926519433318,17.161810293710232],[-122.49684243143298,17.115348146699773],[-122.54435618089292,17.067935173469607],[-122.59188180859849,17.019634188067471],[-122.63949468043506,16.970508007238891],[-122.68726621066702,16.920617847835558],[-122.73517690558964,16.869988177712344],[-122.78311636262993,16.818606720224125],[-122.83097022669449,16.766459597032906],[-122.87862414268994,16.713532933398312],[-122.92596375732143,16.659812850982405],[-122.97287471549561,16.605285474145433],[-123.01924266121972,16.549936926348209],[-123.06495324119902,16.49375333195087],[-123.10989210034006,16.436720811716214],[-123.15394488354946,16.378825491803127],[-123.19699723573376,16.320053494773106],[-123.23893480359823,16.260390944086964],[-123.27964323204941,16.199823962306141],[-123.31900816509466,16.138338674690203],[-123.35691524943911,16.075921203800647],[-123.39325012998944,16.012557672198966],[-123.42789845165214,15.948234204245296],[-123.46074586023315,15.88293692429977],[-123.49167800063913,15.816651954024621],[-123.52058051777658,15.749365418679247],[-123.54733905835076,15.681063439925936],[-123.57183926636895,15.611732142124822],[-123.59396678763704,15.541357648736664],[-123.61360726706164,15.469926084121596],[-123.63064635044861,15.397423569941964],[-123.64496968270458,15.323836230557731],[-123.65646290963548,15.249150190329146],[-123.66501167524854,15.173351570918385],[-123.67050162624895,15.096426496685638],[-123.67281840754339,15.018361091091606],[-123.67184766493767,14.939141478496595],[-123.66747504243915,14.858753780562665],[-123.6595861858537,14.777184122549329],[-123.64806674008787,14.694418626118818],[-123.63280235184698,14.610443416530586],[-123.6136786651382,14.525244615446809],[-123.59058132576746,14.438808348126884],[-123.56339597954076,14.351120737132476],[-123.53200827046521,14.26216790502491],[-123.49630384434687,14.171935977063811],[-123.45616834699155,14.080411075810616],[-123.41148742330586,13.987579324726198],[-123.36214671819641,13.893426847271314],[-123.30803187746909,13.797939766906836],[-123.24902854692982,13.701104207992955],[-123.18502237058584,13.60290629219179],[-123.1158989951424,13.503332143863474],[-123.0415440646068,13.402367887368257],[-122.9618432247849,13.299999645267576],[-122.8766963406635,13.196218821841285],[-122.78616858251399,13.091078208192869],[-122.69043177120921,12.98467020336733],[-122.58965950288365,12.877087863813983],[-122.48402537367195,12.768424246881636],[-122.37370298060796,12.658772409918924],[-122.25886592072555,12.548225410274597],[-122.13968779195795,12.436876305297403],[-122.0163421895403,12.324818152335979],[-121.88900271140591,12.212144007839811],[-121.75784295368925,12.098946930956231],[-121.62303651432359,11.985319977235292],[-121.48475698854412,11.871356204925064],[-121.34317797518332,11.757148671374239],[-121.19847306947651,11.642790433931509],[-121.05081586845745,11.528374549046362],[-120.90037997005948,11.413994075866071],[-120.74733896951773,11.299742069041372],[-120.59186646566479,11.185711588619029],[-120.43413605373581,11.071995690149095],[-120.27432133166405,10.958687430980319],[-120.11259589558404,10.845879870259921],[-119.94913334252965,10.733666062638804],[-119.78410726953479,10.6221390672643],[-119.61769127363328,10.511391941485044],[-119.45005895095971,10.401517741750524],[-119.28138389944729,10.292609526308752],[-119.11183971523059,10.1847603516091],[-118.94159999444412,10.078063275000261],[-118.77083833592036,9.9726113547303612],[-118.59972833489462,9.8684976472487733],[-118.4284435884008,9.7658152099041331],[-118.25715769347266,9.6646571000452468],[-118.08604424804349,9.5651163759201268],[-117.91527684734854,9.4672860939782026],[-117.74502908932089,9.3712593115681102],[-117.57547457009525,9.2771290860385989],[-117.40678688760471,9.1849884747384749],[-117.23913963798384,9.0949305359156369],[-117.07270641736716,9.0070483251202518],[-116.90766082368799,8.9214349014996515],[-116.74417645308074,8.8381833206038891],[-116.58242690347873,8.7573866415803536],[-116.42258577101643,8.679137919979155],[-116.26482665272772,8.6035302149476252],[-116.10932314474724,8.5306565820357605],[-115.95624884500808,8.460610079491687],[-115.80577734964487,8.393483764664154],[-115.65808225569145,8.3293706949017974],[-115.51333716018172,8.2683639266540467],[-115.37169413577567,8.210542703682961],[-115.23316216220394,8.1558944255874053],[-115.09769184600179,8.1043690253104046],[-114.96523362013539,8.055916327876389],[-114.83573791847004,8.0104861565110355],[-114.70915517577066,7.9680283335408717],[-114.58543582500323,7.9284926830910081],[-114.46453030093255,7.8918290292863844],[-114.34638903652473,7.8579871944535853],[-114.23096246744382,7.8269170018182876],[-114.11820102485734,7.7985682764049784],[-114.00805514532863,7.7728908405400148],[-113.90047526092445,7.7498345174491305],[-113.79541180640962,7.7293491312575497],[-113.6928152156496,7.7113845051908925],[-113.59263592161039,7.6958904624750062],[-113.49482435995617,7.6828168263356247],[-113.39933096275365,7.6721134208978015],[-113.30610616476758,7.6637300693873271],[-113.21510039986345,7.6576165950299924],[-113.12626410190666,7.6537228219507938],[-113.0395477047627,7.6519985724762591],[-112.95490164229687,7.6523936707314419],[-112.87227634927399,7.6548579399421328],[-112.79162225776088,7.6593412033340087],[-112.71288980252228,7.6657932850322368],[-112.63602941832289,7.674164008262494],[-112.56099153722954,7.6844031962506278],[-112.48772659490635,7.6964606722223721],[-112.4161850243193,7.7102862603027802],[-112.34631726023326,7.72582978281838],[-112.27807373561433,7.7430410647934309],[-112.21140488432786,7.7618699285545176],[-112.14626114023935,7.7822661973272602],[-112.08259293811352,7.8041796952368827],[-112.02035071091649,7.827560245509062],[-111.95948489341299,7.8523576722689086],[-111.89994591856919,7.8785217969435166],[-111.84168422114976,7.906002445456636],[-111.78465023412093,7.934749439235361],[-111.72879439224732,7.9647126033041218],[-111.6740671284951,7.9958417599893892],[-111.62041887852831,8.0280867334161599],[-111.56780007351449,8.0613973468102245],[-111.51616115001696,8.0957234233974305],[-111.46545254010255,8.1310147864033979],[-111.41562467853601,8.1672212599532941],[-111.3666279991827,8.2042926672729095],[-111.31841293590816,8.2421788315879212],[-111.27092992167843,8.2808295770234963]]]},"properties":{"objectid":3,"basin":"Pacific","prob2day":"40%","risk2day":"Medium","prob7day":"60%","risk7day":"Medium","idp_source":"gtwo_areas_202608202340","idp_filedate":1787269671000,"idp_ingestdate":1787269685000,"st_area(shape)":74.752733970938863,"st_perimeter(shape)":34.976182222371804}}]}