{"type":"FeatureCollection","features":[{"type":"Feature","id":1,"geometry":{"type":"Point","coordinates":[-71.23765772542356,20.391393119996621]},"properties":{"objectid":1,"basin":"Atlantic","prob2day":"0%","risk2day":"nearZero","prob7day":"0%","risk7day":"nearZero","idp_source":"gtwo_points_202608312325","idp_filedate":1788219156000,"idp_ingestdate":1788219180000}},{"type":"Feature","id":2,"geometry":{"type":"Point","coordinates":[-107.85677731002477,13.133927356762229]},"properties":{"objectid":2,"basin":"Pacific","prob2day":"90%","risk2day":"High","prob7day":"90%","risk7day":"High","idp_source":"gtwo_points_202608312325","idp_filedate":1788219156000,"idp_ingestdate":1788219180000}}]}