{"type":"FeatureCollection","features":[{"type":"Feature","id":1,"geometry":{"type":"Point","coordinates":[-105.54183589630946,12.874802343853219]},"properties":{"objectid":1,"basin":"Pacific","prob2day":"90%","risk2day":"High","prob7day":"90%","risk7day":"High","idp_source":"gtwo_points_202609200559","idp_filedate":1789884167000,"idp_ingestdate":1789884176000}},{"type":"Feature","id":2,"geometry":{"type":"Point","coordinates":[-124.08703528804801,11.293894358737816]},"properties":{"objectid":2,"basin":"Pacific","prob2day":"90%","risk2day":"High","prob7day":"90%","risk7day":"High","idp_source":"gtwo_points_202609200559","idp_filedate":1789884167000,"idp_ingestdate":1789884176000}},{"type":"Feature","id":3,"geometry":{"type":"Point","coordinates":[-141.89079362992197,14.750211910251608]},"properties":{"objectid":3,"basin":"Pacific","prob2day":"0%","risk2day":"Low","prob7day":"60%","risk7day":"Medium","idp_source":"gtwo_points_202609200559","idp_filedate":1789884167000,"idp_ingestdate":1789884176000}}]}