{
"type": "FeatureCollection",
"name": "al092021_2021082821_initialradii",
"features": [
{ "type": "Feature", "properties": { "RADII": 34.0, "STORMID": "al092021", "BASIN": "al", "STORMNUM": 9.0, "ADVNUM": "10", "VALIDTIME": "2021082821", "SYNOPTIME": "2021082818", "TIMEZONE": "UTC", "TAU": 0.0, "NE": 110.0, "SE": 100.0, "SW": 70.0, "NW": 100.0 }, "geometry": { "type": "Polygon", "coordinates": [ [ [ -86.9825, 27.9459 ], [ -87.017, 27.9441 ], [ -87.0514, 27.9417 ], [ -87.0857, 27.9388 ], [ -87.1199, 27.9353 ], [ -87.154, 27.9313 ], [ -87.1879, 27.9268 ], [ -87.2218, 27.9218 ], [ -87.2555, 27.9162 ], [ -87.289, 27.9101 ], [ -87.3223, 27.9035 ], [ -87.3556, 27.8964 ], [ -87.3886, 27.8888 ], [ -87.4214, 27.8806 ], [ -87.454, 27.872 ], [ -87.4864, 27.8628 ], [ -87.5185, 27.8531 ], [ -87.5504, 27.843 ], [ -87.5821, 27.8324 ], [ -87.6135, 27.8213 ], [ -87.6447, 27.8097 ], [ -87.6756, 27.7976 ], [ -87.7062, 27.7851 ], [ -87.7365, 27.7721 ], [ -87.7665, 27.7586 ], [ -87.7962, 27.7447 ], [ -87.8255, 27.7303 ], [ -87.8546, 27.7155 ], [ -87.8833, 27.7002 ], [ -87.9117, 27.6846 ], [ -87.9397, 27.6685 ], [ -87.9673, 27.6519 ], [ -87.9946, 27.635 ], [ -88.0215, 27.6177 ], [ -88.048, 27.5999 ], [ -88.0742, 27.5818 ], [ -88.0999, 27.5633 ], [ -88.1252, 27.5443 ], [ -88.1501, 27.5251 ], [ -88.1746, 27.5054 ], [ -88.1987, 27.4854 ], [ -88.2223, 27.4651 ], [ -88.2453, 27.4442 ], [ -88.2675, 27.4227 ], [ -88.289, 27.4007 ], [ -88.3096, 27.3781 ], [ -88.3294, 27.3549 ], [ -88.3483, 27.3311 ], [ -88.3663, 27.3069 ], [ -88.3835, 27.2821 ], [ -88.3998, 27.2569 ], [ -88.4153, 27.2313 ], [ -88.4303, 27.2056 ], [ -88.4447, 27.1797 ], [ -88.4585, 27.1537 ], [ -88.4717, 27.1276 ], [ -88.4843, 27.1013 ], [ -88.4964, 27.0749 ], [ -88.5079, 27.0484 ], [ -88.5188, 27.0219 ], [ -88.5291, 26.9952 ], [ -88.5388, 26.9685 ], [ -88.5479, 26.9417 ], [ -88.5565, 26.9148 ], [ -88.5645, 26.8879 ], [ -88.5719, 26.861 ], [ -88.5788, 26.8341 ], [ -88.585, 26.8071 ], [ -88.5907, 26.7801 ], [ -88.5958, 26.7532 ], [ -88.6004, 26.7262 ], [ -88.6044, 26.6993 ], [ -88.6078, 26.6724 ], [ -88.6107, 26.6456 ], [ -88.613, 26.6188 ], [ -88.6147, 26.5921 ], [ -88.616, 26.5654 ], [ -88.6166, 26.5388 ], [ -88.6167, 26.5123 ], [ -88.6163, 26.4859 ], [ -88.6154, 26.4596 ], [ -88.6139, 26.4335 ], [ -88.6119, 26.4074 ], [ -88.6094, 26.3815 ], [ -88.6063, 26.3557 ], [ -88.6028, 26.3301 ], [ -88.5987, 26.3046 ], [ -88.5942, 26.2793 ], [ -88.5891, 26.2541 ], [ -88.5836, 26.2292 ], [ -88.5776, 26.2044 ], [ -88.5711, 26.1798 ], [ -88.5641, 26.1554 ], [ -88.5567, 26.1312 ], [ -88.5488, 26.1073 ], [ -88.5405, 26.0836 ], [ -88.5317, 26.06 ], [ -88.5225, 26.0368 ], [ -88.5128, 26.0138 ], [ -88.5027, 25.991 ], [ -88.4922, 25.9685 ], [ -88.4813, 25.9462 ], [ -88.47, 25.9242 ], [ -88.4583, 25.9025 ], [ -88.4462, 25.8811 ], [ -88.4337, 25.8599 ], [ -88.4208, 25.8391 ], [ -88.4076, 25.8185 ], [ -88.394, 25.7982 ], [ -88.3801, 25.7783 ], [ -88.3658, 25.7587 ], [ -88.3512, 25.7393 ], [ -88.3362, 25.7203 ], [ -88.321, 25.7017 ], [ -88.3054, 25.6833 ], [ -88.2895, 25.6653 ], [ -88.2733, 25.6476 ], [ -88.2569, 25.6303 ], [ -88.2401, 25.6133 ], [ -88.2231, 25.5967 ], [ -88.2058, 25.5804 ], [ -88.1883, 25.5644 ], [ -88.1705, 25.5489 ], [ -88.1525, 25.5336 ], [ -88.1343, 25.5188 ], [ -88.1158, 25.5043 ], [ -88.0972, 25.4902 ], [ -88.0783, 25.4765 ], [ -88.0592, 25.4631 ], [ -88.04, 25.4501 ], [ -88.0206, 25.4375 ], [ -88.001, 25.4253 ], [ -87.9817, 25.413 ], [ -87.9632, 25.4001 ], [ -87.9455, 25.3868 ], [ -87.9284, 25.3728 ], [ -87.9121, 25.3583 ], [ -87.8964, 25.3431 ], [ -87.8813, 25.3272 ], [ -87.8669, 25.3107 ], [ -87.853, 25.2935 ], [ -87.8392, 25.2759 ], [ -87.825, 25.2586 ], [ -87.8104, 25.2414 ], [ -87.7953, 25.2244 ], [ -87.7799, 25.2075 ], [ -87.764, 25.1909 ], [ -87.7478, 25.1744 ], [ -87.7311, 25.1582 ], [ -87.714, 25.1422 ], [ -87.6966, 25.1264 ], [ -87.6787, 25.1108 ], [ -87.6605, 25.0954 ], [ -87.6419, 25.0803 ], [ -87.6229, 25.0655 ], [ -87.6035, 25.0509 ], [ -87.5838, 25.0366 ], [ -87.5637, 25.0225 ], [ -87.5432, 25.0087 ], [ -87.5224, 24.9952 ], [ -87.5012, 24.982 ], [ -87.4797, 24.9691 ], [ -87.4579, 24.9566 ], [ -87.4357, 24.9443 ], [ -87.4131, 24.9323 ], [ -87.3903, 24.9207 ], [ -87.3671, 24.9094 ], [ -87.3436, 24.8985 ], [ -87.3198, 24.8879 ], [ -87.2957, 24.8776 ], [ -87.2714, 24.8678 ], [ -87.2467, 24.8583 ], [ -87.2217, 24.8491 ], [ -87.1965, 24.8403 ], [ -87.171, 24.832 ], [ -87.1453, 24.824 ], [ -87.1193, 24.8164 ], [ -87.093, 24.8092 ], [ -87.0665, 24.8024 ], [ -87.0398, 24.7961 ], [ -87.0128, 24.7901 ], [ -86.9857, 24.7846 ], [ -86.9583, 24.7795 ], [ -86.9308, 24.7748 ], [ -86.903, 24.7706 ], [ -86.8751, 24.7668 ], [ -86.847, 24.7634 ], [ -86.8187, 24.7605 ], [ -86.7903, 24.7581 ], [ -86.7617, 24.7561 ], [ -86.733, 24.7546 ], [ -86.7042, 24.7536 ], [ -86.6752, 24.753 ], [ -86.6461, 24.7529 ], [ -86.617, 24.7532 ], [ -86.5877, 24.7541 ], [ -86.5584, 24.7554 ], [ -86.5289, 24.7572 ], [ -86.4995, 24.7595 ], [ -86.4699, 24.7623 ], [ -86.4403, 24.7656 ], [ -86.4107, 24.7694 ], [ -86.3811, 24.7737 ], [ -86.3514, 24.7785 ], [ -86.3218, 24.7837 ], [ -86.2921, 24.7895 ], [ -86.2625, 24.7958 ], [ -86.2329, 24.8026 ], [ -86.2033, 24.8099 ], [ -86.1738, 24.8177 ], [ -86.1443, 24.826 ], [ -86.1149, 24.8348 ], [ -86.0856, 24.8441 ], [ -86.0563, 24.854 ], [ -86.0272, 24.8643 ], [ -85.9982, 24.8751 ], [ -85.9693, 24.8865 ], [ -85.9405, 24.8983 ], [ -85.9118, 24.9107 ], [ -85.8833, 24.9236 ], [ -85.855, 24.937 ], [ -85.8269, 24.9508 ], [ -85.7991, 24.9653 ], [ -85.7718, 24.9807 ], [ -85.7451, 24.9967 ], [ -85.7189, 25.0136 ], [ -85.6933, 25.0311 ], [ -85.6683, 25.0494 ], [ -85.644, 25.0685 ], [ -85.6203, 25.0882 ], [ -85.5972, 25.1086 ], [ -85.5747, 25.1295 ], [ -85.5526, 25.1509 ], [ -85.5308, 25.1725 ], [ -85.5095, 25.1946 ], [ -85.4885, 25.217 ], [ -85.4679, 25.2397 ], [ -85.4478, 25.2628 ], [ -85.4281, 25.2863 ], [ -85.4088, 25.31 ], [ -85.3899, 25.3341 ], [ -85.3715, 25.3585 ], [ -85.3536, 25.3833 ], [ -85.3361, 25.4083 ], [ -85.319, 25.4336 ], [ -85.3024, 25.4592 ], [ -85.2863, 25.4851 ], [ -85.2707, 25.5113 ], [ -85.2556, 25.5378 ], [ -85.2409, 25.5645 ], [ -85.2268, 25.5915 ], [ -85.2132, 25.6187 ], [ -85.2001, 25.6461 ], [ -85.1874, 25.6738 ], [ -85.1753, 25.7017 ], [ -85.1638, 25.7299 ], [ -85.1528, 25.7582 ], [ -85.1423, 25.7867 ], [ -85.1323, 25.8155 ], [ -85.1229, 25.8444 ], [ -85.114, 25.8734 ], [ -85.1057, 25.9027 ], [ -85.098, 25.9321 ], [ -85.0908, 25.9616 ], [ -85.0842, 25.9913 ], [ -85.0781, 26.0212 ], [ -85.0727, 26.0511 ], [ -85.0678, 26.0812 ], [ -85.0635, 26.1113 ], [ -85.0597, 26.1416 ], [ -85.0566, 26.1719 ], [ -85.054, 26.2024 ], [ -85.052, 26.2329 ], [ -85.0507, 26.2634 ], [ -85.0499, 26.294 ], [ -85.0497, 26.3246 ], [ -85.0501, 26.3553 ], [ -85.0511, 26.386 ], [ -85.0527, 26.4167 ], [ -85.055, 26.4474 ], [ -85.0578, 26.4781 ], [ -85.0612, 26.5088 ], [ -85.0652, 26.5394 ], [ -85.0699, 26.57 ], [ -85.0751, 26.6006 ], [ -85.081, 26.6311 ], [ -85.0875, 26.6616 ], [ -85.0945, 26.6919 ], [ -85.1022, 26.7222 ], [ -85.1105, 26.7524 ], [ -85.1194, 26.7825 ], [ -85.1289, 26.8125 ], [ -85.1389, 26.8423 ], [ -85.1496, 26.8721 ], [ -85.1609, 26.9016 ], [ -85.1728, 26.9311 ], [ -85.1853, 26.9603 ], [ -85.1984, 26.9894 ], [ -85.212, 27.0184 ], [ -85.2263, 27.0471 ], [ -85.2411, 27.0756 ], [ -85.2565, 27.1039 ], [ -85.2725, 27.132 ], [ -85.2891, 27.1599 ], [ -85.3062, 27.1876 ], [ -85.324, 27.215 ], [ -85.3422, 27.2421 ], [ -85.3611, 27.269 ], [ -85.3805, 27.2956 ], [ -85.4004, 27.3219 ], [ -85.4209, 27.3479 ], [ -85.4419, 27.3737 ], [ -85.4636, 27.3989 ], [ -85.4862, 27.4236 ], [ -85.5096, 27.4476 ], [ -85.5339, 27.471 ], [ -85.5589, 27.4937 ], [ -85.5847, 27.5157 ], [ -85.6112, 27.5371 ], [ -85.6385, 27.5577 ], [ -85.6665, 27.5775 ], [ -85.6951, 27.5968 ], [ -85.724, 27.6156 ], [ -85.7532, 27.6339 ], [ -85.7828, 27.6517 ], [ -85.8127, 27.669 ], [ -85.843, 27.6859 ], [ -85.8735, 27.7023 ], [ -85.9043, 27.7181 ], [ -85.9355, 27.7335 ], [ -85.9668, 27.7483 ], [ -85.9985, 27.7627 ], [ -86.0304, 27.7765 ], [ -86.0626, 27.7898 ], [ -86.095, 27.8026 ], [ -86.1276, 27.8148 ], [ -86.1604, 27.8266 ], [ -86.1934, 27.8378 ], [ -86.2266, 27.8485 ], [ -86.26, 27.8586 ], [ -86.2936, 27.8682 ], [ -86.3273, 27.8773 ], [ -86.3611, 27.8858 ], [ -86.3951, 27.8938 ], [ -86.4292, 27.9012 ], [ -86.4635, 27.9081 ], [ -86.4978, 27.9145 ], [ -86.5322, 27.9203 ], [ -86.5667, 27.9255 ], [ -86.6013, 27.9303 ], [ -86.6359, 27.9344 ], [ -86.6705, 27.938 ], [ -86.7052, 27.9411 ], [ -86.7399, 27.9436 ], [ -86.7746, 27.9456 ], [ -86.8093, 27.947 ], [ -86.8441, 27.9479 ], [ -86.8787, 27.9482 ], [ -86.9134, 27.948 ], [ -86.948, 27.9472 ], [ -86.9825, 27.9459 ] ] ] } },
{ "type": "Feature", "properties": { "RADII": 50.0, "STORMID": "al092021", "BASIN": "al", "STORMNUM": 9.0, "ADVNUM": "10", "VALIDTIME": "2021082821", "SYNOPTIME": "2021082818", "TIMEZONE": "UTC", "TAU": 0.0, "NE": 50.0, "SE": 40.0, "SW": 20.0, "NW": 40.0 }, "geometry": { "type": "Polygon", "coordinates": [ [ [ -86.9924, 26.9488 ], [ -87.0071, 26.9469 ], [ -87.0216, 26.9449 ], [ -87.0361, 26.9426 ], [ -87.0505, 26.9401 ], [ -87.0649, 26.9373 ], [ -87.0791, 26.9343 ], [ -87.0932, 26.9312 ], [ -87.1072, 26.9278 ], [ -87.1212, 26.9241 ], [ -87.135, 26.9203 ], [ -87.1487, 26.9163 ], [ -87.1622, 26.912 ], [ -87.1757, 26.9076 ], [ -87.189, 26.9029 ], [ -87.2022, 26.8981 ], [ -87.2153, 26.893 ], [ -87.2282, 26.8878 ], [ -87.241, 26.8823 ], [ -87.2537, 26.8767 ], [ -87.2662, 26.8709 ], [ -87.2785, 26.8649 ], [ -87.2907, 26.8587 ], [ -87.3028, 26.8523 ], [ -87.3146, 26.8458 ], [ -87.3263, 26.8391 ], [ -87.3379, 26.8322 ], [ -87.3493, 26.8252 ], [ -87.3605, 26.818 ], [ -87.3715, 26.8106 ], [ -87.3824, 26.8031 ], [ -87.393, 26.7955 ], [ -87.4035, 26.7876 ], [ -87.4138, 26.7797 ], [ -87.4239, 26.7716 ], [ -87.4338, 26.7633 ], [ -87.4436, 26.7549 ], [ -87.4531, 26.7464 ], [ -87.4624, 26.7378 ], [ -87.4715, 26.729 ], [ -87.4805, 26.7201 ], [ -87.4892, 26.7111 ], [ -87.4976, 26.702 ], [ -87.5057, 26.6925 ], [ -87.5134, 26.6828 ], [ -87.5207, 26.6729 ], [ -87.5275, 26.6628 ], [ -87.534, 26.6525 ], [ -87.5401, 26.6419 ], [ -87.5458, 26.6312 ], [ -87.551, 26.6202 ], [ -87.5559, 26.6092 ], [ -87.5606, 26.5982 ], [ -87.5649, 26.5871 ], [ -87.569, 26.576 ], [ -87.5729, 26.5649 ], [ -87.5765, 26.5538 ], [ -87.5798, 26.5427 ], [ -87.5829, 26.5316 ], [ -87.5857, 26.5205 ], [ -87.5883, 26.5094 ], [ -87.5906, 26.4983 ], [ -87.5927, 26.4873 ], [ -87.5945, 26.4763 ], [ -87.5961, 26.4653 ], [ -87.5974, 26.4544 ], [ -87.5985, 26.4434 ], [ -87.5993, 26.4326 ], [ -87.5999, 26.4218 ], [ -87.6003, 26.411 ], [ -87.6004, 26.4003 ], [ -87.6003, 26.3896 ], [ -87.6, 26.3791 ], [ -87.5994, 26.3685 ], [ -87.5986, 26.3581 ], [ -87.5976, 26.3477 ], [ -87.5964, 26.3374 ], [ -87.5949, 26.3272 ], [ -87.5933, 26.3171 ], [ -87.5914, 26.3071 ], [ -87.5893, 26.2971 ], [ -87.587, 26.2873 ], [ -87.5845, 26.2776 ], [ -87.5818, 26.268 ], [ -87.579, 26.2584 ], [ -87.5759, 26.249 ], [ -87.5726, 26.2397 ], [ -87.5692, 26.2305 ], [ -87.5655, 26.2215 ], [ -87.5617, 26.2125 ], [ -87.5578, 26.2037 ], [ -87.5536, 26.195 ], [ -87.5493, 26.1865 ], [ -87.5448, 26.1781 ], [ -87.5402, 26.1698 ], [ -87.5354, 26.1616 ], [ -87.5304, 26.1536 ], [ -87.5254, 26.1457 ], [ -87.5201, 26.138 ], [ -87.5148, 26.1305 ], [ -87.5093, 26.123 ], [ -87.5036, 26.1157 ], [ -87.4979, 26.1086 ], [ -87.492, 26.1017 ], [ -87.486, 26.0948 ], [ -87.4799, 26.0882 ], [ -87.4737, 26.0817 ], [ -87.4673, 26.0754 ], [ -87.4609, 26.0692 ], [ -87.4544, 26.0632 ], [ -87.4478, 26.0573 ], [ -87.4411, 26.0516 ], [ -87.4343, 26.0461 ], [ -87.4274, 26.0408 ], [ -87.4205, 26.0356 ], [ -87.4135, 26.0306 ], [ -87.4064, 26.0257 ], [ -87.3993, 26.021 ], [ -87.3921, 26.0165 ], [ -87.3849, 26.0122 ], [ -87.3776, 26.008 ], [ -87.3703, 26.004 ], [ -87.3629, 26.0002 ], [ -87.3555, 25.9965 ], [ -87.3481, 25.993 ], [ -87.3406, 25.9897 ], [ -87.3331, 25.9866 ], [ -87.3256, 25.9836 ], [ -87.3181, 25.9808 ], [ -87.3106, 25.9781 ], [ -87.3031, 25.9757 ], [ -87.2955, 25.9734 ], [ -87.2883, 25.9709 ], [ -87.2818, 25.9681 ], [ -87.2758, 25.9647 ], [ -87.2704, 25.9609 ], [ -87.2656, 25.9566 ], [ -87.2614, 25.9518 ], [ -87.2577, 25.9465 ], [ -87.2544, 25.9406 ], [ -87.2517, 25.9341 ], [ -87.2491, 25.9273 ], [ -87.2463, 25.9206 ], [ -87.2434, 25.9138 ], [ -87.2402, 25.9071 ], [ -87.2368, 25.9004 ], [ -87.2333, 25.8937 ], [ -87.2296, 25.887 ], [ -87.2257, 25.8803 ], [ -87.2216, 25.8737 ], [ -87.2173, 25.8671 ], [ -87.2128, 25.8605 ], [ -87.2082, 25.854 ], [ -87.2033, 25.8475 ], [ -87.1983, 25.841 ], [ -87.193, 25.8347 ], [ -87.1876, 25.8283 ], [ -87.182, 25.8221 ], [ -87.1762, 25.8159 ], [ -87.1702, 25.8097 ], [ -87.1641, 25.8037 ], [ -87.1577, 25.7977 ], [ -87.1512, 25.7917 ], [ -87.1445, 25.7859 ], [ -87.1376, 25.7802 ], [ -87.1305, 25.7745 ], [ -87.1233, 25.769 ], [ -87.1159, 25.7635 ], [ -87.1083, 25.7582 ], [ -87.1005, 25.7529 ], [ -87.0926, 25.7478 ], [ -87.0845, 25.7427 ], [ -87.0762, 25.7378 ], [ -87.0678, 25.7331 ], [ -87.0592, 25.7284 ], [ -87.0504, 25.7239 ], [ -87.0415, 25.7195 ], [ -87.0324, 25.7152 ], [ -87.0232, 25.7111 ], [ -87.0139, 25.7071 ], [ -87.0043, 25.7033 ], [ -86.9947, 25.6996 ], [ -86.9849, 25.696 ], [ -86.975, 25.6927 ], [ -86.9649, 25.6894 ], [ -86.9547, 25.6864 ], [ -86.9444, 25.6835 ], [ -86.9339, 25.6808 ], [ -86.9233, 25.6782 ], [ -86.9126, 25.6759 ], [ -86.9018, 25.6737 ], [ -86.8909, 25.6717 ], [ -86.8799, 25.6698 ], [ -86.8687, 25.6682 ], [ -86.8575, 25.6667 ], [ -86.8462, 25.6655 ], [ -86.8347, 25.6644 ], [ -86.8232, 25.6635 ], [ -86.8117, 25.6628 ], [ -86.8, 25.6624 ], [ -86.7882, 25.6621 ], [ -86.7764, 25.662 ], [ -86.7645, 25.6622 ], [ -86.7526, 25.6625 ], [ -86.7406, 25.6631 ], [ -86.7286, 25.6639 ], [ -86.7165, 25.6649 ], [ -86.7043, 25.6661 ], [ -86.6921, 25.6675 ], [ -86.6799, 25.6692 ], [ -86.6677, 25.671 ], [ -86.6554, 25.6731 ], [ -86.6431, 25.6755 ], [ -86.6308, 25.678 ], [ -86.6185, 25.6808 ], [ -86.6062, 25.6838 ], [ -86.5938, 25.687 ], [ -86.5815, 25.6905 ], [ -86.5692, 25.6942 ], [ -86.5569, 25.6981 ], [ -86.5447, 25.7023 ], [ -86.5324, 25.7066 ], [ -86.5203, 25.7113 ], [ -86.5084, 25.7164 ], [ -86.4967, 25.7218 ], [ -86.4852, 25.7276 ], [ -86.474, 25.7338 ], [ -86.463, 25.7403 ], [ -86.4522, 25.7472 ], [ -86.4417, 25.7544 ], [ -86.4315, 25.7619 ], [ -86.4215, 25.7697 ], [ -86.4117, 25.7777 ], [ -86.4019, 25.7858 ], [ -86.3923, 25.7941 ], [ -86.3828, 25.8026 ], [ -86.3735, 25.8113 ], [ -86.3643, 25.8201 ], [ -86.3553, 25.8291 ], [ -86.3465, 25.8383 ], [ -86.3378, 25.8477 ], [ -86.3292, 25.8572 ], [ -86.3208, 25.8668 ], [ -86.3126, 25.8767 ], [ -86.3046, 25.8866 ], [ -86.2968, 25.8968 ], [ -86.2891, 25.9071 ], [ -86.2816, 25.9175 ], [ -86.2743, 25.9281 ], [ -86.2672, 25.9388 ], [ -86.2603, 25.9496 ], [ -86.2535, 25.9606 ], [ -86.247, 25.9718 ], [ -86.2407, 25.983 ], [ -86.2346, 25.9944 ], [ -86.2287, 26.0059 ], [ -86.2231, 26.0176 ], [ -86.2176, 26.0293 ], [ -86.2124, 26.0412 ], [ -86.2073, 26.0532 ], [ -86.2025, 26.0653 ], [ -86.198, 26.0774 ], [ -86.1936, 26.0897 ], [ -86.1895, 26.1021 ], [ -86.1857, 26.1146 ], [ -86.1821, 26.1272 ], [ -86.1787, 26.1399 ], [ -86.1755, 26.1526 ], [ -86.1726, 26.1654 ], [ -86.17, 26.1783 ], [ -86.1676, 26.1913 ], [ -86.1654, 26.2043 ], [ -86.1635, 26.2174 ], [ -86.1619, 26.2306 ], [ -86.1605, 26.2438 ], [ -86.1594, 26.2571 ], [ -86.1585, 26.2704 ], [ -86.1579, 26.2838 ], [ -86.1576, 26.2972 ], [ -86.1575, 26.3106 ], [ -86.1577, 26.3241 ], [ -86.1582, 26.3376 ], [ -86.159, 26.3511 ], [ -86.16, 26.3646 ], [ -86.1613, 26.3782 ], [ -86.1628, 26.3918 ], [ -86.1646, 26.4053 ], [ -86.1667, 26.4189 ], [ -86.1691, 26.4324 ], [ -86.1718, 26.446 ], [ -86.1747, 26.4595 ], [ -86.1779, 26.473 ], [ -86.1814, 26.4865 ], [ -86.1851, 26.5 ], [ -86.1891, 26.5135 ], [ -86.1935, 26.5269 ], [ -86.1981, 26.5402 ], [ -86.2029, 26.5535 ], [ -86.208, 26.5668 ], [ -86.2135, 26.58 ], [ -86.2192, 26.5932 ], [ -86.2251, 26.6063 ], [ -86.2314, 26.6193 ], [ -86.2379, 26.6323 ], [ -86.2447, 26.6451 ], [ -86.2517, 26.6579 ], [ -86.2591, 26.6707 ], [ -86.2667, 26.6833 ], [ -86.2745, 26.6958 ], [ -86.2827, 26.7082 ], [ -86.2911, 26.7205 ], [ -86.2997, 26.7328 ], [ -86.3088, 26.7447 ], [ -86.3185, 26.7563 ], [ -86.3287, 26.7674 ], [ -86.3395, 26.778 ], [ -86.3508, 26.7882 ], [ -86.3626, 26.798 ], [ -86.375, 26.8072 ], [ -86.3878, 26.816 ], [ -86.4011, 26.8242 ], [ -86.4147, 26.8321 ], [ -86.4284, 26.8397 ], [ -86.4423, 26.8471 ], [ -86.4563, 26.8542 ], [ -86.4703, 26.8611 ], [ -86.4845, 26.8678 ], [ -86.4988, 26.8743 ], [ -86.5132, 26.8804 ], [ -86.5276, 26.8864 ], [ -86.5422, 26.8921 ], [ -86.5568, 26.8976 ], [ -86.5715, 26.9028 ], [ -86.5862, 26.9077 ], [ -86.6011, 26.9125 ], [ -86.616, 26.9169 ], [ -86.6309, 26.9212 ], [ -86.6459, 26.9251 ], [ -86.6609, 26.9289 ], [ -86.676, 26.9324 ], [ -86.6911, 26.9356 ], [ -86.7063, 26.9386 ], [ -86.7214, 26.9413 ], [ -86.7366, 26.9438 ], [ -86.7518, 26.946 ], [ -86.767, 26.948 ], [ -86.7822, 26.9498 ], [ -86.7974, 26.9513 ], [ -86.8126, 26.9525 ], [ -86.8278, 26.9535 ], [ -86.8429, 26.9543 ], [ -86.858, 26.9548 ], [ -86.8731, 26.9551 ], [ -86.8882, 26.9552 ], [ -86.9033, 26.955 ], [ -86.9183, 26.9545 ], [ -86.9332, 26.9538 ], [ -86.9481, 26.9529 ], [ -86.9629, 26.9518 ], [ -86.9777, 26.9504 ], [ -86.9924, 26.9488 ] ] ] } },
{ "type": "Feature", "properties": { "RADII": 64.0, "STORMID": "al092021", "BASIN": "al", "STORMNUM": 9.0, "ADVNUM": "10", "VALIDTIME": "2021082821", "SYNOPTIME": "2021082818", "TIMEZONE": "UTC", "TAU": 0.0, "NE": 25.0, "SE": 20.0, "SW": 10.0, "NW": 20.0 }, "geometry": { "type": "Polygon", "coordinates": [ [ [ -86.9962, 26.5744 ], [ -87.0035, 26.5735 ], [ -87.0108, 26.5724 ], [ -87.018, 26.5713 ], [ -87.0252, 26.57 ], [ -87.0323, 26.5687 ], [ -87.0394, 26.5672 ], [ -87.0465, 26.5656 ], [ -87.0534, 26.5639 ], [ -87.0604, 26.5621 ], [ -87.0673, 26.5602 ], [ -87.0741, 26.5582 ], [ -87.0809, 26.556 ], [ -87.0876, 26.5538 ], [ -87.0942, 26.5515 ], [ -87.1008, 26.5491 ], [ -87.1073, 26.5465 ], [ -87.1138, 26.5439 ], [ -87.1202, 26.5412 ], [ -87.1265, 26.5384 ], [ -87.1327, 26.5355 ], [ -87.1389, 26.5325 ], [ -87.1449, 26.5294 ], [ -87.151, 26.5263 ], [ -87.1569, 26.523 ], [ -87.1627, 26.5196 ], [ -87.1685, 26.5162 ], [ -87.1742, 26.5127 ], [ -87.1798, 26.5091 ], [ -87.1853, 26.5054 ], [ -87.1907, 26.5017 ], [ -87.196, 26.4979 ], [ -87.2012, 26.494 ], [ -87.2064, 26.49 ], [ -87.2114, 26.4859 ], [ -87.2164, 26.4818 ], [ -87.2212, 26.4776 ], [ -87.226, 26.4734 ], [ -87.2307, 26.4691 ], [ -87.2352, 26.4647 ], [ -87.2397, 26.4603 ], [ -87.244, 26.4558 ], [ -87.2483, 26.4512 ], [ -87.2523, 26.4465 ], [ -87.2561, 26.4417 ], [ -87.2598, 26.4367 ], [ -87.2633, 26.4316 ], [ -87.2665, 26.4265 ], [ -87.2695, 26.4212 ], [ -87.2724, 26.4158 ], [ -87.275, 26.4104 ], [ -87.2775, 26.4049 ], [ -87.2798, 26.3993 ], [ -87.282, 26.3938 ], [ -87.2841, 26.3883 ], [ -87.286, 26.3827 ], [ -87.2878, 26.3772 ], [ -87.2895, 26.3716 ], [ -87.291, 26.3661 ], [ -87.2925, 26.3605 ], [ -87.2938, 26.355 ], [ -87.2949, 26.3495 ], [ -87.296, 26.344 ], [ -87.2969, 26.3384 ], [ -87.2977, 26.333 ], [ -87.2984, 26.3275 ], [ -87.2989, 26.322 ], [ -87.2994, 26.3166 ], [ -87.2997, 26.3112 ], [ -87.2999, 26.3058 ], [ -87.3, 26.3005 ], [ -87.2999, 26.2951 ], [ -87.2998, 26.2898 ], [ -87.2995, 26.2846 ], [ -87.2991, 26.2794 ], [ -87.2986, 26.2742 ], [ -87.298, 26.269 ], [ -87.2973, 26.2639 ], [ -87.2965, 26.2589 ], [ -87.2956, 26.2538 ], [ -87.2945, 26.2489 ], [ -87.2934, 26.244 ], [ -87.2922, 26.2391 ], [ -87.2908, 26.2343 ], [ -87.2894, 26.2295 ], [ -87.2879, 26.2248 ], [ -87.2863, 26.2201 ], [ -87.2846, 26.2155 ], [ -87.2827, 26.211 ], [ -87.2809, 26.2065 ], [ -87.2789, 26.2021 ], [ -87.2768, 26.1978 ], [ -87.2747, 26.1935 ], [ -87.2724, 26.1893 ], [ -87.2701, 26.1851 ], [ -87.2677, 26.1811 ], [ -87.2653, 26.1771 ], [ -87.2627, 26.1731 ], [ -87.2601, 26.1692 ], [ -87.2575, 26.1655 ], [ -87.2547, 26.1617 ], [ -87.2519, 26.1581 ], [ -87.249, 26.1545 ], [ -87.2461, 26.151 ], [ -87.2431, 26.1476 ], [ -87.2401, 26.1443 ], [ -87.237, 26.141 ], [ -87.2338, 26.1379 ], [ -87.2306, 26.1348 ], [ -87.2273, 26.1318 ], [ -87.224, 26.1288 ], [ -87.2207, 26.126 ], [ -87.2173, 26.1232 ], [ -87.2139, 26.1205 ], [ -87.2104, 26.1179 ], [ -87.2069, 26.1154 ], [ -87.2034, 26.113 ], [ -87.1998, 26.1107 ], [ -87.1962, 26.1084 ], [ -87.1926, 26.1062 ], [ -87.1889, 26.1041 ], [ -87.1853, 26.1021 ], [ -87.1816, 26.1002 ], [ -87.1779, 26.0984 ], [ -87.1742, 26.0966 ], [ -87.1705, 26.095 ], [ -87.1667, 26.0934 ], [ -87.163, 26.0919 ], [ -87.1592, 26.0905 ], [ -87.1554, 26.0891 ], [ -87.1517, 26.0879 ], [ -87.1479, 26.0868 ], [ -87.1443, 26.0855 ], [ -87.141, 26.0841 ], [ -87.138, 26.0824 ], [ -87.1354, 26.0805 ], [ -87.133, 26.0784 ], [ -87.1308, 26.076 ], [ -87.129, 26.0733 ], [ -87.1274, 26.0703 ], [ -87.126, 26.0671 ], [ -87.1247, 26.0637 ], [ -87.1233, 26.0604 ], [ -87.1218, 26.057 ], [ -87.1202, 26.0536 ], [ -87.1186, 26.0502 ], [ -87.1168, 26.0469 ], [ -87.115, 26.0435 ], [ -87.113, 26.0402 ], [ -87.1109, 26.0369 ], [ -87.1088, 26.0336 ], [ -87.1066, 26.0303 ], [ -87.1042, 26.027 ], [ -87.1018, 26.0238 ], [ -87.0993, 26.0206 ], [ -87.0967, 26.0174 ], [ -87.094, 26.0142 ], [ -87.0911, 26.0111 ], [ -87.0882, 26.008 ], [ -87.0853, 26.0049 ], [ -87.0822, 26.0018 ], [ -87.079, 25.9988 ], [ -87.0757, 25.9959 ], [ -87.0724, 25.993 ], [ -87.0689, 25.9901 ], [ -87.0654, 25.9873 ], [ -87.0618, 25.9845 ], [ -87.058, 25.9818 ], [ -87.0542, 25.9791 ], [ -87.0504, 25.9765 ], [ -87.0464, 25.9739 ], [ -87.0423, 25.9714 ], [ -87.0382, 25.9689 ], [ -87.034, 25.9665 ], [ -87.0296, 25.9642 ], [ -87.0253, 25.9619 ], [ -87.0208, 25.9597 ], [ -87.0163, 25.9576 ], [ -87.0116, 25.9555 ], [ -87.0069, 25.9536 ], [ -87.0022, 25.9516 ], [ -86.9973, 25.9498 ], [ -86.9924, 25.948 ], [ -86.9875, 25.9463 ], [ -86.9824, 25.9447 ], [ -86.9773, 25.9432 ], [ -86.9721, 25.9418 ], [ -86.9669, 25.9404 ], [ -86.9616, 25.9391 ], [ -86.9562, 25.9379 ], [ -86.9508, 25.9368 ], [ -86.9453, 25.9358 ], [ -86.9398, 25.9349 ], [ -86.9342, 25.9341 ], [ -86.9286, 25.9334 ], [ -86.9229, 25.9328 ], [ -86.9172, 25.9322 ], [ -86.9114, 25.9318 ], [ -86.9056, 25.9315 ], [ -86.8998, 25.9312 ], [ -86.8939, 25.9311 ], [ -86.888, 25.9311 ], [ -86.882, 25.9311 ], [ -86.876, 25.9313 ], [ -86.87, 25.9316 ], [ -86.864, 25.932 ], [ -86.8579, 25.9325 ], [ -86.8518, 25.9331 ], [ -86.8457, 25.9338 ], [ -86.8396, 25.9347 ], [ -86.8335, 25.9356 ], [ -86.8273, 25.9367 ], [ -86.8212, 25.9378 ], [ -86.815, 25.9391 ], [ -86.8088, 25.9405 ], [ -86.8027, 25.942 ], [ -86.7965, 25.9437 ], [ -86.7903, 25.9454 ], [ -86.7842, 25.9472 ], [ -86.778, 25.9492 ], [ -86.7719, 25.9513 ], [ -86.7657, 25.9535 ], [ -86.7597, 25.9559 ], [ -86.7537, 25.9584 ], [ -86.7478, 25.9611 ], [ -86.7421, 25.9641 ], [ -86.7365, 25.9671 ], [ -86.731, 25.9704 ], [ -86.7256, 25.9738 ], [ -86.7203, 25.9775 ], [ -86.7152, 25.9812 ], [ -86.7102, 25.9851 ], [ -86.7053, 25.9891 ], [ -86.7004, 25.9932 ], [ -86.6956, 25.9974 ], [ -86.6909, 26.0016 ], [ -86.6862, 26.006 ], [ -86.6817, 26.0104 ], [ -86.6772, 26.0149 ], [ -86.6727, 26.0195 ], [ -86.6684, 26.0242 ], [ -86.6641, 26.029 ], [ -86.6599, 26.0338 ], [ -86.6558, 26.0387 ], [ -86.6518, 26.0437 ], [ -86.6479, 26.0488 ], [ -86.6441, 26.054 ], [ -86.6404, 26.0592 ], [ -86.6367, 26.0645 ], [ -86.6332, 26.0699 ], [ -86.6297, 26.0753 ], [ -86.6264, 26.0808 ], [ -86.6232, 26.0864 ], [ -86.62, 26.092 ], [ -86.617, 26.0977 ], [ -86.6141, 26.1035 ], [ -86.6112, 26.1093 ], [ -86.6085, 26.1152 ], [ -86.6059, 26.1211 ], [ -86.6034, 26.1271 ], [ -86.601, 26.1332 ], [ -86.5988, 26.1393 ], [ -86.5966, 26.1454 ], [ -86.5946, 26.1516 ], [ -86.5927, 26.1579 ], [ -86.5909, 26.1642 ], [ -86.5892, 26.1705 ], [ -86.5877, 26.1769 ], [ -86.5863, 26.1833 ], [ -86.585, 26.1898 ], [ -86.5838, 26.1963 ], [ -86.5827, 26.2028 ], [ -86.5818, 26.2093 ], [ -86.581, 26.2159 ], [ -86.5804, 26.2225 ], [ -86.5798, 26.2292 ], [ -86.5794, 26.2358 ], [ -86.5791, 26.2425 ], [ -86.579, 26.2492 ], [ -86.579, 26.2559 ], [ -86.5791, 26.2627 ], [ -86.5794, 26.2694 ], [ -86.5798, 26.2762 ], [ -86.5803, 26.2829 ], [ -86.581, 26.2897 ], [ -86.5818, 26.2965 ], [ -86.5827, 26.3033 ], [ -86.5838, 26.31 ], [ -86.585, 26.3168 ], [ -86.5863, 26.3236 ], [ -86.5878, 26.3304 ], [ -86.5894, 26.3371 ], [ -86.5912, 26.3439 ], [ -86.5931, 26.3506 ], [ -86.5951, 26.3573 ], [ -86.5973, 26.364 ], [ -86.5996, 26.3707 ], [ -86.6021, 26.3773 ], [ -86.6047, 26.384 ], [ -86.6074, 26.3906 ], [ -86.6103, 26.3971 ], [ -86.6133, 26.4037 ], [ -86.6164, 26.4102 ], [ -86.6197, 26.4166 ], [ -86.6231, 26.4231 ], [ -86.6266, 26.4295 ], [ -86.6303, 26.4358 ], [ -86.6341, 26.4421 ], [ -86.638, 26.4484 ], [ -86.6421, 26.4546 ], [ -86.6463, 26.4607 ], [ -86.6507, 26.4668 ], [ -86.6552, 26.4728 ], [ -86.6601, 26.4785 ], [ -86.6652, 26.4841 ], [ -86.6706, 26.4894 ], [ -86.6762, 26.4945 ], [ -86.6822, 26.4993 ], [ -86.6883, 26.5039 ], [ -86.6947, 26.5083 ], [ -86.7014, 26.5124 ], [ -86.7082, 26.5163 ], [ -86.715, 26.5201 ], [ -86.7219, 26.5238 ], [ -86.7289, 26.5274 ], [ -86.7359, 26.5308 ], [ -86.743, 26.5341 ], [ -86.7501, 26.5373 ], [ -86.7573, 26.5404 ], [ -86.7645, 26.5434 ], [ -86.7718, 26.5462 ], [ -86.7791, 26.549 ], [ -86.7864, 26.5516 ], [ -86.7938, 26.554 ], [ -86.8012, 26.5564 ], [ -86.8086, 26.5586 ], [ -86.816, 26.5607 ], [ -86.8235, 26.5627 ], [ -86.831, 26.5645 ], [ -86.8385, 26.5663 ], [ -86.8461, 26.5679 ], [ -86.8536, 26.5694 ], [ -86.8612, 26.5707 ], [ -86.8687, 26.572 ], [ -86.8763, 26.5731 ], [ -86.8839, 26.5741 ], [ -86.8914, 26.5749 ], [ -86.899, 26.5757 ], [ -86.9066, 26.5763 ], [ -86.9142, 26.5768 ], [ -86.9217, 26.5772 ], [ -86.9293, 26.5774 ], [ -86.9368, 26.5776 ], [ -86.9443, 26.5776 ], [ -86.9518, 26.5775 ], [ -86.9593, 26.5773 ], [ -86.9667, 26.5769 ], [ -86.9741, 26.5765 ], [ -86.9815, 26.5759 ], [ -86.9889, 26.5752 ], [ -86.9962, 26.5744 ] ] ] } }
]
}
