{"type":"FeatureCollection","features":[{"type":"Feature","id":113,"geometry":{"type":"MultiPolygon","coordinates":[[[[-172.18801999992297,23.94847000039033],[-172.15807000013032,23.950599999690382],[-172.12901000001142,23.954450000067595],[-172.10156000039362,23.96015999988424],[-172.07599000023825,23.967739999601463],[-172.05237000007537,23.97729999979532],[-172.03075000041213,23.988859999589465],[-172.00130999985655,24.00917999955749],[-171.98382999955476,24.02485000002764],[-171.9681700004451,24.042390000398314],[-171.94777000038513,24.071740000400837],[-171.93569999955525,24.09286000038884],[-171.9299899997386,24.10374999986277],[-171.91524999988752,24.138820000143028],[-171.90611000017628,24.162859999889235],[-171.89735000000243,24.187309999656918],[-171.8890100003112,24.212139999861222],[-171.88076999983554,24.23711999978832],[-171.87241999968316,24.261959999554506],[-171.8640700004301,24.286800000219955],[-171.85584999997744,24.31176999968585],[-171.84763000042412,24.336740000051122],[-171.83926000024874,24.361579999817252],[-171.83093000011934,24.38641999958344],[-171.8226899996437,24.411389999948653],[-171.81447999965218,24.436360000313925],[-171.80611999993798,24.461200000080055],[-171.79778000024675,24.48603999984624],[-171.78957000025522,24.511010000211456],[-171.78134000024073,24.535990000138554],[-171.7729799996272,24.56082999990474],[-171.76463000037415,24.58566999967087],[-171.7564099999215,24.610640000036142],[-171.74819999992997,24.635610000401357],[-171.73984000021576,24.660450000167543],[-171.73147999960221,24.685289999933673],[-171.72326999961072,24.710260000298945],[-171.7150300000344,24.73522999976484],[-171.706699999905,24.76007000043029],[-171.70244999996746,24.77243000024447],[-171.6900900001533,24.809890000123573],[-171.6859699999155,24.82237000007558],[-171.67352000044758,24.859700000254975],[-171.66928000007186,24.872049999607952],[-171.65694999984254,24.909510000386376],[-171.64871000026622,24.93447999985227],[-171.64036999967567,24.9593199996184],[-171.6320200004226,24.984160000283907],[-171.62379000040812,25.009129999749803],[-171.61544999981757,25.03397000041531],[-171.6066899996437,25.058409999721846],[-171.59765999960922,25.082589999628908],[-171.58839000019827,25.106499999675407],[-171.57844999956774,25.1297400003009],[-171.5679599996542,25.152460000328915],[-171.5626700003202,25.16375000026244],[-171.55231999966819,25.18659000042834],[-171.53654000042062,25.220600000389823],[-171.53137000032518,25.232020000023113],[-171.5171799997571,25.267619999563465],[-171.51253999982106,25.27957999981726],[-171.4983500001523,25.315169999795785],[-171.49371000021625,25.32713000004958],[-171.48415999958425,25.350770000235457],[-171.4685100000364,25.384909999896706],[-171.4631999997801,25.396199999830287],[-171.44704000009585,25.42981000023144],[-171.43587999986204,25.451859999939188],[-171.42489999983505,25.474040000245964],[-171.41945999987902,25.48519999958046],[-171.40833000012933,25.507250000187526],[-171.39172000037763,25.54046000012903],[-171.38074000035067,25.562640000435806],[-171.3751499997726,25.573670000070592],[-171.36400999956174,25.595710000216457],[-171.3475800000169,25.62906000031893],[-171.34201000036114,25.640080000391833],[-171.3308700001503,25.66213000009958],[-171.32001000026122,25.68444999966789],[-171.30330000039461,25.71752000034786],[-171.29228000032168,25.739699999755317],[-171.28684999992748,25.75085999998913],[-171.27012999959973,25.783940000230984],[-171.26455999994397,25.794960000303888],[-171.24811000037613,25.82829999994516],[-171.24255000028222,25.839329999579945],[-171.22595000009235,25.87252999995968],[-171.22051999969815,25.883690000193496],[-171.20382999985452,25.916770000435292],[-171.19282999980456,25.938949999842748],[-171.1873800002867,25.950110000076563],[-171.17067999998193,25.98317999985727],[-171.15967000037014,26.005369999725872],[-171.15423999997594,26.01652000039786],[-171.13753999967116,26.049599999740337],[-171.13195999955425,26.060619999813298],[-171.1155200004476,26.09396000035389],[-171.10438999979857,26.11601000006158],[-171.0988200001428,26.127039999696365],[-171.08291999985803,26.16091000039637],[-171.07760999960172,26.172200000329894],[-171.0624799997521,26.206870000150502],[-171.0530700001803,26.230649999597972],[-171.04365999970915,26.25442000038288],[-171.03887999961222,26.26623999957644],[-171.02495999980408,26.302109999876734],[-171.01539999961022,26.325750000062612],[-171.01048000025173,26.337439999556466],[-170.9960300002842,26.372779999697343],[-170.99139000034816,26.384730000389368],[-170.9821200000379,26.40864000043581],[-170.96793000036914,26.444239999976162],[-170.95864999959772,26.468150000022604],[-170.949099999865,26.491790000208482],[-170.9441999996302,26.503479999702392],[-170.93438999959872,26.526859999589476],[-170.92060999995147,26.562859999589477],[-170.9161100001763,26.574939999981154],[-170.90285000022726,26.611470000140514],[-170.89446999959074,26.6363099999067],[-170.88625999959922,26.661280000271915],[-170.8780400000459,26.686260000199013],[-170.87391999980807,26.69874000015102],[-170.8625299997596,26.73712999974981],[-170.855219999903,26.76302999983477],[-170.84821000039113,26.789199999780294],[-170.84144999981757,26.815630000024612],[-170.8348100002812,26.84220000042984],[-170.82816999984553,26.868769999935694],[-170.82155000033217,26.89532999987972],[-170.8149099998965,26.92190000028495],[-170.80827000036015,26.948469999790802],[-170.80164999994747,26.97502999973483],[-170.7950100004111,27.00160000014006],[-170.7883800004366,27.028160000084085],[-170.78174999956275,27.054729999589938],[-170.77511999958824,27.081299999995167],[-170.76862000021276,27.10800000010005],[-170.7623899997986,27.13495999960446],[-170.75641999968317,27.162189999868758],[-170.75351000038614,27.175870000300392],[-170.74528999993348,27.21745000041733],[-170.7398400004156,27.245209999941665],[-170.7342800003217,27.27283999976629],[-170.7287099997666,27.300469999590973],[-170.72314000011085,27.32810000031492],[-170.7175800000169,27.3557199996784],[-170.71212999959974,27.38348999966388],[-170.70670000010483,27.41125000008759],[-170.7011300004491,27.438879999912217],[-170.69555999989402,27.466509999736843],[-170.68999000023825,27.49413999956147],[-170.68441999968317,27.521770000285414],[-170.6789900001883,27.549529999809806],[-170.67355000023224,27.57729000023346],[-170.66799999970016,27.604920000058087],[-170.66253999972113,27.63267999958248],[-170.65750000022476,27.660839999566463],[-170.6530000004496,27.689529999709862],[-170.64915000007238,27.71889000017353],[-170.64584000031567,27.748770000335412],[-170.64252000009785,27.77866000005912],[-170.63866999972063,27.808010000061586],[-170.6365700000054,27.822489999613936],[-170.62926999971063,27.86500000034988],[-170.624359999914,27.89329000003363],[-170.6200000002997,27.922120000337884],[-170.61655000038215,27.951869999900737],[-170.61389000002342,27.98242000038283],[-170.6115000004246,28.013239999826283],[-170.60886000008887,28.043790000308434],[-170.6053900001483,28.073550000332375],[-170.6010099996117,28.102370000175483],[-170.59611999983804,28.130659999859233],[-170.59119999958023,28.158950000442303],[-170.58683999996595,28.187779999847237],[-170.58353000020927,28.21766000000912],[-170.5814200000329,28.24875000021251],[-170.5802000004296,28.280759999674387],[-170.57967999983205,28.31342999989471],[-170.57953000010934,28.34651000013656],[-170.57953000010934,28.379720000078066],[-170.57953000010934,28.412930000019628],[-170.57953000010934,28.44613999996119],[-170.57953000010934,28.479349999902695],[-170.57953000010934,28.51255000028243],[-170.57953000010934,28.545760000223993],[-170.57953000010934,28.578970000165498],[-170.57953000010934,28.612169999645914],[-170.57953000010934,28.645379999587476],[-170.57953000010934,28.6785900004283],[-170.57953000010934,28.711800000369863],[-170.57953000010934,28.74499999985028],[-170.57953000010934,28.778209999791784],[-170.57953000010934,28.811419999733346],[-170.57953000010934,28.844629999674908],[-170.57953000010934,28.877839999616413],[-170.57953000010934,28.911049999557974],[-170.57967999983205,28.944120000237945],[-170.5802000004296,28.976800000020148],[-170.5813900004481,29.008810000381345],[-170.58349999972512,29.039890000123535],[-170.58681999994297,29.069779999847242],[-170.5913399997411,29.09846999999064],[-170.5967700001353,29.126230000414353],[-170.60286999995046,29.153330000079563],[-170.60937999978708,29.1800300001845],[-170.61600000019976,29.20659000012853],[-170.6226300001743,29.233159999634438],[-170.6292600001488,29.25973000003961],[-170.63589000012334,29.286289999983637],[-170.64252000009785,29.312860000388866],[-170.64925999974912,29.339289999733865],[-170.6562999997451,29.365459999679388],[-170.66358999957873,29.391370000225493],[-170.67113999971113,29.417000000449832],[-170.67911000032618,29.44223999977629],[-170.68732999987952,29.467210000141563],[-170.69553999987102,29.49217999960746],[-170.70391999960822,29.517020000272964],[-170.71265000019727,29.541459999579445],[-170.72168000023174,29.565640000385827],[-170.73547000034017,29.601629999924683],[-170.74038999969866,29.613320000317913],[-170.7501999997301,29.636700000204996],[-170.75485000012733,29.64865999955947],[-170.76903000023424,29.684250000437316],[-170.77845999982904,29.70802999988473],[-170.78785999983904,29.731810000231462],[-170.7972700003102,29.75558000011705],[-170.80721999960323,29.778830000304424],[-170.81784000011584,29.80141000017153],[-170.82882999970465,29.82360000004013],[-170.840359999914,29.84525000018749],[-170.85257000000541,29.86623000001464],[-170.86517000009536,29.886819999843283],[-170.87789999988502,29.90727999997216],[-170.89062000011285,29.92774000010104],[-170.9032299997646,29.948329999929683],[-170.91553999997095,29.969180000057122],[-170.9276099999015,29.990300000045124],[-170.93969999985504,30.011420000033127],[-170.95203000008436,30.03227000016051],[-170.96463000017428,30.052859999989153],[-170.97748000010185,30.073179999957176],[-170.99061999991298,30.093239999626405],[-171.00387999986202,30.113169999595925],[-171.0171199997881,30.13309000000362],[-171.0303999997601,30.15301999997314],[-171.05028999968366,30.18290000013502],[-171.0569199996582,30.192859999889208],[-171.07019000006838,30.212789999858728],[-171.08343999955625,30.232719999828248],[-171.09668999994346,30.252640000235942],[-171.1099499998925,30.272570000205462],[-171.12320000027972,30.292489999713837],[-171.13660000038962,30.312280000421822],[-171.15027000036017,30.331809999931693],[-171.16417999970713,30.351069999580943],[-171.17837999983703,30.37006000026895],[-171.19282999980456,30.388789999758842],[-171.20727999977208,30.407520000148054],[-171.221479999902,30.42652000039783],[-171.24231000000643,30.455469999940703],[-171.24904999965767,30.465299999995125],[-171.2624499997676,30.48508999980379],[-171.2757299997396,30.50501999977331],[-171.29561000010133,30.53489999993519],[-171.3023699997756,30.54472999998967],[-171.31603999974612,30.56426000039886],[-171.3369800004266,30.593089999803794],[-171.3512999997951,30.611949999892715],[-171.35858000006687,30.62124999978778],[-171.3730500000574,30.639969999715845],[-171.38723999972612,30.658969999965677],[-171.40802000022276,30.68792999996964],[-171.41479000035815,30.697760000024118],[-171.42818999956876,30.717549999832784],[-171.4414700004401,30.737470000240478],[-171.46136000036364,30.767359999964185],[-171.46799000033818,30.777319999718372],[-171.48123000026422,30.797249999687892],[-171.49451000023623,30.817170000095587],[-171.5077799997471,30.837100000065107],[-171.52103000013432,30.85701999957348],[-171.5344199997831,30.87681000028141],[-171.54810000021476,30.89633999979128],[-171.56200999956175,30.915600000339907],[-171.57620000012983,30.934599999690363],[-171.5906399996362,30.95331999961843],[-171.60510000006488,30.97205000000764],[-171.61928999973364,30.991050000257474],[-171.63332999967966,31.010180000207015],[-171.64740000010985,31.029299999695354],[-171.6614499996177,31.048429999644895],[-171.67562999972463,31.067429999894728],[-171.6900900001533,31.086149999822794],[-171.71172000027772,31.114320000267924],[-171.71874999981256,31.12387999956246],[-171.7327899997586,31.143010000411323],[-171.74686000018878,31.16212999989972],[-171.76794000013084,31.190820000043118],[-171.77508999980358,31.20024999963789],[-171.78955000023225,31.218989999588928],[-171.81116000033367,31.247140000011143],[-171.81818999986854,31.256709999766827],[-171.8322400002757,31.275839999716368],[-171.84630000024475,31.294960000104084],[-171.86048999991348,31.31396000035386],[-171.87506000001892,31.332560000144042],[-171.89020000032968,31.350620000212984],[-171.9055800000169,31.368419999983132],[-171.92095999970414,31.386219999753337],[-171.9360700004301,31.404290000283424],[-171.95065000009734,31.422879999612462],[-171.9648399997661,31.441879999862238],[-171.97891000019627,31.461000000249953],[-171.99309999986502,31.479999999600466],[-172.00768999999343,31.498589999828766],[-172.0229300004191,31.516529999759825],[-172.04666000025873,31.542560000443814],[-172.05475000011234,31.551069999880724],[-172.07080000011985,31.56820000022998],[-172.08658000026674,31.585600000439797],[-172.10183999981606,31.60352999990971],[-172.11642000038265,31.622129999699894],[-172.1306199996132,31.641120000387843],[-172.1446700000204,31.660250000337385],[-172.15883999966618,31.679249999687897],[-172.17344999981756,31.697839999916198],[-172.19649999977509,31.724540000021136],[-172.20447000039013,31.733180000057075],[-172.2205200003976,31.75031000040633],[-172.23655999994398,31.76745000031741],[-172.2523299996297,31.78484999962791],[-172.27502000007286,31.81193999973135],[-172.2821699997456,31.8213700002255],[-172.29636000031368,31.840369999575955],[-172.3104200002827,31.859500000424816],[-172.32446000022875,31.878630000374358],[-172.34583000005438,31.907049999757817],[-172.353119999888,31.91634999965288],[-172.36758000031668,31.935080000042092],[-172.3817600004236,31.95406999983078],[-172.39568999979357,31.97333000037935],[-172.4093300001793,31.99285999988922],[-172.4227300002892,32.012649999697885],[-172.4359999998001,32.032579999667405],[-172.44925000018728,32.0525000000751],[-172.46251999969815,32.07243000004462],[-172.48238999959872,32.102319999768326],[-172.4890300000344,32.11226999996069],[-172.50216999984553,32.13232999962992],[-172.51505000025722,32.152660000059086],[-172.52763000032417,32.173240000325904],[-172.53982999995446,32.19422999971488],[-172.55719000011834,32.22665000009755],[-172.56289999993498,32.237530000009656],[-172.58001999982307,32.2702099997918],[-172.58572000007786,32.28110999972682],[-172.59737999998694,32.302619999713386],[-172.60959000007836,32.32361000000162],[-172.62215999968416,32.344199999830266],[-172.63491999995796,32.36465000039732],[-172.64762999972464,32.385109999626934],[-172.66022000025274,32.40568999989375],[-172.6725600000439,32.426560000044105],[-172.68462999997445,32.44766999957096],[-172.69669000034315,32.46880000002011],[-172.70901000011133,32.48965000014755],[-172.7216199997631,32.510239999976136],[-172.7409800004266,32.54065999985926],[-172.74761999996295,32.550619999613446],[-172.760879999912,32.57054000002114],[-172.77413999986103,32.59046999999066],[-172.79404000024573,32.62035000015254],[-172.8073099997566,32.64028000012206],[-172.8139300001693,32.65023999987625],[-172.8273300002792,32.67004000014606],[-172.84786999960073,32.69926000044882],[-172.8549000000349,32.708819999743355],[-172.86908000014182,32.727810000431305],[-172.88353999967117,32.7465399999212],[-172.9051499997726,32.77469999990524],[-172.9121899997686,32.78426999966092],[-172.9262400001758,32.80339000004858],[-172.94730999965668,32.832089999753805],[-172.95446999979058,32.841520000247954],[-172.96905999991898,32.86010999957699],[-172.9843099999065,32.87805000040731],[-173.00009000005338,32.89544999971787],[-173.0162699997606,32.91245000036736],[-173.0327099997666,32.92918999981879],[-173.05737000022526,32.95428999988371],[-173.06533999994096,32.96292000035788],[-173.08112999964968,32.98033000012953],[-173.09637000007535,32.99825999959944],[-173.11096000020376,33.0168499998278],[-173.12514999987252,33.03585000007757],[-173.14624000027572,33.06454000022097],[-173.15338000038662,33.0739699998158],[-173.16800000009985,33.09256999960593],[-173.18323000006438,33.11049999997516],[-173.19901000021127,33.12790000018498],[-173.22339999991,33.15327000011058],[-173.23162999992448,33.161640000285956],[-173.25656000024375,33.186480000052086],[-173.26477000023525,33.19485000022746],[-173.28133999994097,33.21145000041736],[-173.30615000012233,33.23641999988325],[-173.31450999983656,33.24466000035886],[-173.33109000000343,33.26125999964938],[-173.34765999970915,33.277870000300425],[-173.3642300003142,33.294469999590945],[-173.38080000001992,33.31108000024199],[-173.40559000017828,33.33604999970788],[-173.41394000033068,33.344279999722346],[-173.43053000005938,33.36089000037339],[-173.44711000022625,33.37748999966391],[-173.46367999993197,33.39410000031489],[-173.48026000009884,33.41069999960547],[-173.50507000028023,33.435669999970685],[-173.5134000004096,33.443910000446294],[-173.52997999967718,33.46050999973687],[-173.5465700003052,33.47710999992671],[-173.56314000001092,33.493719999678376],[-173.57970999971664,33.510319999868216],[-173.59628000032168,33.52692000005811],[-173.62122000020278,33.551770000285444],[-173.6294399997561,33.56012999999962],[-173.6459999999,33.57673999975134],[-173.66258000006687,33.59333999994118],[-173.68751999994797,33.618179999707365],[-173.69574000040063,33.62654999988274],[-173.71231000010636,33.64315000007258],[-173.72887999981208,33.6597599998243],[-173.74545000041712,33.67636000001414],[-173.77025999969916,33.70133000037936],[-173.7786299998745,33.709569999955704],[-173.79531999971815,33.726040000445835],[-173.81230000034466,33.742240000176025],[-173.82967000007037,33.75804999990771],[-173.85670000010484,33.78076999993567],[-173.87552999970964,33.79511000022649],[-173.8946399996362,33.80919000021851],[-173.90421000029122,33.81623000021449],[-173.9231600000339,33.83043999990622],[-173.95086999995047,33.85250000007511],[-173.96837999983705,33.868169999645886],[-173.9769900002882,33.87614000026093],[-173.99395999955425,33.892349999553005],[-174.010679999882,33.90880999958193],[-174.02736999972564,33.92528999963395],[-174.04435999991398,33.94149000026346],[-174.06174000010085,33.95729999999514],[-174.08877999969715,33.98000999956196],[-174.09817999970716,33.987180000157025],[-174.1266899996437,34.00844000030594],[-174.1458100000314,34.0225200002979],[-174.16463000007437,34.03687000015054],[-174.18291999995796,34.0517399997014],[-174.2004400003057,34.06741999973332],[-174.20904999985754,34.075390000348364],[-174.23437999973711,34.0998299996549],[-174.24274000035066,34.10805999966942],[-174.25943000019427,34.12453000015955],[-174.2764099999215,34.14074000035089],[-174.30255000028222,34.16437999963739],[-174.32082999970464,34.17925999964939],[-174.33024999973762,34.18643000024446],[-174.35875999967416,34.20769000039337],[-174.37786999960073,34.22175999992419],[-174.39668000008186,34.23610999977683],[-174.4149800004266,34.25098999978883],[-174.42373999970116,34.25882999980479],[-174.441119999888,34.274640000435795],[-174.45807999959223,34.29084000016604],[-174.47479000035815,34.30730999975685],[-174.49957000005537,34.33228000012207],[-174.5079299997696,34.34051999969836],[-174.53273000038914,34.36549000006357],[-174.5410799996422,34.373720000078094],[-174.55765999980906,34.39032999982976],[-174.5825799996672,34.415169999595946],[-174.5909400002807,34.42339999961041],[-174.61654999958273,34.44758000041685],[-174.6340499999075,34.46324999998768],[-174.6431899996187,34.47069000044331],[-174.6617700002852,34.48531000015652],[-174.69028000022175,34.50655000028246],[-174.70937000012532,34.52063999983625],[-174.72817999970715,34.534980000127064],[-174.74648999961371,34.54986000013906],[-174.76398999993847,34.56552999970984],[-174.78098000012682,34.581730000339405],[-174.78904999995746,34.590239999776315],[-174.80495999980408,34.607510000286425],[-174.82022000025273,34.62543999975634],[-174.84198000007686,34.65347000004061],[-174.8490000000499,34.66303000023447],[-174.87008999955376,34.69172000037787],[-174.87726000014882,34.70114999997264],[-174.89183000025423,34.719749999762826],[-174.9069499996427,34.73782000029291],[-174.92233000022927,34.75562000006312],[-174.93770999991648,34.77341000027144],[-174.95999000033817,34.80091000039636],[-174.96687000015032,34.81060999985175],[-174.98027000026022,34.830399999660415],[-174.99285999988902,34.85099000038838],[-175.0046700004201,34.872380000236944],[-175.01607999959222,34.89416000008407],[-175.02735999996395,34.91608000009205],[-175.0383600000139,34.93826000039883],[-175.04394999969264,34.94927999957247],[-175.0605200002977,34.98249000041335],[-175.0715299999095,35.00468000028195],[-175.08252000039764,35.02685999968941],[-175.09365999970913,35.04889999983527],[-175.1046799997821,35.07108999970387],[-175.11567999983205,35.09327000001065],[-175.1268000000199,35.11531999971834],[-175.13767999993198,35.13762999972488],[-175.1482800004216,35.16022000005313],[-175.15877000033518,35.182929999619944],[-175.16869999960522,35.20617999980732],[-175.17813000009934,35.22994999969285],[-175.18753000010935,35.25373000003964],[-175.19695999970415,35.27751000038637],[-175.20623999957624,35.30142000043281],[-175.21577000018527,35.32505999971937],[-175.2255899997786,35.348439999606455],[-175.2351400004106,35.37209000025348],[-175.24428999968367,35.39612999999963],[-175.25331000015632,35.42030000034487],[-175.26207000033017,35.444739999651404],[-175.27041999958323,35.46958000031691],[-175.27878000019678,35.494420000083096],[-175.28754000037065,35.51886000028895],[-175.29653999992098,35.543040000196015],[-175.30569000009336,35.567079999942166],[-175.31523000026422,35.590720000128044],[-175.32506000031867,35.61410000001513],[-175.3345900000284,35.63774999976283],[-175.3437499997626,35.66179000040836],[-175.35275000021227,35.68597000031542],[-175.36151000038615,35.710400000060076],[-175.3698599996392,35.73523999982626],[-175.37808000009184,35.7602199997533],[-175.38643999980607,35.78506000041881],[-175.39478999995845,35.809900000184996],[-175.40301999997294,35.83486999965089],[-175.4112200004026,35.859840000016106],[-175.41958999967866,35.88467000022047],[-175.4279500002922,35.9095200004478],[-175.4361600002837,35.934489999913694],[-175.44451999999794,35.95932999967988],[-175.4532800001718,35.98376999988574],[-175.46227999972214,36.0079499997928],[-175.47144000035567,36.03199000043833],[-175.48099000008835,36.05562999972483],[-175.49080000011983,36.07900999961191],[-175.50034999985255,36.10264999979779],[-175.5095200000479,36.126700000005144],[-175.51851999959823,36.15087000035038],[-175.52725000018728,36.17530999965692],[-175.5356099999015,36.200150000322424],[-175.54398000007686,36.22499000008855],[-175.5527299997896,36.24943000029441],[-175.5617700002852,36.27361000020147],[-175.57088999997345,36.29764999994768],[-175.58043999970616,36.321299999695384],[-175.5902699997606,36.34467000002064],[-175.5997899999085,36.368319999768346],[-175.6089499996427,36.39236000041382],[-175.61795000009235,36.41652999985973],[-175.62671000026623,36.440979999627416],[-175.63506999998043,36.46580999983178],[-175.64342000013283,36.49064999959796],[-175.65216000028371,36.515100000264965],[-175.6611900003182,36.53926999971088],[-175.67047000019028,36.563179999757324],[-175.68042000038264,36.5864299999447],[-175.69091999985804,36.60914000041083],[-175.7015099998865,36.63172000027794],[-175.71238999979857,36.65403999984625],[-175.72353999957124,36.676089999553994],[-175.73453000005938,36.69826999986077],[-175.74553999967117,36.720450000167546],[-175.756679999882,36.742499999875236],[-175.76769999995497,36.76468999974384],[-175.77869000044308,36.78687000005061],[-175.7898299997546,36.80891000019648],[-175.80084000026574,36.83110000006508],[-175.8118400003157,36.85328999993368],[-175.81753999967117,36.864169999845785],[-175.83450000027472,36.89698999978879],[-175.8461899997686,36.91849999977529],[-175.85837999983704,36.939490000063586],[-175.87097000036516,36.96007999989223],[-175.88384999987753,36.98039999986025],[-175.89696999966569,37.0004600004288],[-175.91034000019079,37.02025000023747],[-175.9240100001613,37.03977999974734],[-175.9449800004266,37.06859999959045],[-175.9521199996382,37.078030000084595],[-175.96658000006687,37.09675999957449],[-175.9810500000574,37.1154899999637],[-175.99523999972612,37.134490000213475],[-176.00927999967217,37.15360999970187],[-176.02335000010234,37.17273999965141],[-176.0375399997711,37.191739999901245],[-176.05212000033768,37.210330000129545],[-176.06737000032518,37.228270000060604],[-176.08313000044907,37.24567000027042],[-176.09929999969515,37.26267000002065],[-176.11577000018528,37.27941000037134],[-176.13231999986803,37.29600999966192],[-176.14892999961972,37.31260999985176],[-176.173839999916,37.337449999617945],[-176.1820699999305,37.34581999979332],[-176.19863999963619,37.362430000444306],[-176.21521000024126,37.379029999734826],[-176.23177999994695,37.39562999992472],[-176.24836999967567,37.41223999967639],[-176.26494999984254,37.42883999986623],[-176.28165000014732,37.44531000035636],[-176.29862999987452,37.46151999964843],[-176.31601000006137,37.47733000027944],[-176.33392000040763,37.49260000028994],[-176.3618800001618,37.514380000137066],[-176.38097999962721,37.528469999690856],[-176.39053000025922,37.53550000012507],[-176.4096400001858,37.54958000011703],[-176.43798999993848,37.570969999965655],[-176.44728000027172,37.57827999982226],[-176.46596999971564,37.59274999981278],[-176.49449000011333,37.614009999961695],[-176.51384999987752,37.627820000093095],[-176.53348000040162,37.6413699999257],[-176.54342999969467,37.64801000036135],[-176.5633100000564,37.661290000333395],[-176.58321000044108,37.67457999986726],[-176.61304000009585,37.69450000027496],[-176.6329300000194,37.70778999980877],[-176.65283000040412,37.72106999978081],[-176.66289999983505,37.72757999961743],[-176.6831799997571,37.740460000029145],[-176.72469000024324,37.765299999795275],[-176.73528999983355,37.77128000037186],[-176.75704999965768,37.78270000000515],[-176.778779999897,37.79411999963844],[-176.80080999958173,37.805279999872255],[-176.82306999998045,37.81617000024545],[-176.84509000010334,37.827329999579945],[-176.8782500004371,37.84394000023099],[-176.88936999972563,37.84938000018701],[-176.91138999984855,37.860540000420826],[-176.9223899998985,37.86611999963844],[-176.95569000039313,37.88259000012857],[-176.97768999959374,37.89375000036239],[-176.99968999969366,37.90490999969688],[-177.02225000043708,37.915530000209515],[-177.04479999982007,37.926160000283915],[-177.06763000042412,37.93651999959843],[-177.09122000010285,37.946090000253434],[-177.11533999994097,37.955120000287934],[-177.13947999980206,37.96415000032238],[-177.17662000021278,37.976770000435295],[-177.20154000007088,37.98501000001164],[-177.22633000022924,37.99336999972587],[-177.25112999994946,38.00173999990125],[-177.27606000026873,38.00996999991571],[-177.30098000012683,38.01821000039138],[-177.31344999961772,38.022329999729834],[-177.3505900000284,38.03494999984275],[-177.37550000032468,38.04319000031842],[-177.4004499997676,38.05142000033288],[-177.42534999960273,38.0596500003474],[-177.4378400000159,38.06376999968586],[-177.47617000044508,38.075199999780295],[-177.50200999956175,38.08250000007507],[-177.52814000036065,38.089549999632936],[-177.55450000007488,38.0963199997683],[-177.58118000015682,38.10282999960492],[-177.59456999980557,38.10600999966192],[-177.63528000027173,38.11505000015751],[-177.64893999978108,38.117969999915715],[-177.69043000024425,38.126210000391325],[-177.71814999972264,38.131650000347406],[-177.73193000026922,38.134440000405846],[-177.77343999985604,38.142679999982136],[-177.80155999979408,38.14772000037789],[-177.8303500000524,38.15210000001514],[-177.86005000000742,38.15556000039385],[-177.89052999995945,38.15821999985326],[-177.9059099996467,38.15940999987174],[-177.9517999997701,38.163260000248954],[-177.96692000005788,38.16472999968988],[-178.0102800004216,38.17110000026497],[-178.0244799996522,38.17348999986376],[-178.06677000013534,38.18093000031939],[-178.08095999980407,38.18331999991818],[-178.12537999958724,38.1886300001745],[-178.14062000001292,38.18996000035389],[-178.18834999955277,38.19195999995418],[-178.2209900001883,38.19247999965239],[-178.25401000036115,38.1926199998133],[-178.28716000023374,38.1926199998133],[-178.32031000010633,38.1926199998133],[-178.3534700004401,38.1926199998133],[-178.38662999987451,38.1926199998133],[-178.4197799997471,38.1926199998133],[-178.45292999961973,38.1926199998133],[-178.48606999993046,38.1926199998133],[-178.51923000026423,38.1926199998133],[-178.55236999967568,38.1926199998133],[-178.58538999984853,38.19249000011354],[-178.61802999958473,38.19195999995418],[-178.64999000033816,38.19076000037387],[-178.6810000004496,38.188639999736324],[-178.69558999967867,38.18664000013604],[-178.7396099999015,38.18093000031939],[-178.76784999997744,38.17601000006158],[-178.79609999961522,38.17110000026497],[-178.82474999971265,38.16657999956749],[-178.85405000010735,38.162730000089596],[-178.88387999976212,38.15940999987174],[-178.91373000033917,38.15608999965389],[-178.94302000027272,38.15224000017599],[-178.971659999909,38.14772000037789],[-178.99975999982405,38.142679999982136],[-179.02748000020176,38.137229999564966],[-179.0550800004416,38.131650000347406],[-179.082779999897,38.126210000391325],[-179.11050000027473,38.120759999974155],[-179.13807999959224,38.115179999857276],[-179.16565000024724,38.10959999974034],[-179.19324999958775,38.104019999623404],[-179.22084000026572,38.098440000405844],[-179.24853999972115,38.0929999995505],[-179.27611999993798,38.087420000332884],[-179.30319000001842,38.08131000005659],[-179.3297099999165,38.07466000005911],[-179.3556799996322,38.067490000363364],[-179.3810300004341,38.0596500003474],[-179.40593999983105,38.05142000033288],[-179.4308900001733,38.04319000031842],[-179.4558100000314,38.03494999984275],[-179.4806099997516,38.026579999667376],[-179.50539999991,38.01821000039138],[-179.53033000022924,38.009980000376856],[-179.5551099999265,38.00161000020148],[-179.57953000010934,37.992839999566456],[-179.61571999987802,37.97928999973385],[-179.62766000010885,37.974649999797805],[-179.66292999971964,37.960170000245455],[-179.67462000011284,37.95524999998764],[-179.69820999979157,37.945689999793785],[-179.72207999979207,37.93638999989872],[-179.74582000009286,37.92696000030389],[-179.76956000039362,37.917520000247976],[-179.79329000023324,37.90810000021497],[-179.81650000037465,37.89812999999964],[-179.83916999989552,37.887640000086094],[-179.86170999971665,37.87701000001164],[-179.89499000018827,37.860540000420826],[-179.90599000023823,37.85496999986577],[-179.92812999959972,37.84394000023099],[-179.95028999988352,37.83290999969688],[-179.98302999973464,37.81590999994671],[-179.99390000008486,37.81020000013007],[-179.9999999999,37.80688613958381],[-179.9999999999,33.96377604053197],[-179.98595999995396,33.9505200002979],[-179.97733999994097,33.94254999968291],[-179.95123000006438,33.91891000039635],[-179.93292000015782,33.90403000038435],[-179.92348999966367,33.896859999789285],[-179.89499000018827,33.875610000101574],[-179.8759000002847,33.86153000010955],[-179.85708999980358,33.84718000025697],[-179.838779999897,33.832309999806796],[-179.82127000001043,33.816640000235964],[-179.81264999999743,33.80866000005909],[-179.79567000027023,33.7924600003289],[-179.77896000040363,33.77598999983877],[-179.76226999966067,33.759509999786815],[-179.74528999993348,33.743310000056624],[-179.7191800000569,33.719669999870746],[-179.7008700001503,33.70478999985875],[-179.69143999965618,33.697609999701854],[-179.66292999971964,33.67636000001414],[-179.64383999981607,33.66228000002212],[-179.63443000024424,33.655110000326374],[-179.61588000006188,33.640500000174995],[-179.59796000015382,33.62521999970335],[-179.57195999995398,33.60144999981776],[-179.55527000011034,33.58498000022695],[-179.54691000039614,33.57673999975134],[-179.52185000037713,33.55202999968486],[-179.51323000036416,33.54405999996919],[-179.48711999958823,33.520419999783314],[-179.46880999968167,33.505539999771315],[-179.44998000007686,33.49120000037988],[-179.44043000034418,33.48414999992269],[-179.42132999997943,33.47006999993067],[-179.39296000020377,33.44868999964393],[-179.37465999985903,33.43382000009308],[-179.35714999997245,33.4181400000611],[-179.34852999995945,33.410170000345374],[-179.3314199996332,33.39410000031489],[-179.3056900001933,33.37005999966942],[-179.2882099998915,33.354379999637445],[-179.26989999998494,33.339499999625446],[-179.25107000038014,33.32516000023395],[-179.23195999955425,33.311069999780784],[-179.21288000011185,33.297000000249966],[-179.20346000007888,33.2898299996549],[-179.17577000018528,33.267770000385326],[-179.1579900004381,33.252369999775794],[-179.14020000022975,33.23695999960444],[-179.131319999918,33.22925999974933],[-179.10412999969967,33.2066700003204],[-179.08530000009486,33.1923199995685],[-179.06621999975312,33.17825000003762],[-179.04712000028772,33.164159999584456],[-179.02801999992298,33.150079999592435],[-179.009219999903,33.135740000201],[-178.99064999969767,33.12113000004962],[-178.97180000006986,33.10678000019698],[-178.96225000033718,33.099740000200995],[-178.93362000026272,33.07862000021299],[-178.914519999898,33.06454000022097],[-178.9049700001653,33.05750000022499],[-178.87658999992848,33.036119999938194],[-178.8580300001843,33.021509999786815],[-178.83919000011835,33.007159999934174],[-178.82010000021475,32.99307999994221],[-178.80101000031118,32.97899999995019],[-178.7819200004076,32.96491999995817],[-178.7628200000429,32.95083999996615],[-178.75340000000992,32.94365999980931],[-178.73470999966668,32.92918999981879],[-178.70660000018978,32.90753999967137],[-178.68749999982506,32.89345999967941],[-178.67782999995447,32.88653999982125],[-178.64849999997494,32.86609000015352],[-178.62859999959022,32.852810000181535],[-178.60872000012782,32.83951999974835],[-178.5888399997661,32.826239999776305],[-178.5692100001413,32.8126899999437],[-178.55954000027072,32.80579000010857],[-178.53075999957426,32.78479999982028],[-178.51192999996945,32.770449999967695],[-178.4933799997871,32.75583999981626],[-178.47428999988352,32.741759999824296],[-178.45464999979757,32.728209999991634],[-178.43447999955225,32.71519000031839],[-178.41380000006987,32.70271000036638],[-178.38211000007638,32.68465000029744],[-178.37164000018578,32.678540000021144],[-178.35095000024225,32.666049999607935],[-178.33053999972114,32.65329999979531],[-178.310359999914,32.64028000012206],[-178.29046999999042,32.62700000015002],[-178.27056999960573,32.613720000178034],[-178.26064000033568,32.6070700001805],[-178.23080000021977,32.587149999772805],[-178.21062999997446,32.57413000009956],[-178.20044000040562,32.567760000423846],[-178.15905999961922,32.542790000058574],[-178.1486099997516,32.536670000220454],[-178.12738000008687,32.524720000427806],[-178.10642999984455,32.51249000031339],[-178.0755300003092,32.49363000022447],[-178.06533999984106,32.48725999964938],[-178.04491000019627,32.474509999836755],[-178.0244799996522,32.46174999956298],[-178.0037800001468,32.449260000049094],[-177.98256999960572,32.437310000256446],[-177.9499499998925,32.42017999990719],[-177.93909000000343,32.4144700000906],[-177.91733000017928,32.40303999999617],[-177.89557000035515,32.39162000036288],[-177.87435999981406,32.379660000109084],[-177.85370000035465,32.36718000015702],[-177.8434800003017,32.360800000020106],[-177.80264000013582,32.33530000039485],[-177.79242000008287,32.32892999981976],[-177.7717300001393,32.31644000030593],[-177.75051999959823,32.30448000005208],[-177.7287599997741,32.29306000041885],[-177.7070300004341,32.28163999988624],[-177.68499999985005,32.27047999965242],[-177.6627299998895,32.25959000017849],[-177.62970999971665,32.2428499998278],[-177.61870999966666,32.23726999971086],[-177.59643999970615,32.226380000236986],[-177.5744300000444,32.215220000003114],[-177.55242999994448,32.2040599997693],[-177.51913000034915,32.18759000017849],[-177.50811999983804,32.18201000006161],[-177.47496000040363,32.16540999987171],[-177.46384000021575,32.15996999991569],[-177.4418299996547,32.14880000012005],[-177.4085399996212,32.13232999962992],[-177.3972800001718,32.12702000027292],[-177.37468999984355,32.11639000019852],[-177.3519000001848,32.10602999998463],[-177.32830999960672,32.09646999979083],[-177.30443999960622,32.08716999989571],[-177.26888999967366,32.07296000020398],[-177.24515999983404,32.06352000014806],[-177.22194999969267,32.05356000039387],[-177.2105599996442,32.048379999837266],[-177.18801999982307,32.037760000223955],[-177.16547000044008,32.027130000149555],[-177.143459999879,32.015980000376885],[-177.11016999984554,31.999500000324872],[-177.08761999956326,31.988879999812298],[-177.07634999965268,31.983559999994156],[-177.05355999999392,31.97319999978032],[-177.02993999983104,31.963639999586462],[-176.99426000019878,31.94955999959444],[-176.98246999969066,31.944769999935716],[-176.94681000008137,31.93070000040484],[-176.93499999955026,31.925909999846738],[-176.91218999986853,31.9155499996329],[-176.8896500000474,31.904930000019647],[-176.86684999992747,31.89456999980581],[-176.8442999996452,31.883939999731354],[-176.8215000004246,31.873580000416837],[-176.78594999959273,31.859369999825788],[-176.7622100001913,31.849929999769813],[-176.75041000012132,31.845149999672913],[-176.72654999968267,31.835849999777793],[-176.70267999968218,31.826560000343875],[-176.667659999909,31.81181000003164],[-176.65600999956175,31.806900000234975],[-176.63213999956125,31.797600000339912],[-176.60828000002192,31.788300000444792],[-176.57271999962822,31.774089999853743],[-176.56078999985854,31.76944000035587],[-176.5369300003192,31.76013999956149],[-176.5135800000169,31.75031000040633],[-176.49022999971464,31.74048000035185],[-176.4663700001753,31.73117999955747],[-176.4422300003142,31.722150000422346],[-176.41808999955376,31.713120000387846],[-176.38097999962721,31.70050000027493],[-176.36849999967518,31.696380000037095],[-176.33179000020826,31.683360000363848],[-176.30765000034717,31.674330000329405],[-176.29558999997843,31.66982000009307],[-176.2717100004161,31.660520000198005],[-176.24838000013682,31.650690000143527],[-176.2250400002957,31.64086000008905],[-176.2011700002952,31.631560000193986],[-176.16495999960424,31.61801000036138],[-176.15288999967368,31.613500000125043],[-176.11577000018528,31.600880000012125],[-176.10329999979507,31.596759999774292],[-176.06655999984403,31.583740000101045],[-176.04244999956776,31.574710000066602],[-176.0303799996372,31.57019000026844],[-176.00650000007488,31.560890000373377],[-175.98318000025674,31.5510600003189],[-175.94790999974663,31.53657999986723],[-175.92389000002342,31.52742000013302],[-175.91182999965469,31.522900000334914],[-175.88770000025474,31.513870000300415],[-175.8630399997961,31.50537000042533],[-175.82576000012384,31.49288000001212],[-175.8134299998945,31.48863000007458],[-175.7893100000564,31.479600000040136],[-175.75322999996445,31.465919999608445],[-175.7296400002857,31.456360000313907],[-175.71796000035366,31.451440000056095],[-175.68268000028172,31.436959999604426],[-175.67074999961272,31.432310000106554],[-175.63455000028222,31.418769999835774],[-175.62248000035166,31.41425000003761],[-175.58533999994097,31.401629999924694],[-175.57288999957373,31.39750999968686],[-175.54821999955325,31.389009999811776],[-175.5240900001533,31.379979999777333],[-175.49993999983104,31.370940000181008],[-175.47608999985354,31.36164999984777],[-175.44107000008037,31.3469000004348],[-175.4174800004016,31.337340000240943],[-175.4055499997326,31.33268999984375],[-175.36987000010035,31.31860999985173],[-175.35805999956926,31.31382999975483],[-175.32293999968115,31.29921999960345],[-175.31139000034815,31.29416999964593],[-175.2893799997871,31.283010000311435],[-175.26817000014532,31.27105999961941],[-175.24748000020176,31.25857000010558],[-175.22730999995645,31.24555000043233],[-175.20742999959472,31.23226999956097],[-175.1974800003017,31.225630000024637],[-175.16764999974762,31.205700000055117],[-175.14777000028522,31.192420000083075],[-175.13782000009286,31.185779999647423],[-175.10797000041512,31.16586000013905],[-175.0786400004356,31.145400000010113],[-175.06896999966568,31.13848999971384],[-175.0498799997621,31.124409999721877],[-175.03107000018028,31.11007000033038],[-175.0217900003082,31.10275999957446],[-174.99367000037014,31.08111000032642],[-174.9745600004436,31.067019999873253],[-174.95546999964068,31.052950000342378],[-174.9363900001983,31.038859999889212],[-174.9268500000274,31.031830000354375],[-174.8984699997906,31.010439999606433],[-174.87991000004638,30.995830000354374],[-174.86106999998043,30.98147999960247],[-174.84198000007686,30.96739999961045],[-174.82287999971214,30.95331999961843],[-174.80376999978557,30.93923999962641],[-174.7849400001808,30.92490000023497],[-174.76665999985903,30.91002000022297],[-174.74886999965068,30.894610000051614],[-174.73110999992647,30.879199999880257],[-174.71335000020227,30.863800000169988],[-174.69504999985753,30.848920000158046],[-174.67622000025273,30.834570000305405],[-174.65713999991098,30.820490000313384],[-174.63802999998444,30.80641000032142],[-174.6286200004126,30.799239999726353],[-174.60088999957375,30.777190000018606],[-174.58312999984955,30.76177999984725],[-174.56537000012534,30.746369999675892],[-174.547579999917,30.730960000403854],[-174.52929999959522,30.71608999995368],[-174.51044999996745,30.70174000010104],[-174.49136000006388,30.687660000109076],[-174.47225999969916,30.673580000117056],[-174.45318999981856,30.659500000125036],[-174.44376000022376,30.652330000429345],[-174.41579000000843,30.6305499996829],[-174.39696000040362,30.616199999830258],[-174.37786999960073,30.602119999838294],[-174.35875000011234,30.588039999846274],[-174.34920999994148,30.580999999850235],[-174.32082999970464,30.55961000000167],[-174.30255000028222,30.544739999551496],[-174.2936600004086,30.537030000134564],[-174.26700000034967,30.513920000108044],[-174.2581200000379,30.506209999791793],[-174.24007999999193,30.491070000380375],[-174.2121099997766,30.46928999963393],[-174.19301000031118,30.45520999964191],[-174.1738899999235,30.44112999964989],[-174.1548200000429,30.427049999657925],[-174.14540000000991,30.41987000040035],[-174.11742000023276,30.398089999653905],[-174.09858999972863,30.383750000262467],[-174.07949999982506,30.3696599998093],[-174.0601200000379,30.3558499996779],[-174.04052999955977,30.34229999984524],[-174.02063000007436,30.329019999873253],[-174.00072999968967,30.315730000339386],[-173.98083000020426,30.302450000367344],[-173.9612100001413,30.28889999963542],[-173.94183000035414,30.27509000040334],[-173.92275999957425,30.261010000411318],[-173.91335000000242,30.253839999816307],[-173.8853599997641,30.232050000407355],[-173.8759500001923,30.224879999812288],[-173.84744000025574,30.203619999663374],[-173.828339999891,30.189550000132556],[-173.80924999998743,30.17545999967939],[-173.79970999981657,30.168430000144554],[-173.77132999957973,30.14704000029593],[-173.76204999970764,30.13973000043933],[-173.73394999979257,30.11808000029191],[-173.71483999986603,30.10400000029989],[-173.69574000040063,30.089920000307927],[-173.6766400000359,30.075840000315907],[-173.6578100004311,30.06150000002515],[-173.63953000010935,30.04662000001315],[-173.62175000036214,30.031209999841735],[-173.6128500000274,30.02350999998663],[-173.58620999999144,30.00039000039834],[-173.57705999981906,29.99294999994271],[-173.54908999960372,29.971170000095583],[-173.52997999967718,29.957090000103562],[-173.51088999977358,29.943010000111542],[-173.49206999973063,29.928669999820784],[-173.4737500002622,29.913789999808785],[-173.4559899996387,29.898379999637427],[-173.43822999991448,29.88297000036539],[-173.42047000019028,29.867560000193976],[-173.40216000028371,29.852680000182033],[-173.3833299997796,29.838339999891218],[-173.3642300003142,29.824259999899198],[-173.34514000041062,29.810179999907234],[-173.3263099999065,29.795830000054593],[-173.30800999956176,29.78095999960442],[-173.29049999967518,29.765279999572442],[-173.27325000008736,29.749340000141046],[-173.25656000024375,29.732869999650916],[-173.2481999996302,29.724639999636395],[-173.22339999991,29.6996700001705],[-173.20669999960523,29.683190000118543],[-173.1984899996137,29.674819999943168],[-173.17354999973261,29.649989999738864],[-173.1571000001648,29.633250000287433],[-173.14039999986002,29.616779999797302],[-173.12395999985404,29.60004000034587],[-173.1072400004256,29.58356999985574],[-173.09080999998145,29.566830000404366],[-173.07410000011484,29.550359999914235],[-173.05764999964768,29.533619999563484],[-173.04095000024225,29.517149999972673],[-173.0242299999145,29.500680000381863],[-173.0156099999015,29.492709999766817],[-172.98948999956374,29.469069999580938],[-172.97119000011833,29.454189999568996],[-172.95235000005238,29.4398500001775],[-172.9332600001488,29.42577000018548],[-172.91417000024524,29.411690000193516],[-172.8953599997641,29.397340000340876],[-172.8770400002957,29.382460000328877],[-172.85953999997093,29.366789999858725],[-172.84229999994497,29.35085000042733],[-172.82559000007836,29.334379999937198],[-172.80888000021176,29.317910000346387],[-172.80065999975912,29.309540000171012],[-172.7840900000534,29.292930000419346],[-172.759279999872,29.267960000054074],[-172.74257000000543,29.251489999563944],[-172.72613999956124,29.23475000011257],[-172.7177700002852,29.22652000009805],[-172.69298999968865,29.201549999732833],[-172.67627000026022,29.185080000142023],[-172.6598500002772,29.16833999979133],[-172.64312999994945,29.151870000200518],[-172.62668000038164,29.135129999849767],[-172.61847000039012,29.12675999967439],[-172.5943299996297,29.10113000034937],[-172.5786699996207,29.083589999978642],[-172.56382999965467,29.06526000004908],[-172.54949999982506,29.04639999996016],[-172.53545000031718,29.027279999572443],[-172.52841000032117,29.01770999981676],[-172.507319999918,28.989019999673417],[-172.49301000011133,28.970150000022613],[-172.47841999998295,28.951559999794313],[-172.47140999957173,28.941999999600455],[-172.45085000022726,28.912769999735815],[-172.44436999997544,28.90268000028192],[-172.4317600003237,28.882089999553955],[-172.41994999979258,28.86069999970539],[-172.40853999972114,28.838919999858263],[-172.3972800002717,28.81699999985028],[-172.38640999992148,28.79468999984374],[-172.3757900003082,28.77210000041481],[-172.36532999997945,28.749389999948676],[-172.3553799997871,28.7261399997613],[-172.34607000033017,28.70222999971486],[-172.33719999958024,28.677929999669914],[-172.328859999889,28.653089999903727],[-172.32116999959572,28.62757999981727],[-172.31385999973912,28.60167999973237],[-172.3068399997661,28.575520000247934],[-172.30008000009187,28.54908000044179],[-172.29357999981707,28.52238000033691],[-172.28735000030218,28.49541000037135],[-172.28136999972563,28.46818999966888],[-172.27567999993198,28.440690000443283],[-172.2702300004141,28.412930000019628],[-172.2648000000199,28.385169999595973],[-172.25923000036414,28.35753999977129],[-172.25379999996994,28.32976999978581],[-172.24875000001242,28.30162000026297],[-172.2467700004351,28.28699999965039],[-172.24093999958123,28.243040000395865],[-172.23828000012182,28.212489999913714],[-172.23590000008485,28.181669999570943],[-172.23325000018727,28.15111999998817],[-172.22980999983156,28.12135999996417],[-172.22543000019428,28.092540000121062],[-172.2205200003976,28.064250000437312],[-172.21560999970166,28.035950000292416],[-172.21361999966317,28.021340000141038],[-172.20792999986952,27.97723999982628],[-172.20581000013132,27.94616000008409],[-172.20462000011284,27.914149999722838],[-172.20406999993048,27.88146999994069],[-172.20394999979257,27.84840000016004],[-172.20394999979257,27.81519000021848],[-172.20394999979257,27.781980000276917],[-172.20394999979257,27.748770000335412],[-172.20394999979257,27.715569999955676],[-172.20394999979257,27.682360000014114],[-172.20394999979257,27.64915000007261],[-172.20394999979257,27.615940000131047],[-172.20394999979257,27.582730000189486],[-172.20394999979257,27.549529999809806],[-172.20394999979257,27.516319999868244],[-172.20394999979257,27.483109999926683],[-172.20380999963172,27.450040000146032],[-172.20341000007136,27.4172299997648],[-172.2026199996132,27.384819999843273],[-172.2014200000329,27.353069999780814],[-172.19982999955477,27.322250000337363],[-172.19823999997595,27.308839999766292],[-172.19704999995744,27.279480000202],[-172.19665999995897,27.25066000035889],[-172.19704999995744,27.22183000005458],[-172.19823999997595,27.19246999959097],[-172.19982999955477,27.179059999919218],[-172.20142999959472,27.148250000037592],[-172.2026199996132,27.116499999975133],[-172.20341000007136,27.084090000053607],[-172.20380999963172,27.051279999672374],[-172.20394999979257,27.018200000329898],[-172.20394999979257,26.984999999950162],[-172.20394999979257,26.951790000008657],[-172.20394999979257,26.918580000067095],[-172.20394999979257,26.885370000125533],[-172.20394999979257,26.85216000018403],[-172.20406999993048,26.81909000040332],[-172.2046099996517,26.786409999721855],[-172.20579999967018,26.75440000025992],[-172.2079200003077,26.72331999961841],[-172.20924000002591,26.708040000046083],[-172.21560999970166,26.664610000051596],[-172.2205200003976,26.6363099999067],[-172.22555999989402,26.608149999922716],[-172.23046999969065,26.579860000238966],[-172.23495000034217,26.551170000095567],[-172.2392000002797,26.522210000091547],[-172.24370999961673,26.493519999948205],[-172.2486299998745,26.465230000264455],[-172.2511399996112,26.451150000272435],[-172.25923000036414,26.40943999955647],[-172.2648000000199,26.381809999731843],[-172.2702300004141,26.354050000207508],[-172.27567000037016,26.326289999783796],[-172.28122999956474,26.29865999995917],[-172.28682000014282,26.271030000134544],[-172.2923899997986,26.24340000030992],[-172.29796000035367,26.215769999585973],[-172.30338999984855,26.18801000006158],[-172.30605000020728,26.174059999769327],[-172.3143899998985,26.1326199998133],[-172.31995999955427,26.104989999988675],[-172.32555000013232,26.077360000163992],[-172.3311199997881,26.049730000339366],[-172.33655000018229,26.02196999991571],[-172.34197999967716,25.99421000039132],[-172.34769000039313,25.96671000026646],[-172.35363999958625,25.939480000002163],[-172.35987999956225,25.91251999959843],[-172.36635999981405,25.88582000039287],[-172.37302000027273,25.85924999998764],[-172.37951999964818,25.832549999882758],[-172.38562000036265,25.80545000021749],[-172.39116999999544,25.77782999995469],[-172.39621000039114,25.749660000408824],[-172.4007100001663,25.72097999982725],[-172.40496999966567,25.692019999823287],[-172.40947000034018,25.66332999967989],[-172.41438000013682,25.635030000434313],[-172.4194199996332,25.60686999955101],[-172.42431999986803,25.57857999986726],[-172.42883000010434,25.54988999972386],[-172.43267999958223,25.52053000015951],[-172.4359999998001,25.490640000435803],[-172.43929999999492,25.460760000273922],[-172.44315999993398,25.43139999981031],[-172.44765999970915,25.40270999966691],[-172.4500399997461,25.38849999997518],[-172.4574899997636,25.346119999838265],[-172.46185000027722,25.317299999995157],[-172.4651600000339,25.28741000027145],[-172.46729000023325,25.25632999962994],[-172.46860999995147,25.224449999867716],[-172.46967999983204,25.19230999980681],[-172.4710100000114,25.160430000044585],[-172.47310999972663,25.12933999984125],[-172.474439999906,25.114069999830747],[-172.4808000000199,25.070630000274434],[-172.48572000027772,25.042339999691364],[-172.49063000007436,25.014050000007614],[-172.49500000014982,24.98521999970336],[-172.49832000036764,24.9553400004408],[-172.5004299996447,24.92425999979929],[-172.50161999966318,24.89223999987621],[-172.50216999984553,24.85956999965589],[-172.50228999998345,24.826490000313413],[-172.50228999998345,24.79328000037185],[-172.50228999998345,24.76007000043029],[-172.50228999998345,24.726859999589465],[-172.50228999998345,24.69366000010905],[-172.50228999998345,24.660450000167543],[-172.50228999998345,24.62724000022598],[-172.50228999998345,24.594039999846245],[-172.50228999998345,24.56082999990474],[-172.50228999998345,24.52761999996318],[-172.50228999998345,24.494410000021617],[-172.50228999998345,24.461200000080055],[-172.50228999998345,24.427999999700376],[-172.50228999998345,24.394789999758814],[-172.50228999998345,24.361579999817252],[-172.50216999984553,24.3285100000366],[-172.50161999966318,24.295830000254455],[-172.50044000010584,24.2638199998932],[-172.49820000022976,24.232869999850777],[-172.4943400002907,24.20351000028643],[-172.4887699997356,24.175879999562483],[-172.48160999960172,24.149849999777814],[-172.47285000032718,24.125409999571957],[-172.46277000043509,24.102289999983668],[-172.45177999994695,24.080109999676893],[-172.43971000001642,24.05898999968889],[-172.42645000006738,24.039199999880225],[-172.41200000009985,24.020869999950662],[-172.39621999995296,24.004389999898706],[-172.36996000035367,23.983410000071615],[-172.35126000044858,23.972249999837743],[-172.33123999992597,23.96348999966392],[-172.29794000033067,23.954450000067595],[-172.2734200000329,23.950599999690382],[-172.24663999983605,23.94847000039033],[-172.21786000003888,23.947809999631943],[-172.18801999992297,23.94847000039033]]],[[[180.00000000010016,37.80688613958381],[179.98460000038995,37.79852000019798],[179.9636500001476,37.78629000008357],[179.93288999987374,37.76730000029494],[179.912480000252,37.754549999582935],[179.89206000016907,37.74179000020848],[179.88171000041643,37.73555000023248],[179.85039999996025,37.71708999970389],[179.8292100003414,37.70513000034936],[179.81872999998973,37.69902000007312],[179.7875700001556,37.680420000282936],[179.76713999961146,37.66766999957099],[179.74697999982732,37.65466000035889],[179.72708000034197,37.6413699999257],[179.69777999994722,37.62090999979682],[179.68809999961547,37.614009999961695],[179.6692799995725,37.599660000109054],[179.64209000025346,37.57708000024195],[179.63320999994176,37.56938000038684],[179.60654000032093,37.546259999899235],[179.59766000000923,37.53856000004413],[179.57935000010264,37.52368000003213],[179.55098999988877,37.50229999974533],[179.54144000015606,37.495250000187525],[179.52233999979137,37.48117999975733],[179.50351000018657,37.46682999990469],[179.48522999986483,37.45194999989275],[179.46771000041633,37.436280000321915],[179.4504700003904,37.42033999999114],[179.4254199999333,37.39562999992472],[179.41704999975786,37.3873999999102],[179.39227000006065,37.362430000444306],[179.38391000034642,37.354189999968696],[179.36745999987932,37.33746000007909],[179.34252999956004,37.31260999985176],[179.33430000044484,37.30423999967638],[179.3099099998468,37.27886999975084],[179.30194000013114,37.27024000017599],[179.27887000015062,37.24354000007111],[179.26428000002215,37.22494999984275],[179.25713000034943,37.21550999978683],[179.24307000038038,37.196390000298436],[179.22903000043436,37.177260000348895],[179.21471000016652,37.15838999979877],[179.19985999973937,37.14007000033041],[179.18446000002916,37.12226999966089],[179.16908000034198,37.10446999989074],[179.15371999977833,37.086670000120534],[179.13167999963252,37.05890999969688],[179.11763000012456,37.03977999974734],[179.11071999982835,37.030080000291946],[179.09058000006712,37.0004600004288],[179.07744999981787,36.98039999986025],[179.0645799998673,36.96007999989223],[179.05199000023856,36.939490000063586],[179.0397899997089,36.91849999977529],[179.02810999977692,36.89698999978879],[179.01671000016654,36.875200000379834],[179.00544999981787,36.85328999993368],[178.99444999976788,36.83110000006508],[178.98344000015607,36.80891000019648],[178.9722900003834,36.78687000005061],[178.9612900003334,36.76468999974384],[178.95029000028353,36.742499999875236],[178.9391500000727,36.720450000167546],[178.92827999972235,36.698140000161004],[178.9176600001091,36.675549999832754],[178.90719999978035,36.65284000026594],[178.89724999958798,36.62959999964039],[178.8924599999292,36.61776999998568],[178.87907000028054,36.58137999998718],[178.87072999968996,36.55654000022099],[178.863040000296,36.531030000134535],[178.8557300004394,36.50513000004963],[178.85214000036092,36.49211999993821],[178.8419499998928,36.452529999859735],[178.83531000035646,36.42596000035388],[178.82870000040487,36.399400000409855],[178.82205000040733,36.372830000004626],[178.81542999999465,36.3462700000606],[178.80880999958197,36.31969999965543],[178.8023100002065,36.293010000011634],[178.7991300001496,36.27958999987874],[178.79075999997417,36.238140000360886],[178.78624999973795,36.20945000021749],[178.78293000041936,36.179570000055605],[178.780820000243,36.14847999985227],[178.77963000022453,36.116470000390336],[178.7791000000651,36.08378999970887],[178.77895999990426,36.05071999992822],[178.77895999990426,36.01750999998666],[178.77895999990426,35.984300000045096],[178.77895999990426,35.95109000010359],[178.77895999990426,35.91788000016203],[178.77895999990426,35.88467999978229],[178.77895999990426,35.85146999984079],[178.77895999990426,35.818259999899226],[178.7791000000651,35.785190000118575],[178.77963000022453,35.75251000033637],[178.780820000243,35.720499999975175],[178.78293000041936,35.68940999977184],[178.78624999973795,35.65952999960996],[178.79061999981332,35.63070999976679],[178.7956699997709,35.60254999978281],[178.79845999982933,35.58873000008958],[178.80666999982088,35.54716000043379],[178.81210000021508,35.51939000044831],[178.8176899998938,35.491759999724366],[178.82376000012414,35.464669999620924],[178.83041000012156,35.43810000011507],[178.83757000025548,35.41205999986926],[178.8453999998103,35.38670000040486],[178.8495200000482,35.37420999999165],[178.8618500002775,35.336750000112545],[178.87020999999174,35.31191000034636],[178.87897000016562,35.28747000014056],[178.8879699997159,35.263290000233496],[178.89724999958798,35.239380000187],[178.90719999978035,35.21613999956145],[178.91768000013212,35.193429999994635],[178.92297000036547,35.18214000006111],[178.9391500000727,35.1485299996599],[178.95029000028353,35.12647999995215],[178.96129999989523,35.10429000008361],[178.9722900003834,35.08212000023798],[178.977869999601,35.07108999970387],[178.99444999976788,35.03787999976231],[179.00544999981787,35.015700000354855],[179.0165900000287,34.993649999747845],[179.0275900000786,34.97147000034039],[179.0385999996904,34.94927999957247],[179.04986999960101,34.92735999956449],[179.06127999967248,34.90557999971736],[179.07307000018056,34.88420000032988],[179.08567999983234,34.86360999960192],[179.09893999978135,34.8436799996324],[179.11272999988978,34.82429000028344],[179.12705999971945,34.80543000019452],[179.14150999968695,34.78669999980531],[179.15570000025502,34.767699999555475],[179.16974999976287,34.748569999605934],[179.18380999973192,34.72945000011754],[179.19786000013914,34.710320000168],[179.21920999994177,34.68189000032339],[179.22649999977534,34.672599999990155],[179.24094999974284,34.65386999960094],[179.25512999984983,34.63487000025043],[179.26920000027997,34.61574999986277],[179.28326000024902,34.59661999991323],[179.30463000007467,34.56819000006857],[179.31204000004618,34.559019999873215],[179.3272900000337,34.54109000040336],[179.34305999971946,34.52369000019348],[179.35924000032594,34.506690000443314],[179.37568999989378,34.48995000009256],[179.39227000006065,34.47334999990272],[179.40883999976631,34.45674000015106],[179.4254199999333,34.44013999996116],[179.442120000238,34.42367000037035],[179.46771000041633,34.39948999956397],[179.47646999969095,34.39165000044733],[179.50349000016354,34.36893999998114],[179.52233999979137,34.35459999969038],[179.54144000015606,34.34051999969836],[179.56055000008269,34.326439999706395],[179.57937999968738,34.3121000003149],[179.59766000000923,34.2972200003029],[179.60654000032093,34.28950999998665],[179.63320999994176,34.266399999960186],[179.64209000025346,34.258689999643934],[179.66013000029943,34.24355000023246],[179.68809999961547,34.22175999992419],[179.70719999998016,34.20769000039337],[179.72628999988376,34.19361000040135],[179.74512000038794,34.17925999964939],[179.76343000029442,34.16437999963739],[179.78090999969697,34.148710000066615],[179.7895400001711,34.14074000035089],[179.81511999988822,34.11657000000565],[179.82375999992428,34.108600000289925],[179.84988000026203,34.0849499996429],[179.8681599996844,34.0700699996309],[179.8870100002115,34.055730000239464],[179.9061000001151,34.041650000247444],[179.9251999995805,34.02757000025548],[179.94403000008458,34.01322000040284],[179.96231000040643,33.99834000039084],[179.97982999985481,33.98266999992069],[179.9884299998448,33.97470000020502],[180.00000000010016,33.96377604053197],[180.00000000010016,37.80688613958381]]]]},"properties":{"objectid":113,"stormname":"Lala","stormtype":"HU","basin":"CP","advdate":"500 AM HST Thu Aug 20 2026","advisnum":"33","fcstprd":120,"stormnum":1,"idp_source":"cp012026-033_5day_pgn","idp_filedate":1787238196000,"idp_ingestdate":1787238235000,"st_area(shape)":48.15092358705932,"st_perimeter(shape)":46.648382574357015,"binnumber":"CP2"}}]}