{"type":"FeatureCollection","features":[{"type":"Feature","id":1739,"geometry":{"type":"Point","coordinates":[-22.999999999800025,18.800000000299917]},"properties":{"objectid":1739,"stormname":"Tropical Storm Gonzalo","stormtype":"TS","dvlbl":"S","basin":"AL","advdate":"200 PM CVT Sat Sep 26 2026","advisnum":"7","fcstprd":120,"gust":50,"maxwind":35,"mslp":1005,"ssnum":0,"datelbl":"2:00 PM Sat","tcdvlp":"Tropical Storm","tcdir":345,"tcspd":9,"fldatelbl":"2026-09-26 11:00 AM Sat CVT","lat":19,"lon":-23,"stormnum":7,"stormsrc":"Tropical Cyclone","timezone":"CVT","validtime":"26/1200","tau":0,"idp_source":"al072026-007_5day_pts","idp_subset":"al072026","idp_filedate":1790434955000,"idp_ingestdate":1790435070000,"binnumber":"AT2"}},{"type":"Feature","id":1740,"geometry":{"type":"Point","coordinates":[-23.200000000299667,19.800000000100056]},"properties":{"objectid":1740,"stormname":"Tropical Storm Gonzalo","stormtype":"STD","dvlbl":"D","basin":"AL","advdate":"200 PM CVT Sat Sep 26 2026","advisnum":"7","fcstprd":120,"gust":40,"maxwind":30,"mslp":9999,"ssnum":0,"datelbl":"11:00 PM Sat","tcdvlp":"Subtropical Depression","tcdir":9999,"tcspd":9999,"fldatelbl":"2026-09-26 11:00 PM Sat CVT","lat":20,"lon":-23,"stormnum":7,"stormsrc":"Post-Tropical Cyclone","timezone":"CVT","validtime":"27/0000","tau":12,"idp_source":"al072026-007_5day_pts","idp_subset":"al072026","idp_filedate":1790434955000,"idp_ingestdate":1790435070000,"binnumber":"AT2"}},{"type":"Feature","id":1741,"geometry":{"type":"Point","coordinates":[-23.600000000399575,20.600000000299929]},"properties":{"objectid":1741,"stormname":"Tropical Storm Gonzalo","stormtype":"STD","dvlbl":"D","basin":"AL","advdate":"200 PM CVT Sat Sep 26 2026","advisnum":"7","fcstprd":120,"gust":35,"maxwind":25,"mslp":9999,"ssnum":0,"datelbl":"11:00 AM Sun","tcdvlp":"Subtropical Depression","tcdir":9999,"tcspd":9999,"fldatelbl":"2026-09-27 11:00 AM Sun CVT","lat":21,"lon":-24,"stormnum":7,"stormsrc":"Post-Tropical Cyclone","timezone":"CVT","validtime":"27/1200","tau":24,"idp_source":"al072026-007_5day_pts","idp_subset":"al072026","idp_filedate":1790434955000,"idp_ingestdate":1790435070000,"binnumber":"AT2"}},{"type":"Feature","id":1742,"geometry":{"type":"Point","coordinates":[-23.899999999800002,21.200000000000159]},"properties":{"objectid":1742,"stormname":"Tropical Storm Gonzalo","stormtype":"STD","dvlbl":"D","basin":"AL","advdate":"200 PM CVT Sat Sep 26 2026","advisnum":"7","fcstprd":120,"gust":30,"maxwind":20,"mslp":9999,"ssnum":0,"datelbl":"11:00 PM Sun","tcdvlp":"Subtropical Depression","tcdir":9999,"tcspd":9999,"fldatelbl":"2026-09-27 11:00 PM Sun CVT","lat":21,"lon":-24,"stormnum":7,"stormsrc":"Post-Tropical Cyclone","timezone":"CVT","validtime":"28/0000","tau":36,"idp_source":"al072026-007_5day_pts","idp_subset":"al072026","idp_filedate":1790434955000,"idp_ingestdate":1790435070000,"binnumber":"AT2"}},{"type":"Feature","id":1743,"geometry":{"type":"Point","coordinates":[-24.100000000299644,21.500000000299906]},"properties":{"objectid":1743,"stormname":"Tropical Storm Gonzalo","stormtype":"STD","dvlbl":"D","basin":"AL","advdate":"200 PM CVT Sat Sep 26 2026","advisnum":"7","fcstprd":120,"gust":30,"maxwind":20,"mslp":9999,"ssnum":0,"datelbl":"11:00 AM Mon","tcdvlp":"Subtropical Depression","tcdir":9999,"tcspd":9999,"fldatelbl":"2026-09-28 11:00 AM Mon CVT","lat":22,"lon":-24,"stormnum":7,"stormsrc":"Post-Tropical Cyclone","timezone":"CVT","validtime":"28/1200","tau":48,"idp_source":"al072026-007_5day_pts","idp_subset":"al072026","idp_filedate":1790434955000,"idp_ingestdate":1790435070000,"binnumber":"AT2"}},{"type":"Feature","id":1744,"geometry":{"type":"Point","coordinates":[-24.500000000399552,21.699999999900228]},"properties":{"objectid":1744,"stormname":"Tropical Storm Gonzalo","stormtype":"STD","dvlbl":"D","basin":"AL","advdate":"200 PM CVT Sat Sep 26 2026","advisnum":"7","fcstprd":120,"gust":30,"maxwind":20,"mslp":9999,"ssnum":0,"datelbl":"11:00 PM Mon","tcdvlp":"Subtropical Depression","tcdir":9999,"tcspd":9999,"fldatelbl":"2026-09-28 11:00 PM Mon CVT","lat":22,"lon":-24,"stormnum":7,"stormsrc":"Post-Tropical Cyclone","timezone":"CVT","validtime":"29/0000","tau":60,"idp_source":"al072026-007_5day_pts","idp_subset":"al072026","idp_filedate":1790434955000,"idp_ingestdate":1790435070000,"binnumber":"AT2"}},{"type":"Feature","id":1745,"geometry":{"type":"Point","coordinates":[-25.199999999899944,21.79999999970039]},"properties":{"objectid":1745,"stormname":"Tropical Storm Gonzalo","stormtype":"STD","dvlbl":"D","basin":"AL","advdate":"200 PM CVT Sat Sep 26 2026","advisnum":"7","fcstprd":120,"gust":30,"maxwind":20,"mslp":9999,"ssnum":0,"datelbl":"11:00 AM Tue","tcdvlp":"Subtropical Depression","tcdir":9999,"tcspd":9999,"fldatelbl":"2026-09-29 11:00 AM Tue CVT","lat":22,"lon":-25,"stormnum":7,"stormsrc":"Post-Tropical Cyclone","timezone":"CVT","validtime":"29/1200","tau":72,"idp_source":"al072026-007_5day_pts","idp_subset":"al072026","idp_filedate":1790434955000,"idp_ingestdate":1790435070000,"binnumber":"AT2"}}]}