{"type":"FeatureCollection","features":[{"type":"Feature","id":6086,"geometry":{"type":"Point","coordinates":[-102.69999999970014,6.9999999996004476]},"properties":{"objectid":6086,"stormname":"GENESIS025","stormtype":"DB","stormnum":17,"intensity":20,"basin":"ep","mslp":1010,"dtg":2026091712,"year":2026,"month":"09","day":17,"hhmm":"1200","lat":7,"lon":-103,"ss":0,"idp_source":"EP172026_pts","idp_filedate":1790434958000,"idp_ingestdate":1790435256000,"binnumber":"EP2"}},{"type":"Feature","id":6087,"geometry":{"type":"Point","coordinates":[-103.30000000029969,6.9999999996004476]},"properties":{"objectid":6087,"stormname":"GENESIS025","stormtype":"DB","stormnum":17,"intensity":20,"basin":"ep","mslp":1010,"dtg":2026091718,"year":2026,"month":"09","day":17,"hhmm":"1800","lat":7,"lon":-103,"ss":0,"idp_source":"EP172026_pts","idp_filedate":1790434958000,"idp_ingestdate":1790435256000,"binnumber":"EP2"}},{"type":"Feature","id":6088,"geometry":{"type":"Point","coordinates":[-103.89999999999992,6.9999999996004476]},"properties":{"objectid":6088,"stormname":"GENESIS025","stormtype":"DB","stormnum":17,"intensity":20,"basin":"ep","mslp":1010,"dtg":2026091800,"year":2026,"month":"09","day":18,"hhmm":"0000","lat":7,"lon":-104,"ss":0,"idp_source":"EP172026_pts","idp_filedate":1790434958000,"idp_ingestdate":1790435256000,"binnumber":"EP2"}},{"type":"Feature","id":6089,"geometry":{"type":"Point","coordinates":[-104.30000000009983,7.1000000002999286]},"properties":{"objectid":6089,"stormname":"GENESIS025","stormtype":"DB","stormnum":17,"intensity":20,"basin":"ep","mslp":1010,"dtg":2026091806,"year":2026,"month":"09","day":18,"hhmm":"0600","lat":7,"lon":-104,"ss":0,"idp_source":"EP172026_pts","idp_filedate":1790434958000,"idp_ingestdate":1790435256000,"binnumber":"EP2"}},{"type":"Feature","id":6090,"geometry":{"type":"Point","coordinates":[-104.99999999960022,7.2999999999001943]},"properties":{"objectid":6090,"stormname":"INVEST","stormtype":"DB","stormnum":17,"intensity":20,"basin":"ep","mslp":1010,"dtg":2026091812,"year":2026,"month":"09","day":18,"hhmm":"1200","lat":7,"lon":-105,"ss":0,"idp_source":"EP172026_pts","idp_filedate":1790434958000,"idp_ingestdate":1790435256000,"binnumber":"EP2"}},{"type":"Feature","id":6091,"geometry":{"type":"Point","coordinates":[-105.39999999970013,7.7000000000001592]},"properties":{"objectid":6091,"stormname":"INVEST","stormtype":"DB","stormnum":17,"intensity":20,"basin":"ep","mslp":1010,"dtg":2026091818,"year":2026,"month":"09","day":18,"hhmm":"1800","lat":8,"lon":-105,"ss":0,"idp_source":"EP172026_pts","idp_filedate":1790434958000,"idp_ingestdate":1790435256000,"binnumber":"EP2"}},{"type":"Feature","id":6092,"geometry":{"type":"Point","coordinates":[-105.69999999999987,8.4000000003998139]},"properties":{"objectid":6092,"stormname":"INVEST","stormtype":"DB","stormnum":17,"intensity":20,"basin":"ep","mslp":1009,"dtg":2026091900,"year":2026,"month":"09","day":19,"hhmm":"0000","lat":8,"lon":-106,"ss":0,"idp_source":"EP172026_pts","idp_filedate":1790434958000,"idp_ingestdate":1790435256000,"binnumber":"EP2"}},{"type":"Feature","id":6093,"geometry":{"type":"Point","coordinates":[-105.8999999996002,9.4000000002000093]},"properties":{"objectid":6093,"stormname":"INVEST","stormtype":"DB","stormnum":17,"intensity":20,"basin":"ep","mslp":1009,"dtg":2026091906,"year":2026,"month":"09","day":19,"hhmm":"0600","lat":9,"lon":-106,"ss":0,"idp_source":"EP172026_pts","idp_filedate":1790434958000,"idp_ingestdate":1790435256000,"binnumber":"EP2"}},{"type":"Feature","id":6094,"geometry":{"type":"Point","coordinates":[-106.00000000029968,10.300000000199987]},"properties":{"objectid":6094,"stormname":"INVEST","stormtype":"DB","stormnum":17,"intensity":25,"basin":"ep","mslp":1008,"dtg":2026091912,"year":2026,"month":"09","day":19,"hhmm":"1200","lat":10,"lon":-106,"ss":0,"idp_source":"EP172026_pts","idp_filedate":1790434958000,"idp_ingestdate":1790435256000,"binnumber":"EP2"}},{"type":"Feature","id":6095,"geometry":{"type":"Point","coordinates":[-106.00000000029968,11.200000000199964]},"properties":{"objectid":6095,"stormname":"INVEST","stormtype":"DB","stormnum":17,"intensity":25,"basin":"ep","mslp":1008,"dtg":2026091918,"year":2026,"month":"09","day":19,"hhmm":"1800","lat":11,"lon":-106,"ss":0,"idp_source":"EP172026_pts","idp_filedate":1790434958000,"idp_ingestdate":1790435256000,"binnumber":"EP2"}},{"type":"Feature","id":6096,"geometry":{"type":"Point","coordinates":[-106.29999999970011,12.600000000100067]},"properties":{"objectid":6096,"stormname":"INVEST","stormtype":"DB","stormnum":17,"intensity":25,"basin":"ep","mslp":1007,"dtg":2026092000,"year":2026,"month":"09","day":20,"hhmm":"0000","lat":13,"lon":-106,"ss":0,"idp_source":"EP172026_pts","idp_filedate":1790434958000,"idp_ingestdate":1790435256000,"binnumber":"EP2"}},{"type":"Feature","id":6097,"geometry":{"type":"Point","coordinates":[-105.79999999980004,13.40000000029994]},"properties":{"objectid":6097,"stormname":"INVEST","stormtype":"DB","stormnum":17,"intensity":30,"basin":"ep","mslp":1007,"dtg":2026092006,"year":2026,"month":"09","day":20,"hhmm":"0600","lat":13,"lon":-106,"ss":0,"idp_source":"EP172026_pts","idp_filedate":1790434958000,"idp_ingestdate":1790435256000,"binnumber":"EP2"}},{"type":"Feature","id":6098,"geometry":{"type":"Point","coordinates":[-105.50000000039961,14.000000000000114]},"properties":{"objectid":6098,"stormname":"INVEST","stormtype":"DB","stormnum":17,"intensity":30,"basin":"ep","mslp":1007,"dtg":2026092012,"year":2026,"month":"09","day":20,"hhmm":"1200","lat":14,"lon":-106,"ss":0,"idp_source":"EP172026_pts","idp_filedate":1790434958000,"idp_ingestdate":1790435256000,"binnumber":"EP2"}},{"type":"Feature","id":6099,"geometry":{"type":"Point","coordinates":[-105.1000000002997,14.49999999990024]},"properties":{"objectid":6099,"stormname":"SEVENTEEN","stormtype":"TD","stormnum":17,"intensity":30,"basin":"ep","mslp":1007,"dtg":2026092018,"year":2026,"month":"09","day":20,"hhmm":"1800","lat":14,"lon":-105,"ss":0,"idp_source":"EP172026_pts","idp_filedate":1790434958000,"idp_ingestdate":1790435256000,"binnumber":"EP2"}},{"type":"Feature","id":6100,"geometry":{"type":"Point","coordinates":[-104.7999999999999,15.099999999600414]},"properties":{"objectid":6100,"stormname":"POLO","stormtype":"TS","stormnum":17,"intensity":35,"basin":"ep","mslp":1004,"dtg":2026092100,"year":2026,"month":"09","day":21,"hhmm":"0000","lat":15,"lon":-105,"ss":0,"idp_source":"EP172026_pts","idp_filedate":1790434958000,"idp_ingestdate":1790435256000,"binnumber":"EP2"}},{"type":"Feature","id":6101,"geometry":{"type":"Point","coordinates":[-104.09999999960019,15.499999999700378]},"properties":{"objectid":6101,"stormname":"POLO","stormtype":"TS","stormnum":17,"intensity":40,"basin":"ep","mslp":1003,"dtg":2026092106,"year":2026,"month":"09","day":21,"hhmm":"0600","lat":16,"lon":-104,"ss":0,"idp_source":"EP172026_pts","idp_filedate":1790434958000,"idp_ingestdate":1790435256000,"binnumber":"EP2"}},{"type":"Feature","id":6102,"geometry":{"type":"Point","coordinates":[-103.59999999970012,15.399999999900217]},"properties":{"objectid":6102,"stormname":"POLO","stormtype":"TS","stormnum":17,"intensity":55,"basin":"ep","mslp":997,"dtg":2026092112,"year":2026,"month":"09","day":21,"hhmm":"1200","lat":15,"lon":-104,"ss":0,"idp_source":"EP172026_pts","idp_filedate":1790434958000,"idp_ingestdate":1790435256000,"binnumber":"EP2"}},{"type":"Feature","id":6103,"geometry":{"type":"Point","coordinates":[-102.99999999999989,15.200000000299895]},"properties":{"objectid":6103,"stormname":"POLO","stormtype":"HU","stormnum":17,"intensity":70,"basin":"ep","mslp":978,"dtg":2026092118,"year":2026,"month":"09","day":21,"hhmm":"1800","lat":15,"lon":-103,"ss":1,"idp_source":"EP172026_pts","idp_filedate":1790434958000,"idp_ingestdate":1790435256000,"binnumber":"EP2"}},{"type":"Feature","id":6104,"geometry":{"type":"Point","coordinates":[-102.50000000009982,15.099999999600414]},"properties":{"objectid":6104,"stormname":"POLO","stormtype":"HU","stormnum":17,"intensity":90,"basin":"ep","mslp":967,"dtg":2026092200,"year":2026,"month":"09","day":22,"hhmm":"0000","lat":15,"lon":-102,"ss":2,"idp_source":"EP172026_pts","idp_filedate":1790434958000,"idp_ingestdate":1790435256000,"binnumber":"EP2"}},{"type":"Feature","id":6105,"geometry":{"type":"Point","coordinates":[-102.00000000019975,14.700000000399825]},"properties":{"objectid":6105,"stormname":"POLO","stormtype":"HU","stormnum":17,"intensity":120,"basin":"ep","mslp":945,"dtg":2026092206,"year":2026,"month":"09","day":22,"hhmm":"0600","lat":15,"lon":-102,"ss":4,"idp_source":"EP172026_pts","idp_filedate":1790434958000,"idp_ingestdate":1790435256000,"binnumber":"EP2"}},{"type":"Feature","id":6106,"geometry":{"type":"Point","coordinates":[-101.60000000009984,14.599999999700344]},"properties":{"objectid":6106,"stormname":"POLO","stormtype":"HU","stormnum":17,"intensity":140,"basin":"ep","mslp":926,"dtg":2026092212,"year":2026,"month":"09","day":22,"hhmm":"1200","lat":15,"lon":-102,"ss":5,"idp_source":"EP172026_pts","idp_filedate":1790434958000,"idp_ingestdate":1790435256000,"binnumber":"EP2"}},{"type":"Feature","id":6107,"geometry":{"type":"Point","coordinates":[-101.50000000029968,14.599999999700344]},"properties":{"objectid":6107,"stormname":"POLO","stormtype":"HU","stormnum":17,"intensity":155,"basin":"ep","mslp":892,"dtg":2026092218,"year":2026,"month":"09","day":22,"hhmm":"1800","lat":15,"lon":-102,"ss":5,"idp_source":"EP172026_pts","idp_filedate":1790434958000,"idp_ingestdate":1790435256000,"binnumber":"EP2"}},{"type":"Feature","id":6108,"geometry":{"type":"Point","coordinates":[-101.3999999996002,14.599999999700344]},"properties":{"objectid":6108,"stormname":"POLO","stormtype":"HU","stormnum":17,"intensity":145,"basin":"ep","mslp":905,"dtg":2026092300,"year":2026,"month":"09","day":23,"hhmm":"0000","lat":15,"lon":-101,"ss":5,"idp_source":"EP172026_pts","idp_filedate":1790434958000,"idp_ingestdate":1790435256000,"binnumber":"EP2"}},{"type":"Feature","id":6109,"geometry":{"type":"Point","coordinates":[-101.29999999980004,14.800000000199987]},"properties":{"objectid":6109,"stormname":"POLO","stormtype":"HU","stormnum":17,"intensity":140,"basin":"ep","mslp":915,"dtg":2026092306,"year":2026,"month":"09","day":23,"hhmm":"0600","lat":15,"lon":-101,"ss":5,"idp_source":"EP172026_pts","idp_filedate":1790434958000,"idp_ingestdate":1790435256000,"binnumber":"EP2"}},{"type":"Feature","id":6110,"geometry":{"type":"Point","coordinates":[-101.60000000009984,15.200000000299895]},"properties":{"objectid":6110,"stormname":"POLO","stormtype":"HU","stormnum":17,"intensity":130,"basin":"ep","mslp":925,"dtg":2026092312,"year":2026,"month":"09","day":23,"hhmm":"1200","lat":15,"lon":-102,"ss":4,"idp_source":"EP172026_pts","idp_filedate":1790434958000,"idp_ingestdate":1790435256000,"binnumber":"EP2"}},{"type":"Feature","id":6111,"geometry":{"type":"Point","coordinates":[-102.09999999999991,15.499999999700378]},"properties":{"objectid":6111,"stormname":"POLO","stormtype":"HU","stormnum":17,"intensity":125,"basin":"ep","mslp":931,"dtg":2026092318,"year":2026,"month":"09","day":23,"hhmm":"1800","lat":16,"lon":-102,"ss":4,"idp_source":"EP172026_pts","idp_filedate":1790434958000,"idp_ingestdate":1790435256000,"binnumber":"EP2"}},{"type":"Feature","id":6112,"geometry":{"type":"Point","coordinates":[-102.29999999960017,15.800000000000125]},"properties":{"objectid":6112,"stormname":"POLO","stormtype":"HU","stormnum":17,"intensity":140,"basin":"ep","mslp":923,"dtg":2026092400,"year":2026,"month":"09","day":24,"hhmm":"0000","lat":16,"lon":-102,"ss":5,"idp_source":"EP172026_pts","idp_filedate":1790434958000,"idp_ingestdate":1790435256000,"binnumber":"EP2"}},{"type":"Feature","id":6113,"geometry":{"type":"Point","coordinates":[-102.99999999999989,16.399999999700356]},"properties":{"objectid":6113,"stormname":"POLO","stormtype":"HU","stormnum":17,"intensity":140,"basin":"ep","mslp":923,"dtg":2026092406,"year":2026,"month":"09","day":24,"hhmm":"0600","lat":16,"lon":-103,"ss":5,"idp_source":"EP172026_pts","idp_filedate":1790434958000,"idp_ingestdate":1790435256000,"binnumber":"EP2"}},{"type":"Feature","id":6114,"geometry":{"type":"Point","coordinates":[-103.89999999999992,16.700000000000159]},"properties":{"objectid":6114,"stormname":"POLO","stormtype":"HU","stormnum":17,"intensity":135,"basin":"ep","mslp":927,"dtg":2026092412,"year":2026,"month":"09","day":24,"hhmm":"1200","lat":17,"lon":-104,"ss":4,"idp_source":"EP172026_pts","idp_filedate":1790434958000,"idp_ingestdate":1790435256000,"binnumber":"EP2"}},{"type":"Feature","id":6115,"geometry":{"type":"Point","coordinates":[-104.89999999980006,16.899999999600425]},"properties":{"objectid":6115,"stormname":"POLO","stormtype":"HU","stormnum":17,"intensity":130,"basin":"ep","mslp":938,"dtg":2026092418,"year":2026,"month":"09","day":24,"hhmm":"1800","lat":17,"lon":-105,"ss":4,"idp_source":"EP172026_pts","idp_filedate":1790434958000,"idp_ingestdate":1790435256000,"binnumber":"EP2"}},{"type":"Feature","id":6116,"geometry":{"type":"Point","coordinates":[-106.10000000009984,17.100000000100067]},"properties":{"objectid":6116,"stormname":"POLO","stormtype":"HU","stormnum":17,"intensity":130,"basin":"ep","mslp":935,"dtg":2026092500,"year":2026,"month":"09","day":25,"hhmm":"0000","lat":17,"lon":-106,"ss":4,"idp_source":"EP172026_pts","idp_filedate":1790434958000,"idp_ingestdate":1790435256000,"binnumber":"EP2"}},{"type":"Feature","id":6117,"geometry":{"type":"Point","coordinates":[-107.00000000009982,17.100000000100067]},"properties":{"objectid":6117,"stormname":"POLO","stormtype":"HU","stormnum":17,"intensity":135,"basin":"ep","mslp":929,"dtg":2026092506,"year":2026,"month":"09","day":25,"hhmm":"0600","lat":17,"lon":-107,"ss":4,"idp_source":"EP172026_pts","idp_filedate":1790434958000,"idp_ingestdate":1790435256000,"binnumber":"EP2"}},{"type":"Feature","id":6118,"geometry":{"type":"Point","coordinates":[-107.99999999989996,17.100000000100067]},"properties":{"objectid":6118,"stormname":"POLO","stormtype":"HU","stormnum":17,"intensity":155,"basin":"ep","mslp":908,"dtg":2026092512,"year":2026,"month":"09","day":25,"hhmm":"1200","lat":17,"lon":-108,"ss":5,"idp_source":"EP172026_pts","idp_filedate":1790434958000,"idp_ingestdate":1790435256000,"binnumber":"EP2"}},{"type":"Feature","id":6119,"geometry":{"type":"Point","coordinates":[-108.80000000009983,17.100000000100067]},"properties":{"objectid":6119,"stormname":"POLO","stormtype":"HU","stormnum":17,"intensity":155,"basin":"ep","mslp":914,"dtg":2026092518,"year":2026,"month":"09","day":25,"hhmm":"1800","lat":17,"lon":-109,"ss":5,"idp_source":"EP172026_pts","idp_filedate":1790434958000,"idp_ingestdate":1790435256000,"binnumber":"EP2"}},{"type":"Feature","id":6120,"geometry":{"type":"Point","coordinates":[-109.70000000009981,17.199999999900228]},"properties":{"objectid":6120,"stormname":"POLO","stormtype":"HU","stormnum":17,"intensity":150,"basin":"ep","mslp":911,"dtg":2026092600,"year":2026,"month":"09","day":26,"hhmm":"0000","lat":17,"lon":-110,"ss":5,"idp_source":"EP172026_pts","idp_filedate":1790434958000,"idp_ingestdate":1790435256000,"binnumber":"EP2"}},{"type":"Feature","id":6121,"geometry":{"type":"Point","coordinates":[-110.50000000029968,17.400000000399814]},"properties":{"objectid":6121,"stormname":"POLO","stormtype":"HU","stormnum":17,"intensity":150,"basin":"ep","mslp":912,"dtg":2026092606,"year":2026,"month":"09","day":26,"hhmm":"0600","lat":17,"lon":-110,"ss":5,"idp_source":"EP172026_pts","idp_filedate":1790434958000,"idp_ingestdate":1790435256000,"binnumber":"EP2"}},{"type":"Feature","id":6122,"geometry":{"type":"Point","coordinates":[-111.40000000029966,17.699999999800298]},"properties":{"objectid":6122,"stormname":"POLO","stormtype":"HU","stormnum":17,"intensity":140,"basin":"ep","mslp":922,"dtg":2026092612,"year":2026,"month":"09","day":26,"hhmm":"1200","lat":18,"lon":-111,"ss":5,"idp_source":"EP172026_pts","idp_filedate":1790434958000,"idp_ingestdate":1790435256000,"binnumber":"EP2"}}]}