{"type":"FeatureCollection","features":[{"type":"Feature","id":4511,"geometry":{"type":"Point","coordinates":[-128.29999999980004,17.29999999970039]},"properties":{"objectid":4511,"stormname":"Tropical Storm Norbert","stormtype":"TS","dvlbl":"S","basin":"EP","advdate":"500 AM HST Sat Sep 12 2026","advisnum":"12","fcstprd":120,"gust":60,"maxwind":50,"mslp":999,"ssnum":0,"datelbl":"5:00 AM Sat","tcdvlp":"Tropical Storm","tcdir":285,"tcspd":9,"fldatelbl":"2026-09-12 2:00 AM Sat HST","lat":17,"lon":-128,"stormnum":14,"stormsrc":"Tropical Cyclone","timezone":"HST","validtime":"12/1200","tau":0,"idp_source":"ep142026-012_5day_pts","idp_subset":"ep142026","idp_filedate":1789225698000,"idp_ingestdate":1789225812000,"binnumber":"EP4"}},{"type":"Feature","id":4512,"geometry":{"type":"Point","coordinates":[-129.69999999970014,17.699999999800298]},"properties":{"objectid":4512,"stormname":"Tropical Storm Norbert","stormtype":"TS","dvlbl":"S","basin":"EP","advdate":"500 AM HST Sat Sep 12 2026","advisnum":"12","fcstprd":120,"gust":65,"maxwind":55,"mslp":9999,"ssnum":0,"datelbl":"2:00 PM Sat","tcdvlp":"Tropical Storm","tcdir":9999,"tcspd":9999,"fldatelbl":"2026-09-12 2:00 PM Sat HST","lat":18,"lon":-130,"stormnum":14,"stormsrc":"Tropical Cyclone","timezone":"HST","validtime":"13/0000","tau":12,"idp_source":"ep142026-012_5day_pts","idp_subset":"ep142026","idp_filedate":1789225698000,"idp_ingestdate":1789225812000,"binnumber":"EP4"}},{"type":"Feature","id":4513,"geometry":{"type":"Point","coordinates":[-131.60000000039963,18.099999999900206]},"properties":{"objectid":4513,"stormname":"Tropical Storm Norbert","stormtype":"TS","dvlbl":"S","basin":"EP","advdate":"500 AM HST Sat Sep 12 2026","advisnum":"12","fcstprd":120,"gust":65,"maxwind":55,"mslp":9999,"ssnum":0,"datelbl":"2:00 AM Sun","tcdvlp":"Tropical Storm","tcdir":9999,"tcspd":9999,"fldatelbl":"2026-09-13 2:00 AM Sun HST","lat":18,"lon":-132,"stormnum":14,"stormsrc":"Tropical Cyclone","timezone":"HST","validtime":"13/1200","tau":24,"idp_source":"ep142026-012_5day_pts","idp_subset":"ep142026","idp_filedate":1789225698000,"idp_ingestdate":1789225812000,"binnumber":"EP4"}},{"type":"Feature","id":4514,"geometry":{"type":"Point","coordinates":[-133.69999999980007,18.400000000200009]},"properties":{"objectid":4514,"stormname":"Tropical Storm Norbert","stormtype":"TS","dvlbl":"S","basin":"EP","advdate":"500 AM HST Sat Sep 12 2026","advisnum":"12","fcstprd":120,"gust":60,"maxwind":50,"mslp":9999,"ssnum":0,"datelbl":"2:00 PM Sun","tcdvlp":"Tropical Storm","tcdir":9999,"tcspd":9999,"fldatelbl":"2026-09-13 2:00 PM Sun HST","lat":18,"lon":-134,"stormnum":14,"stormsrc":"Tropical Cyclone","timezone":"HST","validtime":"14/0000","tau":36,"idp_source":"ep142026-012_5day_pts","idp_subset":"ep142026","idp_filedate":1789225698000,"idp_ingestdate":1789225812000,"binnumber":"EP4"}},{"type":"Feature","id":4515,"geometry":{"type":"Point","coordinates":[-135.99999999970015,18.599999999800275]},"properties":{"objectid":4515,"stormname":"Tropical Storm Norbert","stormtype":"TS","dvlbl":"S","basin":"EP","advdate":"500 AM HST Sat Sep 12 2026","advisnum":"12","fcstprd":120,"gust":55,"maxwind":45,"mslp":9999,"ssnum":0,"datelbl":"2:00 AM Mon","tcdvlp":"Tropical Storm","tcdir":9999,"tcspd":9999,"fldatelbl":"2026-09-14 2:00 AM Mon HST","lat":19,"lon":-136,"stormnum":14,"stormsrc":"Tropical Cyclone","timezone":"HST","validtime":"14/1200","tau":48,"idp_source":"ep142026-012_5day_pts","idp_subset":"ep142026","idp_filedate":1789225698000,"idp_ingestdate":1789225812000,"binnumber":"EP4"}},{"type":"Feature","id":4516,"geometry":{"type":"Point","coordinates":[-138.50000000009982,18.699999999600436]},"properties":{"objectid":4516,"stormname":"Tropical Storm Norbert","stormtype":"TS","dvlbl":"S","basin":"EP","advdate":"500 AM HST Sat Sep 12 2026","advisnum":"12","fcstprd":120,"gust":50,"maxwind":40,"mslp":9999,"ssnum":0,"datelbl":"2:00 PM Mon","tcdvlp":"Tropical Storm","tcdir":9999,"tcspd":9999,"fldatelbl":"2026-09-14 2:00 PM Mon HST","lat":19,"lon":-138,"stormnum":14,"stormsrc":"Tropical Cyclone","timezone":"HST","validtime":"15/0000","tau":60,"idp_source":"ep142026-012_5day_pts","idp_subset":"ep142026","idp_filedate":1789225698000,"idp_ingestdate":1789225812000,"binnumber":"EP4"}},{"type":"Feature","id":4517,"geometry":{"type":"Point","coordinates":[-141.1000000002997,18.599999999800275]},"properties":{"objectid":4517,"stormname":"Tropical Storm Norbert","stormtype":"TS","dvlbl":"S","basin":"EP","advdate":"500 AM HST Sat Sep 12 2026","advisnum":"12","fcstprd":120,"gust":45,"maxwind":35,"mslp":9999,"ssnum":0,"datelbl":"2:00 AM Tue","tcdvlp":"Tropical Storm","tcdir":9999,"tcspd":9999,"fldatelbl":"2026-09-15 2:00 AM Tue HST","lat":19,"lon":-141,"stormnum":14,"stormsrc":"Tropical Cyclone","timezone":"HST","validtime":"15/1200","tau":72,"idp_source":"ep142026-012_5day_pts","idp_subset":"ep142026","idp_filedate":1789225698000,"idp_ingestdate":1789225812000,"binnumber":"EP4"}},{"type":"Feature","id":4518,"geometry":{"type":"Point","coordinates":[-146.29999999980006,17.699999999800298]},"properties":{"objectid":4518,"stormname":"Tropical Storm Norbert","stormtype":"STD","dvlbl":"D","basin":"EP","advdate":"500 AM HST Sat Sep 12 2026","advisnum":"12","fcstprd":120,"gust":40,"maxwind":30,"mslp":9999,"ssnum":0,"datelbl":"2:00 AM Wed","tcdvlp":"Subtropical Depression","tcdir":9999,"tcspd":9999,"fldatelbl":"2026-09-16 2:00 AM Wed HST","lat":18,"lon":-146,"stormnum":14,"stormsrc":"Post-Tropical Cyclone","timezone":"HST","validtime":"16/1200","tau":96,"idp_source":"ep142026-012_5day_pts","idp_subset":"ep142026","idp_filedate":1789225698000,"idp_ingestdate":1789225812000,"binnumber":"EP4"}},{"type":"Feature","id":4519,"geometry":{"type":"Point","coordinates":[-151.69999999980007,15.899999999800286]},"properties":{"objectid":4519,"stormname":"Tropical Storm Norbert","stormtype":"STD","dvlbl":"D","basin":"EP","advdate":"500 AM HST Sat Sep 12 2026","advisnum":"12","fcstprd":120,"gust":35,"maxwind":25,"mslp":9999,"ssnum":0,"datelbl":"2:00 AM Thu","tcdvlp":"Subtropical Depression","tcdir":9999,"tcspd":9999,"fldatelbl":"2026-09-17 2:00 AM Thu HST","lat":16,"lon":-152,"stormnum":14,"stormsrc":"Post-Tropical Cyclone","timezone":"HST","validtime":"17/1200","tau":120,"idp_source":"ep142026-012_5day_pts","idp_subset":"ep142026","idp_filedate":1789225698000,"idp_ingestdate":1789225812000,"binnumber":"EP4"}}]}