{"type":"FeatureCollection","features":[{"type":"Feature","id":538,"geometry":{"type":"Polygon","coordinates":[[[-111.68360900015512,19.645938900360079],[-111.71594999959274,19.644096399929026],[-111.7481990001836,19.641715999693758],[-111.78037300001387,19.638803500281426],[-111.81246899984438,19.63535880006873],[-111.84444400039018,19.631383900047069],[-111.87630500017553,19.62688059976],[-111.90805100005349,19.621852900291231],[-111.93965100039327,19.616302499560845],[-111.97111499985726,19.610231400358998],[-112.00241900003675,19.603645299890843],[-112.0335619999862,19.596548100314692],[-112.06453700028226,19.588937799739824],[-112.09531400044068,19.580822000135356],[-112.12592300004633,19.572204600062378],[-112.15631899972198,19.563087499788423],[-112.18650100032079,19.553474400023674],[-112.21646900004424,19.543373099688949],[-112.24621600036801,19.532783499858795],[-112.27571900023156,19.521713299629198],[-112.30497699958875,19.510166199710511],[-112.33397699963871,19.498144100370098],[-112.36271700028925,19.485650999993823],[-112.39119699974162,19.472700099729934],[-112.41937299956419,19.459287599942911],[-112.44728099961833,19.445426899631855],[-112.47488399999651,19.431116100327927],[-112.50216700000692,19.416362800403078],[-112.5291600001338,19.401176500295378],[-112.55581700005439,19.385557200004939],[-112.58216099993012,19.369514499794491],[-112.60816999964567,19.353053999742428],[-112.63381999989298,19.336181600300733],[-112.65914200030295,19.318901100205778],[-112.68409699997648,19.301221800246026],[-112.70867900043544,19.283149699798969],[-112.732895000204,19.264688499574731],[-112.756729000343,19.245849600278973],[-112.78018199999923,19.226635000205249],[-112.80325300002585,19.207056000234388],[-112.82591199993874,19.187116599651517],[-112.84817499957649,19.166826199969307],[-112.8700409997922,19.146188699748848],[-112.89148700042466,19.125217399963162],[-112.9124979998827,19.10391429980524],[-112.93309800017249,19.082284900427965],[-112.95326200014108,19.060340900212509],[-112.97297700008841,19.038093600039758],[-112.99226400008342,19.015541099642178],[-113.01110100001102,18.9926987000851],[-113.02948799987121,18.969570200104783],[-113.04741700019429,18.94616510013941],[-113.06487300028863,18.922492999552446],[-113.0818790003155,18.898559600045644],[-113.09841200011363,18.874374400258489],[-113.11447099963681,18.849943199918869],[-113.13005099955387,18.825277299907611],[-113.14515700009537,18.80037880014163],[-113.15977499971638,18.775264699606339],[-113.17391199963896,18.749940899652927],[-113.18754599974801,18.724411000267594],[-113.20069900015864,18.698690399642373],[-113.21334799981025,18.672780999843383],[-113.22550200001717,18.646694199777642],[-113.23715999983403,18.620439499883162],[-113.24831399979115,18.594024699980082],[-113.25894900009621,18.567457199690125],[-113.26908900005719,18.540748600267818],[-113.27871699978959,18.513902700449421],[-113.28783400023883,18.486930800216385],[-113.2964479999751,18.459846500016113],[-113.30454300005931,18.432653399834692],[-113.31211899959209,18.405357400124046],[-113.31918299979549,18.377971600409182],[-113.32571399970124,18.350502000067365],[-113.33175699958576,18.322961800247015],[-113.33726499997965,18.295356799776641],[-113.34225499986826,18.267696400168859],[-113.34673300042755,18.239986400252292],[-113.35068500011255,18.212242100192896],[-113.35412599961512,18.18446349999067],[-113.35704800036484,18.156665799986797],[-113.35945099966381,18.12885479990922],[-113.36134299967961,18.101041799739392],[-113.36272400041219,18.073232699929292],[-113.36359400006296,18.045436900192954],[-113.36393000026919,18.017661999801589],[-113.36377000008537,17.989921600101923],[-113.36309799967285,17.962215399820991],[-113.36191600002331,17.934560799941096],[-113.36022899956856,17.906959500180903],[-113.3580319998768,17.879425000263666],[-113.35533100032529,17.851961099825019],[-113.3521419998533,17.824579199570564],[-113.34844200009815,17.797288899763032],[-113.34425400032177,17.770090099678498],[-113.33956900010918,17.743003800285294],[-113.33438899955257,17.716026299973919],[-113.32872800019697,17.689174700252352],[-113.32258600024363,17.662452700032247],[-113.31595600026913,17.635864300397259],[-113.30886100043472,17.609422699797904],[-113.30128500000268,17.58313750029555],[-113.29323600024111,17.55701070018381],[-113.2847140002508,17.53105549971167],[-113.27573399982413,17.505273800045984],[-113.26631199969893,17.479677199743094],[-113.25641600019816,17.454273200048306],[-113.24607099977675,17.429067599790017],[-113.23529099997955,17.404064200402672],[-113.22406000006885,17.37927630016128],[-113.21240200025204,17.354709599868272],[-113.20030199983734,17.330369900150913],[-113.18777500041585,17.306264900105191],[-113.17482799961238,17.282400099984784],[-113.16146100012497,17.25878140024156],[-113.14769700031621,17.235420199782538],[-113.13351400007093,17.21231839977446],[-113.11892700008087,17.189481700120496],[-113.10395799956194,17.166921599552325],[-113.08859299966713,17.144640000136064],[-113.07284500009661,17.12264629978705],[-113.05673199988178,17.100944499589104],[-113.04023700003745,17.079538300252466],[-113.02336900007919,17.058437300241337],[-113.00613400028379,17.037647200358151],[-112.98855599995932,17.017169999795783],[-112.97064200032798,16.997016899610344],[-112.95237699979862,16.977186200083224],[-112.93378400033123,16.957689300121217],[-112.91484800033487,16.93852809999197],[-112.89559900029354,16.919706300405551],[-112.8760380002534,16.901233700375087],[-112.85617099959188,16.883113899886723],[-112.83600599957714,16.865348800107199],[-112.81553599988638,16.847940400229447],[-112.79479200015061,16.83089829961699],[-112.77377300032362,16.814230000414341],[-112.75246399971371,16.79792980002037],[-112.73088800028091,16.782009100040057],[-112.70907599985742,16.76647000039037],[-112.68699599966556,16.751316100158022],[-112.66468000028169,16.736549400334695],[-112.64212799990719,16.722175599924128],[-112.6193469997641,16.708198500360652],[-112.59634400017535,16.694620099937822],[-112.57312799975728,16.681446100357391],[-112.549705999732,16.668674499728525],[-112.52608500042231,16.656310999752975],[-112.50228099986816,16.64435959971587],[-112.47830200023702,16.632822000235251],[-112.45413199989179,16.621700300328712],[-112.42980999973162,16.610996199714975],[-112.40532700024079,16.60071180010965],[-112.38068399966676,16.590850800424221],[-112.35589599960059,16.581413299584256],[-112.33097799983472,16.572404900365996],[-112.30593100041523,16.563823699804061],[-112.28076900018914,16.555671699789229],[-112.25548599977895,16.547950699865055],[-112.23010999957671,16.540660899680915],[-112.2046200004126,16.533805800297557],[-112.17906199991126,16.527383800022506],[-112.15341199966394,16.521400499833362],[-112.12770799962436,16.515848199734762],[-112.10194400041519,16.510734599722127],[-112.0761030003531,16.506059599970683],[-112.05023199980684,16.501821499862444],[-112.02430000004489,16.498018300204535],[-111.99835200044436,16.494657500443452],[-111.97237400035971,16.491731600233322],[-111.94638799990616,16.489242599666397],[-111.9203869996602,16.487190200167731],[-111.89439399978318,16.485572800044849],[-111.86840800022895,16.484394100007876],[-111.84243799961388,16.483650199697081],[-111.8164900000134,16.483341199836616],[-111.79057300004382,16.483463299891525],[-111.76470200039688,16.484018300304456],[-111.73887600012722,16.485006300000862],[-111.71310399964977,16.486419699709529],[-111.68738599986392,16.48826410040806],[-111.66174299993941,16.490531900127223],[-111.63619199976091,16.493225099858591],[-111.61071000006638,16.496341700409289],[-111.5853270004406,16.499879799713142],[-111.56004299998438,16.503833800389714],[-111.53487400033475,16.508203500091611],[-111.50980399985463,16.512987100174655],[-111.48487100029632,16.518180800104005],[-111.46006000006884,16.523784599879548],[-111.4353940002328,16.529792799598169],[-111.41086599956611,16.536205300334473],[-111.38649699993653,16.543018299754863],[-111.36228200021407,16.550226199579583],[-111.33823400009891,16.557828899983861],[-111.31435399963726,16.565820700165318],[-111.29066499988971,16.574199699856422],[-111.26715899958805,16.582960100228604],[-111.24383499958549,16.592102100032037],[-111.2207109998127,16.601615900253705],[-111.19780700029276,16.611503599911373],[-111.17510200005717,16.621759400176302],[-111.1526259995901,16.632377600246173],[-111.13036299995241,16.643358200120986],[-111.10834499992171,16.654689799994401],[-111.08655499961344,16.666374200309235],[-111.06501800018049,16.678403899820239],[-111.0437319997319,16.690774900141662],[-111.02268200027402,16.703483600387983],[-111.00192299984644,16.716524100107279],[-110.9814069998331,16.729890800120472],[-110.96115100011849,16.743581800160086],[-110.94120000007985,16.757587400138561],[-110.921531999602,16.771905900337174],[-110.90213800006853,16.786533400396252],[-110.88305699968072,16.801460300052952],[-110.8642650000296,16.816682799671582],[-110.84578699957029,16.832195300073181],[-110.82760600021663,16.847993899998642],[-110.80973099968577,16.864072799720077],[-110.79218299984547,16.88042449979099],[-110.77465800016648,16.896755199792779],[-110.75683600028111,16.912784599929466],[-110.73870100035077,16.928525899550777],[-110.72023799968383,16.943998300081603],[-110.70140800007903,16.959215199621894],[-110.68225099978372,16.974191699587379],[-110.66270400038923,16.988945000411604],[-110.64277599961258,17.003496200189602],[-110.62244399999054,17.017858500069849],[-110.60200499993073,17.032339100369313],[-110.58176400000849,17.047227900247549],[-110.56172899969346,17.062530499782895],[-110.5419080002539,17.078239400428117],[-110.52232400005244,17.094350799849678],[-110.5029679995734,17.110862699753909],[-110.48387100024638,17.12777519996564],[-110.46501200020356,17.145082499857608],[-110.44643399962928,17.162780799794234],[-110.42810099956137,17.180864300047574],[-110.41005700023027,17.199335099635277],[-110.39230299988344,17.218187299904116],[-110.37484000036562,17.237417200143796],[-110.35768099957835,17.257017100359008],[-110.34082800031189,17.276985200107049],[-110.32430299998339,17.297317500102679],[-110.30810500034539,17.318006500000138],[-110.29224400006046,17.339052199799312],[-110.27671799993567,17.360448799772428],[-110.26155100017843,17.38218499993792],[-110.24675799968185,17.404262500014511],[-110.23232300040604,17.426673900380365],[-110.21826200039089,17.449409500048546],[-110.20459000032815,17.472471200185907],[-110.19129899984887,17.495845799644087],[-110.17842100042873,17.519531200304812],[-110.16593900038447,17.543519999848229],[-110.15387699992351,17.567804300428236],[-110.14223499994517,17.592380500259992],[-110.13101200040342,17.617240900247509],[-110.12023900002976,17.642379799588241],[-110.10990099993109,17.667787599818041],[-110.10001399994604,17.69345860013442],[-110.09059099977475,17.719383200274592],[-110.08161899971697,17.745559699620571],[-110.07311999988798,17.771972699980267],[-110.06509400028779,17.798623999997744],[-110.05754900038596,17.825498599880632],[-110.05049099955988,17.852592500343746],[-110.04391500027697,17.879892299690027],[-110.03784900023106,17.907396299999391],[-110.03228800009106,17.93509290001748],[-110.02724499955701,17.962974499573647],[-110.02270499973588,17.991029699760986],[-110.01869199993575,18.019252799777007],[-110.01519799978774,18.047635999801685],[-110.0122379999836,18.076169999945705],[-110.00980400015436,18.1048431000292],[-110.00791899956209,18.133646000162912],[-110.00656900025905,18.162574799987169],[-110.00576800019297,18.191616099603436],[-110.0055239997327,18.220760299648248],[-110.00584400010041,18.249999999600448],[-110.00671399975118,18.279323600004261],[-110.00814099990714,18.308723399965061],[-110.0101319999917,18.338188200225375],[-110.0127029998435,18.367706299706128],[-110.01583899967,18.397270199859975],[-110.0195540001169,18.42687229961706],[-110.02384900033098,18.456499100153508],[-110.02871699998946,18.486141199956535],[-110.03417199973791,18.515788999662732],[-110.04021499962244,18.545432999733293],[-110.04683700012737,18.575059900094459],[-110.05404699986906,18.604661900026827],[-110.06184399970073,18.634225800180673],[-110.07022899966853,18.663745899753621],[-110.07920099972625,18.693206799654206],[-110.08877599971254,18.722600899711892],[-110.09893799978875,18.751916899945115],[-110.10969500032388,18.781146999634473],[-110.12104799956541,18.810270300334253],[-110.13299600016518,18.839286800245759],[-110.14553099995561,18.868184999738105],[-110.15865299983597,18.896949800093353],[-110.17235600042898,18.925575299960258],[-110.18667599979744,18.954042400436549],[-110.20156100004004,18.982349400004921],[-110.2170409998422,19.010479000205862],[-110.2331010003108,19.038425400412052],[-110.24974799997011,19.066173599931858],[-110.26728800034084,19.093425799960812],[-110.28601100040726,19.119863500200495],[-110.30587800016946,19.14545629996843],[-110.32687399983513,19.170173599831912],[-110.34897600014222,19.193988799643535],[-110.37215399970722,19.216871299970649],[-110.39636200000621,19.238790499582024],[-110.42160000013979,19.259719800128835],[-110.44782299983149,19.279638299568035],[-110.47470100005103,19.298803300232237],[-110.50190700010785,19.317497299860634],[-110.52943399967927,19.335721999970474],[-110.55727400019487,19.35346220022052],[-110.58541900038648,19.37072180007118],[-110.61385300041553,19.387489299891399],[-110.64256299968258,19.403766599948767],[-110.67155500026297,19.419542300436945],[-110.70081299962015,19.434822100359781],[-110.73031600038303,19.449592599818743],[-110.76007100017642,19.463855699980684],[-110.79006200006114,19.477607700135366],[-110.82028199971444,19.490842799655638],[-110.8507079998742,19.50355910007255],[-110.88133999964117,19.515752799951883],[-110.91217000044509,19.527423900192957],[-110.94318399984161,19.538566600168622],[-110.97437300011376,19.549180999703538],[-111.00570699987804,19.559263200236614],[-111.03722399998753,19.568813299794101],[-111.06887800011953,19.577825500446636],[-111.10064700015886,19.586299900220354],[-111.1325530002207,19.594234499922379],[-111.16457400018987,19.601631199820133],[-111.19669300018171,19.608482399743082],[-111.22890499996566,19.61479190022618],[-111.26119999997991,19.620557800102517],[-111.29355600010922,19.625778200004049],[-111.32598099982317,19.630455000198253],[-111.3584370000674,19.634586300417595],[-111.39095300038059,19.638170200394597],[-111.42349199995573,19.641210599589613],[-111.45606200006114,19.643705399884425],[-111.48862499984375,19.645652799936897],[-111.52118699958027,19.647054700014507],[-111.55374099984715,19.647914899752948],[-111.58626599967607,19.648233400051538],[-111.61875899982789,19.648008299743367],[-111.65121500007211,19.647243500087598],[-111.68360900015512,19.645938900360079]]]},"properties":{"objectid":538,"radii":34,"stormid":"ep172026","basin":"ep","stormnum":17,"advnum":"24","validtime":"2026092615","synoptime":"2026092612","timezone":"UTC","tau":0,"ne":110,"se":80,"sw":90,"nw":100,"idp_source":"ep172026_2026092615_initialradii","idp_filedate":1790434958000,"idp_ingestdate":1790435238000,"st_area(shape)":8.3066903635244085,"st_perimeter(shape)":10.248114183388525,"binnumber":"EP2"}},{"type":"Feature","id":539,"geometry":{"type":"Polygon","coordinates":[[[-111.69290199972738,18.648792300124683],[-111.70666500038936,18.64694979969363],[-111.72037500040585,18.644876499950669],[-111.73400899961553,18.642580000167015],[-111.74755900034751,18.640056599632487],[-111.76103200022652,18.637315799684529],[-111.77440600003678,18.634349799603683],[-111.78768900014717,18.631170299569817],[-111.80088799998111,18.627769499762735],[-111.8139950000691,18.624157000445337],[-111.8269880002959,18.620332699994265],[-111.83987400008493,18.616296799857594],[-111.85265400038173,18.612054800288945],[-111.86532600019467,18.607610699674183],[-111.877869000354,18.602960600351537],[-111.89028900023709,18.598112099793696],[-111.90260299972857,18.593065299624016],[-111.91476400025829,18.587825799920893],[-111.92681100002756,18.582391700416792],[-111.93870499993568,18.57677459966817],[-111.95047799965988,18.570964800285424],[-111.96210499984579,18.564973800100915],[-111.97358699964025,18.558801699838739],[-111.98492399994257,18.552452100384244],[-111.99610900042995,18.545932799759044],[-112.00713299978804,18.539236099766356],[-112.01800500023046,18.532373400212407],[-112.02872499995868,18.525342899755174],[-112.03928400035625,18.518152200363886],[-112.04966699983208,18.510801300239962],[-112.05988299970056,18.503295900185776],[-112.06993099991564,18.495637899569545],[-112.07980300010826,18.487831099825542],[-112.08950799979425,18.47987940041412],[-112.09903000003436,18.47178269971198],[-112.10836799988317,18.463548700412332],[-112.11753800007853,18.455179200260034],[-112.12651799960588,18.446678200338795],[-112.1353230000563,18.438053100270508],[-112.143929000323,18.429298399801439],[-112.15233600040602,18.420423500444315],[-112.16055299982099,18.411430399593428],[-112.16867100006652,18.402395199678836],[-112.17674299998936,18.393390699920985],[-112.1847840002813,18.384408999775644],[-112.19280200041192,18.375461599773132],[-112.20079800042726,18.366533299572268],[-112.20877100028133,18.357626000339792],[-112.21670500013556,18.348739599553028],[-112.22464000003589,18.339874299559426],[-112.2325519997749,18.331024199907063],[-112.24037900009068,18.322113000314857],[-112.24803899989985,18.313075999957562],[-112.2555310000555,18.3039111996423],[-112.26285599970453,18.294624300171449],[-112.27000400018437,18.2852153995712],[-112.27698500015754,18.275690099718474],[-112.2837829997855,18.266050299981487],[-112.29042100012896,18.256301899912899],[-112.29686000028869,18.246442799595684],[-112.30311600010322,18.236476900288835],[-112.3091889995726,18.226407999829462],[-112.31507899959604,18.21624179991926],[-112.32077000033513,18.205982200018639],[-112.32627899987585,18.195625299767926],[-112.33159599955565,18.18518070032917],[-112.33672300036608,18.17464639981165],[-112.34164399977067,18.164032000276734],[-112.34638199972943,18.153333700290148],[-112.35091400008093,18.14256289965823],[-112.35523999992597,18.131717699912087],[-112.35938300032512,18.12080000041982],[-112.3633119998488,18.109815600010052],[-112.36704999955776,18.098768200292341],[-112.37057500023599,18.087659799560242],[-112.37390099983116,18.076496100414829],[-112.37701400039572,18.065279000425676],[-112.37992099955437,18.054008499592726],[-112.3826220000052,18.042696000420221],[-112.38510899958055,18.03133580030709],[-112.38739000044808,18.019939399783595],[-112.38947300027866,18.008506799749171],[-112.39133499981028,17.997039799747085],[-112.39298999968867,17.985544200404661],[-112.39443199963699,17.974021900190678],[-112.39565999960922,17.962480500175104],[-112.3966749996514,17.950916299647645],[-112.39749100040922,17.939338700121027],[-112.39807899964603,17.927751500331624],[-112.39846799959838,17.916154899928813],[-112.39862799978226,17.904554400065649],[-112.39858999982852,17.89295009966753],[-112.39833099957588,17.881351500071787],[-112.3978580002464,17.869758600379271],[-112.39717100004151,17.858173399782686],[-112.39627099990662,17.846601500159238],[-112.395171999588,17.835046800069904],[-112.39384500044633,17.823511099957443],[-112.39231099985267,17.81200030027378],[-112.39057199969795,17.800516099838262],[-112.38862599988988,17.789064400002189],[-112.38646700015187,17.777645100041468],[-112.3840940004377,17.766263999683986],[-112.3815160002631,17.754924799639923],[-112.37873100043521,17.743629500001589],[-112.3757319997319,17.732383699947945],[-112.37253599983643,17.721185699760383],[-112.36914099975724,17.710044900052253],[-112.36554000007084,17.698959399656701],[-112.36173199983182,17.687938699911228],[-112.35773499987027,17.676981000373019],[-112.35353899972495,17.666091900221147],[-112.34912899960358,17.655277299907596],[-112.34452799966738,17.644531200054985],[-112.33972899959355,17.633867300036002],[-112.33474700007389,17.62328340010896],[-112.32955900004771,17.612785300001747],[-112.32418799967633,17.602373100438399],[-112.31863399985912,17.59205250042271],[-112.31288099985818,17.581827199765598],[-112.30694599955814,17.571695299998225],[-112.30082699976612,17.561668399677046],[-112.29452499962895,17.551740600148719],[-112.28804800041479,17.541921599702221],[-112.28138699991001,17.532211300311417],[-112.27455899979793,17.522611600445146],[-112.26754800023991,17.513130200098772],[-112.26036800008302,17.503761300443784],[-112.25301399999603,17.49451449994433],[-112.245498999679,17.485393500210023],[-112.23780800023894,17.476398499990921],[-112.22995799976178,17.467531199905068],[-112.2220310002304,17.458721200123421],[-112.21408099963833,17.449895900175818],[-112.20613099994557,17.441051500426568],[-112.19815800009155,17.43218799997635],[-112.19016300012225,17.423301699913679],[-112.18215899973796,17.414390600146191],[-112.17411800034535,17.405452699682485],[-112.16603099973076,17.396486299703099],[-112.15792099985418,17.387489300291122],[-112.14969600007026,17.378534300118019],[-112.14128099961835,17.369697600364077],[-112.13268299972054,17.360984800208485],[-112.12390899980039,17.352392199840267],[-112.11494400006546,17.34392929969755],[-112.10579700003143,17.33559800004781],[-112.0964659996061,17.327402099627363],[-112.08696700042663,17.31934739996268],[-112.07730099984116,17.31143380032978],[-112.06744400034023,17.303663299921482],[-112.05744200044785,17.296043399983034],[-112.04725600016417,17.288574200339212],[-112.03691099974276,17.281257600358117],[-112.02640499999069,17.274103200302591],[-112.01574700042363,17.267110799623822],[-112.00492899977343,17.260282500037476],[-111.99395800016146,17.25362210027987],[-111.98283399978914,17.247127500433919],[-111.97156499992474,17.240812300047764],[-111.96015199971492,17.234672499836165],[-111.94859299996688,17.228712099983568],[-111.93689700019632,17.222932800208696],[-111.92507900019558,17.217338599796676],[-111.91311599980344,17.21193499990045],[-111.90102399975768,17.206718399634553],[-111.88879399964327,17.20170019970459],[-111.87645699999047,17.196872700115136],[-111.8640059995771,17.192247399597932],[-111.85144000015578,17.187822299859363],[-111.83875299965109,17.183597599649659],[-111.82595799956192,17.179580700389124],[-111.81307199977289,17.175773600371485],[-111.80007900044541,17.17217249996105],[-111.78697999982705,17.168785100052446],[-111.77379599978548,17.165615099557328],[-111.76052900041293,17.162660600006802],[-111.74716200002621,17.159923599694537],[-111.73371899973193,17.157407800229919],[-111.7202000004296,17.15511319981448],[-111.70661900006672,17.15304569979935],[-111.69295500037288,17.151205099635774],[-111.67922999966464,17.149587599688118],[-111.66543600027109,17.148200999776464],[-111.65159599965557,17.147045100251319],[-111.63771099966283,17.146123900397811],[-111.62376400040819,17.145435300299027],[-111.60977199997774,17.144981399871824],[-111.59574100044671,17.144763899734301],[-111.58168799990119,17.144783000435268],[-111.5675889999323,17.145042399986892],[-111.55346699980208,17.145540199920447],[-111.5393299998795,17.146278400328072],[-111.52516899974944,17.147256899586409],[-111.51099399987311,17.148479500029055],[-111.49681099962783,17.14994429958989],[-111.48262800028186,17.151653300159808],[-111.46844500003664,17.153604499847916],[-111.45426199979136,17.155801799913263],[-111.44009400023782,17.158243200263598],[-111.42594099957739,17.160930600267136],[-111.4118120000237,17.163866000016014],[-111.39769700021628,17.167045599874655],[-111.38361400008591,17.17046930001834],[-111.36956000039362,17.174138999815113],[-111.35555300017074,17.178056700256661],[-111.34157600043198,17.182218599908595],[-111.32765999990897,17.186624500020798],[-111.31378899966251,17.191278499703117],[-111.29997300015373,17.196174599578228],[-111.2862169998146,17.201316799830579],[-111.27252999995943,17.206703200192692],[-111.25891099964281,17.21232990030478],[-111.2453690001791,17.218200699802594],[-111.23191100009251,17.22431179994976],[-111.2185360002361,17.230663299671676],[-111.20524599980297,17.237255100042944],[-111.19206199976139,17.244085299896824],[-111.1789630000423,17.251151999865044],[-111.16596200034593,17.258457200039913],[-111.15308400002647,17.265996900236871],[-111.14031200009862,17.27376560020241],[-111.12773099998554,17.281843200203639],[-111.11544800012501,17.290290800180401],[-111.1034319999867,17.299100899786822],[-111.09172799984719,17.308267600369618],[-111.08033000032918,17.317785300051696],[-111.06924399991055,17.327644299644874],[-111.05847899990584,17.337837200426577],[-111.04805000010731,17.348358199971074],[-111.03796399993854,17.359199500256864],[-111.02816000018379,17.370275500214291],[-111.01854700024376,17.381511700005092],[-111.00914800027988,17.392906200261052],[-110.999962000246,17.404457099815431],[-110.99097400034975,17.416160599931857],[-110.98220799989917,17.428007100347543],[-110.97367100011644,17.440002399891],[-110.96534700026376,17.452135099655266],[-110.95723700038718,17.464403200447464],[-110.94934799991017,17.476802800109283],[-110.94168900014716,17.489336000356275],[-110.93426500042932,17.501991299758799],[-110.92707099962684,17.514768600290836],[-110.92010500034542,17.527664200342713],[-110.91338299972557,17.540672300186657],[-110.90689099981967,17.553790999555133],[-110.90064999979757,17.567014700168443],[-110.89465300023568,17.58034130031092],[-110.88888500044231,17.593765299728943],[-110.88338500041732,17.607280699944511],[-110.87811300011475,17.620889699799932],[-110.87310000006488,17.634578699747351],[-110.86832400015237,17.648353600238579],[-110.86380799963939,17.66220470028685],[-110.85955000023222,17.676128399905849],[-110.85555300027067,17.690118800442406],[-110.85179899982387,17.704175900097823],[-110.84830499967592,17.718292200324925],[-110.84506200031097,17.732465700132082],[-110.84210199960751,17.746686899980602],[-110.83938600026363,17.760959600405386],[-110.83692900027307,17.775274300069043],[-110.83474700037368,17.789627100410485],[-110.83282499987376,17.804012299728015],[-110.83116099958039,17.818427999552682],[-110.82975000016228,17.832872400341159],[-110.82862899972844,17.847333899939656],[-110.82775900007772,17.861810699704165],[-110.82714799978027,17.87630460007739],[-110.82681299962013,17.890802399910967],[-110.82675200040438,17.905305899647715],[-110.82693499985027,17.91980740019153],[-110.82740800007906,17.93430329975763],[-110.8281330002377,17.948793399595843],[-110.82912400007245,17.963264500356559],[-110.8303760002521,17.977716399692213],[-110.83189400010792,17.992149399775144],[-110.83368700005491,18.006551699701333],[-110.83573900025453,18.020921699576888],[-110.83805099985364,18.035255400116739],[-110.84063000007433,18.049550999978806],[-110.84347499997119,18.063798899799508],[-110.84658100021289,18.078000999846381],[-110.84994499976182,18.092145900313199],[-110.85356100013996,18.106233600300527],[-110.85744500028642,18.120260200348127],[-110.86158799978625,18.13422010037749],[-110.86598200006915,18.148109400028943],[-110.87063599975147,18.161920500031215],[-110.87554200026301,18.175655399577181],[-110.88069899975892,18.189306299746079],[-110.88610800008405,18.202865600367318],[-110.8917769998086,18.216335299734453],[-110.89767500020099,18.229713399553873],[-110.90382399957781,18.24298480020849],[-110.91020999999142,18.256156900420763],[-110.91685499975836,18.269218400209127],[-110.92373699966271,18.282167400205481],[-110.93084700018881,18.295002000142347],[-110.93820200032195,18.307716400291781],[-110.94577799985473,18.320304899851408],[-110.95359000037814,18.332767499720489],[-110.96163900013966,18.345100400263391],[-110.96991000024622,18.357292199875246],[-110.9784090000752,18.369346600165613],[-110.98712199988029,18.381259900424197],[-110.99605599998432,18.393026399848623],[-111.00521899985688,18.404640199785547],[-111.01457200039738,18.416101499884462],[-111.02414700038366,18.427406299960921],[-111.03393600034605,18.438550900204007],[-111.04399900035349,18.449457199889991],[-111.0544130003596,18.460046799720146],[-111.06516999999542,18.470312100423257],[-111.07626299983747,18.480239899951584],[-111.08767700009338,18.489829999554956],[-111.09939600002531,18.499067299616343],[-111.111426999956,18.507951700310855],[-111.12374899981637,18.516471899858459],[-111.13636000041362,18.524620100237598],[-111.14917799976479,18.532464999760066],[-111.162094000038,18.540075300334991],[-111.17514800037981,18.547447199628721],[-111.18830099989111,18.554584499974851],[-111.20155300037055,18.561483399939107],[-111.21489699969669,18.568140000061078],[-111.22833999999091,18.574556400257791],[-111.24187500003114,18.58073230015566],[-111.25549300030161,18.586664199593258],[-111.26918799962641,18.592353800087949],[-111.28295100028834,18.597797400030117],[-111.29678299963564,18.602996799862581],[-111.31069199983585,18.607948299774364],[-111.32465399978219,18.612655599576385],[-111.33866900037395,18.617118799992738],[-111.35273699981258,18.621328399686035],[-111.36685199962,18.625295599712274],[-111.38100400023433,18.629011200007028],[-111.39518699958029,18.632478699832291],[-111.40940100035579,18.635702100271828],[-111.42365300018571,18.638675699624002],[-111.43791999980806,18.641401300130042],[-111.45219399975321,18.643880800258842],[-111.4664840004362,18.646112399567699],[-111.48078900001224,18.648096099855252],[-111.4950870001648,18.649837500300521],[-111.5093919997409,18.651330900101073],[-111.52368200042389,18.65258030034073],[-111.53795600036904,18.653583500378375],[-111.55222299999139,18.654342699955805],[-111.56646000002888,18.654863400225906],[-111.58067299985896,18.655141799754404],[-111.59484899978139,18.655174300353792],[-111.60899400007293,18.654972100382281],[-111.62310000036462,18.654529599761361],[-111.63716899984939,18.653850599925363],[-111.65118400044116,18.652935000150251],[-111.66514600038749,18.651786799721151],[-111.67904700021882,18.650404000344508],[-111.69290199972738,18.648792300124683]]]},"properties":{"objectid":539,"radii":50,"stormid":"ep172026","basin":"ep","stormnum":17,"advnum":"24","validtime":"2026092615","synoptime":"2026092612","timezone":"UTC","tau":0,"ne":50,"se":50,"sw":40,"nw":40,"idp_source":"ep172026_2026092615_initialradii","idp_filedate":1790434958000,"idp_ingestdate":1790435238000,"st_area(shape)":1.8616633711629373,"st_perimeter(shape)":4.8414999359952828,"binnumber":"EP2"}},{"type":"Feature","id":540,"geometry":{"type":"Polygon","coordinates":[[[-111.69542700015586,18.398580600214643],[-111.70460499982079,18.398578600122448],[-111.71377600006224,18.398427999652597],[-111.7229309995659,18.398122800327087],[-111.73209400033772,18.397666899807746],[-111.74124100037176,18.397058500349658],[-111.750381000083,18.396297500329524],[-111.75949899967901,18.395385700190047],[-111.76860000028967,18.394323299580776],[-111.77767899988584,18.393106499765281],[-111.78674299968958,18.391742700365455],[-111.7957690004389,18.390224499960823],[-111.80477100008147,18.388561200239337],[-111.81373599981646,18.38674549960524],[-111.82266199955154,18.38478469965429],[-111.83157300039358,18.38267139986533],[-111.84042400026732,18.380413099684915],[-111.84923600014122,18.378007899744944],[-111.85800199969242,18.375457800137497],[-111.86672199982036,18.372760799871173],[-111.87538099983317,18.369920700380135],[-111.88400299993839,18.366935700322472],[-111.89255500041287,18.363807699965548],[-111.9010540002418,18.360540400019602],[-111.90948499963292,18.357132000041929],[-111.91786200013109,18.353584299575914],[-111.92615500035288,18.349893599710015],[-111.93439499992922,18.346071200425683],[-111.94255799955192,18.342111599670716],[-111.95065299963613,18.338016499861737],[-111.95866400034322,18.333787900191567],[-111.96659900024355,18.32942390039284],[-111.97445700019028,18.324930200368613],[-111.98220799969931,18.320306800118885],[-111.9898909996698,18.315559400446091],[-111.99748199989426,18.310680400280376],[-112.00498200041886,18.30567739979233],[-112.01239000029818,18.300550499705935],[-112.01969900010869,18.295299500371812],[-112.02691700021927,18.289930300443132],[-112.03402699984605,18.284444800187543],[-112.04103099998059,18.278839100144523],[-112.04788999972362,18.273078900171242],[-112.0545809998132,18.267139399663677],[-112.06106600029557,18.26102070024524],[-112.06736800043279,18.254724499835959],[-112.07345599969454,18.248260500321976],[-112.07935300004084,18.241630600172186],[-112.08503000013428,18.234838500096828],[-112.09050800004405,18.227891900091265],[-112.0957570001853,18.220794699615851],[-112.10083799977377,18.21358679979113],[-112.10576600040048,18.206310299680752],[-112.11055800015151,18.198966999727418],[-112.11519599999531,18.191554999663651],[-112.11968200002417,18.18408010011666],[-112.12402299966163,18.176546099822815],[-112.128219999853,18.168952899856606],[-112.13226300013724,18.161308300038172],[-112.13616200007613,18.153608300183066],[-112.13990800015398,18.145862600378848],[-112.14350100037075,18.138065300173594],[-112.14694199987332,18.130226099654919],[-112.15023000041407,18.12234310035393],[-112.15336600024062,18.114419899558868],[-112.1563419998833,18.106464399612491],[-112.15917199998773,18.098472600330354],[-112.16184199990829,18.090450299641759],[-112.16435199964496,18.082403200147724],[-112.16671799993566,18.074327500413972],[-112.16892199995021,18.066228900343617],[-112.17098199961947,18.058111199572352],[-112.17288200000422,18.049972499631281],[-112.17462200020503,18.041822399883984],[-112.1762079995994,18.033659000062926],[-112.17765799991668,18.025485999979082],[-112.17892499988875,18.017305399724535],[-112.18005399979216,18.009120900009691],[-112.18101500004212,18.00093459985203],[-112.18183099990063,17.992748299694426],[-112.1824949999442,17.984565700247003],[-112.18301399959631,17.976390799895626],[-112.18338000028666,17.968223600438932],[-112.18357800042429,17.96006970015668],[-112.18363200021656,17.951927199680654],[-112.18353300014775,17.943801899638117],[-112.1832810002179,17.935695599572398],[-112.18287699957375,17.927610400299898],[-112.18232700029074,17.919549900008008],[-112.18162500029342,17.91151620041245],[-112.1807860002736,17.903509100065037],[-112.17979400039269,17.895534500317069],[-112.17866499958996,17.887594199812611],[-112.17738299982551,17.879692099810711],[-112.17595699971565,17.871824299951641],[-112.17439999985999,17.863996500138512],[-112.17268399986659,17.856214500099213],[-112.17083700012734,17.848480200101278],[-112.16885400041167,17.840791699877173],[-112.16672500025845,17.833152799961908],[-112.16445900008267,17.82556720016629],[-112.16207099967681,17.818037000407401],[-112.15952299998634,17.810560199693612],[-112.15686799985821,17.803144499818927],[-112.15406800023794,17.795789700234593],[-112.15113800001859,17.788499800225736],[-112.14807900014563,17.781272900424142],[-112.14489699999643,17.774116500276421],[-112.14158600019368,17.76702499970412],[-112.13816099963032,17.760005999777206],[-112.13461299969009,17.753061300039121],[-112.13093600009626,17.74619289968274],[-112.12714399969576,17.739400900331418],[-112.1232219995955,17.732688900172718],[-112.11919400000301,17.726053200295098],[-112.1150589999728,17.719505300329502],[-112.11080199971241,17.713037500280564],[-112.10643799991368,17.706657400318932],[-112.10196699967719,17.700366999637481],[-112.09740399969473,17.694162399675122],[-112.09272000042756,17.688051199703239],[-112.08793600014621,17.682031600178334],[-112.08305399984215,17.676107399836781],[-112.07807200032244,17.670276600384966],[-112.07298300036507,17.664543200208641],[-112.06781000013132,17.658910800193439],[-112.06254600019764,17.653373700436077],[-112.05718999961869,17.647941600124909],[-112.05175800003155,17.642614400334423],[-112.04623399979914,17.637386300437527],[-112.04061899986687,17.632268899889937],[-112.03491999965814,17.627250699959973],[-112.02921299997985,17.622272500075951],[-112.02358999967862,17.6172485004181],[-112.01802800039178,17.612180700179294],[-112.01251999999789,17.607063299631704],[-112.00708000004187,17.60189059977148],[-112.00169399987811,17.596666300409595],[-111.99635299999085,17.591377300222348],[-111.9910740002648,17.58602910036285],[-111.98582500012355,17.580614099761021],[-111.98055299982099,17.575202899694204],[-111.97515099981871,17.569868099733128],[-111.96965800011651,17.564615200131527],[-111.96404300018423,17.55944439963946],[-111.95833599960662,17.554359399866541],[-111.95251500006708,17.549360299738169],[-111.94657899972094,17.544450799964579],[-111.94055199967494,17.539630899646454],[-111.93442500041334,17.534904500042785],[-111.92819199986081,17.530269600162057],[-111.92186699956227,17.525731999732159],[-111.91544300009429,17.521291699652352],[-111.90891999965817,17.516954399825806],[-111.90231299984498,17.512718199985102],[-111.89559899959409,17.508581199862647],[-111.88881699980459,17.504550899804315],[-111.88192700043061,17.500629399727131],[-111.87496200029597,17.496814700438222],[-111.86790500041536,17.493110699599242],[-111.86077099968179,17.489517200258717],[-111.8535539996173,17.486040100170612],[-111.84626799996812,17.482675599699292],[-111.83889800004255,17.479431200089948],[-111.83145899963301,17.47630309990825],[-111.82394400021536,17.473295200413304],[-111.81636000031369,17.470407499806413],[-111.80871600034305,17.467643699697135],[-111.80099500041882,17.465002100366803],[-111.79319799968783,17.462486300002865],[-111.78537000022521,17.460096400228849],[-111.77746599995584,17.457834199688705],[-111.76950099957139,17.455701800098154],[-111.76149700008637,17.453701000101205],[-111.75343299963311,17.451829900329756],[-111.74531600033305,17.450090400151964],[-111.73715199976488,17.448486300102786],[-111.72894299981948,17.447017700006995],[-111.72068799955144,17.445684400215043],[-111.71240199965246,17.444486600376422],[-111.70407100037625,17.443428000302106],[-111.6957089996705,17.44250490018112],[-111.68732499974885,17.441724800359395],[-111.67890199982736,17.441082000034442],[-111.67044800027492,17.440580399565931],[-111.66197199970793,17.440221800296001],[-111.65348100024789,17.440004300158478],[-111.64496599968106,17.43992999996965],[-111.63642899989833,17.43999669998783],[-111.62787600027707,17.440208400397523],[-111.61931600033307,17.440566999667453],[-111.61074800002007,17.441068600135907],[-111.60217300028364,17.441717100364031],[-111.59359000017827,17.442508699816756],[-111.58500700007289,17.443447100103754],[-111.57643899975994,17.444534300417786],[-111.56785599965457,17.445764500131702],[-111.55929599971051,17.447143599697483],[-111.55075099955889,17.448667500005286],[-111.54220600030658,17.450340300164839],[-111.53367599994732,17.452157999991869],[-111.52517700011839,17.454124499845932],[-111.51669300008177,17.456235900266734],[-111.50822399983764,17.458494200447149],[-111.49978600012372,17.460899400387177],[-111.49137900004069,17.463449499994567],[-111.48300899986538,17.466148399629105],[-111.47467000022021,17.46899029956279],[-111.46637699999843,17.471977199887988],[-111.45811500030692,17.475112900240276],[-111.44989799999263,17.478389699725028],[-111.44173400032378,17.481811499601179],[-111.43360899975545,17.485378299868785],[-111.42554500020151,17.489084200075922],[-111.41753400039369,17.492935199599913],[-111.40957600033204,17.496927300055006],[-111.40168000043155,17.501060499642506],[-111.39383700027724,17.505332899893574],[-111.38607800039932,17.50974270036545],[-111.37837200026752,17.514291800426406],[-111.37074300008931,17.518980000426836],[-111.36318200034896,17.523801800113119],[-111.35574299993942,17.528797099706537],[-111.34845700029024,17.533996600263038],[-111.34133900029451,17.539394400431377],[-111.33438099958335,17.544990500211554],[-111.3276060001167,17.550781199792652],[-111.32100699977315,17.556756999635979],[-111.31458300030511,17.562919600359407],[-111.30834999975258,17.569263499910733],[-111.302315000237,17.575782799636613],[-111.2964250002135,17.582437500390483],[-111.29066499988971,17.58918570006017],[-111.28502699979612,17.596031200079949],[-111.2795099998865,17.602970100090204],[-111.27413200009164,17.609998700279959],[-111.26888299995039,17.617114999657645],[-111.26376300036208,17.62431909984673],[-111.25875899982788,17.631605100395234],[-111.25390599996183,17.638977100413001],[-111.24918399984165,17.646423299895503],[-111.24459799969782,17.653949700018757],[-111.2401499996227,17.661552400423091],[-111.23584699993899,17.66922380003848],[-111.23167399995504,17.676965700207063],[-111.22765399983211,17.684778199854179],[-111.22377800005455,17.69265750024357],[-111.22003900029955,17.700597799848708],[-111.21644600008273,17.708597200200757],[-111.21299700021132,17.716657599768553],[-111.2097170000394,17.724771500004863],[-111.20656600042048,17.732942599821286],[-111.20356799976327,17.741163299946493],[-111.20072199982036,17.749433499656448],[-111.19802899973843,17.757745700403916],[-111.19548000000191,17.766105700118089],[-111.19309199959599,17.774505600053544],[-111.19086500031943,17.782943699592181],[-111.18877400011991,17.791416199997798],[-111.18685199961999,17.799924899914345],[-111.18508900015712,17.80846210024589],[-111.18347899965602,17.817026100374392],[-111.18203699970769,17.825616799575755],[-111.18072500035839,17.834232300280576],[-111.17959599955566,17.842866899887667],[-111.17860399967475,17.851518600103475],[-111.17778799981625,17.860185599585918],[-111.1771160003031,17.868865999866159],[-111.17661299959019,17.877552000224796],[-111.17626999996043,17.886251399582591],[-111.17607900014565,17.894949000296265],[-111.17605599998433,17.903650299921537],[-111.17618599968404,17.912353499814287],[-111.17648299989042,17.921047200168289],[-111.1769329999579,17.929740899622971],[-111.17755099967877,17.938423200170689],[-111.17831399979116,17.947094000188088],[-111.17925299992589,17.955749500039531],[-111.18033600040599,17.964389800449055],[-111.18158699964022,17.973011000157669],[-111.18300600032654,17.981609300429],[-111.18455499981332,17.990182899921024],[-111.1862790001756,17.998727800247934],[-111.18816399986861,18.007245999703287],[-111.19019299990691,18.01573180018255],[-111.19238999959873,18.024181400251564],[-111.19473299972805,18.032590899550542],[-111.19723499999515,18.040964100413021],[-111.19988299980048,18.04929349979534],[-111.20268200027402,18.057577100303092],[-111.20563499975532,18.065811200326777],[-111.20873999995092,18.073997499585062],[-111.21199800000761,18.082128500430088],[-111.21540799987918,18.090206100431317],[-111.21896400018835,18.098226499953171],[-111.22267200031246,18.106182099724265],[-111.22650900009018,18.114078499823052],[-111.23049899972898,18.121908199903658],[-111.23464999959771,18.129673000408786],[-111.23892199965047,18.137367199636685],[-111.24334699956427,18.14498899984261],[-111.24790200007715,18.152534499767512],[-111.25260200008216,18.160003700310654],[-111.25743099974073,18.167396499848735],[-111.26239800036734,18.17470549965924],[-111.26750200011713,18.181928599825142],[-111.27275100025838,18.189069699806964],[-111.27811400026081,18.196123099701424],[-111.28362299980148,18.203084900048225],[-111.28923799973381,18.209953300404607],[-111.29499099973475,18.216728200046532],[-111.30086499991972,18.223407699605787],[-111.30685400001198,18.229984299635873],[-111.312972999804,18.236463500390357],[-111.31919900003373,18.242843600351989],[-111.32554600044745,18.249115000157246],[-111.33201600023813,18.255277599981412],[-111.33859999988999,18.261335400008818],[-111.34529900034852,18.267282499787655],[-111.35208899960753,18.273119000041959],[-111.35900099999606,18.278839100144523],[-111.36600500013054,18.284444800187543],[-111.37311599980347,18.289932299636064],[-111.38033299986796,18.295301399739969],[-111.38764199967846,18.300550499705935],[-111.39504999955773,18.30567739979233],[-111.40255000008233,18.310680400280376],[-111.4101329999379,18.315559400446091],[-111.41781599990838,18.320310599754521],[-111.42558300015526,18.32493209973677],[-111.4334339997792,18.32942390039284],[-111.44137600000232,18.333787900191567],[-111.44937099997156,18.338016499861737],[-111.45746600005577,18.342109700302558],[-111.46562999972463,18.346071200425683],[-111.47386199983134,18.349895499977492],[-111.4821699998455,18.353584299575914],[-111.49054700034367,18.357132000041929],[-111.49897799973479,18.360542300287079],[-111.50747699956378,18.363809600233026],[-111.5160290000382,18.366935700322472],[-111.52464299977453,18.369920700380135],[-111.53331000015629,18.372762700138651],[-111.54203000028417,18.375459700404974],[-111.55080400020432,18.378009800012421],[-111.55960799970933,18.38041499995245],[-111.56845899958307,18.382673300132808],[-111.57736200005616,18.38478469965429],[-111.58628799979124,18.386747399872718],[-111.59525300042554,18.388561200239337],[-111.60426300043702,18.3902264002283],[-111.61329699975664,18.391740800097978],[-111.62235300009081,18.393104600397123],[-111.63143900000972,18.394321400212561],[-111.64053300029764,18.39538379992257],[-111.64965099989365,18.396297500329524],[-111.65878300013526,18.39705660008218],[-111.66793100021539,18.397666899807746],[-111.67709400008795,18.398122800327087],[-111.68625599991435,18.398427999652597],[-111.69542700015586,18.398580600214643]]]},"properties":{"objectid":540,"radii":64,"stormid":"ep172026","basin":"ep","stormnum":17,"advnum":"24","validtime":"2026092615","synoptime":"2026092612","timezone":"UTC","tau":0,"ne":30,"se":30,"sw":25,"nw":30,"idp_source":"ep172026_2026092615_initialradii","idp_filedate":1790434958000,"idp_ingestdate":1790435238000,"st_area(shape)":0.75617492730202851,"st_perimeter(shape)":3.0886117951429943,"binnumber":"EP2"}}]}