{"type":"FeatureCollection","features":[{"type":"Feature","id":205,"geometry":{"type":"Polygon","coordinates":[[[-159.73439000039812,15.994389999898715],[-159.71198000027672,15.991419999633422],[-159.68780999993146,15.989520000148048],[-159.66159000037814,15.988450000267449],[-159.63384999997743,15.987980000177004],[-159.60505999971915,15.98786000003912],[-159.57564000008585,15.98786000003912],[-159.54600999976159,15.98786000003912],[-159.51638999989851,15.98786000003912],[-159.48673999955125,15.98786000003912],[-159.45711000012633,15.98786000003912],[-159.42745999977907,15.98786000003912],[-159.39783999991599,15.98786000003912],[-159.36818999956876,15.98786000003912],[-159.33858000016679,15.98786000003912],[-159.30892999981955,15.98786000003912],[-159.27930999995644,15.98786000003912],[-159.24965999960921,15.98786000003912],[-159.22001999972312,15.98786000003912],[-159.19037999983703,15.98786000003912],[-159.16073999995095,15.98786000003912],[-159.13112000008786,15.98786000003912],[-159.1014699997406,15.98786000003912],[-159.07197999957725,15.987980000177004],[-159.04282000024273,15.988450000267449],[-159.0142199997531,15.989520000148048],[-158.98650999983656,15.991419999633422],[-158.95982000019276,15.994389999898715],[-158.93410000031469,15.998309999906724],[-158.90884000006588,16.00270000000512],[-158.88361000030119,16.0070999996654],[-158.85787999996194,16.011010000111582],[-158.83132999957974,16.014099999615439],[-158.80406000016879,16.016479999652404],[-158.77654999958273,16.018609999851776],[-158.74930000019478,16.020989999888741],[-158.72274999981255,16.024069999830772],[-158.71006999963069,16.02620999959197],[-158.67176999968567,16.032390000398323],[-158.64651000033618,16.036779999597456],[-158.62090999969664,16.040819999743348],[-158.59469999970514,16.044260000099086],[-158.56803999964617,16.04723000036438],[-158.54135000000241,16.050199999730353],[-158.51516999959571,16.053640000086091],[-158.48956000029369,16.057680000231983],[-158.46432000006786,16.06207000033038],[-158.43917999995696,16.066590000128542],[-158.41393999973113,16.070980000226996],[-158.38833999999093,16.075020000372831],[-158.36249000041312,16.078820000242956],[-158.33688000021175,16.082849999927703],[-158.31165000044709,16.087249999587925],[-158.2866200000129,16.091879999962146],[-158.26184000031569,16.09674999971287],[-158.23717999985703,16.101730000039595],[-158.21242000018279,16.106599999790319],[-158.18763999958622,16.111470000440306],[-158.16298000002689,16.116460000328914],[-158.1382099998915,16.121330000079581],[-158.11318999991849,16.125959999554482],[-158.08794000013083,16.130349999652879],[-158.06234999995246,16.134389999798771],[-158.03650000037464,16.138189999668896],[-158.01089000017328,16.142229999814788],[-157.98564000038562,16.146619999913185],[-157.96050999983655,16.151130000149521],[-157.93538999974862,16.155640000385858],[-157.91013000039911,16.160040000046081],[-157.88452000019777,16.164080000191973],[-157.85866999972063,16.167880000062098],[-157.83308000044158,16.171909999746845],[-157.8078299997546,16.176310000306387],[-157.78270000010485,16.180819999643404],[-157.75745999987902,16.185209999741858],[-157.73184000011582,16.18924999988775],[-157.70563999968616,16.192690000243431],[-157.67897000006536,16.195659999609461],[-157.65231000000642,16.198629999874754],[-157.6261000000149,16.202070000230492],[-157.60048999981356,16.206110000376327],[-157.57526000004887,16.210499999575461],[-157.55011000037612,16.215020000272943],[-157.52487000015032,16.21941000037134],[-157.49927000041012,16.223449999617912],[-157.47341999993296,16.227250000387357],[-157.44780999973162,16.23128999963393],[-157.42257999996696,16.235679999732326],[-157.39743000029421,16.240189999968663],[-157.37231000020626,16.244709999766826],[-157.34706000041859,16.249099999865223],[-157.32145999977908,16.253130000449289],[-157.29561999976309,16.25693999988124],[-157.26999999999992,16.260969999565987],[-157.24477000023523,16.265370000125529],[-157.21963999968617,16.269880000361866],[-157.19449000001342,16.274389999698883],[-157.16924000022576,16.278790000258425],[-157.14365000004739,16.282819999943172],[-157.11779999957025,16.286619999813297],[-157.0921900002682,16.290659999959189],[-157.06693999958122,16.295050000057586],[-157.04193000006936,16.299680000431806],[-157.01715000037214,16.304550000182473],[-156.99248999991349,16.309540000071081],[-156.96771000021624,16.314409999821748],[-156.94292999961971,16.319270000010647],[-156.9182999996452,16.324259999899198],[-156.89364999964769,16.329249999787805],[-156.86897000006536,16.334239999676356],[-156.84432999962971,16.339229999564964],[-156.81952999990949,16.344089999753805],[-156.79477000023525,16.348960000403849],[-156.77010999977659,16.3539500002924],[-156.74545000021726,16.358940000181008],[-156.72078999975861,16.363919999608413],[-156.6961399997611,16.36891000039634],[-156.67136999962571,16.373780000147008],[-156.64660999995147,16.378649999897732],[-156.62193000036913,16.383639999786283],[-156.59728999993348,16.388620000113065],[-156.57263000037415,16.393610000001615],[-156.54796000035364,16.398599999890223],[-156.52319000021825,16.40346999964089],[-156.49840999962171,16.408329999829789],[-156.47375000006238,16.41331999971834],[-156.46143999985603,16.415810000331362],[-156.42445000006737,16.423300000394818],[-156.39978000004689,16.42827999982228],[-156.37502000037264,16.433149999572947],[-156.35023000021425,16.438020000222991],[-156.32568000033166,16.443130000249425],[-156.30138999984854,16.448470000090595],[-156.27733999964119,16.454050000207474],[-156.25348999966369,16.459869999700857],[-156.22979999987001,16.465810000231443],[-156.20596000035366,16.471620000163],[-156.18191999970813,16.477200000279936],[-156.15761000010133,16.482549999682874],[-156.13308999980356,16.487659999709365],[-156.10831000010634,16.492519999898207],[-156.0835300004091,16.497389999648931],[-156.05886999995045,16.502380000436801],[-156.03421000039111,16.507370000325409],[-156.00954999993246,16.512349999752814],[-155.98489000037313,16.517339999641422],[-155.96010999977659,16.522210000291409],[-155.93533000007935,16.527080000042133],[-155.91068000008187,16.532069999930684],[-155.88603000008436,16.537050000257466],[-155.86136999962571,16.542040000146017],[-155.8367199996282,16.547030000034624],[-155.81193999993096,16.551899999785292],[-155.78716000023374,16.556759999974133],[-155.76263000037414,16.561870000000624],[-155.738339999891,16.567209999841737],[-155.71426000009885,16.572789999958673],[-155.69043000014432,16.578610000351375],[-155.6667299998895,16.584549999982642],[-155.64302000007285,16.590480000052082],[-155.61931999981806,16.596419999683405],[-155.59560000043959,16.602360000213991],[-155.57190000018477,16.608299999845258],[-155.54817000034515,16.614229999914699],[-155.52447999965219,16.620170000445285],[-155.50076000027371,16.626110000076608],[-155.47704999955775,16.632049999707874],[-155.45347999990199,16.638099999915198],[-155.43024000017579,16.644520000098055],[-155.40758999977859,16.651520000048095],[-155.3857899999085,16.659360000064112],[-155.36516999959574,16.668379999637409],[-155.34594999999243,16.678830000404332],[-155.32819000026822,16.690709999666865],[-155.31183000035415,16.704009999661878],[-155.28999000043808,16.726680000082069],[-155.27743999995596,16.743779999947151],[-155.26153999967116,16.772399999560491],[-155.25681000008134,16.782500000374853],[-155.24628000012183,16.816459999829249],[-155.24117999965716,16.841040000196017],[-155.23784999987751,16.867159999634396],[-155.23690999969665,16.880340000390845],[-155.23643000004438,16.921780000346871],[-155.2383300004291,16.948619999713344],[-155.24234000009085,16.974029999684888],[-155.24862999967468,16.997429999594942],[-155.25716999959573,17.01856000004409],[-155.26783999971613,17.037560000293922],[-155.2869299996197,17.062970000265466],[-155.30112999974961,17.07841000002162],[-155.31653999992099,17.092659999759348],[-155.33267000002041,17.106200000030128],[-155.34997999967717,17.118550000282426],[-155.37843000044407,17.134569999805763],[-155.38839999976011,17.139439999556487],[-155.40926000034867,17.148230000214483],[-155.43129000003339,17.155829999954676],[-155.46566999997043,17.165920000307892],[-155.48904000029569,17.17220999989172],[-155.51250999983654,17.17838999979881],[-155.53586000013883,17.184680000281901],[-155.55897999972711,17.191219999703378],[-155.58185000037713,17.19798999983874],[-155.59322999996445,17.201430000194478],[-155.62713999981105,17.212000000199964],[-155.63852000029769,17.215439999656382],[-155.67313000004938,17.225300000194977],[-155.6964699998905,17.231589999778805],[-155.70822000035264,17.234680000181982],[-155.73193000016929,17.240610000251422],[-155.76750000012481,17.249520000148038],[-155.79120000037963,17.255459999779305],[-155.81491000019628,17.261389999848745],[-155.8386200000129,17.267330000379332],[-155.86242999994445,17.273149999872714],[-155.88662999987451,17.278609999851767],[-155.91140999957173,17.283479999602434],[-155.93687000005039,17.28763999988621],[-155.96308999960371,17.291080000241948],[-155.98976000012382,17.294049999607921],[-156.01642000018279,17.297019999873214],[-156.04263000017428,17.300460000228952],[-156.06824000037562,17.304500000374844],[-156.09347999970214,17.308889999573978],[-156.11873999995095,17.31329000013352],[-156.1444700002902,17.317199999680383],[-156.17113999991099,17.320169999945676],[-156.19886999985053,17.32207000033037],[-156.22743000029419,17.323140000210969],[-156.25647000039012,17.323730000439298],[-156.28550999958674,17.324330000229452],[-156.31409000005337,17.325400000110051],[-156.34182999955476,17.327299999595425],[-156.36850000007487,17.330269999860718],[-156.3942300004141,17.334180000306901],[-156.41946000017879,17.33857999996718],[-156.44472999998942,17.342970000065577],[-156.47042999984453,17.346890000073586],[-156.49712999994946,17.349860000338879],[-156.524859999889,17.351759999824253],[-156.55344000035566,17.352829999704852],[-156.58257000010533,17.353299999795297],[-156.61210999987651,17.35341999993318],[-156.64174000020077,17.35341999993318],[-156.67136999962571,17.35341999993318],[-156.70099999994994,17.35341999993318],[-156.73063999983603,17.35341999993318],[-156.76027999972212,17.35341999993318],[-156.78989999958523,17.35341999993318],[-156.81942999979458,17.353540000071064],[-156.84857000000542,17.354019999723334],[-156.87716999959574,17.355080000042108],[-156.90490999999642,17.356980000426802],[-156.93155000003239,17.359949999792775],[-156.95728999993347,17.363869999800784],[-156.98253999972113,17.368259999899237],[-157.00777999994696,17.37265999955946],[-157.03353999987101,17.376579999567468],[-157.06019999992998,17.379540000270936],[-157.08794999989249,17.38143999975631],[-157.11649000031318,17.382509999636909],[-157.14566000010885,17.382990000188499],[-157.17515999983405,17.383110000326383],[-157.20479999972014,17.383110000326383],[-157.23445000006737,17.383110000326383],[-157.26408000039163,17.383110000326383],[-157.29372999983954,17.383110000326383],[-157.32334999970266,17.383110000326383],[-157.35300000004989,17.383110000326383],[-157.38249000021327,17.383220000003121],[-157.41165000044708,17.383699999655391],[-157.44025000003739,17.38477000043531],[-157.46795999995396,17.386669999920684],[-157.4946400000359,17.389640000185977],[-157.52037000037512,17.393549999732841],[-157.54562000016278,17.39795000029244],[-157.57086000038862,17.402340000390836],[-157.59658999982855,17.406260000398845],[-157.62326000034867,17.409229999764818],[-157.65099999985003,17.411130000149512],[-157.67958000031669,17.412200000030111],[-157.70871999962819,17.412670000120556],[-157.73824999983754,17.41279000025844],[-157.76786999970065,17.41279000025844],[-157.79752000004788,17.41279000025844],[-157.82713000034914,17.41279000025844],[-157.85665999965917,17.412910000396323],[-157.88583000035416,17.413390000048594],[-157.91440999992147,17.414459999929193],[-157.94213999986101,17.416360000313887],[-157.96881000038113,17.419320000118034],[-157.99453999982106,17.423240000126043],[-158.01978999960872,17.427639999786322],[-158.04502999983455,17.432029999884719],[-158.07076999973563,17.435949999892728],[-158.09744000025572,17.438920000158021],[-158.12517999975711,17.440810000081569],[-158.15372999973962,17.441879999962168],[-158.18288999997344,17.442359999614439],[-158.21242000018279,17.442479999752322],[-158.2420499996077,17.442479999752322],[-158.27167999993196,17.442479999752322],[-158.30131999981805,17.442479999752322],[-158.33095999970413,17.442479999752322],[-158.36057999956725,17.442479999752322],[-158.39022999991448,17.442479999752322],[-158.4198499997776,17.442479999752322],[-158.44950999968665,17.442479999752322],[-158.47914000001091,17.442479999752322],[-158.508759999874,17.442479999752322],[-158.53841000022126,17.442479999752322],[-158.56803999964617,17.442479999752322],[-158.59768999999343,17.442479999752322],[-158.6273000002947,17.442479999752322],[-158.65694999974261,17.442479999752322],[-158.68656999960572,17.442479999752322],[-158.71621999995295,17.442479999752322],[-158.74583000025422,17.442479999752322],[-158.77535999956424,17.442599999890206],[-158.80453000025923,17.443069999980651],[-158.83310999982655,17.44413999986125],[-158.86083999976609,17.446040000245944],[-158.8875100002862,17.449009999611917],[-158.91323999972613,17.452929999619926],[-158.92591999990799,17.455059999819298],[-158.96372999973963,17.461720000277921],[-158.9894699996407,17.465629999824785],[-159.01602000002291,17.468720000227961],[-159.04327000031017,17.471100000264926],[-159.07077000043509,17.473229999564978],[-159.09801999982307,17.475609999601943],[-159.12459999979006,17.478690000443294],[-159.15018999996843,17.482729999689866],[-159.17498999968865,17.48760000033991],[-159.19916000003388,17.493060000318906],[-159.22298999998844,17.498879999812289],[-159.23485000012732,17.501850000077582],[-159.27040000005988,17.510759999974141],[-159.29410999987653,17.516690000043582],[-159.31781000013132,17.522629999674905],[-159.32967999983205,17.525599999940198],[-159.3651099996267,17.534620000412815],[-159.3884900004131,17.540919999558469],[-159.40009999981507,17.54411999963844],[-159.4343599996142,17.554339999691365],[-159.45651000033615,17.561820000192995],[-159.46741000027123,17.565729999739858],[-159.4996600000089,17.577970000315418],[-159.5103500001523,17.582120000138048],[-159.54163000012431,17.59529999999512],[-159.56271000006637,17.603850000377349],[-159.58405999986903,17.61217000004558],[-159.60527000041012,17.62058999982878],[-159.61580999993146,17.624870000250439],[-159.64786000033865,17.637339999741357],[-159.66894999984254,17.645890000123529],[-159.67937000012532,17.650280000221983],[-159.70022999981455,17.659069999980659],[-159.73224000017578,17.67154000037084],[-159.74289999983503,17.67569000019347],[-159.77468999994346,17.688399999960154],[-159.78534999960272,17.69256000024393],[-159.80644000000592,17.701109999726839],[-159.82682999960471,17.71036999957596],[-159.84697999982706,17.719869999700848],[-159.8671599996342,17.729369999825792],[-159.88681000018127,17.739340000041125],[-159.90651000033617,17.749319999818283],[-159.92642000028272,17.759049999757849],[-159.94608999995344,17.769030000434327],[-159.96552000024772,17.779240000026107],[-159.98494999964268,17.789449999617943],[-160.00394000033066,17.800139999761313],[-160.02243000044407,17.811299999995128],[-160.0406800002817,17.822699999605447],[-160.05893000011932,17.834100000115029],[-160.08645999982906,17.851079999842284],[-160.09569999965518,17.856659999959163],[-160.11441000002139,17.867579999917211],[-160.13339000024823,17.878270000060581],[-160.15211000017629,17.889199999580455],[-160.17062000031268,17.90035999981427],[-160.1888700001503,17.911760000323909],[-160.20711999998792,17.923159999934171],[-160.22536999982555,17.93456000044381],[-160.24387000040011,17.945719999778305],[-160.26259999989,17.956639999736353],[-160.28156000009386,17.967329999879723],[-160.30953999987102,17.983840000415853],[-160.31879000015829,17.989419999633412],[-160.33703999999591,18.000820000143051],[-160.3639499998925,18.018390000098577],[-160.37285000022726,18.024329999729844],[-160.39038000013682,18.036439999706374],[-160.40768000023175,18.048789999958672],[-160.43317999985703,18.067790000208504],[-160.4415999996402,18.074199999930215],[-160.45821000029119,18.087259999649405],[-160.47502000027271,18.100089999553973],[-160.49210000011485,18.112669999620948],[-160.50915999993396,18.125260000149012],[-160.52625000023724,18.137849999777814],[-160.54329999959523,18.150429999844732],[-160.56012999959972,18.1632599997493],[-160.58516000003388,18.182730000089578],[-160.59357000025523,18.189139999811289],[-160.61063000007437,18.20173000033941],[-160.62772000037762,18.214319999968154],[-160.64478000019676,18.226909999596955],[-160.66161000020128,18.239729999939698],[-160.67795999965418,18.253029999934711],[-160.69385000037713,18.266800000020112],[-160.70974999976261,18.280579999667395],[-160.72563000002441,18.294349999752853],[-160.74198999993845,18.307649999747809],[-160.75879999991997,18.320479999652378],[-160.77587999976211,18.333070000180498],[-160.79293999958122,18.345650000247474],[-160.80136000026371,18.352059999969185],[-160.82613999996096,18.371780000147055],[-160.84179999996994,18.38578999960896],[-160.84949999982504,18.392909999696883],[-160.87213000019926,18.414760000074068],[-160.88707999984203,18.429490000363387],[-160.9017599996242,18.444449999567951],[-160.91669999970514,18.459170000295444],[-160.93140000040961,18.474130000399327],[-160.93886999955075,18.481489999863754],[-160.95369000039312,18.4963400002909],[-160.96851000033615,18.511180000256957],[-160.98333999984104,18.526020000222957],[-160.99813999976109,18.540869999750839],[-161.0129700001653,18.555709999716839],[-161.02779999967018,18.570549999682896],[-161.04995999995396,18.592879999712352],[-161.05742000043259,18.600240000076099],[-161.07959000027822,18.622559999644409],[-161.0870699998805,18.629920000008156],[-161.10186999980058,18.644770000435301],[-161.11658000006688,18.659729999639922],[-161.1310300000344,18.674930000019629],[-161.14513999961122,18.690480000351897],[-161.16540999997144,18.714709999866727],[-161.17181000013133,18.723140000111073],[-161.19077999989699,18.7486700002205],[-161.19707000038014,18.757219999703352],[-161.20974999966268,18.77420000032987],[-161.22277999979707,18.790819999643418],[-161.23642000018279,18.8068499996279],[-161.25052999975961,18.822410000421314],[-161.26497999972713,18.837609999901701],[-161.28703000033417,18.860049999607952],[-161.30173999970114,18.875009999711835],[-161.30885000022724,18.882729999589969],[-161.32297000026523,18.898290000383327],[-161.34323000016428,18.922510000336388],[-161.34961999986302,18.930939999681357],[-161.36230000004488,18.947920000307931],[-161.37488000011183,18.965020000173013],[-161.38756000029369,18.981999999900211],[-161.40059999998994,18.998629999674904],[-161.42098999958873,19.022730000389345],[-161.43473999965119,19.038640000235944],[-161.44162000036263,19.046600000389844],[-161.46176000012383,19.070939999581469],[-161.46816999984554,19.079369999825758],[-161.4808500000274,19.096360000014101],[-161.49971000011632,19.121999999800266],[-161.5122700001603,19.139099999665405],[-161.51867999988201,19.147529999909693],[-161.53156999985552,19.16427999982227],[-161.54449000031317,19.181020000173021],[-161.56348000010183,19.206550000282448],[-161.56963999998592,19.21521999990324],[-161.58788999982355,19.241460000378879],[-161.59383000035416,19.250359999814293],[-161.6056800000319,19.268179999607412],[-161.61752000014781,19.285989999838762],[-161.63554000017078,19.312469999690848],[-161.64787000040013,19.329800000269927],[-161.66043000044408,19.346900000135065],[-161.66684000016579,19.355339999941179],[-161.6862800000219,19.380390000398336],[-161.69268999974361,19.388819999743362],[-161.71164999994747,19.414349999852732],[-161.7178200002927,19.423020000372844],[-161.73607000013033,19.449259999949163],[-161.74791999980806,19.467070000180513],[-161.75386000033868,19.475980000077072],[-161.76571999957824,19.493790000308422],[-161.77755999969415,19.511599999640396],[-161.7953499999025,19.538319999768305],[-161.80719000001841,19.556129999999655],[-161.81312999964968,19.565039999896214],[-161.82496999976559,19.582850000127564],[-161.83682000034267,19.600660000358857],[-161.84867999958223,19.618469999690888],[-161.86053000015929,19.636279999922181],[-161.87227999972214,19.654210000291414],[-161.88376999988552,19.672380000037094],[-161.90059999989001,19.700049999907719],[-161.90607000033017,19.709429999894724],[-161.92218000040663,19.73781000013156],[-161.92764000038562,19.747190000118565],[-161.93865999955926,19.76582999995469],[-161.94991999990799,19.784239999976137],[-161.9669999997501,19.811669999570938],[-161.97836000021377,19.829960000353879],[-161.98392999986953,19.839220000202999],[-162.00018000010684,19.867480000301896],[-162.00527999967215,19.877219999803287],[-162.01547000014031,19.896690000143508],[-162.03053000035916,19.926140000260943],[-162.03540000010983,19.936120000038102],[-162.04036999997544,19.945970000115551],[-162.05518999991847,19.975659999609434],[-162.06491000029621,19.995609999601925],[-162.07439999995995,20.015790000308414],[-162.08377000038513,20.036099999815292],[-162.09264999979757,20.056880000311878],[-162.10106000001892,20.078129999999646],[-162.10947000024024,20.099390000148503],[-162.11789000002341,20.120639999836271],[-162.12203999984604,20.131329999979641],[-162.13911000012632,20.173600000439819],[-162.1434899997636,20.184050000307423],[-162.15616999994546,20.215879999562446],[-162.16019999963021,20.226680000281931],[-162.16827000036014,20.248290000383349],[-162.17609999991498,20.270139999861271],[-162.18356000039361,20.292349999752844],[-162.19091999985804,20.314670000220474],[-162.19469999970514,20.325710000316406],[-162.20583999991598,20.359080000441793],[-162.2132000002797,20.38140000001016],[-162.22055000018227,20.403730000039616],[-162.22435000005237,20.414770000135547],[-162.23169000039312,20.437100000165003],[-162.24282999970464,20.470470000290447],[-162.25019999963021,20.492789999858758],[-162.25753999997093,20.515110000326388],[-162.26468000008185,20.537670000170522],[-162.2714100001713,20.560590000428306],[-162.27792000000792,20.583750000062594],[-162.28420999959172,20.607140000410823],[-162.29037000037513,20.630649999997615],[-162.29665000039711,20.654049999907727],[-162.30318000025673,20.677199999980132],[-162.30993999993098,20.700120000237973],[-162.31704999955775,20.72268000008205],[-162.32440000035965,20.744999999650418],[-162.33173999980107,20.767329999679873],[-162.33910000016479,20.789650000147503],[-162.34657000020528,20.811860000039133],[-162.35402999978459,20.834060000368879],[-162.36137000012533,20.856379999937189],[-162.36884999972762,20.878589999828762],[-162.37288000031168,20.889400000110072],[-162.38473999955127,20.922050000307422],[-162.39291000039611,20.943540000270957],[-162.40143999985602,20.96468000028193],[-162.41022000005287,20.985580000017137],[-162.41875999997393,21.00672000002811],[-162.42692999991948,21.028209999991645],[-162.43499999975012,21.049820000093064],[-162.44283000020425,21.071669999570986],[-162.45028999978359,21.093869999900733],[-162.45775000026222,21.116079999792305],[-162.46557999981707,21.13793000016949],[-162.47362999962471,21.159540000270908],[-162.47778000034666,21.170230000414335],[-162.4903600004136,21.202170000245474],[-162.49911000012634,21.22306999998068],[-162.50765999960922,21.244209999991654],[-162.51594999969265,21.265579999817305],[-162.52437000037514,21.286830000404336],[-162.53279000015831,21.308089999653873],[-162.54108999980357,21.329460000378845],[-162.5496200001628,21.350600000389875],[-162.55840999992148,21.371500000125025],[-162.56692999981956,21.392640000136055],[-162.57509999976509,21.41413000009959],[-162.57903000023424,21.425050000057581],[-162.59054999998244,21.458070000230464],[-162.59740000020977,21.480859999889219],[-162.6039100000464,21.504020000422827],[-162.6101999996302,21.527409999871736],[-162.61316000033366,21.539279999572443],[-162.62217999990699,21.574790000358348],[-162.62513999971114,21.586660000059112],[-162.63402999958473,21.622290000083581],[-162.63995000009234,21.646030000384371],[-162.64588999972364,21.669780000246931],[-162.6488500004271,21.68166000040884],[-162.65774999986252,21.717279999972163],[-162.66367000037013,21.74102999983478],[-162.66958999997843,21.764779999697396],[-162.67554000007087,21.788529999559955],[-162.68145999967916,21.812280000321891],[-162.68738000018678,21.836030000184508],[-162.69033999999093,21.847899999885215],[-162.69625999959922,21.871649999747831],[-162.70515000037213,21.9072799997723],[-162.71096999986551,21.931140000210974],[-162.71369999985504,21.943250000187504],[-162.72188000026173,21.979589999678865],[-162.72695999980408,22.004170000045633],[-162.73182999955475,22.028989999788791],[-162.73668999974362,22.053810000431326],[-162.74177999974711,22.078380000336892],[-162.74450999973661,22.090499999875249],[-162.7526900001433,22.126829999804784],[-162.75848000005189,22.150699999805283],[-162.7644300001443,22.1744499996679],[-162.77036000021377,22.198200000429836],[-162.77332000001792,22.210070000130543],[-162.78220000032968,22.245700000155011],[-162.78811999993798,22.269439999556482],[-162.79109000020327,22.281319999718335],[-162.79702999983454,22.305069999580951],[-162.8059100001463,22.340690000043594],[-162.81182999975459,22.36443999990621],[-162.81775000026224,22.388189999768827],[-162.82381000003139,22.411820000392822],[-162.83009000005339,22.435209999841788],[-162.83661000035116,22.458370000375339],[-162.8433700000254,22.48128999973386],[-162.85036000041362,22.503960000154052],[-162.85736000036366,22.526649999697895],[-162.8641200000379,22.549560000393853],[-162.87064000033567,22.572720000028141],[-162.87692000035764,22.59611000037637],[-162.88308999980356,22.619619999963163],[-162.88936999982556,22.643010000311392],[-162.89589000012333,22.66616999994568],[-162.9026299997746,22.689090000203464],[-162.90964000018579,22.711770000185481],[-162.91309000010335,22.7231699997958],[-162.92339000024825,22.75737000042534],[-162.92990000008487,22.780519999598425],[-162.93618999966867,22.803920000407857],[-162.94234999955276,22.827429999994649],[-162.94862000001291,22.850820000342878],[-162.9551499998725,22.873970000415341],[-162.9619100004461,22.896889999773805],[-162.96902000007287,22.919449999617939],[-162.97638000043659,22.941779999647395],[-162.98371999987802,22.964100000115081],[-162.99120000037962,22.986310000006654],[-162.99902000037264,23.008149999922693],[-163.00305000005739,23.018960000204004],[-163.01122999956476,23.040450000167539],[-163.02380000006985,23.07238999999862],[-163.03256000024373,23.093289999733827],[-163.04108999970364,23.114429999744857],[-163.04929000013331,23.135919999708335],[-163.05733999994098,23.157540000270956],[-163.06113000024922,23.168580000366887],[-163.07262999997445,23.201590000078568],[-163.08008999955376,23.223790000408314],[-163.08792000000793,23.245639999886237],[-163.09598000027671,23.267249999987655],[-163.10854999988251,23.299200000279939],[-163.11316999979559,23.309409999871718],[-163.12252999975959,23.329720000277916],[-163.13190000018477,23.350020000222969],[-163.14126999971063,23.370329999729847],[-163.15062999967466,23.3906299996749],[-163.15952000044757,23.411410000171486],[-163.16792000020777,23.4326700003204],[-163.17634999955277,23.453920000008111],[-163.18477000023523,23.475180000157025],[-163.1931900000184,23.496429999844736],[-163.20209000035317,23.517210000341379],[-163.21145999987903,23.537519999848257],[-163.22093000041912,23.557699999655426],[-163.23064999989751,23.577649999647917],[-163.24060000008984,23.597369999825787],[-163.25045999972912,23.617199999680395],[-163.26028000022174,23.637019999973177],[-163.2702300004141,23.656740000151046],[-163.28009000005338,23.676570000005654],[-163.28992999966968,23.696399999860262],[-163.29999999999993,23.715990000338365],[-163.31018000000691,23.735459999779323],[-163.32062000031269,23.754700000304922],[-163.33152999980956,23.773460000278931],[-163.34279999972014,23.791870000300435],[-163.35416999974561,23.810149999722853],[-163.36555000023225,23.828439999606417],[-163.3768200001428,23.846840000066095],[-163.38784999977759,23.865490000363366],[-163.3986200000129,23.884369999575938],[-163.40939000024824,23.903249999687887],[-163.42043000034417,23.921890000423332],[-163.43168999979358,23.940300000444779],[-163.4431900004181,23.958470000190516],[-163.4549300004191,23.976399999660373],[-163.4668899997736,23.994089999753839],[-163.47911000032619,24.011550000032628],[-163.49155999979408,24.028759999574447],[-163.50423999997594,24.045749999762847],[-163.51714999997245,24.062490000113542],[-163.53008999955375,24.079229999564973],[-163.54278999975861,24.096210000191491],[-163.55534000024073,24.113310000056572],[-163.56790000028471,24.13040999992171],[-163.58046999989051,24.147509999786791],[-163.59313999961122,24.164490000413309],[-163.60608000009185,24.18122999986474],[-163.61899000008836,24.197979999777317],[-163.63167999983204,24.214949999942689],[-163.65053000035914,24.24060000019],[-163.65679999991997,24.249149999672909],[-163.66948999966368,24.266130000299427],[-163.68253000025922,24.282760000074063],[-163.69616999974562,24.298790000058602],[-163.71026999976061,24.314340000390871],[-163.72473000018928,24.329539999871258],[-163.73942999999443,24.344510000436287],[-163.75424000037563,24.359350000402344],[-163.77641000022126,24.381669999970654],[-163.78386999980057,24.389030000334401],[-163.80603000008435,24.411360000363857],[-163.8135200001478,24.418719999828284],[-163.82834000009086,24.433559999794284],[-163.85063000007437,24.455769999685856],[-163.85797000041512,24.463250000187486],[-163.87279999991998,24.478090000153543],[-163.89496000020378,24.500420000182999],[-163.90243999980606,24.507779999647425],[-163.91727000021027,24.522619999613426],[-163.93207000013032,24.537459999579482],[-163.94687000005038,24.552310000006628],[-163.96169999955526,24.567149999972685],[-163.97650000037464,24.581989999938685],[-163.99132999987953,24.596840000365887],[-164.00626000039861,24.611560000194004],[-164.02913999971113,24.633170000295422],[-164.03695999970415,24.640179999807287],[-164.06113999961121,24.66047999975234],[-164.0779899996387,24.673309999656908],[-164.09505999991899,24.685900000185029],[-164.11211999973813,24.698489999813773],[-164.12896999976559,24.711310000156516],[-164.15326000024874,24.73150000042483],[-164.16120999994146,24.738380000236987],[-164.16915999963419,24.745269999610912],[-164.19296000000392,24.765929999969671],[-164.20931999991799,24.779229999964684],[-164.22616999994545,24.792059999869252],[-164.25225999979907,24.810460000328874],[-164.26101999997294,24.81652000009808],[-164.27881000018129,24.828389999798787],[-164.29658999992847,24.840260000398814],[-164.31436000011382,24.852139999661404],[-164.34102999973462,24.869949999892697],[-164.34991000004638,24.87589000042334],[-164.36770999981655,24.887760000124047],[-164.38570999981656,24.899400000010132],[-164.40395999965418,24.910799999620451],[-164.43182000019277,24.927419999833262],[-164.44118999971863,24.932879999812258],[-164.46014000036064,24.943569999955685],[-164.47888000031168,24.954500000374878],[-164.49739000044809,24.965659999709374],[-164.5247700004351,24.982759999574455],[-164.53391000014631,24.988459999829274],[-164.56139999981008,25.005439999556472],[-164.58011999973812,25.01636000041384],[-164.58959999984003,25.021709999816778],[-164.6187699996357,25.037019999873223],[-164.62849000001341,25.042129999899714],[-164.64819000016828,25.052100000115047],[-164.66808999965369,25.061839999616438],[-164.68776999978559,25.071820000292917],[-164.70742999989452,25.08178999960893],[-164.72735999986403,25.091530000009641],[-164.74703999999593,25.101500000224974],[-164.77669000034317,25.116340000190974],[-164.78663999963621,25.121209999941698],[-164.80629999974511,25.131189999718856],[-164.82599000033818,25.141159999934189],[-164.84615000012232,25.150660000059077],[-164.86628999988352,25.160160000184021],[-164.89725000038712,25.173699999555481],[-164.90778000034666,25.177970000415314],[-164.93966999967066,25.190560000044115],[-164.9501999996302,25.194830000004629],[-164.98220999999143,25.207300000394866],[-164.99288999967368,25.211459999779322],[-165.01375000026223,25.220250000437318],[-165.03462000041262,25.229029999734848],[-165.06673999955126,25.241379999987146],[-165.07754999983254,25.245420000133038],[-165.11013999996095,25.257289999833745],[-165.12114999957274,25.26108999970387],[-165.14342999999442,25.268459999629442],[-165.17676000007387,25.279619999863257],[-165.19892999991947,25.287100000364887],[-165.21007000013032,25.290780000097072],[-165.24350000032467,25.301820000193004],[-165.2546399996362,25.305499999925189],[-165.28782999955476,25.316780000296944],[-165.31012000043759,25.32415000022246],[-165.33239999995996,25.331509999686887],[-165.3435400001708,25.335190000318391],[-165.36560000033967,25.342790000058585],[-165.39902000007288,25.353830000154517],[-165.42129999959522,25.361200000080089],[-165.44358999957873,25.368560000443836],[-165.45474000025072,25.372240000176021],[-165.47748999986354,25.379130000449322],[-165.50049000021326,25.3857800004468],[-165.53546000037863,25.395279999672368],[-165.54720999994146,25.398359999614456],[-165.58275999987401,25.407270000410335],[-165.60644999966766,25.413210000041602],[-165.63016999994545,25.419140000111042],[-165.64203000008436,25.422110000376335],[-165.67760000003989,25.431020000272952],[-165.70142000043259,25.436839999766335],[-165.7254899997636,25.442419999883214],[-165.74978999980857,25.447759999724326],[-165.76199000033816,25.450369999575969],[-165.78664999989749,25.455360000363839],[-165.81154999973262,25.46010999997668],[-165.84852999995945,25.467589999578934],[-165.87317999995696,25.472580000366861],[-165.89782999995447,25.477570000255469],[-165.92249999997495,25.482560000144019],[-165.93481000018127,25.485049999857722],[-165.97204999980758,25.492290000083585],[-165.99669999980506,25.497279999972136],[-166.02148000040162,25.50214999972286],[-166.04648999991349,25.506780000097081],[-166.05906999998044,25.509030000434336],[-166.09734999990249,25.515210000341369],[-166.12320000037963,25.519010000211495],[-166.14880000011982,25.523050000357387],[-166.17404000034566,25.527439999556464],[-166.1991900000184,25.531949999792801],[-166.22429999964518,25.536460000029138],[-166.24953999987102,25.54085999968936],[-166.27515999963418,25.544899999835252],[-166.30099000008835,25.548690000143552],[-166.32660000028972,25.552730000289444],[-166.35185000007738,25.557129999949666],[-166.37697999972713,25.561640000186003],[-166.40225000043708,25.5660300002844],[-166.42783999971613,25.570070000430292],[-166.44076999973561,25.571969999915723],[-166.48070999976659,25.576480000152003],[-166.50738999984853,25.579450000417353],[-166.53357000025522,25.582889999873714],[-166.55919000001842,25.586930000019606],[-166.58443999980608,25.59132000011806],[-166.60968000003189,25.595719999778282],[-166.63541000037114,25.599639999786291],[-166.66195999985402,25.602719999728322],[-166.68921999970314,25.605099999765343],[-166.71673999985103,25.607229999964659],[-166.74399000013833,25.609610000001624],[-166.77053999962121,25.612700000404857],[-166.78358000021674,25.614479999752348],[-166.82151999974812,25.621009999611942],[-166.8467700004351,25.625399999710339],[-166.87237999973712,25.629439999856231],[-166.89858999972861,25.632880000211969],[-166.92524999978758,25.635849999577943],[-166.95192999986952,25.638819999843236],[-166.97811999983804,25.642269999760799],[-167.00371999957824,25.646300000344866],[-167.0163999997601,25.648440000106064],[-167.05411000037614,25.655210000241482],[-167.07934999970266,25.659600000339879],[-167.09204000034566,25.661740000101076],[-167.13079999991999,25.667440000355896],[-167.15639999966018,25.671479999602468],[-167.1815199997481,25.675989999838748],[-167.20618000020676,25.68097000016553],[-167.23038000013682,25.686439999706352],[-167.25421000009135,25.692260000099054],[-167.27791000034617,25.698190000168495],[-167.30162000016281,25.704129999799818],[-167.31348000030169,25.707100000065111],[-167.34903999979608,25.716000000399845],[-167.3727400000509,25.721940000031111],[-167.39644999986751,25.727879999662377],[-167.42029000028322,25.73370000005508],[-167.44445999972913,25.739160000034133],[-167.45666999982055,25.741769999885719],[-167.49422999981456,25.74866000015902],[-167.5198400000159,25.752700000304912],[-167.54568000003189,25.756500000175038],[-167.57129000023323,25.760529999859727],[-167.59652999955975,25.764930000419326],[-167.62166999967067,25.769439999756344],[-167.64692999991948,25.77382999985474],[-167.65961999966316,25.775969999615938],[-167.69930999985652,25.780720000128042],[-167.72705000025724,25.782619999613416],[-167.75562999982455,25.783690000393335],[-167.78477000003539,25.78415999958446],[-167.81430000024474,25.784279999722344],[-167.84394999969265,25.784279999722344],[-167.87358000001691,25.784279999722344],[-167.90323000036415,25.784279999722344],[-167.93285000022726,25.784279999722344],[-167.96249000011335,25.784279999722344],[-167.99210999997644,25.784279999722344],[-168.02176000032367,25.784279999722344],[-168.05138000018678,25.784279999722344],[-168.08102000007287,25.784279999722344],[-168.11063999993598,25.784279999722344],[-168.14029999984504,25.784279999722344],[-168.16993999973113,25.784279999722344],[-168.19955000003239,25.784279999722344],[-168.22910000026474,25.78415999958446],[-168.25823999957623,25.783690000393335],[-168.28680000001989,25.782619999613416],[-168.31454000042061,25.780720000128042],[-168.32758999967868,25.778939999881231],[-168.36694000038062,25.77382999985474],[-168.39209000005337,25.769319999618403],[-168.41684999972762,25.764449999867736],[-168.44149999972512,25.759459999979185],[-168.46628000032169,25.754599999790287],[-168.4910600000189,25.749730000039619],[-168.51571999957824,25.744740000151012],[-168.54036999957574,25.739750000262461],[-168.5650300000344,25.734760000373853],[-168.58968999959373,25.729780000047128],[-168.61447000019027,25.724910000296404],[-168.6391299997496,25.719920000407853],[-168.66330000009486,25.714460000428801],[-168.68700999991148,25.708519999898215],[-168.71026999966068,25.702110000176503],[-168.73302000017279,25.695219999903202],[-168.75564999964769,25.688219999953162],[-168.77852999985953,25.681449999817801],[-168.80163999988602,25.674919999958149],[-168.82489000007337,25.668510000236438],[-168.84798999963868,25.661980000376843],[-168.87076000017379,25.655090000103542],[-168.89303999969616,25.647729999739852],[-168.91472999988952,25.639769999585951],[-168.93594000043061,25.631340000240982],[-168.95717999965717,25.622909999996637],[-168.978519999898,25.614599999890231],[-168.99973000043909,25.606169999645886],[-169.02094000008086,25.597740000300917],[-169.04216000018377,25.589310000056571],[-169.06289999973512,25.580400000160012],[-169.09326000044859,25.566269999660904],[-169.10332999987952,25.56152000004812],[-169.12325999984904,25.551779999647408],[-169.14291000039611,25.541810000331395],[-169.16272000022775,25.531949999792801],[-169.18253000005939,25.522099999715351],[-169.20221000019129,25.512119999938193],[-169.22202000002289,25.502269999860744],[-169.24178999980856,25.492410000221469],[-169.27129999999494,25.477450000117528],[-169.28125000018727,25.472580000366861],[-169.30106000001891,25.462719999828266],[-169.32062000001292,25.45263000037437],[-169.34976000022377,25.437309999856723],[-169.35924999988751,25.43197000001561],[-169.37798999983855,25.421039999596474],[-169.39635999981405,25.409760000124038],[-169.41451000043608,25.398249999937661],[-169.44128000017179,25.380550000282426],[-169.45907999994196,25.368679999682399],[-169.46796999981555,25.362740000051076],[-169.48574999956276,25.350859999889224],[-169.51242000008287,25.333049999657874],[-169.5213200004176,25.327110000026607],[-169.53896999956575,25.315120000188017],[-169.56506000031868,25.296710000166513],[-169.57358000021677,25.290419999683365],[-169.59895000014231,25.271309999756852],[-169.60724999978757,25.264770000335375],[-169.63238999989849,25.245420000133038],[-169.64090999979658,25.239120000088064],[-169.66651999999792,25.220250000437318],[-169.67505000035715,25.213950000392344],[-169.6919900000384,25.201250000187486],[-169.70859000022824,25.188180000007151],[-169.72458999972864,25.174530000059576],[-169.74783000035416,25.153269999910719],[-169.76278999955875,25.138550000082603],[-169.77772999963969,25.123830000254429],[-169.79241999988301,25.1088599996894],[-169.80735999996395,25.094139999861227],[-169.82205000020727,25.079179999757343],[-169.83699000028821,25.064450000367344],[-169.85167999963221,25.049490000263461],[-169.86661999971315,25.034770000435287],[-169.88132000041762,25.019810000331404],[-169.89627000006038,25.005080000042085],[-169.91094999984253,24.990119999938202],[-169.92590000038464,24.975400000110085],[-169.94058000016679,24.960430000444319],[-169.96240000005989,24.937749999562982],[-169.96950999968666,24.930029999684905],[-169.98348999956374,24.914360000114073],[-169.99677999999693,24.897980000177029],[-170.00958000031667,24.881110000126569],[-170.02214000036065,24.86401000026143],[-170.04100000044957,24.838369999575946],[-170.04727000001043,24.829809999631891],[-170.06658999972862,24.804639999936171],[-170.07311999958824,24.796329999829766],[-170.08593999993099,24.779470000240451],[-170.10465999985902,24.753699999855257],[-170.11081999974311,24.745030000234465],[-170.12883000020426,24.718550000382379],[-170.13476999983556,24.709650000047588],[-170.14664000043558,24.69183000025447],[-170.15847999965217,24.67402000002312],[-170.17033000022926,24.656209999791827],[-170.18219000036814,24.638399999560477],[-170.19984000041561,24.611560000194004],[-170.21132999967966,24.593400000010149],[-170.21704000039563,24.584249999837766],[-170.23352000044758,24.556219999553491],[-170.23884999982755,24.546729999889749],[-170.24904999985753,24.527249999987646],[-170.26421999975312,24.497920000008151],[-170.27404999980757,24.478090000153543],[-170.2838700003002,24.458260000298935],[-170.29383999961621,24.438549999682891],[-170.30355999999392,24.4185999996904],[-170.31304999965769,24.398410000321405],[-170.32242000008287,24.378110000376353],[-170.33130999995646,24.35732999987971],[-170.33960000003989,24.335960000054115],[-170.34766000030868,24.314340000390871],[-170.35550000032467,24.292499999575455],[-170.36295000034215,24.270289999683882],[-170.37032000026772,24.247970000115572],[-170.37777999984704,24.225760000224],[-170.38524999988752,24.203559999894196],[-170.39259000022824,24.18122999986474],[-170.39992999966967,24.15891000029643],[-170.40729999959524,24.136589999828743],[-170.41439999966019,24.114029999984666],[-170.42116999979558,24.091109999726825],[-170.42769000009335,24.067950000092594],[-170.43089000017329,24.056310000206508],[-170.4400000002997,24.020930000019632],[-170.44583000025423,23.997060000019133],[-170.4486699999205,23.985070000180485],[-170.45673000018928,23.948609999651921],[-170.46182000019277,23.92403000018453],[-170.4643099999065,23.911679999932176],[-170.47155999969416,23.87438999979878],[-170.47651999999792,23.84969999975533],[-170.48138000018679,23.824880000012115],[-170.48374999976261,23.812409999621934],[-170.48981000043111,23.773939999931201],[-170.49158000021677,23.760880000211955],[-170.4946600001588,23.719440000255929],[-170.4957300000394,23.6908100001815],[-170.49622000015282,23.661609999901714],[-170.49632000026773,23.632039999646395],[-170.49632000026773,23.602350000152512],[-170.49632000026773,23.572670000220455],[-170.49632000026773,23.542979999827253],[-170.49632000026773,23.51329000033337],[-170.49632000026773,23.483610000401313],[-170.49632000026773,23.453920000008111],[-170.49632000026773,23.424240000076111],[-170.49632000026773,23.394549999682908],[-170.49622000015282,23.364980000326909],[-170.4957300000394,23.335769999585978],[-170.49468999974363,23.307149999972637],[-170.49277000023525,23.279370000425331],[-170.48979000040811,23.252650000297422],[-170.48589999998492,23.226879999912228],[-170.48351999994796,23.21441000042131],[-170.47649999997495,23.176889999573973],[-170.47155999969416,23.152189999968641],[-170.46668999994347,23.127370000225483],[-170.46182000019277,23.102549999582948],[-170.45923000036416,23.090320000367853],[-170.45139000034817,23.053630000024611],[-170.44581999979309,23.02953000020949],[-170.4400000002997,23.005660000208991],[-170.43692000035765,22.993900000185022],[-170.42769000009335,22.958640000136029],[-170.42116999979558,22.935479999602421],[-170.41439999966019,22.912569999805783],[-170.40729000003338,22.890000000399823],[-170.39992999966967,22.867679999932193],[-170.39626999996045,22.856519999698378],[-170.38512000018778,22.823149999572991],[-170.38106999958075,22.812340000191],[-170.36923000036415,22.77968999999365],[-170.36104999995746,22.758200000030115],[-170.3525399996212,22.737060000019142],[-170.34374999986252,22.716160000283935],[-170.33520999994147,22.695029999834787],[-170.32691999985803,22.67365000044731],[-170.31850999963669,22.652399999860222],[-170.31008999985355,22.631139999711365],[-170.30167000007037,22.609890000023597],[-170.29705999971912,22.599669999970672],[-170.28328999963369,22.568920000158016],[-170.27345000001742,22.549090000303408],[-170.26314999987252,22.529729999639926],[-170.25222999991448,22.510969999665917],[-170.24098000002689,22.492570000105559],[-170.2296000004396,22.474280000221995],[-170.21823000041411,22.455990000338375],[-170.20695000004238,22.437589999878753],[-170.1959400004306,22.418950000042628],[-170.18515000017229,22.400060000368853],[-170.17435999991397,22.381180000256961],[-170.16335000030219,22.362540000420836],[-170.15206999993049,22.344139999961158],[-170.14057999976711,22.325970000215477],[-170.12885000022726,22.308039999846244],[-170.11686999995047,22.290340000191009],[-170.10463999983605,22.272890000373366],[-170.09219000036813,22.255670000370344],[-170.07953000020927,22.238689999743826],[-170.06658999972862,22.221950000292395],[-170.05367999973211,22.205200000379875],[-170.04100000044957,22.188219999753301],[-170.02842999994448,22.171119999888219],[-170.0158499998775,22.154029999584964],[-170.00318999971864,22.13704000029594],[-169.99013999956125,22.120420000083072],[-169.97650000007488,22.10439000009859],[-169.95529000043311,22.081119999888244],[-169.94795000009236,22.073640000285934],[-169.93325999984904,22.058669999720848],[-169.9109600003037,22.036470000290421],[-169.89627000006038,22.021510000186481],[-169.88878999955875,22.014140000260966],[-169.87398000007687,21.999300000294909],[-169.85916000013381,21.984460000328909],[-169.84432999972964,21.969620000362852],[-169.82952999980958,21.954769999935706],[-169.8147000003047,21.93992999996965],[-169.79988000036164,21.925090000003649],[-169.77770999961672,21.902759999974137],[-169.7627700004351,21.88804000014602],[-169.74808000019178,21.873069999580935],[-169.74059999969015,21.865710000116565],[-169.72579999977009,21.850870000150508],[-169.71097000026523,21.836030000184508],[-169.69603000018429,21.821299999895245],[-169.68088000031167,21.806820000342896],[-169.65752000044759,21.785680000331865],[-169.6411599996342,21.772380000336909],[-169.62432999962971,21.759559999994167],[-169.59872000032769,21.740670000320392],[-169.5901800004066,21.734379999837245],[-169.57311999968815,21.7217900002085],[-169.55626999966069,21.708969999865758],[-169.54797000001543,21.702440000006163],[-169.52286000038862,21.683080000241944],[-169.50579999967016,21.670500000175025],[-169.4884600004286,21.658149999922671],[-169.4709499996427,21.646030000384371],[-169.44415000032217,21.628340000290905],[-169.42601000016131,21.616819999643383],[-169.41686999955076,21.61112000028794],[-169.39838000033666,21.599960000054125],[-169.37938999964868,21.589280000371843],[-169.35994999979258,21.579060000318918],[-169.34052999995944,21.568849999827762],[-169.32111000012634,21.558640000235982],[-169.30167000027021,21.548429999744826],[-169.28267999958223,21.537739999601456],[-169.26419000036813,21.526580000266961],[-169.24593999963119,21.515179999757322],[-169.22768999979357,21.503780000147003],[-169.19971000001641,21.48726999961093],[-169.19022000035267,21.481929999769818],[-169.1602299996147,21.467450000217468],[-169.14991999990798,21.462930000419306],[-169.12881000038112,21.454380000037133],[-169.09702999983455,21.441679999832274],[-169.08635999971415,21.437520000447819],[-169.06527999977209,21.42897000006559],[-169.0448900001733,21.419710000216469],[-169.01453999992097,21.405579999717361],[-169.00435000035216,21.40095000024246],[-168.98420999969164,21.391450000117572],[-168.95325000008737,21.377909999846736],[-168.93192000030768,21.369599999740331],[-168.92113999961123,21.365559999594439],[-168.88853000035914,21.353689999893732],[-168.87749999982506,21.349890000023606],[-168.84408999965368,21.338840000365849],[-168.83295000034215,21.335159999734344],[-168.7992700003102,21.324359999914179],[-168.78788999982356,21.320919999558498],[-168.75328000007187,21.311059999919223],[-168.72992000020776,21.304770000335395],[-168.7063299996297,21.298709999666869],[-168.68261999981306,21.292770000035603],[-168.67077999969715,21.28979999977031],[-168.63520999974162,21.280900000334896],[-168.61151000038612,21.27495999980431],[-168.58777999964718,21.269020000172986],[-168.57592999996945,21.266060000368839],[-168.53978000024674,21.257739999801288],[-168.52755999969415,21.255129999949702],[-168.48999000013831,21.2482399996764],[-168.46439000039811,21.244209999991654],[-168.43853999992098,21.240410000121528],[-168.41292999971964,21.236369999975636],[-168.38769999995495,21.23197999987724],[-168.36255999984405,21.227460000079077],[-168.33731000005639,21.22306999998068],[-168.31157999971714,21.219149999972672],[-168.28491000009635,21.216179999707379],[-168.25716999969566,21.214280000221947],[-168.22861000015132,21.213210000341405],[-168.19942999989451,21.21274000025096],[-168.16993999973113,21.212620000113077],[-168.14029000028322,21.212620000113077],[-168.1106700004201,21.212620000113077],[-168.08102000007287,21.212620000113077],[-168.05140999977161,21.212620000113077],[-168.02176000032367,21.212620000113077],[-167.99213999956126,21.212620000113077],[-167.96247999965217,21.212620000113077],[-167.93285000022726,21.212620000113077],[-167.90323000036415,21.212620000113077],[-167.87358000001691,21.212620000113077],[-167.84394999969265,21.212620000113077],[-167.81442000038263,21.21274000025096],[-167.78526000014881,21.213210000341405],[-167.75669999970515,21.214280000221947],[-167.72896000020376,21.216179999707379],[-167.70228999968367,21.219149999972672],[-167.67656000024374,21.22306999998068],[-167.65130999955676,21.227460000079077],[-167.62607000023024,21.231859999739356],[-167.60044999956776,21.235890000323423],[-167.57425000003738,21.239340000240986],[-167.54758000041662,21.24230999960696],[-167.52090000033468,21.245270000310427],[-167.50799999989999,21.247169999795801],[-167.46912000018779,21.25274999991268],[-167.44385999993898,21.25714999957296],[-167.4187300002892,21.261659999809297],[-167.39347999960222,21.266049999907693],[-167.36789000032317,21.270090000053585],[-167.34203999984604,21.273889999923711],[-167.31644000010584,21.277930000069603],[-167.29117999985704,21.282320000167999],[-167.26617000034517,21.2869499996429],[-167.24138999974861,21.291820000292944],[-167.2167399997511,21.296810000181495],[-167.19196000005388,21.301679999932219],[-167.16718000035667,21.306549999682886],[-167.14253000035916,21.311530000009611],[-167.11786999990051,21.316519999898219],[-167.093219999903,21.321509999786826],[-167.06856999990549,21.326490000113552],[-167.0437799997471,21.331359999864219],[-167.01900999961171,21.336229999614943],[-166.99447999975212,21.341339999641434],[-166.97015000012232,21.346680000381866],[-166.94611000037614,21.352259999599426],[-166.92226999996046,21.358079999992128],[-166.89856000014382,21.364019999623451],[-166.87475999977408,21.369840000016154],[-166.85067999998193,21.375420000133033],[-166.82637000037514,21.380759999974146],[-166.80185000007737,21.385870000000637],[-166.77705000035715,21.390739999751304],[-166.75228999978359,21.395610000401348],[-166.72775000036214,21.400709999966693],[-166.70345000031719,21.406049999807806],[-166.67938000008687,21.411629999924685],[-166.65555000013231,21.417450000317388],[-166.63184000031569,21.423389999948654],[-166.6081499996227,21.429329999579977],[-166.58443000024423,21.435259999649418],[-166.56072999998943,21.441200000180004],[-166.53702000017279,21.44713999981127],[-166.51331000035614,21.453080000341856],[-166.48959000007835,21.459010000411354],[-166.46588000026173,21.46495000004262],[-166.44217000044509,21.470889999673886],[-166.41847000019027,21.476819999743327],[-166.39478000039662,21.482760000273913],[-166.37093999998095,21.488579999767296],[-166.34688000021177,21.494159999884232],[-166.32256999970565,21.499499999725344],[-166.2980300002842,21.504609999751835],[-166.27324999968766,21.509480000401823],[-166.24846999999042,21.514350000152547],[-166.22394000013082,21.519449999717835],[-166.19964999964768,21.52480000002015],[-166.17560000033967,21.530380000137029],[-166.15175000036214,21.536199999630412],[-166.12817000024523,21.542020000023115],[-166.10479999991998,21.547359999864227],[-166.08181999959322,21.551629999824797],[-166.05941999993297,21.554129999999645],[-166.03795999955426,21.554009999861762],[-166.02694999994247,21.552579999567456],[-165.99837000037513,21.544030000084604],[-165.98877000013533,21.539519999848267],[-165.98000000039963,21.533700000354884],[-165.9638700003002,21.521590000378353],[-165.94169999955525,21.500219999653382],[-165.93493999988101,21.492140000260918],[-165.91537000032517,21.467209999941701],[-165.90909999986502,21.458659999559472],[-165.89655000028222,21.441559999694391],[-165.87769000019327,21.4159100003464],[-165.87127999957224,21.407480000102055],[-165.85836999957573,21.390739999751304],[-165.84543999955625,21.373989999838784],[-165.83276000027371,21.357010000111529],[-165.82032999992947,21.33979999967039],[-165.80811999983806,21.322340000290922],[-165.79613999956126,21.304650000197512],[-165.78426999986053,21.286830000404336],[-165.77242999974462,21.269020000172986],[-165.76045000036714,21.251330000079577],[-165.74824999983755,21.233880000261934],[-165.73578000034667,21.216660000258969],[-165.72308000014181,21.199679999632394],[-165.7101900001683,21.182929999719875],[-165.69726999971064,21.166190000268443],[-165.6845900004281,21.149209999641926],[-165.67212999959972,21.131989999638904],[-165.65994000043059,21.114539999821261],[-165.64794999969266,21.096840000166026],[-165.63610999957675,21.079029999934676],[-165.62425000033716,21.061219999703383],[-165.6123999997601,21.043410000371352],[-165.60053999962122,21.025600000140059],[-165.58868000038163,21.007789999908709],[-165.57680999978157,20.989970000115534],[-165.56496999966566,20.972159999884241],[-165.55313000044907,20.954349999652891],[-165.54127999987202,20.936540000320917],[-165.52941999973314,20.918719999628422],[-165.51755999959423,20.900910000296392],[-165.50570999991649,20.883100000065099],[-165.49386999980058,20.865289999833749],[-165.48200999966167,20.847479999602456],[-165.47013999996096,20.829670000270426],[-165.45827999982205,20.811860000039133],[-165.44643999970614,20.794040000245957],[-165.43448000035167,20.776350000152547],[-165.42225999979908,20.758900000334904],[-165.40981000033116,20.741680000331883],[-165.3971300001493,20.724699999705365],[-165.38422000015279,20.707949999792788],[-165.36486999995046,20.682780000097068],[-165.35230999990648,20.665680000231987],[-165.34615000002239,20.657009999711875],[-165.32790000018477,20.630770000135556],[-165.32197999967715,20.621860000238939],[-165.31010000041462,20.604050000007646],[-165.29824999983754,20.586239999776296],[-165.28022999981457,20.559759999924211],[-165.27408000039162,20.551090000303418],[-165.25534000044058,20.52533000037937],[-165.24894999984255,20.516900000135024],[-165.22952000044759,20.491840000116042],[-165.22310999982656,20.483409999871753],[-165.21042000008285,20.466430000144555],[-165.1978600000389,20.449330000279417],[-165.1852900004331,20.432230000414336],[-165.17261000025124,20.415249999787818],[-165.1595499996327,20.398620000013125],[-165.13918000005688,20.374520000198004],[-165.13228999978358,20.366560000044103],[-165.1185300001593,20.350650000197504],[-165.10502999993446,20.334500000075082],[-165.0919799997771,20.317879999862271],[-165.07929999959524,20.300900000135016],[-165.06046999999043,20.275249999887706],[-165.04788000036166,20.258150000022624],[-165.03510000006489,20.24129000043331],[-165.02855999974412,20.232980000326904],[-165.01566000020875,20.216230000414328],[-165.00296000000392,20.19924999978781],[-164.99050999963669,20.182040000245934],[-164.97225999979906,20.155790000208469],[-164.96634000019077,20.14688000031191],[-164.94856000044359,20.120169999745826],[-164.94263000037415,20.111259999849267],[-164.93079000025821,20.093449999617917],[-164.91893000011933,20.075640000285944],[-164.90706999998045,20.057830000054594],[-164.89522999986451,20.040019999823301],[-164.8833600001638,20.022209999591951],[-164.86556999995545,19.995490000363361],[-164.85372999983954,19.977680000132068],[-164.84781000023125,19.968770000235452],[-164.8300200000229,19.942050000107542],[-164.8241000004146,19.933149999772809],[-164.81222999981455,19.915340000440835],[-164.80038000013681,19.897530000209485],[-164.7885400000209,19.87971000041631],[-164.7709799996272,19.852759999574459],[-164.76528999983356,19.843610000301396],[-164.75403000038412,19.825209999841775],[-164.74301000031119,19.806560000443824],[-164.73222000005288,19.787689999893701],[-164.72144000025574,19.768800000219983],[-164.71042000018278,19.750160000383858],[-164.69913999981105,19.731759999924179],[-164.68764999964768,19.713590000178499],[-164.66997999957724,19.686749999912706],[-164.66405999996894,19.677849999577973],[-164.65221000029121,19.660029999784797],[-164.6403500001523,19.642219999553504],[-164.62861999971315,19.62429000008359],[-164.61141999973313,19.596979999727353],[-164.60585000007737,19.587719999878232],[-164.59482000044258,19.569069999580961],[-164.57869999990498,19.54069999980527],[-164.57325999994896,19.53131000025644],[-164.56223999987603,19.512670000420314],[-164.55096000040362,19.494269999960693],[-164.53366000030869,19.467070000180513],[-164.52773999980107,19.458169999845779],[-164.51587999966219,19.440359999614429],[-164.49811000037613,19.41364000038584],[-164.49216000028372,19.404729999589961],[-164.47439999966016,19.378010000361371],[-164.46848000005187,19.369110000026637],[-164.45661999991299,19.351299999795287],[-164.44475999977408,19.333489999563994],[-164.43289000007337,19.315680000231964],[-164.42104999995746,19.297860000438789],[-164.40325999974911,19.271149999872762],[-164.3914199996332,19.253330000079586],[-164.38548000000193,19.244429999744852],[-164.36770999981655,19.217709999616943],[-164.36179000020826,19.208810000181529],[-164.34399000043808,19.18209000005362],[-164.33215000032217,19.16427999982227],[-164.32620000022976,19.155369999925711],[-164.31436000011382,19.137559999694361],[-164.30251999999791,19.119750000362387],[-164.29065000029721,19.101929999669892],[-164.27263999983603,19.075449999817749],[-164.26647999995197,19.066789999758839],[-164.25402999958473,19.049569999755818],[-164.24133000027922,19.03259000002862],[-164.22189000042312,19.007530000009638],[-164.21549999982506,18.999099999765292],[-164.2028199996432,18.982120000038094],[-164.18395999955425,18.956469999790784],[-164.17768999999342,18.947920000307931],[-164.16510000036465,18.930820000442793],[-164.15240000015979,18.913839999816275],[-164.13300000034965,18.888790000258439],[-164.12658999972862,18.88036000001415],[-164.11391000044608,18.863380000286895],[-164.10133000037914,18.846280000421814],[-164.08877999989699,18.829179999657413],[-164.07609999971513,18.812199999930215],[-164.0564100000214,18.787380000186999],[-164.04241999968315,18.771709999716848],[-164.03531000005637,18.76398999983877],[-164.0137300004391,18.74106999958093],[-163.99951000028619,18.725629999824775],[-163.99251999989801,18.71780000026996],[-163.97223999997593,18.693569999855754],[-163.96585000027721,18.685139999611408],[-163.94687999961221,18.659610000401358],[-163.94057999956723,18.651060000019129],[-163.92792000030769,18.634080000291931],[-163.90824999973762,18.609259999649396],[-163.90124999978758,18.601430000094581],[-163.88712999974962,18.585870000200487],[-163.87267999978209,18.57066999982078],[-163.85797000041512,18.555709999716839],[-163.83566000040861,18.533499999825267],[-163.82834000009086,18.526020000222957],[-163.81350999968666,18.511180000256957],[-163.7913500003022,18.488859999789327],[-163.78400000039963,18.481380000187016],[-163.76953000040911,18.466179999807309],[-163.74844000000593,18.442779999897198],[-163.73514999957274,18.426399999960154],[-163.72875999987403,18.417969999715865],[-163.70979000010834,18.392439999606438],[-163.69723999962619,18.375339999741357],[-163.68442999974462,18.358480000152042],[-163.67116000023375,18.342089999753853],[-163.66416999984554,18.334249999737835],[-163.64294000018077,18.31098000042681],[-163.62824999993748,18.296009999861724],[-163.61355999969416,18.28104999975784],[-163.60608000009185,18.273690000293414],[-163.58389000022325,18.251369999825783],[-163.56897000016531,18.236640000435784],[-163.55425999989899,18.221680000331901],[-163.53933999984105,18.206950000042582],[-163.52462999957473,18.191989999938698],[-163.50969000039314,18.177270000110582],[-163.49500000014982,18.162310000006642],[-163.48006000006887,18.147579999717379],[-163.46536000026373,18.132619999613439],[-163.45789000022324,18.125260000149012],[-163.43572999993947,18.102939999681382],[-163.4207800002967,18.08821000029144],[-163.40609999961521,18.0732500001875],[-163.39116000043359,18.058530000359383],[-163.37645999972912,18.043559999794297],[-163.36153000010933,18.028839999966181],[-163.34683000030418,18.01387999986224],[-163.33187999976209,17.999149999572978],[-163.31719999997995,17.984190000368358],[-163.30225000033715,17.969469999640921],[-163.28754999963269,17.954510000436301],[-163.27260999955175,17.939780000147039],[-163.25790000018478,17.924820000043098],[-163.24298000012683,17.910100000214982],[-163.22826999986052,17.895129999649896],[-163.21332999977957,17.880409999821779],[-163.1986400004356,17.865449999717839],[-163.18368999989349,17.850720000327897],[-163.16901000011134,17.835760000223956],[-163.1540500000074,17.82104000039584],[-163.13937000022526,17.8060800002919],[-163.12443999970614,17.791350000002637],[-163.109739999901,17.776389999898697],[-163.09479999982005,17.76167000007058],[-163.08010999957673,17.746700000404815],[-163.06515999993397,17.731979999677378],[-163.05048000015179,17.717019999573438],[-163.03552000004788,17.702290000183496],[-163.02059999998994,17.687570000355379],[-163.00518999981855,17.673319999718331],[-162.98954999983255,17.659310000256426],[-162.97318999991847,17.646010000261469],[-162.95635999991399,17.633180000356845],[-162.9392699996107,17.62058999982878],[-162.92220999979159,17.608009999761805],[-162.9053599997641,17.595179999857237],[-162.88901000031117,17.581879999862224],[-162.87337000032517,17.567870000400319],[-162.85796000015381,17.553619999763328],[-162.84302000007287,17.538899999935211],[-162.82807999999193,17.524180000107037],[-162.81338999974861,17.509220000003154],[-162.7984299996447,17.494489999713835],[-162.79099000008836,17.487130000249465],[-162.76810000031469,17.465520000148047],[-162.75246999989051,17.451500000224996],[-162.73610999997643,17.438200000229983],[-162.71927000041012,17.425379999887241],[-162.70218999966866,17.41279000025844],[-162.6851200002877,17.400199999730319],[-162.66829999984503,17.387380000286896],[-162.65193000036913,17.37408000029194],[-162.64397999977709,17.367190000018638],[-162.6201600002837,17.346529999659879],[-162.6042800000219,17.332759999574478],[-162.58792000010783,17.319459999579465],[-162.57107999964219,17.306629999674897],[-162.55401999982305,17.294049999607921],[-162.52852000019777,17.275050000257465],[-162.52010999997643,17.268639999636434],[-162.50375000006238,17.255339999641421],[-162.48784999977758,17.241559999994138],[-162.4640500003072,17.220899999635435],[-162.44792000020777,17.207369999825744],[-162.43973999980108,17.200719999828266],[-162.42290999979659,17.187889999923698],[-162.40558999967865,17.1755399996714],[-162.3880599997691,17.16342999969487],[-162.37026999956075,17.151550000432337],[-162.35248999981357,17.139679999832254],[-162.32594000033066,17.12175000036234],[-162.31716999969564,17.115689999693871],[-162.29986999960073,17.103340000340893],[-162.28278999975859,17.090760000273917],[-162.26595000019228,17.077930000369349],[-162.24935999956426,17.06486999975084],[-162.23251000043609,17.052050000307418],[-162.20680000011984,17.033290000333409],[-162.1981499996227,17.027110000426319],[-162.18059999969014,17.014999999550469],[-162.16281000038114,17.003120000287936],[-162.14504999975762,16.991249999687852],[-162.12726000044859,16.979379999987145],[-162.10947000024024,16.967499999825293],[-162.09170999961671,16.955630000124529],[-162.07390999984653,16.943749999962677],[-162.05590999984653,16.932119999638417],[-162.03766000000891,16.920720000028098],[-162.00980000036964,16.904090000253461],[-162.00042999994446,16.898630000274409],[-161.9814600001788,16.887940000131039],[-161.96274000025073,16.87702000017299],[-161.93509999996493,16.86015000012253],[-161.92598000027672,16.854460000328913],[-161.89907999994196,16.836879999912185],[-161.89017000004537,16.830940000280918],[-161.8723900002982,16.819069999680892],[-161.85460999965167,16.807199999980128],[-161.83682000034267,16.795319999818275],[-161.80969000019329,16.77797999967737],[-161.80054999958273,16.772280000321871],[-161.78206000036863,16.761120000088056],[-161.75339000024823,16.74533000037934],[-161.74364999984755,16.740220000352849],[-161.72420999999142,16.73000999986175],[-161.70479000015831,16.719800000269913],[-161.67583999971615,16.704240000375876],[-161.6663799996372,16.698899999635387],[-161.64787000040013,16.687740000300892],[-161.62963999968616,16.67633999979131],[-161.61136000026372,16.664940000180991],[-161.59311999998792,16.653539999671409],[-161.57462000031268,16.642380000336857],[-161.55566000010884,16.631690000193487],[-161.53622000025274,16.621479999702387],[-161.51676999993546,16.611270000110551],[-161.48711999958823,16.596419999683405],[-161.47717000029519,16.591549999932681],[-161.45749999972512,16.581579999717349],[-161.42785999983903,16.566739999751348],[-161.4179099996467,16.561870000000624],[-161.38836999987552,16.546909999896741],[-161.37853999982104,16.541920000008133],[-161.34879000025822,16.527189999718871],[-161.32909999966517,16.517220000402858],[-161.31926999961073,16.512229999614931],[-161.29935000010235,16.502499999675365],[-161.27968999999342,16.492519999898207],[-161.25998999983855,16.482549999682874],[-161.240079999892,16.472810000181482],[-161.21056999970565,16.457850000077599],[-161.19079999991999,16.447990000438324],[-161.1808200001428,16.44311999978828],[-161.15130999995645,16.428170000145542],[-161.14145000031718,16.423180000256934],[-161.12132000011783,16.413680000132047],[-161.09096999986554,16.399549999632939],[-161.08076000027373,16.394920000158038],[-161.04901000021127,16.382210000391353],[-161.0383299996297,16.378050000107578],[-161.01724000012584,16.369499999725349],[-160.99589999988501,16.361189999618944],[-160.96412999979958,16.348490000313404],[-160.95369999995495,16.344089999753805],[-160.92215999968417,16.331150000172499],[-160.91150000002492,16.327000000349869],[-160.87960999980157,16.314409999821748],[-160.85836999967566,16.30597999957746],[-160.83705000035715,16.297659999909229],[-160.82638999979858,16.293510000086599],[-160.79506999978059,16.280330000229469],[-160.78467000042011,16.27592999966987],[-160.75253000035914,16.263580000316892],[-160.7309600003037,16.255509999586934],[-160.70914999997245,16.247669999570974],[-160.69812000033767,16.243869999700848],[-160.66469999970514,16.232829999604917],[-160.65354999993247,16.229149999872732],[-160.63150000022475,16.221550000132538],[-160.59807999959222,16.210499999575461],[-160.58694000028072,16.206830000304421],[-160.56465000029721,16.199460000378849],[-160.53146000037864,16.188180000007151],[-160.5091900004181,16.180819999643404],[-160.48688999997344,16.173460000178977],[-160.46472000012781,16.165979999677404],[-160.44253999982107,16.158489999613948],[-160.43139999961022,16.154809999881707],[-160.39797999987701,16.143769999785775],[-160.38683999966617,16.14009000005359],[-160.35315999963419,16.129279999772336],[-160.33028999988352,16.122509999636918],[-160.3071700002952,16.115979999777323],[-160.28381000043109,16.109690000193496],[-160.26021000029121,16.103639999986171],[-160.23651000003639,16.097700000354848],[-160.22464000033565,16.094730000089555],[-160.18909000040313,16.085820000192996],[-160.16541000017128,16.079890000123555],[-160.15353000000943,16.076919999858262],[-160.12982000019278,16.070980000226996],[-160.09378000014681,16.06254999998265],[-160.06948999966366,16.057210000141538],[-160.05727999957224,16.05458999982875],[-160.02016999964567,16.04723000036438],[-159.99538999994846,16.042359999714336],[-159.97073000038912,16.03738000028693],[-159.94596999981556,16.032509999636886],[-159.9335299999095,16.030129999599922],[-159.89572000007786,16.023479999602444],[-159.87035000015231,16.019440000355871],[-159.84521000004139,16.015639999586426],[-159.82101000011133,16.011609999901737],[-159.79816000038363,16.007210000241457],[-159.77657000030518,16.00270000000512],[-159.75562000006286,15.998309999906724],[-159.73439000039812,15.994389999898715]]]},"properties":{"objectid":205,"stormname":"Nolo","stormtype":"HU","basin":"EP","advdate":"500 AM HST Sat Sep 26 2026","advisnum":"24","fcstprd":120,"stormnum":15,"idp_source":"ep152026-024_5day_pgn","idp_filedate":1790435870000,"idp_ingestdate":1790435979000,"st_area(shape)":47.477640678258417,"st_perimeter(shape)":40.314114877005565,"binnumber":"CP2"}}]}