{"type":"FeatureCollection","features":[{"type":"Feature","id":3413,"geometry":{"type":"Point","coordinates":[-143.00000000009982,21.699999999900228]},"properties":{"objectid":3413,"stormname":"Hurricane Karina","stormtype":"HU","dvlbl":"H","basin":"EP","advdate":"500 AM HST Sat Sep 05 2026","advisnum":"37","fcstprd":120,"gust":80,"maxwind":65,"mslp":985,"ssnum":1,"datelbl":"5:00 AM Sat","tcdvlp":"Hurricane","tcdir":305,"tcspd":7,"fldatelbl":"2026-09-05 2:00 AM Sat HST","lat":22,"lon":-143,"stormnum":11,"stormsrc":"Tropical Cyclone","timezone":"HST","validtime":"05/1200","tau":0,"idp_source":"ep112026-037_5day_pts","idp_subset":"ep112026","idp_filedate":1788621183000,"idp_ingestdate":1788621316000,"binnumber":"CP5"}},{"type":"Feature","id":3414,"geometry":{"type":"Point","coordinates":[-143.69999999960021,22.100000000000136]},"properties":{"objectid":3414,"stormname":"Hurricane Karina","stormtype":"TS","dvlbl":"S","basin":"EP","advdate":"500 AM HST Sat Sep 05 2026","advisnum":"37","fcstprd":120,"gust":65,"maxwind":55,"mslp":9999,"ssnum":0,"datelbl":"2:00 PM Sat","tcdvlp":"Tropical Storm","tcdir":9999,"tcspd":9999,"fldatelbl":"2026-09-05 2:00 PM Sat HST","lat":22,"lon":-144,"stormnum":11,"stormsrc":"Tropical Cyclone","timezone":"HST","validtime":"06/0000","tau":12,"idp_source":"ep112026-037_5day_pts","idp_subset":"ep112026","idp_filedate":1788621183000,"idp_ingestdate":1788621316000,"binnumber":"CP5"}},{"type":"Feature","id":3415,"geometry":{"type":"Point","coordinates":[-144.59999999960021,22.599999999900206]},"properties":{"objectid":3415,"stormname":"Hurricane Karina","stormtype":"TS","dvlbl":"S","basin":"EP","advdate":"500 AM HST Sat Sep 05 2026","advisnum":"37","fcstprd":120,"gust":60,"maxwind":50,"mslp":9999,"ssnum":0,"datelbl":"2:00 AM Sun","tcdvlp":"Tropical Storm","tcdir":9999,"tcspd":9999,"fldatelbl":"2026-09-06 2:00 AM Sun HST","lat":23,"lon":-145,"stormnum":11,"stormsrc":"Tropical Cyclone","timezone":"HST","validtime":"06/1200","tau":24,"idp_source":"ep112026-037_5day_pts","idp_subset":"ep112026","idp_filedate":1788621183000,"idp_ingestdate":1788621316000,"binnumber":"CP5"}},{"type":"Feature","id":3416,"geometry":{"type":"Point","coordinates":[-145.7999999999,23.000000000000114]},"properties":{"objectid":3416,"stormname":"Hurricane Karina","stormtype":"TS","dvlbl":"S","basin":"EP","advdate":"500 AM HST Sat Sep 05 2026","advisnum":"37","fcstprd":120,"gust":55,"maxwind":45,"mslp":9999,"ssnum":0,"datelbl":"2:00 PM Sun","tcdvlp":"Tropical Storm","tcdir":9999,"tcspd":9999,"fldatelbl":"2026-09-06 2:00 PM Sun HST","lat":23,"lon":-146,"stormnum":11,"stormsrc":"Tropical Cyclone","timezone":"HST","validtime":"07/0000","tau":36,"idp_source":"ep112026-037_5day_pts","idp_subset":"ep112026","idp_filedate":1788621183000,"idp_ingestdate":1788621316000,"binnumber":"CP5"}},{"type":"Feature","id":3417,"geometry":{"type":"Point","coordinates":[-147.69999999970014,23.400000000100079]},"properties":{"objectid":3417,"stormname":"Hurricane Karina","stormtype":"TS","dvlbl":"S","basin":"EP","advdate":"500 AM HST Sat Sep 05 2026","advisnum":"37","fcstprd":120,"gust":45,"maxwind":35,"mslp":9999,"ssnum":0,"datelbl":"2:00 AM Mon","tcdvlp":"Tropical Storm","tcdir":9999,"tcspd":9999,"fldatelbl":"2026-09-07 2:00 AM Mon HST","lat":23,"lon":-148,"stormnum":11,"stormsrc":"Tropical Cyclone","timezone":"HST","validtime":"07/1200","tau":48,"idp_source":"ep112026-037_5day_pts","idp_subset":"ep112026","idp_filedate":1788621183000,"idp_ingestdate":1788621316000,"binnumber":"CP5"}},{"type":"Feature","id":3418,"geometry":{"type":"Point","coordinates":[-150.20000000009983,23.900000000000148]},"properties":{"objectid":3418,"stormname":"Hurricane Karina","stormtype":"STD","dvlbl":"D","basin":"EP","advdate":"500 AM HST Sat Sep 05 2026","advisnum":"37","fcstprd":120,"gust":40,"maxwind":30,"mslp":9999,"ssnum":0,"datelbl":"2:00 PM Mon","tcdvlp":"Subtropical Depression","tcdir":9999,"tcspd":9999,"fldatelbl":"2026-09-07 2:00 PM Mon HST","lat":24,"lon":-150,"stormnum":11,"stormsrc":"Post-Tropical Cyclone","timezone":"HST","validtime":"08/0000","tau":60,"idp_source":"ep112026-037_5day_pts","idp_subset":"ep112026","idp_filedate":1788621183000,"idp_ingestdate":1788621316000,"binnumber":"CP5"}}]}