{
    "@context": {
        "@version": "1.1"
    },
    "id": "https://api.weather.gov/zones/forecast/ILZ012",
    "type": "Feature",
    "geometry": {
        "type": "Polygon",
        "coordinates": [
            [
                [
                    -88.402298,
                    42.154114
                ],
                [
                    -88.3992,
                    42.153812
                ],
                [
                    -88.368599,
                    42.154011
                ],
                [
                    -88.359993,
                    42.154213
                ],
                [
                    -88.326797,
                    42.154114
                ],
                [
                    -88.316795,
                    42.153812
                ],
                [
                    -88.303596,
                    42.153713
                ],
                [
                    -88.268196,
                    42.153713
                ],
                [
                    -88.261696,
                    42.153912
                ],
                [
                    -88.251198,
                    42.153912
                ],
                [
                    -88.248093,
                    42.154312
                ],
                [
                    -88.2379,
                    42.154011
                ],
                [
                    -88.238396,
                    42.145412
                ],
                [
                    -88.238197,
                    42.128914
                ],
                [
                    -88.238297,
                    42.120312
                ],
                [
                    -88.238594,
                    42.113411
                ],
                [
                    -88.238396,
                    42.107712
                ],
                [
                    -88.238396,
                    42.084812
                ],
                [
                    -88.2379,
                    42.072311
                ],
                [
                    -88.237999,
                    42.068413
                ],
                [
                    -88.244698,
                    42.066811
                ],
                [
                    -88.256996,
                    42.066914
                ],
                [
                    -88.263199,
                    42.066414
                ],
                [
                    -88.263397,
                    42.063614
                ],
                [
                    -88.263496,
                    42.042812
                ],
                [
                    -88.263298,
                    42.033813
                ],
                [
                    -88.263397,
                    42.022614
                ],
                [
                    -88.2631,
                    41.993313
                ],
                [
                    -88.262894,
                    41.986214
                ],
                [
                    -88.2631,
                    41.973511
                ],
                [
                    -88.262894,
                    41.968014
                ],
                [
                    -88.262794,
                    41.951313
                ],
                [
                    -88.263199,
                    41.947212
                ],
                [
                    -88.262695,
                    41.923611
                ],
                [
                    -88.262794,
                    41.917313
                ],
                [
                    -88.262596,
                    41.910812
                ],
                [
                    -88.262596,
                    41.854012
                ],
                [
                    -88.2631,
                    41.834614
                ],
                [
                    -88.263199,
                    41.815613
                ],
                [
                    -88.262695,
                    41.779613
                ],
                [
                    -88.262398,
                    41.775513
                ],
                [
                    -88.262199,
                    41.762314
                ],
                [
                    -88.262398,
                    41.749912
                ],
                [
                    -88.2621,
                    41.745514
                ],
                [
                    -88.2621,
                    41.727413
                ],
                [
                    -88.261795,
                    41.724712
                ],
                [
                    -88.265198,
                    41.724411
                ],
                [
                    -88.271896,
                    41.724213
                ],
                [
                    -88.337097,
                    41.723213
                ],
                [
                    -88.369095,
                    41.722511
                ],
                [
                    -88.375595,
                    41.722511
                ],
                [
                    -88.400093,
                    41.723011
                ],
                [
                    -88.4851,
                    41.722111
                ],
                [
                    -88.489899,
                    41.722012
                ],
                [
                    -88.515297,
                    41.720711
                ],
                [
                    -88.528,
                    41.720612
                ],
                [
                    -88.537193,
                    41.720211
                ],
                [
                    -88.561096,
                    41.71981
                ],
                [
                    -88.567398,
                    41.720013
                ],
                [
                    -88.602997,
                    41.719513
                ],
                [
                    -88.602097,
                    41.724514
                ],
                [
                    -88.602097,
                    41.749413
                ],
                [
                    -88.602394,
                    41.791512
                ],
                [
                    -88.602295,
                    41.809914
                ],
                [
                    -88.602493,
                    41.813812
                ],
                [
                    -88.602097,
                    41.828514
                ],
                [
                    -88.602295,
                    41.836514
                ],
                [
                    -88.601593,
                    41.879414
                ],
                [
                    -88.6017,
                    41.886513
                ],
                [
                    -88.601395,
                    41.919113
                ],
                [
                    -88.601494,
                    41.959511
                ],
                [
                    -88.601395,
                    41.974411
                ],
                [
                    -88.601196,
                    41.981312
                ],
                [
                    -88.601898,
                    42.003311
                ],
                [
                    -88.6017,
                    42.033413
                ],
                [
                    -88.601898,
                    42.054413
                ],
                [
                    -88.601799,
                    42.06171
                ],
                [
                    -88.600594,
                    42.066513
                ],
                [
                    -88.591995,
                    42.066513
                ],
                [
                    -88.588295,
                    42.067413
                ],
                [
                    -88.588295,
                    42.129112
                ],
                [
                    -88.588493,
                    42.137711
                ],
                [
                    -88.588493,
                    42.153614
                ],
                [
                    -88.550697,
                    42.153713
                ],
                [
                    -88.544693,
                    42.15361
                ],
                [
                    -88.511795,
                    42.153812
                ],
                [
                    -88.481995,
                    42.154213
                ],
                [
                    -88.472397,
                    42.154114
                ],
                [
                    -88.432899,
                    42.154312
                ],
                [
                    -88.408295,
                    42.154312
                ],
                [
                    -88.402298,
                    42.154114
                ]
            ]
        ]
    },
    "properties": {
        "@id": "https://api.weather.gov/zones/forecast/ILZ012",
        "@type": "wx:Zone",
        "id": "ILZ012",
        "type": "public",
        "name": "Kane",
        "effectiveDate": "2026-04-16T18:00:00+00:00",
        "expirationDate": "2200-01-01T00:00:00+00:00",
        "state": "IL",
        "forecastOffice": "https://api.weather.gov/offices/LOT",
        "gridIdentifier": "LOT",
        "awipsLocationIdentifier": "LOT",
        "cwa": [
            "LOT"
        ],
        "forecastOffices": [
            "https://api.weather.gov/offices/LOT"
        ],
        "timeZone": [
            "America/Chicago"
        ],
        "observationStations": [
            "https://api.weather.gov/stations/KORD",
            "https://api.weather.gov/stations/KARR",
            "https://api.weather.gov/stations/KDPA"
        ],
        "radarStation": "LOT"
    }
}