{
    "@context": {
        "@version": "1.1"
    },
    "id": "https://api.weather.gov/zones/forecast/IAZ030",
    "type": "Feature",
    "geometry": {
        "type": "Polygon",
        "coordinates": [
            [
                [
                    -91.177193,
                    43.079712
                ],
                [
                    -91.177193,
                    43.075912
                ],
                [
                    -91.177498,
                    43.072411
                ],
                [
                    -91.1791,
                    43.069611
                ],
                [
                    -91.179298,
                    43.066612
                ],
                [
                    -91.177994,
                    43.06451
                ],
                [
                    -91.178093,
                    43.062012
                ],
                [
                    -91.175194,
                    43.041313
                ],
                [
                    -91.1744,
                    43.038013
                ],
                [
                    -91.173096,
                    43.034813
                ],
                [
                    -91.171593,
                    43.029613
                ],
                [
                    -91.170898,
                    43.026012
                ],
                [
                    -91.169899,
                    43.023113
                ],
                [
                    -91.166496,
                    43.015614
                ],
                [
                    -91.160797,
                    43.000011
                ],
                [
                    -91.159393,
                    42.996712
                ],
                [
                    -91.157494,
                    42.991512
                ],
                [
                    -91.156799,
                    42.98801
                ],
                [
                    -91.156898,
                    42.983612
                ],
                [
                    -91.1567,
                    42.979511
                ],
                [
                    -91.155495,
                    42.975811
                ],
                [
                    -91.150894,
                    42.970512
                ],
                [
                    -91.148598,
                    42.967213
                ],
                [
                    -91.146797,
                    42.963913
                ],
                [
                    -91.145897,
                    42.960812
                ],
                [
                    -91.145393,
                    42.957413
                ],
                [
                    -91.1465,
                    42.953514
                ],
                [
                    -91.149094,
                    42.946514
                ],
                [
                    -91.149696,
                    42.943813
                ],
                [
                    -91.149796,
                    42.941113
                ],
                [
                    -91.148499,
                    42.937111
                ],
                [
                    -91.146896,
                    42.934013
                ],
                [
                    -91.145294,
                    42.929913
                ],
                [
                    -91.144295,
                    42.926613
                ],
                [
                    -91.143799,
                    42.921814
                ],
                [
                    -91.1446,
                    42.918114
                ],
                [
                    -91.145897,
                    42.915012
                ],
                [
                    -91.146194,
                    42.912113
                ],
                [
                    -91.145897,
                    42.908913
                ],
                [
                    -91.143997,
                    42.905411
                ],
                [
                    -91.137993,
                    42.903812
                ],
                [
                    -91.131393,
                    42.901112
                ],
                [
                    -91.125099,
                    42.899014
                ],
                [
                    -91.120399,
                    42.897213
                ],
                [
                    -91.117393,
                    42.895813
                ],
                [
                    -91.114998,
                    42.894211
                ],
                [
                    -91.112198,
                    42.891113
                ],
                [
                    -91.107094,
                    42.887611
                ],
                [
                    -91.104095,
                    42.886013
                ],
                [
                    -91.1008,
                    42.883213
                ],
                [
                    -91.098495,
                    42.877213
                ],
                [
                    -91.098793,
                    42.869114
                ],
                [
                    -91.098793,
                    42.86441
                ],
                [
                    -91.097694,
                    42.859913
                ],
                [
                    -91.095398,
                    42.855614
                ],
                [
                    -91.091599,
                    42.849911
                ],
                [
                    -91.092995,
                    42.843513
                ],
                [
                    -91.095093,
                    42.835011
                ],
                [
                    -91.094093,
                    42.830811
                ],
                [
                    -91.090599,
                    42.829311
                ],
                [
                    -91.0849,
                    42.830013
                ],
                [
                    -91.082199,
                    42.829712
                ],
                [
                    -91.080299,
                    42.82851
                ],
                [
                    -91.078796,
                    42.826511
                ],
                [
                    -91.0793,
                    42.821712
                ],
                [
                    -91.079193,
                    42.817513
                ],
                [
                    -91.0784,
                    42.808811
                ],
                [
                    -91.077797,
                    42.805214
                ],
                [
                    -91.076195,
                    42.798012
                ],
                [
                    -91.071899,
                    42.786011
                ],
                [
                    -91.071693,
                    42.784012
                ],
                [
                    -91.0709,
                    42.781212
                ],
                [
                    -91.070595,
                    42.777714
                ],
                [
                    -91.070496,
                    42.774311
                ],
                [
                    -91.069901,
                    42.771511
                ],
                [
                    -91.069199,
                    42.769413
                ],
                [
                    -91.065193,
                    42.765812
                ],
                [
                    -91.0616,
                    42.762913
                ],
                [
                    -91.060295,
                    42.759411
                ],
                [
                    -91.064095,
                    42.757313
                ],
                [
                    -91.065697,
                    42.754311
                ],
                [
                    -91.064293,
                    42.751114
                ],
                [
                    -91.060196,
                    42.750313
                ],
                [
                    -91.057198,
                    42.748314
                ],
                [
                    -91.054893,
                    42.744713
                ],
                [
                    -91.054398,
                    42.739914
                ],
                [
                    -91.051193,
                    42.73711
                ],
                [
                    -91.046898,
                    42.737213
                ],
                [
                    -91.044495,
                    42.738514
                ],
                [
                    -91.042198,
                    42.738613
                ],
                [
                    -91.038399,
                    42.738312
                ],
                [
                    -91.035393,
                    42.737312
                ],
                [
                    -91.0327,
                    42.735313
                ],
                [
                    -91.030899,
                    42.732014
                ],
                [
                    -91.030396,
                    42.729111
                ],
                [
                    -91.029198,
                    42.726212
                ],
                [
                    -91.025795,
                    42.723812
                ],
                [
                    -91.017494,
                    42.71981
                ],
                [
                    -91.014999,
                    42.719311
                ],
                [
                    -91.010696,
                    42.720112
                ],
                [
                    -91.007698,
                    42.719414
                ],
                [
                    -91.000099,
                    42.716213
                ],
                [
                    -90.994797,
                    42.713314
                ],
                [
                    -90.992195,
                    42.711514
                ],
                [
                    -90.988098,
                    42.708012
                ],
                [
                    -90.985199,
                    42.704811
                ],
                [
                    -90.983498,
                    42.702213
                ],
                [
                    -90.980598,
                    42.698914
                ],
                [
                    -90.976997,
                    42.696411
                ],
                [
                    -90.973,
                    42.695011
                ],
                [
                    -90.968895,
                    42.694313
                ],
                [
                    -90.965096,
                    42.693211
                ],
                [
                    -90.959793,
                    42.690811
                ],
                [
                    -90.9524,
                    42.686813
                ],
                [
                    -90.949196,
                    42.685612
                ],
                [
                    -90.945496,
                    42.684612
                ],
                [
                    -90.941597,
                    42.683811
                ],
                [
                    -90.936996,
                    42.683411
                ],
                [
                    -90.932396,
                    42.683712
                ],
                [
                    -90.928894,
                    42.684311
                ],
                [
                    -90.924698,
                    42.68531
                ],
                [
                    -90.921196,
                    42.685413
                ],
                [
                    -90.917198,
                    42.684311
                ],
                [
                    -90.913399,
                    42.682911
                ],
                [
                    -90.909798,
                    42.681213
                ],
                [
                    -90.903397,
                    42.677513
                ],
                [
                    -90.899696,
                    42.676014
                ],
                [
                    -90.896996,
                    42.675114
                ],
                [
                    -90.8974,
                    42.645714
                ],
                [
                    -90.965996,
                    42.646214
                ],
                [
                    -91.009598,
                    42.646214
                ],
                [
                    -91.026596,
                    42.64661
                ],
                [
                    -91.035095,
                    42.646614
                ],
                [
                    -91.132797,
                    42.645813
                ],
                [
                    -91.210693,
                    42.645813
                ],
                [
                    -91.231194,
                    42.645611
                ],
                [
                    -91.281898,
                    42.645512
                ],
                [
                    -91.375099,
                    42.644711
                ],
                [
                    -91.378998,
                    42.644512
                ],
                [
                    -91.410194,
                    42.644314
                ],
                [
                    -91.418297,
                    42.644112
                ],
                [
                    -91.431496,
                    42.644211
                ],
                [
                    -91.453499,
                    42.643913
                ],
                [
                    -91.456993,
                    42.643711
                ],
                [
                    -91.460495,
                    42.643711
                ],
                [
                    -91.466698,
                    42.644012
                ],
                [
                    -91.487999,
                    42.643913
                ],
                [
                    -91.5392,
                    42.644413
                ],
                [
                    -91.542297,
                    42.644413
                ],
                [
                    -91.5457,
                    42.644112
                ],
                [
                    -91.606293,
                    42.643913
                ],
                [
                    -91.606796,
                    42.651211
                ],
                [
                    -91.6063,
                    42.679512
                ],
                [
                    -91.606194,
                    42.702213
                ],
                [
                    -91.606697,
                    42.742813
                ],
                [
                    -91.607193,
                    42.760311
                ],
                [
                    -91.607697,
                    42.796513
                ],
                [
                    -91.607597,
                    42.803913
                ],
                [
                    -91.607796,
                    42.810112
                ],
                [
                    -91.607193,
                    42.820412
                ],
                [
                    -91.606499,
                    42.918713
                ],
                [
                    -91.606499,
                    42.926212
                ],
                [
                    -91.606697,
                    42.933113
                ],
                [
                    -91.6064,
                    42.93531
                ],
                [
                    -91.606194,
                    42.99361
                ],
                [
                    -91.605995,
                    43.003311
                ],
                [
                    -91.605698,
                    43.007912
                ],
                [
                    -91.605797,
                    43.020611
                ],
                [
                    -91.605293,
                    43.06451
                ],
                [
                    -91.605293,
                    43.081612
                ],
                [
                    -91.517899,
                    43.081711
                ],
                [
                    -91.485497,
                    43.081413
                ],
                [
                    -91.431297,
                    43.081612
                ],
                [
                    -91.330299,
                    43.081013
                ],
                [
                    -91.305695,
                    43.081211
                ],
                [
                    -91.297798,
                    43.081413
                ],
                [
                    -91.272797,
                    43.081013
                ],
                [
                    -91.2659,
                    43.080612
                ],
                [
                    -91.250595,
                    43.080711
                ],
                [
                    -91.220894,
                    43.080414
                ],
                [
                    -91.180099,
                    43.080311
                ],
                [
                    -91.177193,
                    43.079712
                ]
            ]
        ]
    },
    "properties": {
        "@id": "https://api.weather.gov/zones/forecast/IAZ030",
        "@type": "wx:Zone",
        "id": "IAZ030",
        "type": "public",
        "name": "Clayton",
        "effectiveDate": "2026-04-16T18:00:00+00:00",
        "expirationDate": "2200-01-01T00:00:00+00:00",
        "state": "IA",
        "forecastOffice": "https://api.weather.gov/offices/ARX",
        "gridIdentifier": "ARX",
        "awipsLocationIdentifier": "ARX",
        "cwa": [
            "ARX"
        ],
        "forecastOffices": [
            "https://api.weather.gov/offices/ARX"
        ],
        "timeZone": [
            "America/Chicago"
        ],
        "observationStations": [
            "https://api.weather.gov/stations/KPDC",
            "https://api.weather.gov/stations/KDBQ",
            "https://api.weather.gov/stations/KDEH",
            "https://api.weather.gov/stations/KOLZ"
        ],
        "radarStation": "ARX"
    }
}