{
    "@context": {
        "@version": "1.1"
    },
    "id": "https://api.weather.gov/zones/forecast/NJZ006",
    "type": "Feature",
    "geometry": {
        "type": "MultiPolygon",
        "coordinates": [
            [
                [
                    [
                        -74.078908,
                        40.661669
                    ],
                    [
                        -74.079078,
                        40.661397
                    ],
                    [
                        -74.084304,
                        40.663148
                    ],
                    [
                        -74.083679,
                        40.664156
                    ],
                    [
                        -74.078425,
                        40.662446
                    ],
                    [
                        -74.078908,
                        40.661669
                    ]
                ]
            ],
            [
                [
                    [
                        -74.012596,
                        40.81591
                    ],
                    [
                        -73.999794,
                        40.809513
                    ],
                    [
                        -73.994598,
                        40.806511
                    ],
                    [
                        -73.993401,
                        40.803612
                    ],
                    [
                        -73.992798,
                        40.800713
                    ],
                    [
                        -73.991936,
                        40.801407
                    ],
                    [
                        -73.992386,
                        40.800701
                    ],
                    [
                        -73.984924,
                        40.797517
                    ],
                    [
                        -73.992883,
                        40.786301
                    ],
                    [
                        -73.997383,
                        40.780301
                    ],
                    [
                        -74.001383,
                        40.774301
                    ],
                    [
                        -74.009185,
                        40.763599
                    ],
                    [
                        -74.013786,
                        40.756599
                    ],
                    [
                        -74.016784,
                        40.745102
                    ],
                    [
                        -74.021117,
                        40.727417
                    ],
                    [
                        -74.021961,
                        40.723586
                    ],
                    [
                        -74.023727,
                        40.713888
                    ],
                    [
                        -74.030685,
                        40.7145
                    ],
                    [
                        -74.030884,
                        40.714002
                    ],
                    [
                        -74.033084,
                        40.714302
                    ],
                    [
                        -74.033386,
                        40.712101
                    ],
                    [
                        -74.033684,
                        40.711702
                    ],
                    [
                        -74.034782,
                        40.711803
                    ],
                    [
                        -74.034791,
                        40.712003
                    ],
                    [
                        -74.036583,
                        40.712204
                    ],
                    [
                        -74.038086,
                        40.712303
                    ],
                    [
                        -74.038185,
                        40.712002
                    ],
                    [
                        -74.035084,
                        40.711701
                    ],
                    [
                        -74.034984,
                        40.711402
                    ],
                    [
                        -74.033357,
                        40.711072
                    ],
                    [
                        -74.037781,
                        40.711502
                    ],
                    [
                        -74.037987,
                        40.711002
                    ],
                    [
                        -74.039284,
                        40.711002
                    ],
                    [
                        -74.041084,
                        40.711304
                    ],
                    [
                        -74.041084,
                        40.712002
                    ],
                    [
                        -74.041885,
                        40.712303
                    ],
                    [
                        -74.041985,
                        40.713502
                    ],
                    [
                        -74.042885,
                        40.713703
                    ],
                    [
                        -74.043085,
                        40.712102
                    ],
                    [
                        -74.042187,
                        40.711303
                    ],
                    [
                        -74.043485,
                        40.711202
                    ],
                    [
                        -74.051185,
                        40.712102
                    ],
                    [
                        -74.053833,
                        40.712704
                    ],
                    [
                        -74.052925,
                        40.711903
                    ],
                    [
                        -74.052032,
                        40.7117
                    ],
                    [
                        -74.051584,
                        40.711902
                    ],
                    [
                        -74.050586,
                        40.711402
                    ],
                    [
                        -74.051186,
                        40.711304
                    ],
                    [
                        -74.051085,
                        40.711002
                    ],
                    [
                        -74.034784,
                        40.709102
                    ],
                    [
                        -74.033485,
                        40.709305
                    ],
                    [
                        -74.033485,
                        40.70911
                    ],
                    [
                        -74.032998,
                        40.709106
                    ],
                    [
                        -74.033386,
                        40.7089
                    ],
                    [
                        -74.033684,
                        40.708302
                    ],
                    [
                        -74.034286,
                        40.708401
                    ],
                    [
                        -74.034386,
                        40.707802
                    ],
                    [
                        -74.032923,
                        40.707607
                    ],
                    [
                        -74.033984,
                        40.707502
                    ],
                    [
                        -74.034084,
                        40.706602
                    ],
                    [
                        -74.034584,
                        40.706604
                    ],
                    [
                        -74.034584,
                        40.705502
                    ],
                    [
                        -74.043085,
                        40.706402
                    ],
                    [
                        -74.043686,
                        40.706203
                    ],
                    [
                        -74.041786,
                        40.705002
                    ],
                    [
                        -74.042488,
                        40.704201
                    ],
                    [
                        -74.040186,
                        40.702703
                    ],
                    [
                        -74.043182,
                        40.704304
                    ],
                    [
                        -74.043587,
                        40.704002
                    ],
                    [
                        -74.041284,
                        40.702502
                    ],
                    [
                        -74.041484,
                        40.702303
                    ],
                    [
                        -74.043985,
                        40.703602
                    ],
                    [
                        -74.044289,
                        40.703102
                    ],
                    [
                        -74.041986,
                        40.701901
                    ],
                    [
                        -74.042184,
                        40.701703
                    ],
                    [
                        -74.044487,
                        40.703003
                    ],
                    [
                        -74.044885,
                        40.702602
                    ],
                    [
                        -74.042686,
                        40.701302
                    ],
                    [
                        -74.042786,
                        40.701202
                    ],
                    [
                        -74.045085,
                        40.702402
                    ],
                    [
                        -74.045486,
                        40.702003
                    ],
                    [
                        -74.043385,
                        40.700802
                    ],
                    [
                        -74.043587,
                        40.700603
                    ],
                    [
                        -74.045785,
                        40.701702
                    ],
                    [
                        -74.047485,
                        40.700104
                    ],
                    [
                        -74.049385,
                        40.700902
                    ],
                    [
                        -74.050685,
                        40.699302
                    ],
                    [
                        -74.045985,
                        40.696802
                    ],
                    [
                        -74.045985,
                        40.696603
                    ],
                    [
                        -74.049185,
                        40.698002
                    ],
                    [
                        -74.051185,
                        40.695802
                    ],
                    [
                        -74.052986,
                        40.696404
                    ],
                    [
                        -74.053385,
                        40.695202
                    ],
                    [
                        -74.053986,
                        40.695103
                    ],
                    [
                        -74.054687,
                        40.694603
                    ],
                    [
                        -74.057885,
                        40.695802
                    ],
                    [
                        -74.059189,
                        40.694603
                    ],
                    [
                        -74.057185,
                        40.693202
                    ],
                    [
                        -74.054385,
                        40.692002
                    ],
                    [
                        -74.055587,
                        40.690903
                    ],
                    [
                        -74.057785,
                        40.691803
                    ],
                    [
                        -74.057485,
                        40.692702
                    ],
                    [
                        -74.058388,
                        40.693104
                    ],
                    [
                        -74.058785,
                        40.692303
                    ],
                    [
                        -74.058983,
                        40.692402
                    ],
                    [
                        -74.058784,
                        40.693401
                    ],
                    [
                        -74.059385,
                        40.693702
                    ],
                    [
                        -74.059884,
                        40.692803
                    ],
                    [
                        -74.060085,
                        40.693002
                    ],
                    [
                        -74.059784,
                        40.694103
                    ],
                    [
                        -74.060387,
                        40.694202
                    ],
                    [
                        -74.060685,
                        40.693402
                    ],
                    [
                        -74.061385,
                        40.693802
                    ],
                    [
                        -74.061081,
                        40.694901
                    ],
                    [
                        -74.066086,
                        40.697903
                    ],
                    [
                        -74.067085,
                        40.696404
                    ],
                    [
                        -74.068185,
                        40.697002
                    ],
                    [
                        -74.069885,
                        40.695402
                    ],
                    [
                        -74.070686,
                        40.693703
                    ],
                    [
                        -74.069685,
                        40.693602
                    ],
                    [
                        -74.069283,
                        40.694401
                    ],
                    [
                        -74.067284,
                        40.6954
                    ],
                    [
                        -74.065285,
                        40.694202
                    ],
                    [
                        -74.066086,
                        40.693604
                    ],
                    [
                        -74.067285,
                        40.693402
                    ],
                    [
                        -74.069885,
                        40.691803
                    ],
                    [
                        -74.069385,
                        40.686802
                    ],
                    [
                        -74.069985,
                        40.684802
                    ],
                    [
                        -74.069885,
                        40.684202
                    ],
                    [
                        -74.070487,
                        40.683903
                    ],
                    [
                        -74.071884,
                        40.685001
                    ],
                    [
                        -74.071785,
                        40.685502
                    ],
                    [
                        -74.073485,
                        40.686103
                    ],
                    [
                        -74.073485,
                        40.686502
                    ],
                    [
                        -74.076187,
                        40.688503
                    ],
                    [
                        -74.079987,
                        40.688904
                    ],
                    [
                        -74.080086,
                        40.688102
                    ],
                    [
                        -74.071185,
                        40.681502
                    ],
                    [
                        -74.071686,
                        40.681103
                    ],
                    [
                        -74.072487,
                        40.681503
                    ],
                    [
                        -74.073586,
                        40.681004
                    ],
                    [
                        -74.073486,
                        40.680603
                    ],
                    [
                        -74.083389,
                        40.687401
                    ],
                    [
                        -74.079186,
                        40.683802
                    ],
                    [
                        -74.073685,
                        40.680302
                    ],
                    [
                        -74.073085,
                        40.679702
                    ],
                    [
                        -74.073185,
                        40.679302
                    ],
                    [
                        -74.073985,
                        40.678102
                    ],
                    [
                        -74.068687,
                        40.675301
                    ],
                    [
                        -74.068985,
                        40.674904
                    ],
                    [
                        -74.074985,
                        40.678002
                    ],
                    [
                        -74.075485,
                        40.677402
                    ],
                    [
                        -74.072686,
                        40.675902
                    ],
                    [
                        -74.072884,
                        40.675503
                    ],
                    [
                        -74.076088,
                        40.676903
                    ],
                    [
                        -74.076187,
                        40.676701
                    ],
                    [
                        -74.075687,
                        40.676302
                    ],
                    [
                        -74.076385,
                        40.676502
                    ],
                    [
                        -74.076785,
                        40.675902
                    ],
                    [
                        -74.063889,
                        40.669903
                    ],
                    [
                        -74.065887,
                        40.666904
                    ],
                    [
                        -74.066788,
                        40.666004
                    ],
                    [
                        -74.082382,
                        40.672501
                    ],
                    [
                        -74.082786,
                        40.673702
                    ],
                    [
                        -74.085686,
                        40.674904
                    ],
                    [
                        -74.087985,
                        40.674302
                    ],
                    [
                        -74.095586,
                        40.677102
                    ],
                    [
                        -74.098488,
                        40.676903
                    ],
                    [
                        -74.067486,
                        40.665358
                    ],
                    [
                        -74.070085,
                        40.661103
                    ],
                    [
                        -74.070587,
                        40.660805
                    ],
                    [
                        -74.085486,
                        40.666303
                    ],
                    [
                        -74.086086,
                        40.666303
                    ],
                    [
                        -74.089186,
                        40.667503
                    ],
                    [
                        -74.100586,
                        40.669003
                    ],
                    [
                        -74.101486,
                        40.669502
                    ],
                    [
                        -74.10479,
                        40.669804
                    ],
                    [
                        -74.105286,
                        40.669403
                    ],
                    [
                        -74.105385,
                        40.669903
                    ],
                    [
                        -74.106987,
                        40.669903
                    ],
                    [
                        -74.108286,
                        40.666803
                    ],
                    [
                        -74.107788,
                        40.665901
                    ],
                    [
                        -74.107185,
                        40.665802
                    ],
                    [
                        -74.102622,
                        40.666793
                    ],
                    [
                        -74.107086,
                        40.665604
                    ],
                    [
                        -74.107689,
                        40.665104
                    ],
                    [
                        -74.10759,
                        40.665005
                    ],
                    [
                        -74.105786,
                        40.665003
                    ],
                    [
                        -74.105186,
                        40.665703
                    ],
                    [
                        -74.103086,
                        40.665703
                    ],
                    [
                        -74.102882,
                        40.666302
                    ],
                    [
                        -74.098886,
                        40.666203
                    ],
                    [
                        -74.096886,
                        40.664303
                    ],
                    [
                        -74.091888,
                        40.662502
                    ],
                    [
                        -74.089989,
                        40.659904
                    ],
                    [
                        -74.088188,
                        40.655704
                    ],
                    [
                        -74.084595,
                        40.655204
                    ],
                    [
                        -74.085986,
                        40.655103
                    ],
                    [
                        -74.087288,
                        40.654003
                    ],
                    [
                        -74.085201,
                        40.653305
                    ],
                    [
                        -74.085342,
                        40.653324
                    ],
                    [
                        -74.084643,
                        40.651402
                    ],
                    [
                        -74.086983,
                        40.651402
                    ],
                    [
                        -74.093788,
                        40.647903
                    ],
                    [
                        -74.097046,
                        40.647381
                    ],
                    [
                        -74.11026,
                        40.647449
                    ],
                    [
                        -74.125488,
                        40.642555
                    ],
                    [
                        -74.134857,
                        40.643444
                    ],
                    [
                        -74.143387,
                        40.641903
                    ],
                    [
                        -74.161079,
                        40.644115
                    ],
                    [
                        -74.160286,
                        40.645905
                    ],
                    [
                        -74.136383,
                        40.674801
                    ],
                    [
                        -74.12291,
                        40.691174
                    ],
                    [
                        -74.112785,
                        40.703102
                    ],
                    [
                        -74.120285,
                        40.7159
                    ],
                    [
                        -74.121384,
                        40.721001
                    ],
                    [
                        -74.120987,
                        40.7229
                    ],
                    [
                        -74.118393,
                        40.731514
                    ],
                    [
                        -74.116997,
                        40.737213
                    ],
                    [
                        -74.117699,
                        40.739513
                    ],
                    [
                        -74.121597,
                        40.741814
                    ],
                    [
                        -74.137497,
                        40.741413
                    ],
                    [
                        -74.1427,
                        40.739311
                    ],
                    [
                        -74.145096,
                        40.736012
                    ],
                    [
                        -74.148193,
                        40.734314
                    ],
                    [
                        -74.1548,
                        40.733612
                    ],
                    [
                        -74.159996,
                        40.734512
                    ],
                    [
                        -74.161995,
                        40.736111
                    ],
                    [
                        -74.163795,
                        40.739212
                    ],
                    [
                        -74.165894,
                        40.745014
                    ],
                    [
                        -74.165993,
                        40.747711
                    ],
                    [
                        -74.165596,
                        40.75061
                    ],
                    [
                        -74.163795,
                        40.758213
                    ],
                    [
                        -74.162094,
                        40.761414
                    ],
                    [
                        -74.159393,
                        40.764313
                    ],
                    [
                        -74.156898,
                        40.767612
                    ],
                    [
                        -74.155396,
                        40.771214
                    ],
                    [
                        -74.153198,
                        40.774311
                    ],
                    [
                        -74.149696,
                        40.777611
                    ],
                    [
                        -74.148193,
                        40.780113
                    ],
                    [
                        -74.147896,
                        40.783112
                    ],
                    [
                        -74.147194,
                        40.786213
                    ],
                    [
                        -74.145096,
                        40.785011
                    ],
                    [
                        -74.141899,
                        40.783512
                    ],
                    [
                        -74.132797,
                        40.778812
                    ],
                    [
                        -74.129997,
                        40.776913
                    ],
                    [
                        -74.129799,
                        40.773613
                    ],
                    [
                        -74.1278,
                        40.772011
                    ],
                    [
                        -74.124596,
                        40.772011
                    ],
                    [
                        -74.118294,
                        40.770111
                    ],
                    [
                        -74.116096,
                        40.771313
                    ],
                    [
                        -74.1138,
                        40.774311
                    ],
                    [
                        -74.111397,
                        40.776512
                    ],
                    [
                        -74.108894,
                        40.777313
                    ],
                    [
                        -74.105095,
                        40.776814
                    ],
                    [
                        -74.103096,
                        40.775612
                    ],
                    [
                        -74.100899,
                        40.775612
                    ],
                    [
                        -74.098099,
                        40.769611
                    ],
                    [
                        -74.099098,
                        40.767712
                    ],
                    [
                        -74.097298,
                        40.765511
                    ],
                    [
                        -74.094498,
                        40.762611
                    ],
                    [
                        -74.091682,
                        40.762383
                    ],
                    [
                        -74.091484,
                        40.7626
                    ],
                    [
                        -74.090797,
                        40.762314
                    ],
                    [
                        -74.090416,
                        40.762711
                    ],
                    [
                        -74.088074,
                        40.76754
                    ],
                    [
                        -74.090317,
                        40.775818
                    ],
                    [
                        -74.090088,
                        40.778599
                    ],
                    [
                        -74.089188,
                        40.779999
                    ],
                    [
                        -74.081886,
                        40.787701
                    ],
                    [
                        -74.077782,
                        40.792801
                    ],
                    [
                        -74.07679,
                        40.796001
                    ],
                    [
                        -74.071487,
                        40.797199
                    ],
                    [
                        -74.068588,
                        40.798599
                    ],
                    [
                        -74.067383,
                        40.800598
                    ],
                    [
                        -74.066719,
                        40.800087
                    ],
                    [
                        -74.059593,
                        40.805313
                    ],
                    [
                        -74.055695,
                        40.806011
                    ],
                    [
                        -74.053398,
                        40.80611
                    ],
                    [
                        -74.044098,
                        40.807411
                    ],
                    [
                        -74.041801,
                        40.807354
                    ],
                    [
                        -74.039581,
                        40.806198
                    ],
                    [
                        -74.036385,
                        40.806801
                    ],
                    [
                        -74.030182,
                        40.812401
                    ],
                    [
                        -74.028687,
                        40.812801
                    ],
                    [
                        -74.029251,
                        40.812817
                    ],
                    [
                        -74.028,
                        40.81591
                    ],
                    [
                        -74.024796,
                        40.815411
                    ],
                    [
                        -74.022896,
                        40.817814
                    ],
                    [
                        -74.019997,
                        40.819214
                    ],
                    [
                        -74.016594,
                        40.823513
                    ],
                    [
                        -74.014297,
                        40.822811
                    ],
                    [
                        -74.011894,
                        40.821411
                    ],
                    [
                        -74.012497,
                        40.818413
                    ],
                    [
                        -74.012596,
                        40.81591
                    ]
                ]
            ]
        ]
    },
    "properties": {
        "@id": "https://api.weather.gov/zones/forecast/NJZ006",
        "@type": "wx:Zone",
        "id": "NJZ006",
        "type": "public",
        "name": "Hudson",
        "effectiveDate": "2026-04-16T18:00:00+00:00",
        "expirationDate": "2200-01-01T00:00:00+00:00",
        "state": "NJ",
        "forecastOffice": "https://api.weather.gov/offices/OKX",
        "gridIdentifier": "OKX",
        "awipsLocationIdentifier": "OKX",
        "cwa": [
            "OKX"
        ],
        "forecastOffices": [
            "https://api.weather.gov/offices/OKX"
        ],
        "timeZone": [
            "America/New_York"
        ],
        "observationStations": [
            "https://api.weather.gov/stations/KEWR",
            "https://api.weather.gov/stations/KCDW",
            "https://api.weather.gov/stations/KLGA",
            "https://api.weather.gov/stations/KNYC",
            "https://api.weather.gov/stations/KTEB"
        ],
        "radarStation": "OKX"
    }
}