{
    "@context": {
        "@version": "1.1"
    },
    "id": "https://api.weather.gov/zones/forecast/IAZ063",
    "type": "Feature",
    "geometry": {
        "type": "Polygon",
        "coordinates": [
            [
                [
                    -91.8312,
                    41.862011
                ],
                [
                    -91.831596,
                    41.858212
                ],
                [
                    -91.8312,
                    41.832512
                ],
                [
                    -91.8312,
                    41.803612
                ],
                [
                    -91.832298,
                    41.753914
                ],
                [
                    -91.833893,
                    41.715714
                ],
                [
                    -91.834,
                    41.687412
                ],
                [
                    -91.833099,
                    41.630314
                ],
                [
                    -91.833099,
                    41.602711
                ],
                [
                    -91.832596,
                    41.60041
                ],
                [
                    -91.830299,
                    41.600513
                ],
                [
                    -91.827095,
                    41.599213
                ],
                [
                    -91.8274,
                    41.583511
                ],
                [
                    -91.827896,
                    41.569412
                ],
                [
                    -91.828094,
                    41.554813
                ],
                [
                    -91.829094,
                    41.525913
                ],
                [
                    -91.829399,
                    41.511414
                ],
                [
                    -91.933998,
                    41.510914
                ],
                [
                    -91.945999,
                    41.510712
                ],
                [
                    -91.979996,
                    41.510513
                ],
                [
                    -92.013596,
                    41.510612
                ],
                [
                    -92.039597,
                    41.51041
                ],
                [
                    -92.071999,
                    41.510414
                ],
                [
                    -92.0905,
                    41.510212
                ],
                [
                    -92.150696,
                    41.510212
                ],
                [
                    -92.196495,
                    41.509911
                ],
                [
                    -92.239494,
                    41.509911
                ],
                [
                    -92.297493,
                    41.509613
                ],
                [
                    -92.297394,
                    41.531414
                ],
                [
                    -92.2976,
                    41.538612
                ],
                [
                    -92.297493,
                    41.575211
                ],
                [
                    -92.297699,
                    41.597012
                ],
                [
                    -92.298798,
                    41.60181
                ],
                [
                    -92.2994,
                    41.611012
                ],
                [
                    -92.2994,
                    41.625412
                ],
                [
                    -92.299698,
                    41.643612
                ],
                [
                    -92.299995,
                    41.64801
                ],
                [
                    -92.300095,
                    41.660511
                ],
                [
                    -92.299797,
                    41.695812
                ],
                [
                    -92.299995,
                    41.714314
                ],
                [
                    -92.299797,
                    41.731712
                ],
                [
                    -92.299896,
                    41.745712
                ],
                [
                    -92.299294,
                    41.771111
                ],
                [
                    -92.299095,
                    41.794312
                ],
                [
                    -92.298798,
                    41.797112
                ],
                [
                    -92.298798,
                    41.819313
                ],
                [
                    -92.2985,
                    41.848312
                ],
                [
                    -92.298195,
                    41.862812
                ],
                [
                    -92.250198,
                    41.862911
                ],
                [
                    -92.230995,
                    41.862713
                ],
                [
                    -92.142097,
                    41.862614
                ],
                [
                    -92.065193,
                    41.86301
                ],
                [
                    -92.054794,
                    41.862713
                ],
                [
                    -92.009796,
                    41.862511
                ],
                [
                    -92.000198,
                    41.862411
                ],
                [
                    -91.986595,
                    41.862011
                ],
                [
                    -91.966797,
                    41.862011
                ],
                [
                    -91.962593,
                    41.861813
                ],
                [
                    -91.928497,
                    41.861511
                ],
                [
                    -91.896095,
                    41.861511
                ],
                [
                    -91.8703,
                    41.861713
                ],
                [
                    -91.851097,
                    41.861511
                ],
                [
                    -91.8312,
                    41.862011
                ]
            ]
        ]
    },
    "properties": {
        "@id": "https://api.weather.gov/zones/forecast/IAZ063",
        "@type": "wx:Zone",
        "id": "IAZ063",
        "type": "public",
        "name": "Iowa",
        "effectiveDate": "2026-04-16T18:00:00+00:00",
        "expirationDate": "2200-01-01T00:00:00+00:00",
        "state": "IA",
        "forecastOffice": "https://api.weather.gov/offices/DVN",
        "gridIdentifier": "DVN",
        "awipsLocationIdentifier": "DVN",
        "cwa": [
            "DVN"
        ],
        "forecastOffices": [
            "https://api.weather.gov/offices/DVN"
        ],
        "timeZone": [
            "America/Chicago"
        ],
        "observationStations": [
            "https://api.weather.gov/stations/KCID",
            "https://api.weather.gov/stations/KAWG",
            "https://api.weather.gov/stations/KIOW",
            "https://api.weather.gov/stations/KOTM"
        ],
        "radarStation": "DVN"
    }
}