{
    "@context": {
        "@version": "1.1"
    },
    "id": "https://api.weather.gov/zones/forecast/HIZ037",
    "type": "Feature",
    "geometry": {
        "type": "MultiPolygon",
        "coordinates": [
            [
                [
                    [
                        -156.948419,
                        21.187321
                    ],
                    [
                        -156.948724,
                        21.187304
                    ],
                    [
                        -156.948777,
                        21.18786
                    ],
                    [
                        -156.948495,
                        21.187878
                    ],
                    [
                        -156.948419,
                        21.187321
                    ]
                ]
            ],
            [
                [
                    [
                        -156.965851,
                        21.213388
                    ],
                    [
                        -156.965936,
                        21.213244
                    ],
                    [
                        -156.966205,
                        21.213362
                    ],
                    [
                        -156.966241,
                        21.213628
                    ],
                    [
                        -156.965982,
                        21.213646
                    ],
                    [
                        -156.965851,
                        21.213388
                    ]
                ]
            ],
            [
                [
                    [
                        -156.975854,
                        21.213576
                    ],
                    [
                        -156.975915,
                        21.213425
                    ],
                    [
                        -156.976173,
                        21.213552
                    ],
                    [
                        -156.97601,
                        21.213746
                    ],
                    [
                        -156.975854,
                        21.213576
                    ]
                ]
            ],
            [
                [
                    [
                        -156.97392,
                        21.21459
                    ],
                    [
                        -156.974074,
                        21.214403
                    ],
                    [
                        -156.974267,
                        21.214499
                    ],
                    [
                        -156.974057,
                        21.214716
                    ],
                    [
                        -156.97392,
                        21.21459
                    ]
                ]
            ],
            [
                [
                    [
                        -156.970697,
                        21.214978
                    ],
                    [
                        -156.970365,
                        21.214544
                    ],
                    [
                        -156.970205,
                        21.214792
                    ],
                    [
                        -156.969644,
                        21.21411
                    ],
                    [
                        -156.969232,
                        21.214104
                    ],
                    [
                        -156.969097,
                        21.2135
                    ],
                    [
                        -156.96883,
                        21.213558
                    ],
                    [
                        -156.968621,
                        21.213994
                    ],
                    [
                        -156.968149,
                        21.213715
                    ],
                    [
                        -156.967886,
                        21.213987
                    ],
                    [
                        -156.967798,
                        21.213862
                    ],
                    [
                        -156.967477,
                        21.213919
                    ],
                    [
                        -156.96737,
                        21.213604
                    ],
                    [
                        -156.967003,
                        21.213875
                    ],
                    [
                        -156.966691,
                        21.21369
                    ],
                    [
                        -156.966498,
                        21.213873
                    ],
                    [
                        -156.966302,
                        21.213282
                    ],
                    [
                        -156.966013,
                        21.213153
                    ],
                    [
                        -156.965968,
                        21.211756
                    ],
                    [
                        -156.965768,
                        21.211546
                    ],
                    [
                        -156.965097,
                        21.21167
                    ],
                    [
                        -156.964547,
                        21.210785
                    ],
                    [
                        -156.964105,
                        21.21086
                    ],
                    [
                        -156.964044,
                        21.210683
                    ],
                    [
                        -156.964258,
                        21.210318
                    ],
                    [
                        -156.96383,
                        21.209988
                    ],
                    [
                        -156.962884,
                        21.209557
                    ],
                    [
                        -156.962335,
                        21.209673
                    ],
                    [
                        -156.961862,
                        21.20953
                    ],
                    [
                        -156.961786,
                        21.209305
                    ],
                    [
                        -156.961432,
                        21.209434
                    ],
                    [
                        -156.960595,
                        21.208827
                    ],
                    [
                        -156.960277,
                        21.208989
                    ],
                    [
                        -156.960031,
                        21.206965
                    ],
                    [
                        -156.959805,
                        21.207142
                    ],
                    [
                        -156.959298,
                        21.206612
                    ],
                    [
                        -156.958993,
                        21.206637
                    ],
                    [
                        -156.958848,
                        21.206041
                    ],
                    [
                        -156.958764,
                        21.205945
                    ],
                    [
                        -156.95851,
                        21.206192
                    ],
                    [
                        -156.958383,
                        21.206011
                    ],
                    [
                        -156.958444,
                        21.205704
                    ],
                    [
                        -156.958017,
                        21.205552
                    ],
                    [
                        -156.957821,
                        21.204931
                    ],
                    [
                        -156.957501,
                        21.204779
                    ],
                    [
                        -156.958032,
                        21.202603
                    ],
                    [
                        -156.957635,
                        21.202265
                    ],
                    [
                        -156.957651,
                        21.201968
                    ],
                    [
                        -156.957254,
                        21.201807
                    ],
                    [
                        -156.957376,
                        21.201113
                    ],
                    [
                        -156.956971,
                        21.200977
                    ],
                    [
                        -156.957025,
                        21.200703
                    ],
                    [
                        -156.956659,
                        21.200261
                    ],
                    [
                        -156.956003,
                        21.2004
                    ],
                    [
                        -156.956238,
                        21.199883
                    ],
                    [
                        -156.955819,
                        21.199643
                    ],
                    [
                        -156.956262,
                        21.198769
                    ],
                    [
                        -156.955959,
                        21.19839
                    ],
                    [
                        -156.955545,
                        21.198376
                    ],
                    [
                        -156.955456,
                        21.19815
                    ],
                    [
                        -156.955636,
                        21.197907
                    ],
                    [
                        -156.955316,
                        21.197876
                    ],
                    [
                        -156.955306,
                        21.197723
                    ],
                    [
                        -156.954965,
                        21.197571
                    ],
                    [
                        -156.954889,
                        21.197272
                    ],
                    [
                        -156.954508,
                        21.197097
                    ],
                    [
                        -156.954469,
                        21.19658
                    ],
                    [
                        -156.954203,
                        21.19667
                    ],
                    [
                        -156.95439,
                        21.196346
                    ],
                    [
                        -156.95407,
                        21.196243
                    ],
                    [
                        -156.95411,
                        21.19591
                    ],
                    [
                        -156.953714,
                        21.196002
                    ],
                    [
                        -156.953714,
                        21.195258
                    ],
                    [
                        -156.953134,
                        21.195429
                    ],
                    [
                        -156.953134,
                        21.195101
                    ],
                    [
                        -156.952646,
                        21.194626
                    ],
                    [
                        -156.952829,
                        21.19376
                    ],
                    [
                        -156.952255,
                        21.19357
                    ],
                    [
                        -156.952295,
                        21.193335
                    ],
                    [
                        -156.951895,
                        21.192725
                    ],
                    [
                        -156.951794,
                        21.191981
                    ],
                    [
                        -156.951593,
                        21.191876
                    ],
                    [
                        -156.951687,
                        21.191578
                    ],
                    [
                        -156.951043,
                        21.191855
                    ],
                    [
                        -156.951166,
                        21.19146
                    ],
                    [
                        -156.951045,
                        21.191169
                    ],
                    [
                        -156.950616,
                        21.191405
                    ],
                    [
                        -156.950494,
                        21.191157
                    ],
                    [
                        -156.950647,
                        21.190733
                    ],
                    [
                        -156.950433,
                        21.190712
                    ],
                    [
                        -156.950494,
                        21.190421
                    ],
                    [
                        -156.950113,
                        21.190316
                    ],
                    [
                        -156.950439,
                        21.189742
                    ],
                    [
                        -156.949731,
                        21.189389
                    ],
                    [
                        -156.949548,
                        21.188633
                    ],
                    [
                        -156.94909,
                        21.188521
                    ],
                    [
                        -156.949121,
                        21.188181
                    ],
                    [
                        -156.948907,
                        21.187876
                    ],
                    [
                        -156.949243,
                        21.187487
                    ],
                    [
                        -156.949167,
                        21.187254
                    ],
                    [
                        -156.948877,
                        21.187285
                    ],
                    [
                        -156.948922,
                        21.186728
                    ],
                    [
                        -156.948745,
                        21.186011
                    ],
                    [
                        -156.948547,
                        21.185979
                    ],
                    [
                        -156.949017,
                        21.185492
                    ],
                    [
                        -156.948542,
                        21.185187
                    ],
                    [
                        -156.948739,
                        21.184994
                    ],
                    [
                        -156.948544,
                        21.184509
                    ],
                    [
                        -156.948775,
                        21.183086
                    ],
                    [
                        -156.948404,
                        21.183177
                    ],
                    [
                        -156.948327,
                        21.183024
                    ],
                    [
                        -156.948572,
                        21.182869
                    ],
                    [
                        -156.948164,
                        21.182209
                    ],
                    [
                        -156.94819,
                        21.181578
                    ],
                    [
                        -156.948389,
                        21.181214
                    ],
                    [
                        -156.94816,
                        21.180399
                    ],
                    [
                        -156.948302,
                        21.179914
                    ],
                    [
                        -156.948238,
                        21.179495
                    ],
                    [
                        -156.947748,
                        21.178931
                    ],
                    [
                        -156.946496,
                        21.178277
                    ],
                    [
                        -156.946331,
                        21.178324
                    ],
                    [
                        -156.945611,
                        21.176945
                    ],
                    [
                        -156.945245,
                        21.17673
                    ],
                    [
                        -156.944956,
                        21.176813
                    ],
                    [
                        -156.94497,
                        21.176304
                    ],
                    [
                        -156.94424,
                        21.175678
                    ],
                    [
                        -156.944391,
                        21.174143
                    ],
                    [
                        -156.944192,
                        21.173449
                    ],
                    [
                        -156.943589,
                        21.172822
                    ],
                    [
                        -156.941995,
                        21.171835
                    ],
                    [
                        -156.938577,
                        21.171763
                    ],
                    [
                        -156.936139,
                        21.169919
                    ],
                    [
                        -156.93449,
                        21.169725
                    ],
                    [
                        -156.932931,
                        21.169215
                    ],
                    [
                        -156.932138,
                        21.169154
                    ],
                    [
                        -156.931573,
                        21.169157
                    ],
                    [
                        -156.93049,
                        21.169472
                    ],
                    [
                        -156.928699,
                        21.170562
                    ],
                    [
                        -156.92951,
                        21.17282
                    ],
                    [
                        -156.928916,
                        21.172911
                    ],
                    [
                        -156.928094,
                        21.172205
                    ],
                    [
                        -156.927392,
                        21.1719
                    ],
                    [
                        -156.926996,
                        21.17145
                    ],
                    [
                        -156.926512,
                        21.169886
                    ],
                    [
                        -156.924798,
                        21.169466
                    ],
                    [
                        -156.923213,
                        21.16945
                    ],
                    [
                        -156.922746,
                        21.169299
                    ],
                    [
                        -156.922189,
                        21.169552
                    ],
                    [
                        -156.921276,
                        21.168822
                    ],
                    [
                        -156.920006,
                        21.168521
                    ],
                    [
                        -156.9191,
                        21.168493
                    ],
                    [
                        -156.917627,
                        21.169211
                    ],
                    [
                        -156.917609,
                        21.169857
                    ],
                    [
                        -156.916829,
                        21.170435
                    ],
                    [
                        -156.916238,
                        21.170235
                    ],
                    [
                        -156.916421,
                        21.17087
                    ],
                    [
                        -156.915964,
                        21.170699
                    ],
                    [
                        -156.915901,
                        21.171045
                    ],
                    [
                        -156.915258,
                        21.171573
                    ],
                    [
                        -156.915109,
                        21.171903
                    ],
                    [
                        -156.914872,
                        21.171842
                    ],
                    [
                        -156.914819,
                        21.171357
                    ],
                    [
                        -156.915078,
                        21.170929
                    ],
                    [
                        -156.915033,
                        21.17055
                    ],
                    [
                        -156.915231,
                        21.169957
                    ],
                    [
                        -156.914575,
                        21.169905
                    ],
                    [
                        -156.914414,
                        21.169348
                    ],
                    [
                        -156.913827,
                        21.169045
                    ],
                    [
                        -156.913827,
                        21.168414
                    ],
                    [
                        -156.914485,
                        21.167417
                    ],
                    [
                        -156.914102,
                        21.166829
                    ],
                    [
                        -156.914209,
                        21.166594
                    ],
                    [
                        -156.914089,
                        21.166312
                    ],
                    [
                        -156.913476,
                        21.165772
                    ],
                    [
                        -156.912338,
                        21.16515
                    ],
                    [
                        -156.911023,
                        21.164696
                    ],
                    [
                        -156.910211,
                        21.164658
                    ],
                    [
                        -156.909111,
                        21.16393
                    ],
                    [
                        -156.90778,
                        21.163524
                    ],
                    [
                        -156.90722,
                        21.164036
                    ],
                    [
                        -156.906928,
                        21.164901
                    ],
                    [
                        -156.906228,
                        21.165266
                    ],
                    [
                        -156.905053,
                        21.165017
                    ],
                    [
                        -156.904797,
                        21.165491
                    ],
                    [
                        -156.902734,
                        21.164452
                    ],
                    [
                        -156.902237,
                        21.163939
                    ],
                    [
                        -156.902079,
                        21.163608
                    ],
                    [
                        -156.902539,
                        21.162782
                    ],
                    [
                        -156.902582,
                        21.162182
                    ],
                    [
                        -156.902124,
                        21.16166
                    ],
                    [
                        -156.900896,
                        21.161069
                    ],
                    [
                        -156.900384,
                        21.161192
                    ],
                    [
                        -156.899377,
                        21.161828
                    ],
                    [
                        -156.89892,
                        21.162202
                    ],
                    [
                        -156.89846,
                        21.162898
                    ],
                    [
                        -156.89808,
                        21.162375
                    ],
                    [
                        -156.897811,
                        21.161521
                    ],
                    [
                        -156.897457,
                        21.161506
                    ],
                    [
                        -156.897058,
                        21.161759
                    ],
                    [
                        -156.89711,
                        21.162364
                    ],
                    [
                        -156.896656,
                        21.162778
                    ],
                    [
                        -156.895604,
                        21.162799
                    ],
                    [
                        -156.89455,
                        21.164929
                    ],
                    [
                        -156.8948,
                        21.165299
                    ],
                    [
                        -156.893854,
                        21.166668
                    ],
                    [
                        -156.893045,
                        21.166066
                    ],
                    [
                        -156.892846,
                        21.166157
                    ],
                    [
                        -156.892877,
                        21.166577
                    ],
                    [
                        -156.892657,
                        21.166828
                    ],
                    [
                        -156.894494,
                        21.170097
                    ],
                    [
                        -156.893628,
                        21.169869
                    ],
                    [
                        -156.892373,
                        21.169842
                    ],
                    [
                        -156.891579,
                        21.169151
                    ],
                    [
                        -156.890848,
                        21.168759
                    ],
                    [
                        -156.890359,
                        21.168068
                    ],
                    [
                        -156.889581,
                        21.167885
                    ],
                    [
                        -156.888543,
                        21.167744
                    ],
                    [
                        -156.888025,
                        21.168141
                    ],
                    [
                        -156.887164,
                        21.16826
                    ],
                    [
                        -156.885386,
                        21.168131
                    ],
                    [
                        -156.884501,
                        21.167335
                    ],
                    [
                        -156.884597,
                        21.166365
                    ],
                    [
                        -156.883935,
                        21.165068
                    ],
                    [
                        -156.883951,
                        21.164826
                    ],
                    [
                        -156.884363,
                        21.164378
                    ],
                    [
                        -156.883939,
                        21.163687
                    ],
                    [
                        -156.883996,
                        21.162775
                    ],
                    [
                        -156.883539,
                        21.161824
                    ],
                    [
                        -156.883455,
                        21.161185
                    ],
                    [
                        -156.879724,
                        21.160935
                    ],
                    [
                        -156.879236,
                        21.161147
                    ],
                    [
                        -156.878514,
                        21.162557
                    ],
                    [
                        -156.878026,
                        21.163052
                    ],
                    [
                        -156.878252,
                        21.163229
                    ],
                    [
                        -156.878,
                        21.164738
                    ],
                    [
                        -156.877008,
                        21.165722
                    ],
                    [
                        -156.876926,
                        21.165989
                    ],
                    [
                        -156.877189,
                        21.166578
                    ],
                    [
                        -156.876807,
                        21.167005
                    ],
                    [
                        -156.876413,
                        21.166825
                    ],
                    [
                        -156.875985,
                        21.165711
                    ],
                    [
                        -156.875883,
                        21.164944
                    ],
                    [
                        -156.875436,
                        21.164364
                    ],
                    [
                        -156.874734,
                        21.16449
                    ],
                    [
                        -156.873523,
                        21.165303
                    ],
                    [
                        -156.873529,
                        21.16573
                    ],
                    [
                        -156.874185,
                        21.16655
                    ],
                    [
                        -156.87406,
                        21.166689
                    ],
                    [
                        -156.873705,
                        21.166667
                    ],
                    [
                        -156.87243,
                        21.165638
                    ],
                    [
                        -156.872203,
                        21.165689
                    ],
                    [
                        -156.870421,
                        21.164839
                    ],
                    [
                        -156.869409,
                        21.163573
                    ],
                    [
                        -156.868863,
                        21.16252
                    ],
                    [
                        -156.867563,
                        21.161528
                    ],
                    [
                        -156.865381,
                        21.161377
                    ],
                    [
                        -156.862129,
                        21.162664
                    ],
                    [
                        -156.860952,
                        21.162763
                    ],
                    [
                        -156.859361,
                        21.163151
                    ],
                    [
                        -156.85859,
                        21.163203
                    ],
                    [
                        -156.857446,
                        21.162996
                    ],
                    [
                        -156.856546,
                        21.163104
                    ],
                    [
                        -156.856249,
                        21.163685
                    ],
                    [
                        -156.855767,
                        21.163869
                    ],
                    [
                        -156.855218,
                        21.163826
                    ],
                    [
                        -156.854275,
                        21.16332
                    ],
                    [
                        -156.85358,
                        21.163219
                    ],
                    [
                        -156.851739,
                        21.163548
                    ],
                    [
                        -156.851,
                        21.163812
                    ],
                    [
                        -156.849283,
                        21.165242
                    ],
                    [
                        -156.847604,
                        21.166058
                    ],
                    [
                        -156.845392,
                        21.166717
                    ],
                    [
                        -156.844146,
                        21.166889
                    ],
                    [
                        -156.843012,
                        21.166899
                    ],
                    [
                        -156.84031,
                        21.16535
                    ],
                    [
                        -156.839029,
                        21.164784
                    ],
                    [
                        -156.834244,
                        21.16384
                    ],
                    [
                        -156.833954,
                        21.163531
                    ],
                    [
                        -156.833568,
                        21.163472
                    ],
                    [
                        -156.830282,
                        21.16436
                    ],
                    [
                        -156.829172,
                        21.165209
                    ],
                    [
                        -156.827196,
                        21.166203
                    ],
                    [
                        -156.827108,
                        21.166607
                    ],
                    [
                        -156.827524,
                        21.16774
                    ],
                    [
                        -156.827463,
                        21.168103
                    ],
                    [
                        -156.827188,
                        21.168183
                    ],
                    [
                        -156.826272,
                        21.167693
                    ],
                    [
                        -156.82583,
                        21.167689
                    ],
                    [
                        -156.825306,
                        21.167777
                    ],
                    [
                        -156.824365,
                        21.168257
                    ],
                    [
                        -156.822957,
                        21.168557
                    ],
                    [
                        -156.821603,
                        21.169268
                    ],
                    [
                        -156.820792,
                        21.16996
                    ],
                    [
                        -156.819995,
                        21.171071
                    ],
                    [
                        -156.818805,
                        21.171865
                    ],
                    [
                        -156.817248,
                        21.172293
                    ],
                    [
                        -156.814982,
                        21.172143
                    ],
                    [
                        -156.814303,
                        21.172253
                    ],
                    [
                        -156.812738,
                        21.172675
                    ],
                    [
                        -156.81196,
                        21.173146
                    ],
                    [
                        -156.810708,
                        21.173243
                    ],
                    [
                        -156.810192,
                        21.173039
                    ],
                    [
                        -156.808964,
                        21.173008
                    ],
                    [
                        -156.80755,
                        21.173268
                    ],
                    [
                        -156.805787,
                        21.174325
                    ],
                    [
                        -156.804725,
                        21.175257
                    ],
                    [
                        -156.803633,
                        21.175429
                    ],
                    [
                        -156.802396,
                        21.175325
                    ],
                    [
                        -156.800461,
                        21.174442
                    ],
                    [
                        -156.799783,
                        21.173727
                    ],
                    [
                        -156.798379,
                        21.171141
                    ],
                    [
                        -156.797098,
                        21.169325
                    ],
                    [
                        -156.795854,
                        21.168235
                    ],
                    [
                        -156.794824,
                        21.167832
                    ],
                    [
                        -156.794284,
                        21.167871
                    ],
                    [
                        -156.792703,
                        21.168459
                    ],
                    [
                        -156.790918,
                        21.168467
                    ],
                    [
                        -156.790323,
                        21.168713
                    ],
                    [
                        -156.790103,
                        21.169036
                    ],
                    [
                        -156.790091,
                        21.169585
                    ],
                    [
                        -156.789762,
                        21.169776
                    ],
                    [
                        -156.789407,
                        21.169039
                    ],
                    [
                        -156.78884,
                        21.169158
                    ],
                    [
                        -156.78846,
                        21.169423
                    ],
                    [
                        -156.788105,
                        21.16997
                    ],
                    [
                        -156.787666,
                        21.17139
                    ],
                    [
                        -156.786691,
                        21.17293
                    ],
                    [
                        -156.785974,
                        21.173741
                    ],
                    [
                        -156.785313,
                        21.174085
                    ],
                    [
                        -156.783897,
                        21.174448
                    ],
                    [
                        -156.782543,
                        21.174465
                    ],
                    [
                        -156.780221,
                        21.173491
                    ],
                    [
                        -156.778918,
                        21.173605
                    ],
                    [
                        -156.777866,
                        21.174294
                    ],
                    [
                        -156.776729,
                        21.174749
                    ],
                    [
                        -156.77247,
                        21.174273
                    ],
                    [
                        -156.771503,
                        21.175447
                    ],
                    [
                        -156.770972,
                        21.176438
                    ],
                    [
                        -156.769754,
                        21.176827
                    ],
                    [
                        -156.768926,
                        21.176912
                    ],
                    [
                        -156.767007,
                        21.176035
                    ],
                    [
                        -156.766526,
                        21.175977
                    ],
                    [
                        -156.766015,
                        21.176289
                    ],
                    [
                        -156.765512,
                        21.176278
                    ],
                    [
                        -156.760507,
                        21.174836
                    ],
                    [
                        -156.759157,
                        21.174707
                    ],
                    [
                        -156.755029,
                        21.174828
                    ],
                    [
                        -156.746148,
                        21.174403
                    ],
                    [
                        -156.745895,
                        21.174131
                    ],
                    [
                        -156.745187,
                        21.174225
                    ],
                    [
                        -156.744897,
                        21.173912
                    ],
                    [
                        -156.743795,
                        21.173606
                    ],
                    [
                        -156.742271,
                        21.173691
                    ],
                    [
                        -156.740335,
                        21.1733
                    ],
                    [
                        -156.739663,
                        21.173073
                    ],
                    [
                        -156.739175,
                        21.172598
                    ],
                    [
                        -156.73828,
                        21.172268
                    ],
                    [
                        -156.737436,
                        21.171587
                    ],
                    [
                        -156.735772,
                        21.168879
                    ],
                    [
                        -156.736032,
                        21.163043
                    ],
                    [
                        -156.735946,
                        21.160944
                    ],
                    [
                        -156.73623,
                        21.160233
                    ],
                    [
                        -156.736398,
                        21.160277
                    ],
                    [
                        -156.736683,
                        21.160776
                    ],
                    [
                        -156.737283,
                        21.160336
                    ],
                    [
                        -156.737578,
                        21.158882
                    ],
                    [
                        -156.738705,
                        21.159112
                    ],
                    [
                        -156.739724,
                        21.158989
                    ],
                    [
                        -156.740091,
                        21.158349
                    ],
                    [
                        -156.740111,
                        21.157915
                    ],
                    [
                        -156.740429,
                        21.157871
                    ],
                    [
                        -156.740966,
                        21.158107
                    ],
                    [
                        -156.741025,
                        21.15789
                    ],
                    [
                        -156.740579,
                        21.157628
                    ],
                    [
                        -156.739999,
                        21.157511
                    ],
                    [
                        -156.739694,
                        21.157813
                    ],
                    [
                        -156.739738,
                        21.158482
                    ],
                    [
                        -156.739509,
                        21.158759
                    ],
                    [
                        -156.739064,
                        21.158932
                    ],
                    [
                        -156.73826,
                        21.158856
                    ],
                    [
                        -156.737902,
                        21.158553
                    ],
                    [
                        -156.737588,
                        21.158522
                    ],
                    [
                        -156.73726,
                        21.158833
                    ],
                    [
                        -156.736214,
                        21.159115
                    ],
                    [
                        -156.735826,
                        21.158812
                    ],
                    [
                        -156.735635,
                        21.157763
                    ],
                    [
                        -156.734826,
                        21.157671
                    ],
                    [
                        -156.733972,
                        21.158867
                    ],
                    [
                        -156.731697,
                        21.15932
                    ],
                    [
                        -156.73118,
                        21.158719
                    ],
                    [
                        -156.729211,
                        21.157837
                    ],
                    [
                        -156.727987,
                        21.157702
                    ],
                    [
                        -156.724491,
                        21.158578
                    ],
                    [
                        -156.723855,
                        21.159026
                    ],
                    [
                        -156.722787,
                        21.159157
                    ],
                    [
                        -156.721943,
                        21.159623
                    ],
                    [
                        -156.720815,
                        21.159511
                    ],
                    [
                        -156.719934,
                        21.159987
                    ],
                    [
                        -156.716817,
                        21.16077
                    ],
                    [
                        -156.715188,
                        21.160323
                    ],
                    [
                        -156.71492,
                        21.15992
                    ],
                    [
                        -156.714397,
                        21.16003
                    ],
                    [
                        -156.714241,
                        21.159796
                    ],
                    [
                        -156.712722,
                        21.159921
                    ],
                    [
                        -156.719252,
                        21.153676
                    ],
                    [
                        -156.726019,
                        21.147688
                    ],
                    [
                        -156.734028,
                        21.141169
                    ],
                    [
                        -156.741265,
                        21.13576
                    ],
                    [
                        -156.748706,
                        21.130634
                    ],
                    [
                        -156.75634,
                        21.1258
                    ],
                    [
                        -156.764154,
                        21.121263
                    ],
                    [
                        -156.772137,
                        21.117031
                    ],
                    [
                        -156.780278,
                        21.11311
                    ],
                    [
                        -156.788564,
                        21.109506
                    ],
                    [
                        -156.796983,
                        21.106225
                    ],
                    [
                        -156.80325,
                        21.104124
                    ],
                    [
                        -156.810325,
                        21.102308
                    ],
                    [
                        -156.8175,
                        21.100937
                    ],
                    [
                        -156.824746,
                        21.100016
                    ],
                    [
                        -156.832802,
                        21.099527
                    ],
                    [
                        -156.840579,
                        21.099582
                    ],
                    [
                        -156.847629,
                        21.10008
                    ],
                    [
                        -156.854658,
                        21.101007
                    ],
                    [
                        -156.861618,
                        21.102357
                    ],
                    [
                        -156.867632,
                        21.103883
                    ],
                    [
                        -156.873561,
                        21.105728
                    ],
                    [
                        -156.884845,
                        21.109897
                    ],
                    [
                        -156.89296,
                        21.113118
                    ],
                    [
                        -156.902285,
                        21.11717
                    ],
                    [
                        -156.911452,
                        21.121535
                    ],
                    [
                        -156.920463,
                        21.126213
                    ],
                    [
                        -156.929307,
                        21.131199
                    ],
                    [
                        -156.937974,
                        21.136486
                    ],
                    [
                        -156.946455,
                        21.142069
                    ],
                    [
                        -156.953579,
                        21.147092
                    ],
                    [
                        -156.961698,
                        21.153217
                    ],
                    [
                        -156.987024,
                        21.17347
                    ],
                    [
                        -156.996229,
                        21.179284
                    ],
                    [
                        -156.995637,
                        21.179667
                    ],
                    [
                        -156.991643,
                        21.180827
                    ],
                    [
                        -156.990075,
                        21.181548
                    ],
                    [
                        -156.987634,
                        21.183144
                    ],
                    [
                        -156.987189,
                        21.183791
                    ],
                    [
                        -156.986332,
                        21.184515
                    ],
                    [
                        -156.986383,
                        21.18491
                    ],
                    [
                        -156.986147,
                        21.185057
                    ],
                    [
                        -156.985918,
                        21.185567
                    ],
                    [
                        -156.985193,
                        21.186209
                    ],
                    [
                        -156.984867,
                        21.187907
                    ],
                    [
                        -156.985055,
                        21.188181
                    ],
                    [
                        -156.984825,
                        21.189232
                    ],
                    [
                        -156.984942,
                        21.189789
                    ],
                    [
                        -156.985147,
                        21.189909
                    ],
                    [
                        -156.985116,
                        21.190764
                    ],
                    [
                        -156.985386,
                        21.191346
                    ],
                    [
                        -156.985315,
                        21.191863
                    ],
                    [
                        -156.984231,
                        21.192355
                    ],
                    [
                        -156.983774,
                        21.193415
                    ],
                    [
                        -156.983813,
                        21.194351
                    ],
                    [
                        -156.983514,
                        21.19474
                    ],
                    [
                        -156.983279,
                        21.195557
                    ],
                    [
                        -156.983316,
                        21.196908
                    ],
                    [
                        -156.983071,
                        21.197538
                    ],
                    [
                        -156.981943,
                        21.198771
                    ],
                    [
                        -156.981759,
                        21.199509
                    ],
                    [
                        -156.982187,
                        21.200993
                    ],
                    [
                        -156.980626,
                        21.201525
                    ],
                    [
                        -156.980103,
                        21.202029
                    ],
                    [
                        -156.97976,
                        21.203299
                    ],
                    [
                        -156.979681,
                        21.204276
                    ],
                    [
                        -156.979833,
                        21.204906
                    ],
                    [
                        -156.980188,
                        21.205412
                    ],
                    [
                        -156.981332,
                        21.205794
                    ],
                    [
                        -156.981894,
                        21.206922
                    ],
                    [
                        -156.981759,
                        21.2071
                    ],
                    [
                        -156.981343,
                        21.207095
                    ],
                    [
                        -156.981052,
                        21.207468
                    ],
                    [
                        -156.981469,
                        21.208266
                    ],
                    [
                        -156.981317,
                        21.208518
                    ],
                    [
                        -156.981454,
                        21.209057
                    ],
                    [
                        -156.980981,
                        21.209122
                    ],
                    [
                        -156.980276,
                        21.209645
                    ],
                    [
                        -156.979372,
                        21.209965
                    ],
                    [
                        -156.978946,
                        21.209983
                    ],
                    [
                        -156.977943,
                        21.210457
                    ],
                    [
                        -156.977572,
                        21.210427
                    ],
                    [
                        -156.977239,
                        21.210808
                    ],
                    [
                        -156.977135,
                        21.21194
                    ],
                    [
                        -156.976159,
                        21.213261
                    ],
                    [
                        -156.975757,
                        21.21332
                    ],
                    [
                        -156.975489,
                        21.213795
                    ],
                    [
                        -156.974466,
                        21.213295
                    ],
                    [
                        -156.974133,
                        21.213562
                    ],
                    [
                        -156.973781,
                        21.213347
                    ],
                    [
                        -156.973642,
                        21.213591
                    ],
                    [
                        -156.97381,
                        21.213799
                    ],
                    [
                        -156.973645,
                        21.213887
                    ],
                    [
                        -156.973474,
                        21.213744
                    ],
                    [
                        -156.973459,
                        21.213937
                    ],
                    [
                        -156.973214,
                        21.213995
                    ],
                    [
                        -156.97302,
                        21.214291
                    ],
                    [
                        -156.972775,
                        21.213845
                    ],
                    [
                        -156.972497,
                        21.213944
                    ],
                    [
                        -156.972345,
                        21.214543
                    ],
                    [
                        -156.972508,
                        21.215001
                    ],
                    [
                        -156.971795,
                        21.214812
                    ],
                    [
                        -156.971732,
                        21.214956
                    ],
                    [
                        -156.971515,
                        21.214909
                    ],
                    [
                        -156.97143,
                        21.215361
                    ],
                    [
                        -156.970697,
                        21.214978
                    ]
                ]
            ],
            [
                [
                    [
                        -156.970987,
                        21.215534
                    ],
                    [
                        -156.971023,
                        21.215344
                    ],
                    [
                        -156.971109,
                        21.215549
                    ],
                    [
                        -156.970987,
                        21.215534
                    ]
                ]
            ],
            [
                [
                    [
                        -156.971356,
                        21.215573
                    ],
                    [
                        -156.971463,
                        21.215456
                    ],
                    [
                        -156.971546,
                        21.215547
                    ],
                    [
                        -156.971487,
                        21.215758
                    ],
                    [
                        -156.971358,
                        21.215758
                    ],
                    [
                        -156.971356,
                        21.215573
                    ]
                ]
            ]
        ]
    },
    "properties": {
        "@id": "https://api.weather.gov/zones/forecast/HIZ037",
        "@type": "wx:Zone",
        "id": "HIZ037",
        "type": "public",
        "name": "Molokai Windward",
        "effectiveDate": "2026-04-16T18:00:00+00:00",
        "expirationDate": "2200-01-01T00:00:00+00:00",
        "state": "HI",
        "forecastOffice": "https://api.weather.gov/offices/HFO",
        "gridIdentifier": "HFO",
        "awipsLocationIdentifier": "HFO",
        "cwa": [
            "HFO"
        ],
        "forecastOffices": [
            "https://api.weather.gov/offices/HFO"
        ],
        "timeZone": [
            "Pacific/Honolulu"
        ],
        "observationStations": [],
        "radarStation": null
    }
}