{
    "@context": {
        "@version": "1.1"
    },
    "id": "https://api.weather.gov/zones/forecast/UTZ114",
    "type": "Feature",
    "geometry": {
        "type": "Polygon",
        "coordinates": [
            [
                [
                    -109.976494,
                    40.337311
                ],
                [
                    -109.976601,
                    40.327011
                ],
                [
                    -109.976395,
                    40.29911
                ],
                [
                    -109.976395,
                    40.258411
                ],
                [
                    -109.976097,
                    40.244213
                ],
                [
                    -109.976097,
                    40.158012
                ],
                [
                    -109.975596,
                    40.143073
                ],
                [
                    -109.974998,
                    40.116711
                ],
                [
                    -109.9739,
                    40.047012
                ],
                [
                    -109.972397,
                    39.980511
                ],
                [
                    -109.969322,
                    39.86758
                ],
                [
                    -110.050481,
                    39.921034
                ],
                [
                    -110.16913,
                    39.993097
                ],
                [
                    -110.266821,
                    40.027697
                ],
                [
                    -110.330361,
                    40.051464
                ],
                [
                    -110.406636,
                    40.083558
                ],
                [
                    -110.430101,
                    40.095744
                ],
                [
                    -110.492768,
                    40.120925
                ],
                [
                    -110.555555,
                    40.13476
                ],
                [
                    -110.604704,
                    40.131921
                ],
                [
                    -110.67647,
                    40.124601
                ],
                [
                    -110.750825,
                    40.1216
                ],
                [
                    -110.765162,
                    40.142749
                ],
                [
                    -110.774274,
                    40.160869
                ],
                [
                    -110.79652,
                    40.172978
                ],
                [
                    -110.825351,
                    40.177048
                ],
                [
                    -110.875822,
                    40.179292
                ],
                [
                    -110.896597,
                    40.189912
                ],
                [
                    -110.89661,
                    40.214325
                ],
                [
                    -110.896637,
                    40.265293
                ],
                [
                    -110.828344,
                    40.289852
                ],
                [
                    -110.752506,
                    40.289715
                ],
                [
                    -110.732712,
                    40.313806
                ],
                [
                    -110.736566,
                    40.336441
                ],
                [
                    -110.755174,
                    40.368914
                ],
                [
                    -110.794521,
                    40.400667
                ],
                [
                    -110.808279,
                    40.419546
                ],
                [
                    -110.760888,
                    40.426246
                ],
                [
                    -110.702144,
                    40.394307
                ],
                [
                    -110.650062,
                    40.355654
                ],
                [
                    -110.601545,
                    40.335385
                ],
                [
                    -110.53962,
                    40.35929
                ],
                [
                    -110.488972,
                    40.40764
                ],
                [
                    -110.412239,
                    40.457555
                ],
                [
                    -110.294953,
                    40.468966
                ],
                [
                    -110.177298,
                    40.507407
                ],
                [
                    -110.029269,
                    40.540447
                ],
                [
                    -109.978011,
                    40.565146
                ],
                [
                    -109.9776,
                    40.54541
                ],
                [
                    -109.977699,
                    40.45491
                ],
                [
                    -109.977295,
                    40.432911
                ],
                [
                    -109.976997,
                    40.377712
                ],
                [
                    -109.976494,
                    40.337311
                ]
            ]
        ]
    },
    "properties": {
        "@id": "https://api.weather.gov/zones/forecast/UTZ114",
        "@type": "wx:Zone",
        "id": "UTZ114",
        "type": "public",
        "name": "Western Uinta Basin",
        "effectiveDate": "2026-04-16T18:00:00+00:00",
        "expirationDate": "2200-01-01T00:00:00+00:00",
        "state": "UT",
        "forecastOffice": "https://api.weather.gov/offices/SLC",
        "gridIdentifier": "SLC",
        "awipsLocationIdentifier": "SLC",
        "cwa": [
            "SLC"
        ],
        "forecastOffices": [
            "https://api.weather.gov/offices/SLC"
        ],
        "timeZone": [
            "America/Denver"
        ],
        "observationStations": [
            "https://api.weather.gov/stations/K74V",
            "https://api.weather.gov/stations/KU69",
            "https://api.weather.gov/stations/UTFRT",
            "https://api.weather.gov/stations/UTSTV"
        ],
        "radarStation": null
    }
}