{
    "@context": {
        "@version": "1.1"
    },
    "id": "https://api.weather.gov/zones/forecast/KYZ110",
    "type": "Feature",
    "geometry": {
        "type": "Polygon",
        "coordinates": [
            [
                [
                    -82.641197,
                    37.720112
                ],
                [
                    -82.638397,
                    37.717613
                ],
                [
                    -82.632599,
                    37.71611
                ],
                [
                    -82.629997,
                    37.713211
                ],
                [
                    -82.627495,
                    37.711514
                ],
                [
                    -82.625099,
                    37.710312
                ],
                [
                    -82.622795,
                    37.708313
                ],
                [
                    -82.621201,
                    37.705212
                ],
                [
                    -82.6175,
                    37.706512
                ],
                [
                    -82.614296,
                    37.706413
                ],
                [
                    -82.611595,
                    37.705112
                ],
                [
                    -82.610001,
                    37.702911
                ],
                [
                    -82.606697,
                    37.703114
                ],
                [
                    -82.604797,
                    37.701611
                ],
                [
                    -82.600494,
                    37.701313
                ],
                [
                    -82.597694,
                    37.69931
                ],
                [
                    -82.595299,
                    37.697014
                ],
                [
                    -82.5896,
                    37.692513
                ],
                [
                    -82.585999,
                    37.692013
                ],
                [
                    -82.582695,
                    37.694214
                ],
                [
                    -82.579697,
                    37.694813
                ],
                [
                    -82.576897,
                    37.693413
                ],
                [
                    -82.575798,
                    37.690613
                ],
                [
                    -82.573997,
                    37.688213
                ],
                [
                    -82.569298,
                    37.688911
                ],
                [
                    -82.564896,
                    37.688011
                ],
                [
                    -82.563797,
                    37.684311
                ],
                [
                    -82.565094,
                    37.681812
                ],
                [
                    -82.566994,
                    37.679913
                ],
                [
                    -82.568893,
                    37.67971
                ],
                [
                    -82.571098,
                    37.680412
                ],
                [
                    -82.574196,
                    37.680313
                ],
                [
                    -82.577499,
                    37.679813
                ],
                [
                    -82.582596,
                    37.678612
                ],
                [
                    -82.586296,
                    37.678711
                ],
                [
                    -82.586899,
                    37.681213
                ],
                [
                    -82.589699,
                    37.680714
                ],
                [
                    -82.593796,
                    37.679314
                ],
                [
                    -82.597298,
                    37.678612
                ],
                [
                    -82.599197,
                    37.676311
                ],
                [
                    -82.600594,
                    37.673912
                ],
                [
                    -82.604599,
                    37.674713
                ],
                [
                    -82.608597,
                    37.674213
                ],
                [
                    -82.611,
                    37.673214
                ],
                [
                    -82.613197,
                    37.671513
                ],
                [
                    -82.614899,
                    37.668312
                ],
                [
                    -82.612595,
                    37.665913
                ],
                [
                    -82.612999,
                    37.663914
                ],
                [
                    -82.612801,
                    37.661312
                ],
                [
                    -82.603996,
                    37.659512
                ],
                [
                    -82.6017,
                    37.658211
                ],
                [
                    -82.603195,
                    37.65591
                ],
                [
                    -82.602997,
                    37.653111
                ],
                [
                    -82.605194,
                    37.651314
                ],
                [
                    -82.605598,
                    37.648911
                ],
                [
                    -82.602997,
                    37.647114
                ],
                [
                    -82.600998,
                    37.644413
                ],
                [
                    -82.598694,
                    37.642712
                ],
                [
                    -82.598694,
                    37.640511
                ],
                [
                    -82.601799,
                    37.625214
                ],
                [
                    -82.619995,
                    37.531414
                ],
                [
                    -82.620995,
                    37.527111
                ],
                [
                    -82.6231,
                    37.523613
                ],
                [
                    -82.6241,
                    37.520714
                ],
                [
                    -82.622398,
                    37.516212
                ],
                [
                    -82.6241,
                    37.505814
                ],
                [
                    -82.622398,
                    37.503513
                ],
                [
                    -82.619499,
                    37.503613
                ],
                [
                    -82.616898,
                    37.505013
                ],
                [
                    -82.614594,
                    37.505314
                ],
                [
                    -82.6129,
                    37.504013
                ],
                [
                    -82.609993,
                    37.504211
                ],
                [
                    -82.605194,
                    37.506111
                ],
                [
                    -82.601997,
                    37.505512
                ],
                [
                    -82.597595,
                    37.502613
                ],
                [
                    -82.596397,
                    37.499413
                ],
                [
                    -82.598,
                    37.496811
                ],
                [
                    -82.599792,
                    37.494411
                ],
                [
                    -82.597099,
                    37.492813
                ],
                [
                    -82.594498,
                    37.490513
                ],
                [
                    -82.593498,
                    37.486912
                ],
                [
                    -82.591499,
                    37.484112
                ],
                [
                    -82.590195,
                    37.48101
                ],
                [
                    -82.589493,
                    37.476212
                ],
                [
                    -82.588699,
                    37.473911
                ],
                [
                    -82.586899,
                    37.470112
                ],
                [
                    -82.5849,
                    37.467514
                ],
                [
                    -82.587799,
                    37.463013
                ],
                [
                    -82.587395,
                    37.460011
                ],
                [
                    -82.589294,
                    37.458412
                ],
                [
                    -82.590393,
                    37.456013
                ],
                [
                    -82.589493,
                    37.453411
                ],
                [
                    -82.589294,
                    37.45071
                ],
                [
                    -82.5886,
                    37.446613
                ],
                [
                    -82.591194,
                    37.444111
                ],
                [
                    -82.592499,
                    37.441513
                ],
                [
                    -82.593796,
                    37.439713
                ],
                [
                    -82.597298,
                    37.440113
                ],
                [
                    -82.599998,
                    37.439114
                ],
                [
                    -82.601898,
                    37.436611
                ],
                [
                    -82.599495,
                    37.433311
                ],
                [
                    -82.599899,
                    37.430511
                ],
                [
                    -82.600899,
                    37.427513
                ],
                [
                    -82.604294,
                    37.424614
                ],
                [
                    -82.606499,
                    37.420513
                ],
                [
                    -82.603699,
                    37.416412
                ],
                [
                    -82.604195,
                    37.413914
                ],
                [
                    -82.605598,
                    37.410412
                ],
                [
                    -82.608498,
                    37.410713
                ],
                [
                    -82.612297,
                    37.408813
                ],
                [
                    -82.613098,
                    37.405212
                ],
                [
                    -82.612297,
                    37.403111
                ],
                [
                    -82.612396,
                    37.400513
                ],
                [
                    -82.616997,
                    37.399113
                ],
                [
                    -82.6194,
                    37.394913
                ],
                [
                    -82.621399,
                    37.393311
                ],
                [
                    -82.619896,
                    37.39101
                ],
                [
                    -82.619896,
                    37.386513
                ],
                [
                    -82.623398,
                    37.38541
                ],
                [
                    -82.625099,
                    37.383312
                ],
                [
                    -82.627197,
                    37.382111
                ],
                [
                    -82.631599,
                    37.380112
                ],
                [
                    -82.635399,
                    37.379711
                ],
                [
                    -82.637894,
                    37.381611
                ],
                [
                    -82.643593,
                    37.38121
                ],
                [
                    -82.646194,
                    37.380711
                ],
                [
                    -82.648697,
                    37.37981
                ],
                [
                    -82.651794,
                    37.380413
                ],
                [
                    -82.653999,
                    37.380112
                ],
                [
                    -82.657997,
                    37.37421
                ],
                [
                    -82.660194,
                    37.373611
                ],
                [
                    -82.6633,
                    37.372414
                ],
                [
                    -82.665695,
                    37.370213
                ],
                [
                    -82.664299,
                    37.367512
                ],
                [
                    -82.663895,
                    37.364311
                ],
                [
                    -82.663895,
                    37.361511
                ],
                [
                    -82.660095,
                    37.358414
                ],
                [
                    -82.656593,
                    37.357212
                ],
                [
                    -82.655098,
                    37.355312
                ],
                [
                    -82.653,
                    37.35461
                ],
                [
                    -82.650696,
                    37.355412
                ],
                [
                    -82.647598,
                    37.353714
                ],
                [
                    -82.649094,
                    37.352512
                ],
                [
                    -82.652596,
                    37.350613
                ],
                [
                    -82.660194,
                    37.34391
                ],
                [
                    -82.662094,
                    37.343513
                ],
                [
                    -82.662994,
                    37.340511
                ],
                [
                    -82.660995,
                    37.336411
                ],
                [
                    -82.661896,
                    37.334312
                ],
                [
                    -82.663597,
                    37.332012
                ],
                [
                    -82.665298,
                    37.327713
                ],
                [
                    -82.665298,
                    37.323711
                ],
                [
                    -82.668495,
                    37.321712
                ],
                [
                    -82.670898,
                    37.319511
                ],
                [
                    -82.6698,
                    37.317913
                ],
                [
                    -82.669495,
                    37.316212
                ],
                [
                    -82.671898,
                    37.313911
                ],
                [
                    -82.672096,
                    37.307613
                ],
                [
                    -82.675095,
                    37.306313
                ],
                [
                    -82.6782,
                    37.306412
                ],
                [
                    -82.681396,
                    37.306614
                ],
                [
                    -82.684898,
                    37.308311
                ],
                [
                    -82.688393,
                    37.30611
                ],
                [
                    -82.692299,
                    37.306011
                ],
                [
                    -82.697495,
                    37.302612
                ],
                [
                    -82.700394,
                    37.299313
                ],
                [
                    -82.700096,
                    37.294613
                ],
                [
                    -82.700699,
                    37.290012
                ],
                [
                    -82.705696,
                    37.287613
                ],
                [
                    -82.708794,
                    37.286911
                ],
                [
                    -82.711098,
                    37.284813
                ],
                [
                    -82.713295,
                    37.288712
                ],
                [
                    -82.7155,
                    37.288311
                ],
                [
                    -82.721397,
                    37.288712
                ],
                [
                    -82.724495,
                    37.288612
                ],
                [
                    -82.7276,
                    37.290913
                ],
                [
                    -82.727898,
                    37.294212
                ],
                [
                    -82.727097,
                    37.296711
                ],
                [
                    -82.7248,
                    37.301811
                ],
                [
                    -82.726097,
                    37.303711
                ],
                [
                    -82.728897,
                    37.305412
                ],
                [
                    -82.731293,
                    37.305412
                ],
                [
                    -82.733597,
                    37.304512
                ],
                [
                    -82.737198,
                    37.302811
                ],
                [
                    -82.739594,
                    37.30191
                ],
                [
                    -82.741501,
                    37.303711
                ],
                [
                    -82.743195,
                    37.306213
                ],
                [
                    -82.745697,
                    37.306213
                ],
                [
                    -82.748894,
                    37.306812
                ],
                [
                    -82.750397,
                    37.308613
                ],
                [
                    -82.752098,
                    37.311314
                ],
                [
                    -82.750198,
                    37.314911
                ],
                [
                    -82.748299,
                    37.317612
                ],
                [
                    -82.749596,
                    37.320713
                ],
                [
                    -82.750397,
                    37.324711
                ],
                [
                    -82.753494,
                    37.328114
                ],
                [
                    -82.7537,
                    37.331112
                ],
                [
                    -82.753098,
                    37.334812
                ],
                [
                    -82.751297,
                    37.337513
                ],
                [
                    -82.753098,
                    37.340012
                ],
                [
                    -82.753799,
                    37.343113
                ],
                [
                    -82.756096,
                    37.34481
                ],
                [
                    -82.758896,
                    37.346313
                ],
                [
                    -82.760796,
                    37.348213
                ],
                [
                    -82.762695,
                    37.351311
                ],
                [
                    -82.763199,
                    37.354713
                ],
                [
                    -82.761696,
                    37.357212
                ],
                [
                    -82.762993,
                    37.359413
                ],
                [
                    -82.761894,
                    37.361214
                ],
                [
                    -82.759399,
                    37.363213
                ],
                [
                    -82.7575,
                    37.365913
                ],
                [
                    -82.756996,
                    37.369411
                ],
                [
                    -82.754097,
                    37.370514
                ],
                [
                    -82.7519,
                    37.372612
                ],
                [
                    -82.754601,
                    37.375214
                ],
                [
                    -82.755898,
                    37.377312
                ],
                [
                    -82.755997,
                    37.386112
                ],
                [
                    -82.754898,
                    37.388214
                ],
                [
                    -82.754295,
                    37.394314
                ],
                [
                    -82.752396,
                    37.396812
                ],
                [
                    -82.751999,
                    37.400112
                ],
                [
                    -82.755394,
                    37.401112
                ],
                [
                    -82.756996,
                    37.40361
                ],
                [
                    -82.758293,
                    37.406013
                ],
                [
                    -82.759895,
                    37.408413
                ],
                [
                    -82.761093,
                    37.410713
                ],
                [
                    -82.758797,
                    37.411713
                ],
                [
                    -82.756393,
                    37.414413
                ],
                [
                    -82.758499,
                    37.416714
                ],
                [
                    -82.7612,
                    37.417912
                ],
                [
                    -82.763397,
                    37.420612
                ],
                [
                    -82.762596,
                    37.423214
                ],
                [
                    -82.763397,
                    37.425613
                ],
                [
                    -82.767197,
                    37.427013
                ],
                [
                    -82.770599,
                    37.425911
                ],
                [
                    -82.774498,
                    37.425213
                ],
                [
                    -82.778397,
                    37.425114
                ],
                [
                    -82.781395,
                    37.428211
                ],
                [
                    -82.785698,
                    37.428612
                ],
                [
                    -82.793594,
                    37.426712
                ],
                [
                    -82.7957,
                    37.423313
                ],
                [
                    -82.795998,
                    37.420013
                ],
                [
                    -82.796799,
                    37.417912
                ],
                [
                    -82.799896,
                    37.418011
                ],
                [
                    -82.803696,
                    37.416512
                ],
                [
                    -82.805496,
                    37.414413
                ],
                [
                    -82.8116,
                    37.411411
                ],
                [
                    -82.816696,
                    37.411312
                ],
                [
                    -82.819893,
                    37.412712
                ],
                [
                    -82.821198,
                    37.415314
                ],
                [
                    -82.824799,
                    37.414612
                ],
                [
                    -82.828293,
                    37.412613
                ],
                [
                    -82.831596,
                    37.413013
                ],
                [
                    -82.834801,
                    37.414413
                ],
                [
                    -82.834396,
                    37.417812
                ],
                [
                    -82.833,
                    37.42131
                ],
                [
                    -82.8368,
                    37.424011
                ],
                [
                    -82.835999,
                    37.427414
                ],
                [
                    -82.8349,
                    37.430313
                ],
                [
                    -82.831696,
                    37.432812
                ],
                [
                    -82.8311,
                    37.436012
                ],
                [
                    -82.828598,
                    37.43671
                ],
                [
                    -82.825699,
                    37.439213
                ],
                [
                    -82.827095,
                    37.44231
                ],
                [
                    -82.828194,
                    37.446213
                ],
                [
                    -82.829399,
                    37.449413
                ],
                [
                    -82.825996,
                    37.45211
                ],
                [
                    -82.826996,
                    37.455013
                ],
                [
                    -82.829193,
                    37.459312
                ],
                [
                    -82.828697,
                    37.462513
                ],
                [
                    -82.830498,
                    37.465714
                ],
                [
                    -82.842499,
                    37.468311
                ],
                [
                    -82.927696,
                    37.48101
                ],
                [
                    -82.927696,
                    37.483311
                ],
                [
                    -82.926994,
                    37.48521
                ],
                [
                    -82.925194,
                    37.486713
                ],
                [
                    -82.920898,
                    37.490711
                ],
                [
                    -82.917999,
                    37.490414
                ],
                [
                    -82.915497,
                    37.488712
                ],
                [
                    -82.913193,
                    37.489811
                ],
                [
                    -82.909294,
                    37.492313
                ],
                [
                    -82.9095,
                    37.495712
                ],
                [
                    -82.9095,
                    37.500313
                ],
                [
                    -82.907196,
                    37.503113
                ],
                [
                    -82.9039,
                    37.504711
                ],
                [
                    -82.901695,
                    37.508114
                ],
                [
                    -82.899094,
                    37.507912
                ],
                [
                    -82.895897,
                    37.509712
                ],
                [
                    -82.8964,
                    37.511913
                ],
                [
                    -82.896797,
                    37.515614
                ],
                [
                    -82.894096,
                    37.517612
                ],
                [
                    -82.892197,
                    37.519711
                ],
                [
                    -82.894295,
                    37.522011
                ],
                [
                    -82.894295,
                    37.524311
                ],
                [
                    -82.892593,
                    37.527012
                ],
                [
                    -82.893494,
                    37.530113
                ],
                [
                    -82.891197,
                    37.532612
                ],
                [
                    -82.879494,
                    37.535313
                ],
                [
                    -82.878899,
                    37.539711
                ],
                [
                    -82.882095,
                    37.540512
                ],
                [
                    -82.885094,
                    37.541012
                ],
                [
                    -82.8862,
                    37.54351
                ],
                [
                    -82.889496,
                    37.543713
                ],
                [
                    -82.889198,
                    37.546612
                ],
                [
                    -82.885399,
                    37.549313
                ],
                [
                    -82.888298,
                    37.551311
                ],
                [
                    -82.887993,
                    37.554512
                ],
                [
                    -82.890594,
                    37.555412
                ],
                [
                    -82.890198,
                    37.558712
                ],
                [
                    -82.889595,
                    37.561012
                ],
                [
                    -82.889595,
                    37.565311
                ],
                [
                    -82.892097,
                    37.566212
                ],
                [
                    -82.895294,
                    37.566914
                ],
                [
                    -82.898399,
                    37.570011
                ],
                [
                    -82.899994,
                    37.57431
                ],
                [
                    -82.901695,
                    37.577312
                ],
                [
                    -82.899796,
                    37.579613
                ],
                [
                    -82.897392,
                    37.580513
                ],
                [
                    -82.897194,
                    37.588711
                ],
                [
                    -82.900101,
                    37.591412
                ],
                [
                    -82.903198,
                    37.593513
                ],
                [
                    -82.903198,
                    37.597511
                ],
                [
                    -82.902496,
                    37.599613
                ],
                [
                    -82.9058,
                    37.606712
                ],
                [
                    -82.905396,
                    37.610611
                ],
                [
                    -82.905693,
                    37.614014
                ],
                [
                    -82.904793,
                    37.616711
                ],
                [
                    -82.904999,
                    37.619411
                ],
                [
                    -82.901497,
                    37.621811
                ],
                [
                    -82.902794,
                    37.625011
                ],
                [
                    -82.901794,
                    37.627312
                ],
                [
                    -82.9048,
                    37.628513
                ],
                [
                    -82.906197,
                    37.631111
                ],
                [
                    -82.9048,
                    37.636913
                ],
                [
                    -82.904198,
                    37.640614
                ],
                [
                    -82.9086,
                    37.642811
                ],
                [
                    -82.912094,
                    37.643612
                ],
                [
                    -82.9123,
                    37.646313
                ],
                [
                    -82.909492,
                    37.648613
                ],
                [
                    -82.911598,
                    37.652412
                ],
                [
                    -82.9151,
                    37.65361
                ],
                [
                    -82.917397,
                    37.653713
                ],
                [
                    -82.919594,
                    37.654411
                ],
                [
                    -82.922699,
                    37.656212
                ],
                [
                    -82.926994,
                    37.656612
                ],
                [
                    -82.927498,
                    37.659412
                ],
                [
                    -82.929398,
                    37.660313
                ],
                [
                    -82.932198,
                    37.662113
                ],
                [
                    -82.933495,
                    37.664711
                ],
                [
                    -82.936096,
                    37.665314
                ],
                [
                    -82.9384,
                    37.668312
                ],
                [
                    -82.942299,
                    37.66991
                ],
                [
                    -82.941597,
                    37.673012
                ],
                [
                    -82.943398,
                    37.676311
                ],
                [
                    -82.945595,
                    37.679413
                ],
                [
                    -82.944695,
                    37.682411
                ],
                [
                    -82.942596,
                    37.697712
                ],
                [
                    -82.9394,
                    37.71701
                ],
                [
                    -82.935593,
                    37.716911
                ],
                [
                    -82.933098,
                    37.716614
                ],
                [
                    -82.930397,
                    37.717411
                ],
                [
                    -82.927795,
                    37.719013
                ],
                [
                    -82.925995,
                    37.717312
                ],
                [
                    -82.923096,
                    37.715412
                ],
                [
                    -82.918999,
                    37.713913
                ],
                [
                    -82.915001,
                    37.711113
                ],
                [
                    -82.911598,
                    37.710312
                ],
                [
                    -82.909996,
                    37.711712
                ],
                [
                    -82.908195,
                    37.712513
                ],
                [
                    -82.906898,
                    37.708813
                ],
                [
                    -82.903893,
                    37.707111
                ],
                [
                    -82.902397,
                    37.703613
                ],
                [
                    -82.899498,
                    37.705414
                ],
                [
                    -82.897499,
                    37.708012
                ],
                [
                    -82.893997,
                    37.708912
                ],
                [
                    -82.891197,
                    37.70911
                ],
                [
                    -82.888893,
                    37.711712
                ],
                [
                    -82.886597,
                    37.713913
                ],
                [
                    -82.884094,
                    37.715813
                ],
                [
                    -82.880295,
                    37.716812
                ],
                [
                    -82.879601,
                    37.719013
                ],
                [
                    -82.875595,
                    37.719612
                ],
                [
                    -82.873894,
                    37.721111
                ],
                [
                    -82.873695,
                    37.723713
                ],
                [
                    -82.871094,
                    37.727013
                ],
                [
                    -82.870697,
                    37.729111
                ],
                [
                    -82.8657,
                    37.730614
                ],
                [
                    -82.862297,
                    37.727711
                ],
                [
                    -82.845596,
                    37.729412
                ],
                [
                    -82.790794,
                    37.744614
                ],
                [
                    -82.788094,
                    37.745514
                ],
                [
                    -82.785995,
                    37.745911
                ],
                [
                    -82.782898,
                    37.745113
                ],
                [
                    -82.778793,
                    37.743111
                ],
                [
                    -82.775993,
                    37.742413
                ],
                [
                    -82.774094,
                    37.742111
                ],
                [
                    -82.766495,
                    37.742313
                ],
                [
                    -82.764793,
                    37.746113
                ],
                [
                    -82.764,
                    37.749714
                ],
                [
                    -82.764496,
                    37.752712
                ],
                [
                    -82.762894,
                    37.755711
                ],
                [
                    -82.759499,
                    37.753914
                ],
                [
                    -82.756996,
                    37.751911
                ],
                [
                    -82.754799,
                    37.751614
                ],
                [
                    -82.752495,
                    37.752514
                ],
                [
                    -82.750595,
                    37.751713
                ],
                [
                    -82.748695,
                    37.749512
                ],
                [
                    -82.746201,
                    37.747913
                ],
                [
                    -82.742393,
                    37.747913
                ],
                [
                    -82.738197,
                    37.747013
                ],
                [
                    -82.7388,
                    37.744511
                ],
                [
                    -82.730499,
                    37.746914
                ],
                [
                    -82.727196,
                    37.748711
                ],
                [
                    -82.723396,
                    37.748211
                ],
                [
                    -82.720795,
                    37.744713
                ],
                [
                    -82.718292,
                    37.743813
                ],
                [
                    -82.714996,
                    37.744614
                ],
                [
                    -82.711395,
                    37.74361
                ],
                [
                    -82.709198,
                    37.742413
                ],
                [
                    -82.708595,
                    37.740311
                ],
                [
                    -82.705795,
                    37.739212
                ],
                [
                    -82.703194,
                    37.739014
                ],
                [
                    -82.700699,
                    37.737114
                ],
                [
                    -82.695396,
                    37.737213
                ],
                [
                    -82.691399,
                    37.73661
                ],
                [
                    -82.6884,
                    37.736111
                ],
                [
                    -82.684799,
                    37.734711
                ],
                [
                    -82.686897,
                    37.731213
                ],
                [
                    -82.684692,
                    37.729111
                ],
                [
                    -82.6819,
                    37.729412
                ],
                [
                    -82.679497,
                    37.729214
                ],
                [
                    -82.677498,
                    37.727612
                ],
                [
                    -82.674095,
                    37.726612
                ],
                [
                    -82.670296,
                    37.726913
                ],
                [
                    -82.665894,
                    37.72681
                ],
                [
                    -82.662994,
                    37.725712
                ],
                [
                    -82.660797,
                    37.726711
                ],
                [
                    -82.658798,
                    37.726913
                ],
                [
                    -82.657394,
                    37.725212
                ],
                [
                    -82.654396,
                    37.726112
                ],
                [
                    -82.650993,
                    37.724812
                ],
                [
                    -82.648697,
                    37.725212
                ],
                [
                    -82.646698,
                    37.723812
                ],
                [
                    -82.643799,
                    37.723511
                ],
                [
                    -82.641197,
                    37.720112
                ]
            ]
        ]
    },
    "properties": {
        "@id": "https://api.weather.gov/zones/forecast/KYZ110",
        "@type": "wx:Zone",
        "id": "KYZ110",
        "type": "public",
        "name": "Floyd",
        "effectiveDate": "2026-04-16T18:00:00+00:00",
        "expirationDate": "2200-01-01T00:00:00+00:00",
        "state": "KY",
        "forecastOffice": "https://api.weather.gov/offices/JKL",
        "gridIdentifier": "JKL",
        "awipsLocationIdentifier": "JKL",
        "cwa": [
            "JKL"
        ],
        "forecastOffices": [
            "https://api.weather.gov/offices/JKL"
        ],
        "timeZone": [
            "America/New_York"
        ],
        "observationStations": [
            "https://api.weather.gov/stations/KSJS",
            "https://api.weather.gov/stations/K6L4",
            "https://api.weather.gov/stations/KCRW",
            "https://api.weather.gov/stations/KDWU",
            "https://api.weather.gov/stations/KHTS",
            "https://api.weather.gov/stations/KIOB",
            "https://api.weather.gov/stations/KJKL",
            "https://api.weather.gov/stations/KLEX",
            "https://api.weather.gov/stations/KLNP",
            "https://api.weather.gov/stations/KPBX",
            "https://api.weather.gov/stations/KSYM"
        ],
        "radarStation": "JKL"
    }
}