{
    "@context": {
        "@version": "1.1"
    },
    "id": "https://api.weather.gov/zones/forecast/IAZ062",
    "type": "Feature",
    "geometry": {
        "type": "Polygon",
        "coordinates": [
            [
                [
                    -92.297493,
                    41.509613
                ],
                [
                    -92.412094,
                    41.509514
                ],
                [
                    -92.468994,
                    41.509411
                ],
                [
                    -92.508499,
                    41.509113
                ],
                [
                    -92.589699,
                    41.508812
                ],
                [
                    -92.699493,
                    41.509113
                ],
                [
                    -92.733398,
                    41.508812
                ],
                [
                    -92.7565,
                    41.508812
                ],
                [
                    -92.757095,
                    41.600113
                ],
                [
                    -92.766594,
                    41.601311
                ],
                [
                    -92.766396,
                    41.644711
                ],
                [
                    -92.766396,
                    41.720913
                ],
                [
                    -92.766197,
                    41.729511
                ],
                [
                    -92.766296,
                    41.750011
                ],
                [
                    -92.765999,
                    41.783413
                ],
                [
                    -92.766296,
                    41.812012
                ],
                [
                    -92.766197,
                    41.824913
                ],
                [
                    -92.7659,
                    41.832912
                ],
                [
                    -92.766197,
                    41.848614
                ],
                [
                    -92.766495,
                    41.855511
                ],
                [
                    -92.765999,
                    41.862312
                ],
                [
                    -92.649696,
                    41.862312
                ],
                [
                    -92.630196,
                    41.862114
                ],
                [
                    -92.591194,
                    41.862114
                ],
                [
                    -92.5718,
                    41.862312
                ],
                [
                    -92.552696,
                    41.862114
                ],
                [
                    -92.415894,
                    41.862411
                ],
                [
                    -92.400993,
                    41.862614
                ],
                [
                    -92.375198,
                    41.862411
                ],
                [
                    -92.298195,
                    41.862812
                ],
                [
                    -92.2985,
                    41.848312
                ],
                [
                    -92.298798,
                    41.819313
                ],
                [
                    -92.298798,
                    41.797112
                ],
                [
                    -92.299095,
                    41.794312
                ],
                [
                    -92.299294,
                    41.771111
                ],
                [
                    -92.299896,
                    41.745712
                ],
                [
                    -92.299797,
                    41.731712
                ],
                [
                    -92.299995,
                    41.714314
                ],
                [
                    -92.299797,
                    41.695812
                ],
                [
                    -92.300095,
                    41.660511
                ],
                [
                    -92.299995,
                    41.64801
                ],
                [
                    -92.299698,
                    41.643612
                ],
                [
                    -92.2994,
                    41.625412
                ],
                [
                    -92.2994,
                    41.611012
                ],
                [
                    -92.298798,
                    41.60181
                ],
                [
                    -92.297699,
                    41.597012
                ],
                [
                    -92.297493,
                    41.575211
                ],
                [
                    -92.2976,
                    41.538612
                ],
                [
                    -92.297394,
                    41.531414
                ],
                [
                    -92.297493,
                    41.509613
                ]
            ]
        ]
    },
    "properties": {
        "@id": "https://api.weather.gov/zones/forecast/IAZ062",
        "@type": "wx:Zone",
        "id": "IAZ062",
        "type": "public",
        "name": "Poweshiek",
        "effectiveDate": "2026-04-16T18:00:00+00:00",
        "expirationDate": "2200-01-01T00:00:00+00:00",
        "state": "IA",
        "forecastOffice": "https://api.weather.gov/offices/DMX",
        "gridIdentifier": "DMX",
        "awipsLocationIdentifier": "DMX",
        "cwa": [
            "DMX"
        ],
        "forecastOffices": [
            "https://api.weather.gov/offices/DMX"
        ],
        "timeZone": [
            "America/Chicago"
        ],
        "observationStations": [
            "https://api.weather.gov/stations/KGGI",
            "https://api.weather.gov/stations/KAMW",
            "https://api.weather.gov/stations/KBNW",
            "https://api.weather.gov/stations/KCNC",
            "https://api.weather.gov/stations/KDSM",
            "https://api.weather.gov/stations/KIKV",
            "https://api.weather.gov/stations/KIOW",
            "https://api.weather.gov/stations/KMIW",
            "https://api.weather.gov/stations/KOTM",
            "https://api.weather.gov/stations/KOXV",
            "https://api.weather.gov/stations/KTNU"
        ],
        "radarStation": "DMX"
    }
}