{
    "@context": {
        "@version": "1.1"
    },
    "id": "https://api.weather.gov/zones/forecast/IAZ078",
    "type": "Feature",
    "geometry": {
        "type": "Polygon",
        "coordinates": [
            [
                [
                    -91.3685,
                    41.423313
                ],
                [
                    -91.368698,
                    41.402012
                ],
                [
                    -91.369194,
                    41.375011
                ],
                [
                    -91.369095,
                    41.369713
                ],
                [
                    -91.369293,
                    41.336113
                ],
                [
                    -91.3591,
                    41.335911
                ],
                [
                    -91.351295,
                    41.336113
                ],
                [
                    -91.324493,
                    41.335712
                ],
                [
                    -91.321495,
                    41.335812
                ],
                [
                    -91.261993,
                    41.335613
                ],
                [
                    -91.191895,
                    41.334713
                ],
                [
                    -91.128799,
                    41.334312
                ],
                [
                    -91.0821,
                    41.333714
                ],
                [
                    -91.075996,
                    41.333714
                ],
                [
                    -91.071999,
                    41.333912
                ],
                [
                    -91.071999,
                    41.330612
                ],
                [
                    -91.072701,
                    41.323013
                ],
                [
                    -91.073196,
                    41.314213
                ],
                [
                    -91.0737,
                    41.309914
                ],
                [
                    -91.074196,
                    41.307613
                ],
                [
                    -91.075394,
                    41.304611
                ],
                [
                    -91.077499,
                    41.301811
                ],
                [
                    -91.084,
                    41.296711
                ],
                [
                    -91.086998,
                    41.294113
                ],
                [
                    -91.089195,
                    41.291214
                ],
                [
                    -91.091293,
                    41.288013
                ],
                [
                    -91.093498,
                    41.284012
                ],
                [
                    -91.098396,
                    41.272614
                ],
                [
                    -91.100594,
                    41.268112
                ],
                [
                    -91.103798,
                    41.263111
                ],
                [
                    -91.1073,
                    41.258911
                ],
                [
                    -91.109795,
                    41.256611
                ],
                [
                    -91.112793,
                    41.252514
                ],
                [
                    -91.114197,
                    41.250011
                ],
                [
                    -91.114098,
                    41.245411
                ],
                [
                    -91.1138,
                    41.242313
                ],
                [
                    -91.112694,
                    41.239513
                ],
                [
                    -91.109398,
                    41.23661
                ],
                [
                    -91.105995,
                    41.234413
                ],
                [
                    -91.1008,
                    41.230511
                ],
                [
                    -91.098198,
                    41.228313
                ],
                [
                    -91.093498,
                    41.223213
                ],
                [
                    -91.090195,
                    41.220413
                ],
                [
                    -91.082397,
                    41.215111
                ],
                [
                    -91.072998,
                    41.207111
                ],
                [
                    -91.065895,
                    41.199512
                ],
                [
                    -91.063797,
                    41.196613
                ],
                [
                    -91.055099,
                    41.185814
                ],
                [
                    -91.0439,
                    41.169113
                ],
                [
                    -91.041496,
                    41.166214
                ],
                [
                    -91.033295,
                    41.164211
                ],
                [
                    -91.028595,
                    41.163513
                ],
                [
                    -91.024696,
                    41.163513
                ],
                [
                    -91.018997,
                    41.164913
                ],
                [
                    -91.012596,
                    41.165913
                ],
                [
                    -91.009499,
                    41.166214
                ],
                [
                    -91.0065,
                    41.165913
                ],
                [
                    -90.998993,
                    41.163013
                ],
                [
                    -90.994995,
                    41.160614
                ],
                [
                    -90.992294,
                    41.158314
                ],
                [
                    -90.9897,
                    41.155712
                ],
                [
                    -90.985497,
                    41.149513
                ],
                [
                    -90.983597,
                    41.146111
                ],
                [
                    -90.9813,
                    41.142612
                ],
                [
                    -90.979095,
                    41.139812
                ],
                [
                    -90.976395,
                    41.137112
                ],
                [
                    -90.970596,
                    41.129711
                ],
                [
                    -90.965897,
                    41.119511
                ],
                [
                    -90.960693,
                    41.114811
                ],
                [
                    -90.957199,
                    41.111111
                ],
                [
                    -90.952293,
                    41.104713
                ],
                [
                    -90.948296,
                    41.099113
                ],
                [
                    -90.946396,
                    41.095711
                ],
                [
                    -90.947998,
                    41.087414
                ],
                [
                    -90.948494,
                    41.079811
                ],
                [
                    -90.949394,
                    41.073212
                ],
                [
                    -90.953194,
                    41.072712
                ],
                [
                    -91.021698,
                    41.073013
                ],
                [
                    -91.1315,
                    41.07291
                ],
                [
                    -91.191696,
                    41.073212
                ],
                [
                    -91.255394,
                    41.074112
                ],
                [
                    -91.370796,
                    41.074112
                ],
                [
                    -91.370499,
                    41.102211
                ],
                [
                    -91.370598,
                    41.125011
                ],
                [
                    -91.370399,
                    41.139713
                ],
                [
                    -91.370399,
                    41.161312
                ],
                [
                    -91.409096,
                    41.161713
                ],
                [
                    -91.418793,
                    41.161613
                ],
                [
                    -91.433899,
                    41.161911
                ],
                [
                    -91.4478,
                    41.161911
                ],
                [
                    -91.485893,
                    41.162411
                ],
                [
                    -91.486099,
                    41.213413
                ],
                [
                    -91.485199,
                    41.271511
                ],
                [
                    -91.484795,
                    41.336914
                ],
                [
                    -91.484497,
                    41.351913
                ],
                [
                    -91.484398,
                    41.368214
                ],
                [
                    -91.4842,
                    41.37421
                ],
                [
                    -91.483994,
                    41.402214
                ],
                [
                    -91.483795,
                    41.408913
                ],
                [
                    -91.483894,
                    41.424511
                ],
                [
                    -91.4795,
                    41.42411
                ],
                [
                    -91.462494,
                    41.424213
                ],
                [
                    -91.442894,
                    41.423611
                ],
                [
                    -91.391594,
                    41.423611
                ],
                [
                    -91.3685,
                    41.423313
                ]
            ]
        ]
    },
    "properties": {
        "@id": "https://api.weather.gov/zones/forecast/IAZ078",
        "@type": "wx:Zone",
        "id": "IAZ078",
        "type": "public",
        "name": "Louisa",
        "effectiveDate": "2026-04-16T18:00:00+00:00",
        "expirationDate": "2200-01-01T00:00:00+00:00",
        "state": "IA",
        "forecastOffice": "https://api.weather.gov/offices/DVN",
        "gridIdentifier": "DVN",
        "awipsLocationIdentifier": "DVN",
        "cwa": [
            "DVN"
        ],
        "forecastOffices": [
            "https://api.weather.gov/offices/DVN"
        ],
        "timeZone": [
            "America/Chicago"
        ],
        "observationStations": [
            "https://api.weather.gov/stations/KBRL",
            "https://api.weather.gov/stations/KAWG",
            "https://api.weather.gov/stations/KIOW",
            "https://api.weather.gov/stations/KMPZ",
            "https://api.weather.gov/stations/KMUT"
        ],
        "radarStation": "DVN"
    }
}