{
    "@context": {
        "@version": "1.1"
    },
    "id": "https://api.weather.gov/zones/forecast/UTZ128",
    "type": "Feature",
    "geometry": {
        "type": "Polygon",
        "coordinates": [
            [
                [
                    -111.14212,
                    38.001789
                ],
                [
                    -111.142105,
                    37.994572
                ],
                [
                    -111.13298,
                    37.994598
                ],
                [
                    -111.132957,
                    37.980053
                ],
                [
                    -111.11483,
                    37.980015
                ],
                [
                    -111.114296,
                    37.945602
                ],
                [
                    -111.095909,
                    37.945549
                ],
                [
                    -111.096321,
                    37.902298
                ],
                [
                    -111.080864,
                    37.902218
                ],
                [
                    -111.07946,
                    37.808247
                ],
                [
                    -111.068825,
                    37.808189
                ],
                [
                    -111.068748,
                    37.7999
                ],
                [
                    -111.059593,
                    37.799843
                ],
                [
                    -111.05957,
                    37.793663
                ],
                [
                    -111.050453,
                    37.793648
                ],
                [
                    -111.050613,
                    37.771988
                ],
                [
                    -111.041397,
                    37.771961
                ],
                [
                    -111.041382,
                    37.764816
                ],
                [
                    -111.032341,
                    37.764729
                ],
                [
                    -111.032379,
                    37.757542
                ],
                [
                    -111.023338,
                    37.757389
                ],
                [
                    -111.023232,
                    37.742836
                ],
                [
                    -111.005013,
                    37.742775
                ],
                [
                    -111.004593,
                    37.728397
                ],
                [
                    -110.986763,
                    37.728451
                ],
                [
                    -110.986511,
                    37.713779
                ],
                [
                    -110.974457,
                    37.713928
                ],
                [
                    -110.975632,
                    37.670864
                ],
                [
                    -110.937897,
                    37.670918
                ],
                [
                    -110.937836,
                    37.656368
                ],
                [
                    -110.919487,
                    37.656395
                ],
                [
                    -110.919456,
                    37.641983
                ],
                [
                    -110.910294,
                    37.641994
                ],
                [
                    -110.91021,
                    37.62669
                ],
                [
                    -110.901192,
                    37.626759
                ],
                [
                    -110.901207,
                    37.613026
                ],
                [
                    -110.892029,
                    37.612946
                ],
                [
                    -110.892052,
                    37.598614
                ],
                [
                    -110.880219,
                    37.574355
                ],
                [
                    -110.877798,
                    37.556151
                ],
                [
                    -110.872112,
                    37.538592
                ],
                [
                    -110.862343,
                    37.52363
                ],
                [
                    -110.850124,
                    37.511913
                ],
                [
                    -110.834637,
                    37.503441
                ],
                [
                    -110.816731,
                    37.484563
                ],
                [
                    -110.811874,
                    37.469603
                ],
                [
                    -110.807837,
                    37.453344
                ],
                [
                    -110.804603,
                    37.442938
                ],
                [
                    -110.805457,
                    37.427987
                ],
                [
                    -110.791617,
                    37.421462
                ],
                [
                    -110.78593,
                    37.414951
                ],
                [
                    -110.781064,
                    37.406491
                ],
                [
                    -110.784398,
                    37.380494
                ],
                [
                    -110.780376,
                    37.362933
                ],
                [
                    -110.780422,
                    37.347331
                ],
                [
                    -110.782891,
                    37.338234
                ],
                [
                    -110.796739,
                    37.335659
                ],
                [
                    -110.809751,
                    37.341531
                ],
                [
                    -110.826021,
                    37.348057
                ],
                [
                    -110.827611,
                    37.364962
                ],
                [
                    -110.835741,
                    37.371475
                ],
                [
                    -110.845499,
                    37.379939
                ],
                [
                    -110.847923,
                    37.389694
                ],
                [
                    -110.855244,
                    37.395554
                ],
                [
                    -110.86748,
                    37.387767
                ],
                [
                    -110.87806,
                    37.394929
                ],
                [
                    -110.890286,
                    37.392341
                ],
                [
                    -110.9025,
                    37.398853
                ],
                [
                    -110.910637,
                    37.40796
                ],
                [
                    -110.917148,
                    37.416416
                ],
                [
                    -110.930999,
                    37.421626
                ],
                [
                    -110.979095,
                    37.403442
                ],
                [
                    -110.979097,
                    37.396291
                ],
                [
                    -110.987246,
                    37.389791
                ],
                [
                    -110.997838,
                    37.386541
                ],
                [
                    -110.998653,
                    37.38004
                ],
                [
                    -110.993765,
                    37.375489
                ],
                [
                    -110.991322,
                    37.369638
                ],
                [
                    -110.991342,
                    37.355344
                ],
                [
                    -111.01825,
                    37.355171
                ],
                [
                    -111.072731,
                    37.35516
                ],
                [
                    -111.072639,
                    37.338367
                ],
                [
                    -111.073479,
                    37.336411
                ],
                [
                    -111.074829,
                    37.335194
                ],
                [
                    -111.072968,
                    37.334038
                ],
                [
                    -111.071838,
                    37.332588
                ],
                [
                    -111.067558,
                    37.330799
                ],
                [
                    -111.065926,
                    37.331043
                ],
                [
                    -111.06208,
                    37.330406
                ],
                [
                    -111.06073,
                    37.32946
                ],
                [
                    -111.05877,
                    37.32932
                ],
                [
                    -111.057411,
                    37.328144
                ],
                [
                    -111.05455,
                    37.327126
                ],
                [
                    -111.054588,
                    37.326199
                ],
                [
                    -111.036415,
                    37.326168
                ],
                [
                    -111.036377,
                    37.303841
                ],
                [
                    -111.030045,
                    37.305191
                ],
                [
                    -111.023399,
                    37.300869
                ],
                [
                    -111.02253,
                    37.297192
                ],
                [
                    -111.01828,
                    37.297176
                ],
                [
                    -111.018242,
                    37.282463
                ],
                [
                    -111.020721,
                    37.282444
                ],
                [
                    -111.020693,
                    37.273179
                ],
                [
                    -111.015737,
                    37.266921
                ],
                [
                    -111.000282,
                    37.260421
                ],
                [
                    -110.988895,
                    37.25977
                ],
                [
                    -110.979136,
                    37.253268
                ],
                [
                    -110.974261,
                    37.241565
                ],
                [
                    -110.982393,
                    37.238966
                ],
                [
                    -110.980769,
                    37.229864
                ],
                [
                    -110.971014,
                    37.226611
                ],
                [
                    -110.957202,
                    37.210354
                ],
                [
                    -110.95233,
                    37.201901
                ],
                [
                    -110.954775,
                    37.1902
                ],
                [
                    -110.952342,
                    37.183048
                ],
                [
                    -110.948286,
                    37.173944
                ],
                [
                    -110.952354,
                    37.163544
                ],
                [
                    -110.961286,
                    37.171999
                ],
                [
                    -110.968592,
                    37.185653
                ],
                [
                    -110.972649,
                    37.200607
                ],
                [
                    -110.980774,
                    37.20906
                ],
                [
                    -110.988089,
                    37.213612
                ],
                [
                    -110.99378,
                    37.20126
                ],
                [
                    -110.996218,
                    37.187608
                ],
                [
                    -110.995407,
                    37.172655
                ],
                [
                    -110.997032,
                    37.160303
                ],
                [
                    -110.990535,
                    37.153801
                ],
                [
                    -110.999469,
                    37.151851
                ],
                [
                    -111.008404,
                    37.155752
                ],
                [
                    -111.012463,
                    37.146
                ],
                [
                    -111.016524,
                    37.145349
                ],
                [
                    -111.02627,
                    37.148598
                ],
                [
                    -111.032764,
                    37.140145
                ],
                [
                    -111.04982,
                    37.143389
                ],
                [
                    -111.056319,
                    37.146637
                ],
                [
                    -111.057137,
                    37.155088
                ],
                [
                    -111.066882,
                    37.152483
                ],
                [
                    -111.074184,
                    37.144677
                ],
                [
                    -111.083119,
                    37.145971
                ],
                [
                    -111.094489,
                    37.146613
                ],
                [
                    -111.100993,
                    37.151158
                ],
                [
                    -111.102625,
                    37.157008
                ],
                [
                    -111.096132,
                    37.160914
                ],
                [
                    -111.089641,
                    37.16742
                ],
                [
                    -111.079901,
                    37.175229
                ],
                [
                    -111.079104,
                    37.189532
                ],
                [
                    -111.079114,
                    37.199284
                ],
                [
                    -111.083183,
                    37.204482
                ],
                [
                    -111.088056,
                    37.201228
                ],
                [
                    -111.096985,
                    37.192769
                ],
                [
                    -111.099407,
                    37.181065
                ],
                [
                    -111.111585,
                    37.173903
                ],
                [
                    -111.122146,
                    37.173892
                ],
                [
                    -111.131904,
                    37.179083
                ],
                [
                    -111.136791,
                    37.185579
                ],
                [
                    -111.137615,
                    37.192079
                ],
                [
                    -111.134374,
                    37.197284
                ],
                [
                    -111.13764,
                    37.205731
                ],
                [
                    -111.141211,
                    37.20807
                ],
                [
                    -111.237701,
                    37.20805
                ],
                [
                    -111.237686,
                    37.22258
                ],
                [
                    -111.328217,
                    37.222515
                ],
                [
                    -111.328194,
                    37.208076
                ],
                [
                    -111.400696,
                    37.208195
                ],
                [
                    -111.400604,
                    37.179249
                ],
                [
                    -111.3825,
                    37.179264
                ],
                [
                    -111.382469,
                    37.164722
                ],
                [
                    -111.364311,
                    37.164692
                ],
                [
                    -111.364319,
                    37.135666
                ],
                [
                    -111.508896,
                    37.135754
                ],
                [
                    -111.508911,
                    37.106831
                ],
                [
                    -111.544685,
                    37.106785
                ],
                [
                    -111.544647,
                    37.09211
                ],
                [
                    -111.639671,
                    37.092255
                ],
                [
                    -111.64147,
                    37.099406
                ],
                [
                    -111.656952,
                    37.106473
                ],
                [
                    -111.66269,
                    37.112942
                ],
                [
                    -111.660323,
                    37.120757
                ],
                [
                    -111.655519,
                    37.128585
                ],
                [
                    -111.662065,
                    37.134399
                ],
                [
                    -111.661315,
                    37.141555
                ],
                [
                    -111.663053,
                    37.154547
                ],
                [
                    -111.668687,
                    37.148665
                ],
                [
                    -111.67349,
                    37.140836
                ],
                [
                    -111.680827,
                    37.144045
                ],
                [
                    -111.691562,
                    37.163486
                ],
                [
                    -111.701411,
                    37.17448
                ],
                [
                    -111.706424,
                    37.189403
                ],
                [
                    -111.711422,
                    37.202375
                ],
                [
                    -111.717086,
                    37.19974
                ],
                [
                    -111.721894,
                    37.19256
                ],
                [
                    -111.729138,
                    37.185364
                ],
                [
                    -111.731506,
                    37.178199
                ],
                [
                    -111.728994,
                    37.170413
                ],
                [
                    -111.743603,
                    37.169022
                ],
                [
                    -111.751681,
                    37.16442
                ],
                [
                    -111.761396,
                    37.161108
                ],
                [
                    -111.7777,
                    37.166853
                ],
                [
                    -111.788273,
                    37.168083
                ],
                [
                    -111.803776,
                    37.17448
                ],
                [
                    -111.809455,
                    37.173791
                ],
                [
                    -111.820023,
                    37.174369
                ],
                [
                    -111.829721,
                    37.16975
                ],
                [
                    -111.832051,
                    37.159982
                ],
                [
                    -111.83032,
                    37.150243
                ],
                [
                    -111.814814,
                    37.143199
                ],
                [
                    -111.819595,
                    37.134715
                ],
                [
                    -111.820224,
                    37.117808
                ],
                [
                    -111.809602,
                    37.11138
                ],
                [
                    -111.786797,
                    37.103732
                ],
                [
                    -111.760784,
                    37.100001
                ],
                [
                    -111.729064,
                    37.093049
                ],
                [
                    -111.703835,
                    37.0854
                ],
                [
                    -111.698949,
                    37.083479
                ],
                [
                    -111.691528,
                    37.07052
                ],
                [
                    -111.681723,
                    37.062775
                ],
                [
                    -111.673525,
                    37.05307
                ],
                [
                    -111.662862,
                    37.039478
                ],
                [
                    -111.662732,
                    37.024526
                ],
                [
                    -111.656973,
                    37.014806
                ],
                [
                    -111.650597,
                    37.001411
                ],
                [
                    -111.885597,
                    37.001114
                ],
                [
                    -112.000694,
                    37.000912
                ],
                [
                    -112.0299,
                    37.001114
                ],
                [
                    -112.125694,
                    37.001213
                ],
                [
                    -112.529694,
                    37.000912
                ],
                [
                    -112.538498,
                    37.00061
                ],
                [
                    -112.5401,
                    36.999714
                ],
                [
                    -112.546494,
                    37.000813
                ],
                [
                    -112.625793,
                    37.00061
                ],
                [
                    -112.8843,
                    37.000511
                ],
                [
                    -112.9534,
                    37.000214
                ],
                [
                    -112.988396,
                    37.000214
                ],
                [
                    -113.004997,
                    37.000011
                ],
                [
                    -113.3008,
                    37.000011
                ],
                [
                    -113.292231,
                    37.010579
                ],
                [
                    -113.284364,
                    37.018531
                ],
                [
                    -113.288687,
                    37.027547
                ],
                [
                    -113.29394,
                    37.040446
                ],
                [
                    -113.297534,
                    37.052076
                ],
                [
                    -113.299586,
                    37.066336
                ],
                [
                    -113.303261,
                    37.080564
                ],
                [
                    -113.306067,
                    37.09286
                ],
                [
                    -113.303355,
                    37.110462
                ],
                [
                    -113.29983,
                    37.12808
                ],
                [
                    -113.290193,
                    37.131516
                ],
                [
                    -113.269832,
                    37.129308
                ],
                [
                    -113.25687,
                    37.130206
                ],
                [
                    -113.254629,
                    37.136748
                ],
                [
                    -113.250803,
                    37.144621
                ],
                [
                    -113.244541,
                    37.15254
                ],
                [
                    -113.232559,
                    37.159266
                ],
                [
                    -113.221138,
                    37.157531
                ],
                [
                    -113.198374,
                    37.156655
                ],
                [
                    -113.183783,
                    37.157575
                ],
                [
                    -113.169303,
                    37.162391
                ],
                [
                    -113.157146,
                    37.163263
                ],
                [
                    -113.148088,
                    37.158878
                ],
                [
                    -113.134954,
                    37.153915
                ],
                [
                    -113.123409,
                    37.147623
                ],
                [
                    -113.106222,
                    37.14273
                ],
                [
                    -113.083338,
                    37.137284
                ],
                [
                    -113.067742,
                    37.131057
                ],
                [
                    -113.052908,
                    37.122865
                ],
                [
                    -113.04229,
                    37.120448
                ],
                [
                    -113.031001,
                    37.123243
                ],
                [
                    -113.023077,
                    37.130528
                ],
                [
                    -113.029812,
                    37.139513
                ],
                [
                    -113.012941,
                    37.146301
                ],
                [
                    -112.998144,
                    37.139401
                ],
                [
                    -112.993053,
                    37.131037
                ],
                [
                    -112.988791,
                    37.123308
                ],
                [
                    -112.98083,
                    37.129292
                ],
                [
                    -112.97126,
                    37.142091
                ],
                [
                    -112.902725,
                    37.141907
                ],
                [
                    -112.90294,
                    37.151044
                ],
                [
                    -112.864537,
                    37.151423
                ],
                [
                    -112.864328,
                    37.252116
                ],
                [
                    -112.854293,
                    37.253379
                ],
                [
                    -112.845379,
                    37.256286
                ],
                [
                    -112.826635,
                    37.258408
                ],
                [
                    -112.816476,
                    37.25979
                ],
                [
                    -112.808236,
                    37.25955
                ],
                [
                    -112.80193,
                    37.263668
                ],
                [
                    -112.801594,
                    37.268792
                ],
                [
                    -112.795357,
                    37.275834
                ],
                [
                    -112.788012,
                    37.274849
                ],
                [
                    -112.781592,
                    37.274214
                ],
                [
                    -112.773894,
                    37.277621
                ],
                [
                    -112.765772,
                    37.282495
                ],
                [
                    -112.764036,
                    37.286543
                ],
                [
                    -112.75908,
                    37.289908
                ],
                [
                    -112.754624,
                    37.295093
                ],
                [
                    -112.75293,
                    37.300968
                ],
                [
                    -112.748821,
                    37.301395
                ],
                [
                    -112.746398,
                    37.29558
                ],
                [
                    -112.741281,
                    37.291999
                ],
                [
                    -112.731384,
                    37.299457
                ],
                [
                    -112.721992,
                    37.309101
                ],
                [
                    -112.715644,
                    37.311753
                ],
                [
                    -112.707349,
                    37.309313
                ],
                [
                    -112.69881,
                    37.316383
                ],
                [
                    -112.699907,
                    37.324412
                ],
                [
                    -112.697276,
                    37.329568
                ],
                [
                    -112.694162,
                    37.333635
                ],
                [
                    -112.688203,
                    37.333355
                ],
                [
                    -112.683519,
                    37.328668
                ],
                [
                    -112.678828,
                    37.323616
                ],
                [
                    -112.677775,
                    37.317415
                ],
                [
                    -112.675348,
                    37.311233
                ],
                [
                    -112.672505,
                    37.306886
                ],
                [
                    -112.667448,
                    37.30586
                ],
                [
                    -112.651078,
                    37.310843
                ],
                [
                    -112.644277,
                    37.313863
                ],
                [
                    -112.636592,
                    37.318357
                ],
                [
                    -112.629704,
                    37.317355
                ],
                [
                    -112.628244,
                    37.313353
                ],
                [
                    -112.624054,
                    37.31012
                ],
                [
                    -112.620992,
                    37.316744
                ],
                [
                    -112.618813,
                    37.321893
                ],
                [
                    -112.614935,
                    37.331675
                ],
                [
                    -112.617422,
                    37.342388
                ],
                [
                    -112.614108,
                    37.356577
                ],
                [
                    -112.604618,
                    37.366841
                ],
                [
                    -112.591512,
                    37.377075
                ],
                [
                    -112.583412,
                    37.379016
                ],
                [
                    -112.575682,
                    37.377029
                ],
                [
                    -112.588421,
                    37.357041
                ],
                [
                    -112.588738,
                    37.350089
                ],
                [
                    -112.558809,
                    37.342444
                ],
                [
                    -112.555476,
                    37.336271
                ],
                [
                    -112.543775,
                    37.329983
                ],
                [
                    -112.51855,
                    37.32176
                ],
                [
                    -112.507956,
                    37.318604
                ],
                [
                    -112.486487,
                    37.32107
                ],
                [
                    -112.470974,
                    37.323823
                ],
                [
                    -112.454192,
                    37.332075
                ],
                [
                    -112.429734,
                    37.32771
                ],
                [
                    -112.401884,
                    37.328207
                ],
                [
                    -112.378279,
                    37.334042
                ],
                [
                    -112.364092,
                    37.329507
                ],
                [
                    -112.346775,
                    37.332306
                ],
                [
                    -112.334915,
                    37.336774
                ],
                [
                    -112.323098,
                    37.34384
                ],
                [
                    -112.29045,
                    37.378345
                ],
                [
                    -112.275686,
                    37.396218
                ],
                [
                    -112.230362,
                    37.442162
                ],
                [
                    -112.230515,
                    37.451427
                ],
                [
                    -112.229042,
                    37.451401
                ],
                [
                    -112.229095,
                    37.456612
                ],
                [
                    -112.214943,
                    37.456753
                ],
                [
                    -112.215515,
                    37.493149
                ],
                [
                    -112.246964,
                    37.49284
                ],
                [
                    -112.247498,
                    37.522305
                ],
                [
                    -112.238228,
                    37.522388
                ],
                [
                    -112.238564,
                    37.543938
                ],
                [
                    -112.220123,
                    37.544121
                ],
                [
                    -112.220222,
                    37.55125
                ],
                [
                    -112.211105,
                    37.551338
                ],
                [
                    -112.211281,
                    37.565765
                ],
                [
                    -112.168343,
                    37.566055
                ],
                [
                    -112.168358,
                    37.564392
                ],
                [
                    -112.129326,
                    37.56477
                ],
                [
                    -112.129784,
                    37.59713
                ],
                [
                    -112.134193,
                    37.597172
                ],
                [
                    -112.1343,
                    37.60429
                ],
                [
                    -112.129684,
                    37.60434
                ],
                [
                    -112.129707,
                    37.60804
                ],
                [
                    -112.134018,
                    37.607998
                ],
                [
                    -112.134117,
                    37.615208
                ],
                [
                    -112.120338,
                    37.615417
                ],
                [
                    -112.120476,
                    37.623703
                ],
                [
                    -112.111153,
                    37.623672
                ],
                [
                    -112.111305,
                    37.633366
                ],
                [
                    -112.102219,
                    37.633533
                ],
                [
                    -112.102257,
                    37.651646
                ],
                [
                    -112.097488,
                    37.651691
                ],
                [
                    -112.097664,
                    37.662506
                ],
                [
                    -112.083961,
                    37.662712
                ],
                [
                    -112.0864,
                    37.706811
                ],
                [
                    -112.036671,
                    37.671549
                ],
                [
                    -112.028459,
                    37.669021
                ],
                [
                    -112.019278,
                    37.65545
                ],
                [
                    -112.012579,
                    37.643807
                ],
                [
                    -112.001083,
                    37.640005
                ],
                [
                    -112.007508,
                    37.631499
                ],
                [
                    -112.016391,
                    37.623623
                ],
                [
                    -112.029367,
                    37.61636
                ],
                [
                    -112.029996,
                    37.602703
                ],
                [
                    -112.031495,
                    37.592939
                ],
                [
                    -112.026496,
                    37.585832
                ],
                [
                    -112.015914,
                    37.588524
                ],
                [
                    -112.006121,
                    37.589258
                ],
                [
                    -111.996293,
                    37.587391
                ],
                [
                    -111.986604,
                    37.595923
                ],
                [
                    -111.990009,
                    37.606296
                ],
                [
                    -111.987713,
                    37.618016
                ],
                [
                    -111.980452,
                    37.625227
                ],
                [
                    -111.968178,
                    37.624028
                ],
                [
                    -111.95587,
                    37.620228
                ],
                [
                    -111.944364,
                    37.61512
                ],
                [
                    -111.937746,
                    37.608673
                ],
                [
                    -111.927861,
                    37.60225
                ],
                [
                    -111.931759,
                    37.587268
                ],
                [
                    -111.926745,
                    37.578207
                ],
                [
                    -111.915224,
                    37.571146
                ],
                [
                    -111.906147,
                    37.563416
                ],
                [
                    -111.899474,
                    37.551766
                ],
                [
                    -111.892795,
                    37.539465
                ],
                [
                    -111.886966,
                    37.529758
                ],
                [
                    -111.873801,
                    37.520756
                ],
                [
                    -111.863903,
                    37.511728
                ],
                [
                    -111.846701,
                    37.506002
                ],
                [
                    -111.840079,
                    37.497598
                ],
                [
                    -111.834282,
                    37.489838
                ],
                [
                    -111.826131,
                    37.490546
                ],
                [
                    -111.817214,
                    37.495808
                ],
                [
                    -111.809956,
                    37.503659
                ],
                [
                    -111.802738,
                    37.515409
                ],
                [
                    -111.799592,
                    37.526482
                ],
                [
                    -111.790433,
                    37.536082
                ],
                [
                    -111.780147,
                    37.540263
                ],
                [
                    -111.774506,
                    37.547451
                ],
                [
                    -111.765513,
                    37.54621
                ],
                [
                    -111.756533,
                    37.546268
                ],
                [
                    -111.749114,
                    37.539164
                ],
                [
                    -111.754782,
                    37.534578
                ],
                [
                    -111.753077,
                    37.527438
                ],
                [
                    -111.745693,
                    37.523584
                ],
                [
                    -111.737538,
                    37.524286
                ],
                [
                    -111.735823,
                    37.515845
                ],
                [
                    -111.73085,
                    37.508075
                ],
                [
                    -111.7218,
                    37.50033
                ],
                [
                    -111.707862,
                    37.493264
                ],
                [
                    -111.695546,
                    37.484886
                ],
                [
                    -111.68165,
                    37.481717
                ],
                [
                    -111.667731,
                    37.475945
                ],
                [
                    -111.657167,
                    37.480555
                ],
                [
                    -111.647452,
                    37.48906
                ],
                [
                    -111.637724,
                    37.496263
                ],
                [
                    -111.627172,
                    37.502821
                ],
                [
                    -111.619877,
                    37.50871
                ],
                [
                    -111.619952,
                    37.51781
                ],
                [
                    -111.626535,
                    37.524276
                ],
                [
                    -111.633925,
                    37.529438
                ],
                [
                    -111.641321,
                    37.535248
                ],
                [
                    -111.656031,
                    37.537118
                ],
                [
                    -111.664217,
                    37.539672
                ],
                [
                    -111.661032,
                    37.548791
                ],
                [
                    -111.659485,
                    37.558551
                ],
                [
                    -111.655465,
                    37.565724
                ],
                [
                    -111.648172,
                    37.572265
                ],
                [
                    -111.640049,
                    37.57751
                ],
                [
                    -111.629432,
                    37.577567
                ],
                [
                    -111.617944,
                    37.571127
                ],
                [
                    -111.60162,
                    37.572511
                ],
                [
                    -111.588594,
                    37.577777
                ],
                [
                    -111.57967,
                    37.585622
                ],
                [
                    -111.56664,
                    37.590886
                ],
                [
                    -111.550293,
                    37.589663
                ],
                [
                    -111.53635,
                    37.581927
                ],
                [
                    -111.524048,
                    37.574831
                ],
                [
                    -111.510119,
                    37.568392
                ],
                [
                    -111.49948,
                    37.565187
                ],
                [
                    -111.491336,
                    37.568471
                ],
                [
                    -111.494667,
                    37.578208
                ],
                [
                    -111.497968,
                    37.583395
                ],
                [
                    -111.488992,
                    37.584733
                ],
                [
                    -111.483303,
                    37.589307
                ],
                [
                    -111.491532,
                    37.598374
                ],
                [
                    -111.501393,
                    37.606783
                ],
                [
                    -111.515314,
                    37.611273
                ],
                [
                    -111.533352,
                    37.619644
                ],
                [
                    -111.549749,
                    37.62672
                ],
                [
                    -111.562042,
                    37.631212
                ],
                [
                    -111.575992,
                    37.638295
                ],
                [
                    -111.586716,
                    37.650594
                ],
                [
                    -111.594208,
                    37.667458
                ],
                [
                    -111.599188,
                    37.676533
                ],
                [
                    -111.601054,
                    37.705126
                ],
                [
                    -111.608524,
                    37.718089
                ],
                [
                    -111.615162,
                    37.729105
                ],
                [
                    -111.626669,
                    37.734895
                ],
                [
                    -111.657153,
                    37.757481
                ],
                [
                    -111.674387,
                    37.761934
                ],
                [
                    -111.69166,
                    37.770284
                ],
                [
                    -111.696671,
                    37.780655
                ],
                [
                    -111.677929,
                    37.791165
                ],
                [
                    -111.676392,
                    37.802225
                ],
                [
                    -111.677294,
                    37.81132
                ],
                [
                    -111.666392,
                    37.840942
                ],
                [
                    -111.650531,
                    37.854309
                ],
                [
                    -111.6118,
                    37.862386
                ],
                [
                    -111.589327,
                    37.873232
                ],
                [
                    -111.566841,
                    37.883358
                ],
                [
                    -111.547929,
                    37.889171
                ],
                [
                    -111.52904,
                    37.898558
                ],
                [
                    -111.48762,
                    37.915191
                ],
                [
                    -111.465121,
                    37.927444
                ],
                [
                    -111.445295,
                    37.934674
                ],
                [
                    -111.432677,
                    37.944513
                ],
                [
                    -111.380405,
                    37.962803
                ],
                [
                    -111.354228,
                    37.968608
                ],
                [
                    -111.333459,
                    37.972245
                ],
                [
                    -111.309999,
                    37.980894
                ],
                [
                    -111.292728,
                    37.993148
                ],
                [
                    -111.270923,
                    38.004527
                ],
                [
                    -111.2425,
                    38.015495
                ],
                [
                    -111.188548,
                    38.015143
                ],
                [
                    -111.188622,
                    38.009041
                ],
                [
                    -111.169647,
                    38.008919
                ],
                [
                    -111.169571,
                    38.001816
                ],
                [
                    -111.14212,
                    38.001789
                ]
            ]
        ]
    },
    "properties": {
        "@id": "https://api.weather.gov/zones/forecast/UTZ128",
        "@type": "wx:Zone",
        "id": "UTZ128",
        "type": "public",
        "name": "South Central Utah",
        "effectiveDate": "2026-04-16T18:00:00+00:00",
        "expirationDate": "2200-01-01T00:00:00+00:00",
        "state": "UT",
        "forecastOffice": "https://api.weather.gov/offices/SLC",
        "gridIdentifier": "SLC",
        "awipsLocationIdentifier": "SLC",
        "cwa": [
            "SLC"
        ],
        "forecastOffices": [
            "https://api.weather.gov/offices/SLC"
        ],
        "timeZone": [
            "America/Denver"
        ],
        "observationStations": [
            "https://api.weather.gov/stations/KKNB",
            "https://api.weather.gov/stations/TFRU1",
            "https://api.weather.gov/stations/TT441"
        ],
        "radarStation": null
    }
}