{
    "@context": {
        "@version": "1.1"
    },
    "id": "https://api.weather.gov/zones/forecast/CAZ524",
    "type": "Feature",
    "geometry": {
        "type": "Polygon",
        "coordinates": [
            [
                [
                    -115.648193,
                    35.809513
                ],
                [
                    -115.637497,
                    35.801712
                ],
                [
                    -115.627396,
                    35.793812
                ],
                [
                    -115.6259,
                    35.792213
                ],
                [
                    -115.620895,
                    35.788212
                ],
                [
                    -115.598099,
                    35.770214
                ],
                [
                    -115.584,
                    35.759312
                ],
                [
                    -115.549896,
                    35.732014
                ],
                [
                    -115.512596,
                    35.702713
                ],
                [
                    -115.464897,
                    35.665512
                ],
                [
                    -115.412895,
                    35.625011
                ],
                [
                    -115.405396,
                    35.618214
                ],
                [
                    -115.269196,
                    35.511013
                ],
                [
                    -115.225395,
                    35.476013
                ],
                [
                    -115.219597,
                    35.471111
                ],
                [
                    -115.159996,
                    35.424011
                ],
                [
                    -115.146194,
                    35.413414
                ],
                [
                    -115.125793,
                    35.396912
                ],
                [
                    -115.102898,
                    35.379414
                ],
                [
                    -115.097198,
                    35.374413
                ],
                [
                    -115.085396,
                    35.364914
                ],
                [
                    -115.043793,
                    35.332012
                ],
                [
                    -114.9422,
                    35.250011
                ],
                [
                    -114.922997,
                    35.235111
                ],
                [
                    -114.820999,
                    35.153011
                ],
                [
                    -114.773193,
                    35.11491
                ],
                [
                    -114.750793,
                    35.096912
                ],
                [
                    -114.744995,
                    35.09201
                ],
                [
                    -114.732697,
                    35.082211
                ],
                [
                    -114.755798,
                    34.953712
                ],
                [
                    -114.755798,
                    34.856213
                ],
                [
                    -115.093094,
                    34.781811
                ],
                [
                    -115.462997,
                    34.547012
                ],
                [
                    -115.677696,
                    34.54631
                ],
                [
                    -115.806396,
                    34.547012
                ],
                [
                    -115.827095,
                    34.548313
                ],
                [
                    -115.862793,
                    34.548512
                ],
                [
                    -115.863197,
                    34.562611
                ],
                [
                    -115.901794,
                    34.562912
                ],
                [
                    -115.937492,
                    34.562611
                ],
                [
                    -115.988899,
                    34.562813
                ],
                [
                    -115.989098,
                    34.60651
                ],
                [
                    -116.004799,
                    34.606911
                ],
                [
                    -116.060699,
                    34.606312
                ],
                [
                    -116.078499,
                    34.606812
                ],
                [
                    -116.093094,
                    34.606411
                ],
                [
                    -116.145599,
                    34.606113
                ],
                [
                    -116.1819,
                    34.606613
                ],
                [
                    -116.189697,
                    34.606911
                ],
                [
                    -116.207001,
                    34.606911
                ],
                [
                    -116.207001,
                    34.62141
                ],
                [
                    -116.207497,
                    34.635513
                ],
                [
                    -116.207298,
                    34.678711
                ],
                [
                    -116.207794,
                    34.693314
                ],
                [
                    -116.243095,
                    34.692913
                ],
                [
                    -116.295097,
                    34.693012
                ],
                [
                    -116.331398,
                    34.694012
                ],
                [
                    -116.331894,
                    34.722214
                ],
                [
                    -116.3498,
                    34.722214
                ],
                [
                    -116.3498,
                    34.736713
                ],
                [
                    -116.385094,
                    34.736313
                ],
                [
                    -116.417553,
                    34.73627
                ],
                [
                    -116.484398,
                    34.741104
                ],
                [
                    -116.483299,
                    35.124912
                ],
                [
                    -116.482895,
                    35.139214
                ],
                [
                    -116.4655,
                    35.139111
                ],
                [
                    -116.4655,
                    35.16851
                ],
                [
                    -116.452995,
                    35.168911
                ],
                [
                    -116.448296,
                    35.171211
                ],
                [
                    -116.447594,
                    35.183014
                ],
                [
                    -116.430595,
                    35.183212
                ],
                [
                    -116.430496,
                    35.197113
                ],
                [
                    -116.4133,
                    35.197311
                ],
                [
                    -116.412598,
                    35.226212
                ],
                [
                    -116.394394,
                    35.226013
                ],
                [
                    -116.394196,
                    35.240612
                ],
                [
                    -116.3825,
                    35.240211
                ],
                [
                    -116.377296,
                    35.240414
                ],
                [
                    -116.3769,
                    35.250011
                ],
                [
                    -116.376396,
                    35.255512
                ],
                [
                    -116.361397,
                    35.255211
                ],
                [
                    -116.358597,
                    35.256111
                ],
                [
                    -116.358498,
                    35.27021
                ],
                [
                    -116.322395,
                    35.270214
                ],
                [
                    -116.321693,
                    35.364113
                ],
                [
                    -116.321693,
                    35.43111
                ],
                [
                    -116.318596,
                    35.430912
                ],
                [
                    -116.318893,
                    35.500011
                ],
                [
                    -116.318398,
                    35.512211
                ],
                [
                    -116.290497,
                    35.634811
                ],
                [
                    -116.292694,
                    35.644012
                ],
                [
                    -116.294998,
                    35.656612
                ],
                [
                    -116.300598,
                    35.683014
                ],
                [
                    -116.301994,
                    35.688614
                ],
                [
                    -116.313599,
                    35.74501
                ],
                [
                    -116.3144,
                    35.747513
                ],
                [
                    -116.3162,
                    35.750412
                ],
                [
                    -116.321495,
                    35.756714
                ],
                [
                    -116.324394,
                    35.758911
                ],
                [
                    -116.327293,
                    35.759113
                ],
                [
                    -116.330299,
                    35.760311
                ],
                [
                    -116.334496,
                    35.761211
                ],
                [
                    -116.346893,
                    35.764912
                ],
                [
                    -116.350296,
                    35.764912
                ],
                [
                    -116.352997,
                    35.764713
                ],
                [
                    -116.351097,
                    35.772713
                ],
                [
                    -116.348099,
                    35.781113
                ],
                [
                    -116.347298,
                    35.784313
                ],
                [
                    -116.355698,
                    35.791412
                ],
                [
                    -116.355293,
                    35.794014
                ],
                [
                    -116.340599,
                    35.794014
                ],
                [
                    -116.281998,
                    35.793411
                ],
                [
                    -116.2509,
                    35.79351
                ],
                [
                    -116.211197,
                    35.793312
                ],
                [
                    -116.199997,
                    35.79351
                ],
                [
                    -116.156593,
                    35.793613
                ],
                [
                    -116.069695,
                    35.79351
                ],
                [
                    -116.067101,
                    35.793713
                ],
                [
                    -116.058395,
                    35.793911
                ],
                [
                    -116.042694,
                    35.793812
                ],
                [
                    -116.036499,
                    35.79351
                ],
                [
                    -115.895195,
                    35.793812
                ],
                [
                    -115.863197,
                    35.79351
                ],
                [
                    -115.850899,
                    35.793812
                ],
                [
                    -115.842896,
                    35.793613
                ],
                [
                    -115.735901,
                    35.793613
                ],
                [
                    -115.735794,
                    35.799412
                ],
                [
                    -115.7351,
                    35.809013
                ],
                [
                    -115.663795,
                    35.808811
                ],
                [
                    -115.653893,
                    35.808914
                ],
                [
                    -115.648193,
                    35.809513
                ]
            ]
        ]
    },
    "properties": {
        "@id": "https://api.weather.gov/zones/forecast/CAZ524",
        "@type": "wx:Zone",
        "id": "CAZ524",
        "type": "public",
        "name": "Eastern Mojave Desert, Including the Mojave National Preserve",
        "effectiveDate": "2026-04-16T18:00:00+00:00",
        "expirationDate": "2200-01-01T00:00:00+00:00",
        "state": "CA",
        "forecastOffice": "https://api.weather.gov/offices/VEF",
        "gridIdentifier": "VEF",
        "awipsLocationIdentifier": "VEF",
        "cwa": [
            "VEF"
        ],
        "forecastOffices": [
            "https://api.weather.gov/offices/VEF"
        ],
        "timeZone": [
            "America/Los_Angeles"
        ],
        "observationStations": [
            "https://api.weather.gov/stations/BKRCA",
            "https://api.weather.gov/stations/CMP28",
            "https://api.weather.gov/stations/DWMC1",
            "https://api.weather.gov/stations/EXCC1",
            "https://api.weather.gov/stations/GDSN2",
            "https://api.weather.gov/stations/KDAG",
            "https://api.weather.gov/stations/KEED",
            "https://api.weather.gov/stations/OXRC1"
        ],
        "radarStation": null
    }
}