{
    "@context": {
        "@version": "1.1"
    },
    "id": "https://api.weather.gov/zones/forecast/MSZ087",
    "type": "Feature",
    "geometry": {
        "type": "MultiPolygon",
        "coordinates": [
            [
                [
                    [
                        -88.901123,
                        30.422729
                    ],
                    [
                        -88.903503,
                        30.420105
                    ],
                    [
                        -88.907227,
                        30.422485
                    ],
                    [
                        -88.901123,
                        30.422729
                    ]
                ]
            ],
            [
                [
                    [
                        -88.88205,
                        30.425297
                    ],
                    [
                        -88.888489,
                        30.423279
                    ],
                    [
                        -88.891724,
                        30.423706
                    ],
                    [
                        -88.894287,
                        30.424683
                    ],
                    [
                        -88.900879,
                        30.426697
                    ],
                    [
                        -88.905212,
                        30.429504
                    ],
                    [
                        -88.908875,
                        30.429504
                    ],
                    [
                        -88.912292,
                        30.429077
                    ],
                    [
                        -88.919312,
                        30.428894
                    ],
                    [
                        -88.921387,
                        30.425903
                    ],
                    [
                        -88.924927,
                        30.428284
                    ],
                    [
                        -88.924805,
                        30.431702
                    ],
                    [
                        -88.928223,
                        30.432922
                    ],
                    [
                        -88.932312,
                        30.430725
                    ],
                    [
                        -88.936096,
                        30.4245
                    ],
                    [
                        -88.945679,
                        30.423523
                    ],
                    [
                        -88.950195,
                        30.421326
                    ],
                    [
                        -88.954712,
                        30.422302
                    ],
                    [
                        -88.960388,
                        30.424927
                    ],
                    [
                        -88.963379,
                        30.424927
                    ],
                    [
                        -88.966675,
                        30.424072
                    ],
                    [
                        -88.970825,
                        30.424316
                    ],
                    [
                        -88.974121,
                        30.423523
                    ],
                    [
                        -88.97699,
                        30.423889
                    ],
                    [
                        -88.97998,
                        30.425293
                    ],
                    [
                        -88.983521,
                        30.428528
                    ],
                    [
                        -88.988403,
                        30.430115
                    ],
                    [
                        -88.991821,
                        30.429504
                    ],
                    [
                        -88.991821,
                        30.4245
                    ],
                    [
                        -88.99292,
                        30.421692
                    ],
                    [
                        -88.996094,
                        30.424072
                    ],
                    [
                        -89.000488,
                        30.423889
                    ],
                    [
                        -89.00769,
                        30.4245
                    ],
                    [
                        -89.006592,
                        30.421326
                    ],
                    [
                        -89.006226,
                        30.418274
                    ],
                    [
                        -89.001709,
                        30.41571
                    ],
                    [
                        -88.996521,
                        30.413696
                    ],
                    [
                        -88.992187,
                        30.410706
                    ],
                    [
                        -88.988525,
                        30.409912
                    ],
                    [
                        -88.986511,
                        30.412903
                    ],
                    [
                        -88.980713,
                        30.414917
                    ],
                    [
                        -88.974426,
                        30.416077
                    ],
                    [
                        -88.963013,
                        30.416504
                    ],
                    [
                        -88.959282,
                        30.416864
                    ],
                    [
                        -88.955383,
                        30.414673
                    ],
                    [
                        -88.950195,
                        30.416077
                    ],
                    [
                        -88.947083,
                        30.419495
                    ],
                    [
                        -88.943787,
                        30.420105
                    ],
                    [
                        -88.940308,
                        30.417297
                    ],
                    [
                        -88.933289,
                        30.4151
                    ],
                    [
                        -88.92981,
                        30.41333
                    ],
                    [
                        -88.926575,
                        30.414917
                    ],
                    [
                        -88.923401,
                        30.415894
                    ],
                    [
                        -88.919983,
                        30.418091
                    ],
                    [
                        -88.916077,
                        30.420105
                    ],
                    [
                        -88.912109,
                        30.421082
                    ],
                    [
                        -88.909607,
                        30.418274
                    ],
                    [
                        -88.908508,
                        30.414307
                    ],
                    [
                        -88.905823,
                        30.412109
                    ],
                    [
                        -88.902405,
                        30.411682
                    ],
                    [
                        -88.899376,
                        30.412691
                    ],
                    [
                        -88.896729,
                        30.411926
                    ],
                    [
                        -88.893921,
                        30.413696
                    ],
                    [
                        -88.890808,
                        30.413086
                    ],
                    [
                        -88.886108,
                        30.411682
                    ],
                    [
                        -88.882629,
                        30.41272
                    ],
                    [
                        -88.877502,
                        30.410889
                    ],
                    [
                        -88.873901,
                        30.408081
                    ],
                    [
                        -88.868362,
                        30.409468
                    ],
                    [
                        -88.860779,
                        30.406677
                    ],
                    [
                        -88.858719,
                        30.403524
                    ],
                    [
                        -88.859314,
                        30.397888
                    ],
                    [
                        -88.857547,
                        30.393647
                    ],
                    [
                        -88.863098,
                        30.391113
                    ],
                    [
                        -88.86731,
                        30.391296
                    ],
                    [
                        -88.878723,
                        30.392883
                    ],
                    [
                        -88.884651,
                        30.392279
                    ],
                    [
                        -88.889709,
                        30.3927
                    ],
                    [
                        -88.892822,
                        30.393311
                    ],
                    [
                        -88.906799,
                        30.393921
                    ],
                    [
                        -88.912903,
                        30.393921
                    ],
                    [
                        -88.916687,
                        30.394104
                    ],
                    [
                        -88.934021,
                        30.392517
                    ],
                    [
                        -88.938293,
                        30.3927
                    ],
                    [
                        -88.946411,
                        30.391907
                    ],
                    [
                        -88.955078,
                        30.391724
                    ],
                    [
                        -88.967407,
                        30.39093
                    ],
                    [
                        -88.971191,
                        30.39093
                    ],
                    [
                        -88.980225,
                        30.389282
                    ],
                    [
                        -88.991821,
                        30.388123
                    ],
                    [
                        -89.000793,
                        30.386902
                    ],
                    [
                        -89.014893,
                        30.384277
                    ],
                    [
                        -89.033813,
                        30.3797
                    ],
                    [
                        -89.03772,
                        30.379272
                    ],
                    [
                        -89.043396,
                        30.377686
                    ],
                    [
                        -89.047424,
                        30.377075
                    ],
                    [
                        -89.054626,
                        30.374695
                    ],
                    [
                        -89.063477,
                        30.373718
                    ],
                    [
                        -89.082886,
                        30.368286
                    ],
                    [
                        -89.085999,
                        30.366089
                    ],
                    [
                        -89.089783,
                        30.364929
                    ],
                    [
                        -89.091187,
                        30.361084
                    ],
                    [
                        -89.094727,
                        30.360291
                    ],
                    [
                        -89.093849,
                        30.355312
                    ],
                    [
                        -89.09729,
                        30.357727
                    ],
                    [
                        -89.098511,
                        30.362915
                    ],
                    [
                        -89.108887,
                        30.358887
                    ],
                    [
                        -89.11499,
                        30.356079
                    ],
                    [
                        -89.124512,
                        30.353882
                    ],
                    [
                        -89.142212,
                        30.34552
                    ],
                    [
                        -89.147827,
                        30.344299
                    ],
                    [
                        -89.15448,
                        30.342529
                    ],
                    [
                        -89.160889,
                        30.340088
                    ],
                    [
                        -89.16748,
                        30.337891
                    ],
                    [
                        -89.170715,
                        30.336487
                    ],
                    [
                        -89.183105,
                        30.331909
                    ],
                    [
                        -89.186829,
                        30.331299
                    ],
                    [
                        -89.193726,
                        30.329712
                    ],
                    [
                        -89.220398,
                        30.32251
                    ],
                    [
                        -89.236023,
                        30.316528
                    ],
                    [
                        -89.239807,
                        30.315674
                    ],
                    [
                        -89.245178,
                        30.31311
                    ],
                    [
                        -89.249817,
                        30.311523
                    ],
                    [
                        -89.253479,
                        30.311279
                    ],
                    [
                        -89.258911,
                        30.309875
                    ],
                    [
                        -89.27179,
                        30.305481
                    ],
                    [
                        -89.274719,
                        30.305115
                    ],
                    [
                        -89.27948,
                        30.303894
                    ],
                    [
                        -89.285889,
                        30.303284
                    ],
                    [
                        -89.291626,
                        30.304321
                    ],
                    [
                        -89.293518,
                        30.308289
                    ],
                    [
                        -89.290894,
                        30.312683
                    ],
                    [
                        -89.290283,
                        30.316528
                    ],
                    [
                        -89.292114,
                        30.32489
                    ],
                    [
                        -89.291382,
                        30.329102
                    ],
                    [
                        -89.287903,
                        30.332886
                    ],
                    [
                        -89.27417,
                        30.34552
                    ],
                    [
                        -89.277771,
                        30.348877
                    ],
                    [
                        -89.284485,
                        30.352722
                    ],
                    [
                        -89.286308,
                        30.355274
                    ],
                    [
                        -89.285065,
                        30.358297
                    ],
                    [
                        -89.280823,
                        30.361328
                    ],
                    [
                        -89.284607,
                        30.363098
                    ],
                    [
                        -89.287292,
                        30.362122
                    ],
                    [
                        -89.290123,
                        30.360766
                    ],
                    [
                        -89.291687,
                        30.364075
                    ],
                    [
                        -89.294312,
                        30.366272
                    ],
                    [
                        -89.297974,
                        30.366882
                    ],
                    [
                        -89.302429,
                        30.366516
                    ],
                    [
                        -89.305481,
                        30.365906
                    ],
                    [
                        -89.307678,
                        30.363098
                    ],
                    [
                        -89.311523,
                        30.361877
                    ],
                    [
                        -89.310913,
                        30.367126
                    ],
                    [
                        -89.3078,
                        30.370728
                    ],
                    [
                        -89.308899,
                        30.373291
                    ],
                    [
                        -89.3125,
                        30.374878
                    ],
                    [
                        -89.316284,
                        30.375488
                    ],
                    [
                        -89.319702,
                        30.375122
                    ],
                    [
                        -89.323608,
                        30.375122
                    ],
                    [
                        -89.330994,
                        30.374084
                    ],
                    [
                        -89.336304,
                        30.373901
                    ],
                    [
                        -89.339478,
                        30.373108
                    ],
                    [
                        -89.340881,
                        30.383911
                    ],
                    [
                        -89.341309,
                        30.407288
                    ],
                    [
                        -89.341309,
                        30.418863
                    ],
                    [
                        -88.883423,
                        30.493896
                    ],
                    [
                        -88.883423,
                        30.464905
                    ],
                    [
                        -88.883301,
                        30.460876
                    ],
                    [
                        -88.883423,
                        30.443726
                    ],
                    [
                        -88.883179,
                        30.431885
                    ],
                    [
                        -88.88205,
                        30.425297
                    ]
                ]
            ]
        ]
    },
    "properties": {
        "@id": "https://api.weather.gov/zones/forecast/MSZ087",
        "@type": "wx:Zone",
        "id": "MSZ087",
        "type": "public",
        "name": "Southern Harrison",
        "effectiveDate": "2026-04-16T18:00:00+00:00",
        "expirationDate": "2200-01-01T00:00:00+00:00",
        "state": "MS",
        "forecastOffice": "https://api.weather.gov/offices/LIX",
        "gridIdentifier": "LIX",
        "awipsLocationIdentifier": "LIX",
        "cwa": [
            "LIX"
        ],
        "forecastOffices": [
            "https://api.weather.gov/offices/LIX"
        ],
        "timeZone": [
            "America/Chicago"
        ],
        "observationStations": [
            "https://api.weather.gov/stations/KGPT",
            "https://api.weather.gov/stations/KBIX"
        ],
        "radarStation": "HDC"
    }
}