{
    "@context": {
        "@version": "1.1"
    },
    "id": "https://api.weather.gov/zones/forecast/ILZ005",
    "type": "Feature",
    "geometry": {
        "type": "Polygon",
        "coordinates": [
            [
                [
                    -88.200096,
                    42.496014
                ],
                [
                    -88.199196,
                    42.48101
                ],
                [
                    -88.199097,
                    42.462612
                ],
                [
                    -88.198898,
                    42.455311
                ],
                [
                    -88.199097,
                    42.435413
                ],
                [
                    -88.199394,
                    42.42971
                ],
                [
                    -88.199196,
                    42.415813
                ],
                [
                    -88.199699,
                    42.401112
                ],
                [
                    -88.199394,
                    42.366314
                ],
                [
                    -88.198494,
                    42.350613
                ],
                [
                    -88.198494,
                    42.333813
                ],
                [
                    -88.198898,
                    42.325611
                ],
                [
                    -88.198799,
                    42.297913
                ],
                [
                    -88.198097,
                    42.291611
                ],
                [
                    -88.1978,
                    42.286613
                ],
                [
                    -88.197594,
                    42.266911
                ],
                [
                    -88.1978,
                    42.252911
                ],
                [
                    -88.198395,
                    42.245613
                ],
                [
                    -88.1987,
                    42.236713
                ],
                [
                    -88.198593,
                    42.223713
                ],
                [
                    -88.1987,
                    42.219414
                ],
                [
                    -88.198997,
                    42.216614
                ],
                [
                    -88.198898,
                    42.21191
                ],
                [
                    -88.199196,
                    42.195011
                ],
                [
                    -88.199295,
                    42.176113
                ],
                [
                    -88.1996,
                    42.168812
                ],
                [
                    -88.199295,
                    42.161312
                ],
                [
                    -88.199493,
                    42.154213
                ],
                [
                    -88.223793,
                    42.154114
                ],
                [
                    -88.232201,
                    42.154312
                ],
                [
                    -88.2379,
                    42.154011
                ],
                [
                    -88.248093,
                    42.154312
                ],
                [
                    -88.251198,
                    42.153912
                ],
                [
                    -88.261696,
                    42.153912
                ],
                [
                    -88.268196,
                    42.153713
                ],
                [
                    -88.303596,
                    42.153713
                ],
                [
                    -88.316795,
                    42.153812
                ],
                [
                    -88.326797,
                    42.154114
                ],
                [
                    -88.359993,
                    42.154213
                ],
                [
                    -88.368599,
                    42.154011
                ],
                [
                    -88.3992,
                    42.153812
                ],
                [
                    -88.402298,
                    42.154114
                ],
                [
                    -88.408295,
                    42.154312
                ],
                [
                    -88.432899,
                    42.154312
                ],
                [
                    -88.472397,
                    42.154114
                ],
                [
                    -88.481995,
                    42.154213
                ],
                [
                    -88.511795,
                    42.153812
                ],
                [
                    -88.544693,
                    42.15361
                ],
                [
                    -88.550697,
                    42.153713
                ],
                [
                    -88.588493,
                    42.153614
                ],
                [
                    -88.705597,
                    42.153511
                ],
                [
                    -88.705696,
                    42.186611
                ],
                [
                    -88.705498,
                    42.216911
                ],
                [
                    -88.705498,
                    42.256413
                ],
                [
                    -88.705795,
                    42.294514
                ],
                [
                    -88.705696,
                    42.342312
                ],
                [
                    -88.705894,
                    42.349712
                ],
                [
                    -88.705894,
                    42.406612
                ],
                [
                    -88.7062,
                    42.429512
                ],
                [
                    -88.706596,
                    42.444111
                ],
                [
                    -88.706398,
                    42.456711
                ],
                [
                    -88.707397,
                    42.49361
                ],
                [
                    -88.659698,
                    42.494812
                ],
                [
                    -88.625099,
                    42.495113
                ],
                [
                    -88.583397,
                    42.495213
                ],
                [
                    -88.569695,
                    42.49501
                ],
                [
                    -88.559494,
                    42.495113
                ],
                [
                    -88.507195,
                    42.494911
                ],
                [
                    -88.500099,
                    42.494812
                ],
                [
                    -88.496895,
                    42.494614
                ],
                [
                    -88.389999,
                    42.494511
                ],
                [
                    -88.311096,
                    42.494614
                ],
                [
                    -88.304298,
                    42.49501
                ],
                [
                    -88.299294,
                    42.494614
                ],
                [
                    -88.285095,
                    42.494812
                ],
                [
                    -88.268394,
                    42.494812
                ],
                [
                    -88.250099,
                    42.495811
                ],
                [
                    -88.200096,
                    42.496014
                ]
            ]
        ]
    },
    "properties": {
        "@id": "https://api.weather.gov/zones/forecast/ILZ005",
        "@type": "wx:Zone",
        "id": "ILZ005",
        "type": "public",
        "name": "McHenry",
        "effectiveDate": "2026-04-16T18:00:00+00:00",
        "expirationDate": "2200-01-01T00:00:00+00:00",
        "state": "IL",
        "forecastOffice": "https://api.weather.gov/offices/LOT",
        "gridIdentifier": "LOT",
        "awipsLocationIdentifier": "LOT",
        "cwa": [
            "LOT"
        ],
        "forecastOffices": [
            "https://api.weather.gov/offices/LOT"
        ],
        "timeZone": [
            "America/Chicago"
        ],
        "observationStations": [
            "https://api.weather.gov/stations/KORD",
            "https://api.weather.gov/stations/KPWK",
            "https://api.weather.gov/stations/KUGN"
        ],
        "radarStation": "LOT"
    }
}