{
    "@context": {
        "@version": "1.1"
    },
    "id": "https://api.weather.gov/zones/forecast/KYZ120",
    "type": "Feature",
    "geometry": {
        "type": "Polygon",
        "coordinates": [
            [
                [
                    -82.334,
                    37.742012
                ],
                [
                    -82.329697,
                    37.738312
                ],
                [
                    -82.326195,
                    37.736012
                ],
                [
                    -82.319695,
                    37.734413
                ],
                [
                    -82.318398,
                    37.732914
                ],
                [
                    -82.317696,
                    37.727612
                ],
                [
                    -82.316597,
                    37.725311
                ],
                [
                    -82.316299,
                    37.722214
                ],
                [
                    -82.314499,
                    37.720211
                ],
                [
                    -82.311897,
                    37.718613
                ],
                [
                    -82.309799,
                    37.712513
                ],
                [
                    -82.307198,
                    37.708313
                ],
                [
                    -82.302299,
                    37.70631
                ],
                [
                    -82.297096,
                    37.702911
                ],
                [
                    -82.297394,
                    37.699913
                ],
                [
                    -82.300194,
                    37.69791
                ],
                [
                    -82.302094,
                    37.696011
                ],
                [
                    -82.302696,
                    37.693111
                ],
                [
                    -82.300697,
                    37.690311
                ],
                [
                    -82.297096,
                    37.687412
                ],
                [
                    -82.296799,
                    37.684811
                ],
                [
                    -82.3032,
                    37.679111
                ],
                [
                    -82.304298,
                    37.676613
                ],
                [
                    -82.301994,
                    37.675713
                ],
                [
                    -82.297096,
                    37.677811
                ],
                [
                    -82.294594,
                    37.677711
                ],
                [
                    -82.294296,
                    37.674213
                ],
                [
                    -82.294495,
                    37.670914
                ],
                [
                    -82.292397,
                    37.669411
                ],
                [
                    -82.290001,
                    37.668812
                ],
                [
                    -82.287994,
                    37.66851
                ],
                [
                    -82.286095,
                    37.670914
                ],
                [
                    -82.283699,
                    37.675713
                ],
                [
                    -82.281296,
                    37.674812
                ],
                [
                    -82.278099,
                    37.670311
                ],
                [
                    -82.2752,
                    37.66851
                ],
                [
                    -82.2733,
                    37.665314
                ],
                [
                    -82.271194,
                    37.663513
                ],
                [
                    -82.265594,
                    37.661713
                ],
                [
                    -82.263199,
                    37.660213
                ],
                [
                    -82.260399,
                    37.658112
                ],
                [
                    -82.2575,
                    37.656914
                ],
                [
                    -82.254593,
                    37.656612
                ],
                [
                    -82.250595,
                    37.657612
                ],
                [
                    -82.247299,
                    37.659512
                ],
                [
                    -82.242798,
                    37.661213
                ],
                [
                    -82.240196,
                    37.661713
                ],
                [
                    -82.238098,
                    37.660213
                ],
                [
                    -82.235199,
                    37.658512
                ],
                [
                    -82.231895,
                    37.655514
                ],
                [
                    -82.225998,
                    37.652813
                ],
                [
                    -82.225395,
                    37.649014
                ],
                [
                    -82.224693,
                    37.646511
                ],
                [
                    -82.222794,
                    37.644112
                ],
                [
                    -82.219498,
                    37.643013
                ],
                [
                    -82.216797,
                    37.64101
                ],
                [
                    -82.217796,
                    37.638313
                ],
                [
                    -82.220093,
                    37.634113
                ],
                [
                    -82.218193,
                    37.631512
                ],
                [
                    -82.215195,
                    37.626812
                ],
                [
                    -82.212395,
                    37.625412
                ],
                [
                    -82.209694,
                    37.625111
                ],
                [
                    -82.206894,
                    37.625511
                ],
                [
                    -82.199799,
                    37.627613
                ],
                [
                    -82.196098,
                    37.626713
                ],
                [
                    -82.191093,
                    37.625813
                ],
                [
                    -82.187897,
                    37.626713
                ],
                [
                    -82.186501,
                    37.628311
                ],
                [
                    -82.186897,
                    37.633713
                ],
                [
                    -82.187492,
                    37.637012
                ],
                [
                    -82.188698,
                    37.639511
                ],
                [
                    -82.190994,
                    37.643013
                ],
                [
                    -82.189598,
                    37.646313
                ],
                [
                    -82.187096,
                    37.648014
                ],
                [
                    -82.183594,
                    37.649113
                ],
                [
                    -82.178101,
                    37.648911
                ],
                [
                    -82.174896,
                    37.646812
                ],
                [
                    -82.177399,
                    37.640614
                ],
                [
                    -82.175697,
                    37.637112
                ],
                [
                    -82.172897,
                    37.633114
                ],
                [
                    -82.174995,
                    37.630112
                ],
                [
                    -82.1782,
                    37.628613
                ],
                [
                    -82.1819,
                    37.625912
                ],
                [
                    -82.181999,
                    37.622913
                ],
                [
                    -82.179497,
                    37.620411
                ],
                [
                    -82.176598,
                    37.618313
                ],
                [
                    -82.172798,
                    37.619911
                ],
                [
                    -82.169197,
                    37.621811
                ],
                [
                    -82.164497,
                    37.619713
                ],
                [
                    -82.166298,
                    37.616611
                ],
                [
                    -82.168594,
                    37.613712
                ],
                [
                    -82.168396,
                    37.609013
                ],
                [
                    -82.164894,
                    37.608112
                ],
                [
                    -82.158997,
                    37.609512
                ],
                [
                    -82.156799,
                    37.609013
                ],
                [
                    -82.156097,
                    37.605412
                ],
                [
                    -82.156898,
                    37.602314
                ],
                [
                    -82.1576,
                    37.597214
                ],
                [
                    -82.156601,
                    37.592911
                ],
                [
                    -82.152496,
                    37.591614
                ],
                [
                    -82.149094,
                    37.59111
                ],
                [
                    -82.146095,
                    37.592812
                ],
                [
                    -82.143593,
                    37.59391
                ],
                [
                    -82.141396,
                    37.595112
                ],
                [
                    -82.133598,
                    37.593613
                ],
                [
                    -82.129898,
                    37.590813
                ],
                [
                    -82.127594,
                    37.586712
                ],
                [
                    -82.124596,
                    37.576412
                ],
                [
                    -82.126198,
                    37.573711
                ],
                [
                    -82.128395,
                    37.572311
                ],
                [
                    -82.131897,
                    37.572014
                ],
                [
                    -82.134796,
                    37.57151
                ],
                [
                    -82.141098,
                    37.571011
                ],
                [
                    -82.143494,
                    37.570313
                ],
                [
                    -82.144096,
                    37.566811
                ],
                [
                    -82.141197,
                    37.565411
                ],
                [
                    -82.137199,
                    37.564411
                ],
                [
                    -82.133797,
                    37.56171
                ],
                [
                    -82.134399,
                    37.558113
                ],
                [
                    -82.134094,
                    37.554111
                ],
                [
                    -82.131798,
                    37.552414
                ],
                [
                    -82.1259,
                    37.551212
                ],
                [
                    -82.123497,
                    37.551613
                ],
                [
                    -82.121696,
                    37.553513
                ],
                [
                    -82.119797,
                    37.557613
                ],
                [
                    -82.1166,
                    37.559513
                ],
                [
                    -82.112297,
                    37.559013
                ],
                [
                    -82.1082,
                    37.559612
                ],
                [
                    -82.102493,
                    37.559113
                ],
                [
                    -82.1036,
                    37.556313
                ],
                [
                    -82.104195,
                    37.553513
                ],
                [
                    -82.100098,
                    37.553211
                ],
                [
                    -82.095398,
                    37.554413
                ],
                [
                    -82.091698,
                    37.555012
                ],
                [
                    -82.088699,
                    37.555912
                ],
                [
                    -82.084595,
                    37.555412
                ],
                [
                    -82.080597,
                    37.555511
                ],
                [
                    -82.0755,
                    37.555912
                ],
                [
                    -82.072998,
                    37.554611
                ],
                [
                    -82.071899,
                    37.551411
                ],
                [
                    -82.067894,
                    37.548611
                ],
                [
                    -82.065094,
                    37.545212
                ],
                [
                    -82.063797,
                    37.541912
                ],
                [
                    -82.0644,
                    37.53791
                ],
                [
                    -82.060799,
                    37.536213
                ],
                [
                    -82.056099,
                    37.536812
                ],
                [
                    -82.051994,
                    37.536114
                ],
                [
                    -82.048996,
                    37.534611
                ],
                [
                    -82.048393,
                    37.532013
                ],
                [
                    -82.048294,
                    37.529411
                ],
                [
                    -82.046394,
                    37.528313
                ],
                [
                    -82.044098,
                    37.529411
                ],
                [
                    -82.042397,
                    37.534813
                ],
                [
                    -82.042892,
                    37.537411
                ],
                [
                    -82.0439,
                    37.53931
                ],
                [
                    -82.0448,
                    37.541813
                ],
                [
                    -82.044693,
                    37.546413
                ],
                [
                    -82.041496,
                    37.548412
                ],
                [
                    -82.0383,
                    37.547211
                ],
                [
                    -82.0373,
                    37.543411
                ],
                [
                    -82.036194,
                    37.54211
                ],
                [
                    -82.0336,
                    37.541412
                ],
                [
                    -82.028595,
                    37.537712
                ],
                [
                    -82.024895,
                    37.53841
                ],
                [
                    -82.020195,
                    37.540512
                ],
                [
                    -82.017296,
                    37.539112
                ],
                [
                    -82.016396,
                    37.536312
                ],
                [
                    -82.0149,
                    37.533913
                ],
                [
                    -82.0112,
                    37.533413
                ],
                [
                    -82.007896,
                    37.533611
                ],
                [
                    -82.005798,
                    37.535213
                ],
                [
                    -82.002197,
                    37.540012
                ],
                [
                    -82.000298,
                    37.54211
                ],
                [
                    -81.997498,
                    37.542812
                ],
                [
                    -81.996895,
                    37.539612
                ],
                [
                    -81.994499,
                    37.537712
                ],
                [
                    -81.992096,
                    37.538914
                ],
                [
                    -81.988998,
                    37.542313
                ],
                [
                    -81.985596,
                    37.542614
                ],
                [
                    -81.982094,
                    37.542011
                ],
                [
                    -81.978897,
                    37.54351
                ],
                [
                    -81.976295,
                    37.545311
                ],
                [
                    -81.9739,
                    37.546112
                ],
                [
                    -81.969894,
                    37.54631
                ],
                [
                    -81.967194,
                    37.544811
                ],
                [
                    -81.965393,
                    37.542713
                ],
                [
                    -81.968193,
                    37.537811
                ],
                [
                    -81.999794,
                    37.515812
                ],
                [
                    -82.018593,
                    37.503014
                ],
                [
                    -82.022194,
                    37.500111
                ],
                [
                    -82.027794,
                    37.49641
                ],
                [
                    -82.050598,
                    37.480713
                ],
                [
                    -82.062698,
                    37.471012
                ],
                [
                    -82.087296,
                    37.453514
                ],
                [
                    -82.144798,
                    37.413612
                ],
                [
                    -82.185097,
                    37.386414
                ],
                [
                    -82.202499,
                    37.374313
                ],
                [
                    -82.233795,
                    37.352112
                ],
                [
                    -82.249893,
                    37.34111
                ],
                [
                    -82.254395,
                    37.337711
                ],
                [
                    -82.289497,
                    37.313412
                ],
                [
                    -82.300697,
                    37.30471
                ],
                [
                    -82.303497,
                    37.302711
                ],
                [
                    -82.309097,
                    37.299511
                ],
                [
                    -82.3116,
                    37.297413
                ],
                [
                    -82.314896,
                    37.295414
                ],
                [
                    -82.3172,
                    37.292313
                ],
                [
                    -82.318794,
                    37.288612
                ],
                [
                    -82.321495,
                    37.285912
                ],
                [
                    -82.3246,
                    37.283512
                ],
                [
                    -82.329994,
                    37.282513
                ],
                [
                    -82.332794,
                    37.281612
                ],
                [
                    -82.336197,
                    37.28091
                ],
                [
                    -82.339394,
                    37.280613
                ],
                [
                    -82.342995,
                    37.280514
                ],
                [
                    -82.342796,
                    37.277313
                ],
                [
                    -82.342995,
                    37.274113
                ],
                [
                    -82.346794,
                    37.272614
                ],
                [
                    -82.3489,
                    37.269711
                ],
                [
                    -82.351295,
                    37.267014
                ],
                [
                    -82.3545,
                    37.265812
                ],
                [
                    -82.357796,
                    37.265114
                ],
                [
                    -82.362694,
                    37.26461
                ],
                [
                    -82.365494,
                    37.263714
                ],
                [
                    -82.367897,
                    37.262611
                ],
                [
                    -82.370895,
                    37.262012
                ],
                [
                    -82.373993,
                    37.260811
                ],
                [
                    -82.377998,
                    37.259911
                ],
                [
                    -82.381294,
                    37.259911
                ],
                [
                    -82.384895,
                    37.259613
                ],
                [
                    -82.393295,
                    37.257511
                ],
                [
                    -82.399498,
                    37.255512
                ],
                [
                    -82.404396,
                    37.254612
                ],
                [
                    -82.407295,
                    37.253513
                ],
                [
                    -82.411995,
                    37.253113
                ],
                [
                    -82.415894,
                    37.251911
                ],
                [
                    -82.422195,
                    37.249611
                ],
                [
                    -82.425499,
                    37.248913
                ],
                [
                    -82.428497,
                    37.247513
                ],
                [
                    -82.431999,
                    37.246712
                ],
                [
                    -82.4394,
                    37.246811
                ],
                [
                    -82.441399,
                    37.245811
                ],
                [
                    -82.442993,
                    37.244213
                ],
                [
                    -82.445496,
                    37.244011
                ],
                [
                    -82.447998,
                    37.244011
                ],
                [
                    -82.451996,
                    37.24221
                ],
                [
                    -82.457497,
                    37.238411
                ],
                [
                    -82.4618,
                    37.238411
                ],
                [
                    -82.464798,
                    37.235813
                ],
                [
                    -82.466797,
                    37.235912
                ],
                [
                    -82.471298,
                    37.235611
                ],
                [
                    -82.474495,
                    37.235012
                ],
                [
                    -82.4776,
                    37.234112
                ],
                [
                    -82.480995,
                    37.232613
                ],
                [
                    -82.483795,
                    37.231911
                ],
                [
                    -82.486694,
                    37.230312
                ],
                [
                    -82.488396,
                    37.227211
                ],
                [
                    -82.491592,
                    37.225113
                ],
                [
                    -82.494499,
                    37.22541
                ],
                [
                    -82.496597,
                    37.227413
                ],
                [
                    -82.503494,
                    37.224712
                ],
                [
                    -82.508194,
                    37.222313
                ],
                [
                    -82.508896,
                    37.220013
                ],
                [
                    -82.512497,
                    37.217411
                ],
                [
                    -82.515297,
                    37.216213
                ],
                [
                    -82.5177,
                    37.214111
                ],
                [
                    -82.520195,
                    37.212612
                ],
                [
                    -82.524193,
                    37.214314
                ],
                [
                    -82.527298,
                    37.214111
                ],
                [
                    -82.529297,
                    37.213413
                ],
                [
                    -82.531898,
                    37.210911
                ],
                [
                    -82.531494,
                    37.208111
                ],
                [
                    -82.534096,
                    37.206612
                ],
                [
                    -82.537399,
                    37.206814
                ],
                [
                    -82.540398,
                    37.206711
                ],
                [
                    -82.545998,
                    37.20351
                ],
                [
                    -82.549896,
                    37.203812
                ],
                [
                    -82.551598,
                    37.20351
                ],
                [
                    -82.553894,
                    37.202614
                ],
                [
                    -82.556801,
                    37.200714
                ],
                [
                    -82.5653,
                    37.196114
                ],
                [
                    -82.576096,
                    37.205811
                ],
                [
                    -82.578499,
                    37.205811
                ],
                [
                    -82.584099,
                    37.20771
                ],
                [
                    -82.587196,
                    37.207912
                ],
                [
                    -82.590698,
                    37.210011
                ],
                [
                    -82.5933,
                    37.212513
                ],
                [
                    -82.594093,
                    37.214813
                ],
                [
                    -82.594498,
                    37.218113
                ],
                [
                    -82.596199,
                    37.220612
                ],
                [
                    -82.596397,
                    37.223511
                ],
                [
                    -82.599396,
                    37.226013
                ],
                [
                    -82.600899,
                    37.229111
                ],
                [
                    -82.603996,
                    37.23011
                ],
                [
                    -82.614197,
                    37.236012
                ],
                [
                    -82.616096,
                    37.236912
                ],
                [
                    -82.619194,
                    37.239113
                ],
                [
                    -82.622192,
                    37.240711
                ],
                [
                    -82.627594,
                    37.246613
                ],
                [
                    -82.630295,
                    37.247913
                ],
                [
                    -82.634499,
                    37.248112
                ],
                [
                    -82.636398,
                    37.245514
                ],
                [
                    -82.639793,
                    37.244411
                ],
                [
                    -82.642998,
                    37.244911
                ],
                [
                    -82.645798,
                    37.244011
                ],
                [
                    -82.648697,
                    37.241814
                ],
                [
                    -82.6502,
                    37.239914
                ],
                [
                    -82.652397,
                    37.239311
                ],
                [
                    -82.6549,
                    37.236313
                ],
                [
                    -82.6586,
                    37.236012
                ],
                [
                    -82.662094,
                    37.236111
                ],
                [
                    -82.665398,
                    37.23381
                ],
                [
                    -82.667099,
                    37.230114
                ],
                [
                    -82.669395,
                    37.228813
                ],
                [
                    -82.672699,
                    37.227413
                ],
                [
                    -82.678795,
                    37.22961
                ],
                [
                    -82.6819,
                    37.228313
                ],
                [
                    -82.685394,
                    37.230713
                ],
                [
                    -82.688499,
                    37.23241
                ],
                [
                    -82.691299,
                    37.231812
                ],
                [
                    -82.694298,
                    37.233913
                ],
                [
                    -82.692696,
                    37.236412
                ],
                [
                    -82.691696,
                    37.240211
                ],
                [
                    -82.695694,
                    37.24221
                ],
                [
                    -82.698601,
                    37.241913
                ],
                [
                    -82.701996,
                    37.242012
                ],
                [
                    -82.704697,
                    37.244312
                ],
                [
                    -82.7015,
                    37.246712
                ],
                [
                    -82.699394,
                    37.247913
                ],
                [
                    -82.698997,
                    37.250011
                ],
                [
                    -82.7006,
                    37.25201
                ],
                [
                    -82.700096,
                    37.254414
                ],
                [
                    -82.702293,
                    37.258213
                ],
                [
                    -82.7052,
                    37.25761
                ],
                [
                    -82.709999,
                    37.25901
                ],
                [
                    -82.7136,
                    37.257313
                ],
                [
                    -82.716698,
                    37.257011
                ],
                [
                    -82.718895,
                    37.256413
                ],
                [
                    -82.721397,
                    37.257111
                ],
                [
                    -82.723999,
                    37.256813
                ],
                [
                    -82.725693,
                    37.258614
                ],
                [
                    -82.724594,
                    37.261913
                ],
                [
                    -82.724297,
                    37.264111
                ],
                [
                    -82.7267,
                    37.265511
                ],
                [
                    -82.7276,
                    37.267513
                ],
                [
                    -82.731094,
                    37.269314
                ],
                [
                    -82.732895,
                    37.271912
                ],
                [
                    -82.729294,
                    37.274914
                ],
                [
                    -82.726097,
                    37.279011
                ],
                [
                    -82.722595,
                    37.281311
                ],
                [
                    -82.719498,
                    37.280312
                ],
                [
                    -82.716698,
                    37.281712
                ],
                [
                    -82.714394,
                    37.283314
                ],
                [
                    -82.711098,
                    37.284813
                ],
                [
                    -82.708794,
                    37.286911
                ],
                [
                    -82.705696,
                    37.287613
                ],
                [
                    -82.700699,
                    37.290012
                ],
                [
                    -82.700096,
                    37.294613
                ],
                [
                    -82.700394,
                    37.299313
                ],
                [
                    -82.697495,
                    37.302612
                ],
                [
                    -82.692299,
                    37.306011
                ],
                [
                    -82.688393,
                    37.30611
                ],
                [
                    -82.684898,
                    37.308311
                ],
                [
                    -82.681396,
                    37.306614
                ],
                [
                    -82.6782,
                    37.306412
                ],
                [
                    -82.675095,
                    37.306313
                ],
                [
                    -82.672096,
                    37.307613
                ],
                [
                    -82.671898,
                    37.313911
                ],
                [
                    -82.669495,
                    37.316212
                ],
                [
                    -82.6698,
                    37.317913
                ],
                [
                    -82.670898,
                    37.319511
                ],
                [
                    -82.668495,
                    37.321712
                ],
                [
                    -82.665298,
                    37.323711
                ],
                [
                    -82.665298,
                    37.327713
                ],
                [
                    -82.663597,
                    37.332012
                ],
                [
                    -82.661896,
                    37.334312
                ],
                [
                    -82.660995,
                    37.336411
                ],
                [
                    -82.662994,
                    37.340511
                ],
                [
                    -82.662094,
                    37.343513
                ],
                [
                    -82.660194,
                    37.34391
                ],
                [
                    -82.652596,
                    37.350613
                ],
                [
                    -82.649094,
                    37.352512
                ],
                [
                    -82.647598,
                    37.353714
                ],
                [
                    -82.650696,
                    37.355412
                ],
                [
                    -82.653,
                    37.35461
                ],
                [
                    -82.655098,
                    37.355312
                ],
                [
                    -82.656593,
                    37.357212
                ],
                [
                    -82.660095,
                    37.358414
                ],
                [
                    -82.663895,
                    37.361511
                ],
                [
                    -82.663895,
                    37.364311
                ],
                [
                    -82.664299,
                    37.367512
                ],
                [
                    -82.665695,
                    37.370213
                ],
                [
                    -82.6633,
                    37.372414
                ],
                [
                    -82.660194,
                    37.373611
                ],
                [
                    -82.657997,
                    37.37421
                ],
                [
                    -82.653999,
                    37.380112
                ],
                [
                    -82.651794,
                    37.380413
                ],
                [
                    -82.648697,
                    37.37981
                ],
                [
                    -82.646194,
                    37.380711
                ],
                [
                    -82.643593,
                    37.38121
                ],
                [
                    -82.637894,
                    37.381611
                ],
                [
                    -82.635399,
                    37.379711
                ],
                [
                    -82.631599,
                    37.380112
                ],
                [
                    -82.627197,
                    37.382111
                ],
                [
                    -82.625099,
                    37.383312
                ],
                [
                    -82.623398,
                    37.38541
                ],
                [
                    -82.619896,
                    37.386513
                ],
                [
                    -82.619896,
                    37.39101
                ],
                [
                    -82.621399,
                    37.393311
                ],
                [
                    -82.6194,
                    37.394913
                ],
                [
                    -82.616997,
                    37.399113
                ],
                [
                    -82.612396,
                    37.400513
                ],
                [
                    -82.612297,
                    37.403111
                ],
                [
                    -82.613098,
                    37.405212
                ],
                [
                    -82.612297,
                    37.408813
                ],
                [
                    -82.608498,
                    37.410713
                ],
                [
                    -82.605598,
                    37.410412
                ],
                [
                    -82.604195,
                    37.413914
                ],
                [
                    -82.603699,
                    37.416412
                ],
                [
                    -82.606499,
                    37.420513
                ],
                [
                    -82.604294,
                    37.424614
                ],
                [
                    -82.600899,
                    37.427513
                ],
                [
                    -82.599899,
                    37.430511
                ],
                [
                    -82.599495,
                    37.433311
                ],
                [
                    -82.601898,
                    37.436611
                ],
                [
                    -82.599998,
                    37.439114
                ],
                [
                    -82.597298,
                    37.440113
                ],
                [
                    -82.593796,
                    37.439713
                ],
                [
                    -82.592499,
                    37.441513
                ],
                [
                    -82.591194,
                    37.444111
                ],
                [
                    -82.5886,
                    37.446613
                ],
                [
                    -82.589294,
                    37.45071
                ],
                [
                    -82.589493,
                    37.453411
                ],
                [
                    -82.590393,
                    37.456013
                ],
                [
                    -82.589294,
                    37.458412
                ],
                [
                    -82.587395,
                    37.460011
                ],
                [
                    -82.587799,
                    37.463013
                ],
                [
                    -82.5849,
                    37.467514
                ],
                [
                    -82.586899,
                    37.470112
                ],
                [
                    -82.588699,
                    37.473911
                ],
                [
                    -82.589493,
                    37.476212
                ],
                [
                    -82.590195,
                    37.48101
                ],
                [
                    -82.591499,
                    37.484112
                ],
                [
                    -82.593498,
                    37.486912
                ],
                [
                    -82.594498,
                    37.490513
                ],
                [
                    -82.597099,
                    37.492813
                ],
                [
                    -82.599792,
                    37.494411
                ],
                [
                    -82.598,
                    37.496811
                ],
                [
                    -82.596397,
                    37.499413
                ],
                [
                    -82.597595,
                    37.502613
                ],
                [
                    -82.601997,
                    37.505512
                ],
                [
                    -82.605194,
                    37.506111
                ],
                [
                    -82.609993,
                    37.504211
                ],
                [
                    -82.6129,
                    37.504013
                ],
                [
                    -82.614594,
                    37.505314
                ],
                [
                    -82.616898,
                    37.505013
                ],
                [
                    -82.619499,
                    37.503613
                ],
                [
                    -82.622398,
                    37.503513
                ],
                [
                    -82.6241,
                    37.505814
                ],
                [
                    -82.622398,
                    37.516212
                ],
                [
                    -82.6241,
                    37.520714
                ],
                [
                    -82.6231,
                    37.523613
                ],
                [
                    -82.620995,
                    37.527111
                ],
                [
                    -82.619995,
                    37.531414
                ],
                [
                    -82.601799,
                    37.625214
                ],
                [
                    -82.598694,
                    37.640511
                ],
                [
                    -82.598694,
                    37.642712
                ],
                [
                    -82.600998,
                    37.644413
                ],
                [
                    -82.602997,
                    37.647114
                ],
                [
                    -82.605598,
                    37.648911
                ],
                [
                    -82.605194,
                    37.651314
                ],
                [
                    -82.602997,
                    37.653111
                ],
                [
                    -82.603195,
                    37.65591
                ],
                [
                    -82.6017,
                    37.658211
                ],
                [
                    -82.603996,
                    37.659512
                ],
                [
                    -82.612801,
                    37.661312
                ],
                [
                    -82.612999,
                    37.663914
                ],
                [
                    -82.612595,
                    37.665913
                ],
                [
                    -82.614899,
                    37.668312
                ],
                [
                    -82.613197,
                    37.671513
                ],
                [
                    -82.611,
                    37.673214
                ],
                [
                    -82.608597,
                    37.674213
                ],
                [
                    -82.604599,
                    37.674713
                ],
                [
                    -82.600594,
                    37.673912
                ],
                [
                    -82.599197,
                    37.676311
                ],
                [
                    -82.597298,
                    37.678612
                ],
                [
                    -82.593796,
                    37.679314
                ],
                [
                    -82.589699,
                    37.680714
                ],
                [
                    -82.586899,
                    37.681213
                ],
                [
                    -82.586296,
                    37.678711
                ],
                [
                    -82.582596,
                    37.678612
                ],
                [
                    -82.577499,
                    37.679813
                ],
                [
                    -82.574196,
                    37.680313
                ],
                [
                    -82.571098,
                    37.680412
                ],
                [
                    -82.568893,
                    37.67971
                ],
                [
                    -82.566994,
                    37.679913
                ],
                [
                    -82.565094,
                    37.681812
                ],
                [
                    -82.563797,
                    37.684311
                ],
                [
                    -82.561096,
                    37.687214
                ],
                [
                    -82.557693,
                    37.689011
                ],
                [
                    -82.555595,
                    37.691113
                ],
                [
                    -82.550896,
                    37.688911
                ],
                [
                    -82.547501,
                    37.689613
                ],
                [
                    -82.545197,
                    37.690311
                ],
                [
                    -82.543198,
                    37.689312
                ],
                [
                    -82.539993,
                    37.690014
                ],
                [
                    -82.536095,
                    37.690212
                ],
                [
                    -82.534996,
                    37.687714
                ],
                [
                    -82.530396,
                    37.687912
                ],
                [
                    -82.527,
                    37.690113
                ],
                [
                    -82.525299,
                    37.693314
                ],
                [
                    -82.521698,
                    37.694214
                ],
                [
                    -82.518898,
                    37.691513
                ],
                [
                    -82.514893,
                    37.691212
                ],
                [
                    -82.512894,
                    37.688614
                ],
                [
                    -82.5103,
                    37.686913
                ],
                [
                    -82.508194,
                    37.686211
                ],
                [
                    -82.505096,
                    37.687813
                ],
                [
                    -82.498093,
                    37.689911
                ],
                [
                    -82.4935,
                    37.689011
                ],
                [
                    -82.4963,
                    37.683514
                ],
                [
                    -82.493294,
                    37.680214
                ],
                [
                    -82.489296,
                    37.678513
                ],
                [
                    -82.4869,
                    37.680313
                ],
                [
                    -82.480797,
                    37.681614
                ],
                [
                    -82.475899,
                    37.682911
                ],
                [
                    -82.472397,
                    37.682411
                ],
                [
                    -82.469498,
                    37.681713
                ],
                [
                    -82.466393,
                    37.682812
                ],
                [
                    -82.464195,
                    37.680714
                ],
                [
                    -82.4618,
                    37.679813
                ],
                [
                    -82.4571,
                    37.675411
                ],
                [
                    -82.458496,
                    37.67271
                ],
                [
                    -82.457397,
                    37.669811
                ],
                [
                    -82.454994,
                    37.668713
                ],
                [
                    -82.451698,
                    37.669514
                ],
                [
                    -82.448296,
                    37.670914
                ],
                [
                    -82.443893,
                    37.671513
                ],
                [
                    -82.442398,
                    37.673813
                ],
                [
                    -82.439499,
                    37.675713
                ],
                [
                    -82.434898,
                    37.674412
                ],
                [
                    -82.433098,
                    37.67691
                ],
                [
                    -82.429893,
                    37.677612
                ],
                [
                    -82.426498,
                    37.676811
                ],
                [
                    -82.422798,
                    37.676212
                ],
                [
                    -82.420799,
                    37.678612
                ],
                [
                    -82.418098,
                    37.680813
                ],
                [
                    -82.415894,
                    37.67971
                ],
                [
                    -82.413597,
                    37.678112
                ],
                [
                    -82.411797,
                    37.679611
                ],
                [
                    -82.409599,
                    37.679314
                ],
                [
                    -82.4077,
                    37.67411
                ],
                [
                    -82.405296,
                    37.671211
                ],
                [
                    -82.402496,
                    37.67271
                ],
                [
                    -82.399696,
                    37.673813
                ],
                [
                    -82.399994,
                    37.676113
                ],
                [
                    -82.3993,
                    37.679913
                ],
                [
                    -82.396996,
                    37.682411
                ],
                [
                    -82.396599,
                    37.684914
                ],
                [
                    -82.392899,
                    37.688911
                ],
                [
                    -82.390198,
                    37.68951
                ],
                [
                    -82.387199,
                    37.692814
                ],
                [
                    -82.386497,
                    37.697411
                ],
                [
                    -82.388794,
                    37.700413
                ],
                [
                    -82.392494,
                    37.701313
                ],
                [
                    -82.394394,
                    37.705013
                ],
                [
                    -82.396797,
                    37.704811
                ],
                [
                    -82.398796,
                    37.707211
                ],
                [
                    -82.403,
                    37.706814
                ],
                [
                    -82.405098,
                    37.70491
                ],
                [
                    -82.4077,
                    37.706612
                ],
                [
                    -82.4105,
                    37.709412
                ],
                [
                    -82.412498,
                    37.713013
                ],
                [
                    -82.410294,
                    37.715214
                ],
                [
                    -82.4086,
                    37.716614
                ],
                [
                    -82.4049,
                    37.719212
                ],
                [
                    -82.400993,
                    37.720112
                ],
                [
                    -82.398796,
                    37.721413
                ],
                [
                    -82.395996,
                    37.723614
                ],
                [
                    -82.393394,
                    37.727314
                ],
                [
                    -82.390099,
                    37.728912
                ],
                [
                    -82.386497,
                    37.728714
                ],
                [
                    -82.384094,
                    37.733414
                ],
                [
                    -82.379799,
                    37.73521
                ],
                [
                    -82.376297,
                    37.735512
                ],
                [
                    -82.374397,
                    37.737114
                ],
                [
                    -82.375595,
                    37.739311
                ],
                [
                    -82.357597,
                    37.740612
                ],
                [
                    -82.346794,
                    37.741112
                ],
                [
                    -82.344299,
                    37.74501
                ],
                [
                    -82.337296,
                    37.741814
                ],
                [
                    -82.334,
                    37.742012
                ]
            ]
        ]
    },
    "properties": {
        "@id": "https://api.weather.gov/zones/forecast/KYZ120",
        "@type": "wx:Zone",
        "id": "KYZ120",
        "type": "public",
        "name": "Pike",
        "effectiveDate": "2026-04-16T18:00:00+00:00",
        "expirationDate": "2200-01-01T00:00:00+00:00",
        "state": "KY",
        "forecastOffice": "https://api.weather.gov/offices/JKL",
        "gridIdentifier": "JKL",
        "awipsLocationIdentifier": "JKL",
        "cwa": [
            "JKL"
        ],
        "forecastOffices": [
            "https://api.weather.gov/offices/JKL"
        ],
        "timeZone": [
            "America/New_York"
        ],
        "observationStations": [
            "https://api.weather.gov/stations/KPBX",
            "https://api.weather.gov/stations/K6V3",
            "https://api.weather.gov/stations/KBKW",
            "https://api.weather.gov/stations/KCRW",
            "https://api.weather.gov/stations/KDWU",
            "https://api.weather.gov/stations/KHTS",
            "https://api.weather.gov/stations/KI16",
            "https://api.weather.gov/stations/KJKL",
            "https://api.weather.gov/stations/KLNP",
            "https://api.weather.gov/stations/KSJS",
            "https://api.weather.gov/stations/KSYM",
            "https://api.weather.gov/stations/KTRI"
        ],
        "radarStation": "JKL"
    }
}