{
    "@context": {
        "@version": "1.1"
    },
    "id": "https://api.weather.gov/zones/forecast/ILZ002",
    "type": "Feature",
    "geometry": {
        "type": "Polygon",
        "coordinates": [
            [
                [
                    -89.837593,
                    42.505711
                ],
                [
                    -89.780296,
                    42.505314
                ],
                [
                    -89.743393,
                    42.505413
                ],
                [
                    -89.7341,
                    42.505211
                ],
                [
                    -89.690094,
                    42.505211
                ],
                [
                    -89.668999,
                    42.505013
                ],
                [
                    -89.616096,
                    42.504013
                ],
                [
                    -89.6035,
                    42.503513
                ],
                [
                    -89.595497,
                    42.503513
                ],
                [
                    -89.578499,
                    42.502911
                ],
                [
                    -89.5616,
                    42.502514
                ],
                [
                    -89.502495,
                    42.501511
                ],
                [
                    -89.4786,
                    42.501411
                ],
                [
                    -89.463699,
                    42.501114
                ],
                [
                    -89.425194,
                    42.500713
                ],
                [
                    -89.423294,
                    42.500813
                ],
                [
                    -89.420097,
                    42.50061
                ],
                [
                    -89.4076,
                    42.500511
                ],
                [
                    -89.401398,
                    42.500214
                ],
                [
                    -89.401299,
                    42.490414
                ],
                [
                    -89.400093,
                    42.460114
                ],
                [
                    -89.399498,
                    42.440514
                ],
                [
                    -89.398994,
                    42.418411
                ],
                [
                    -89.398697,
                    42.393513
                ],
                [
                    -89.398193,
                    42.377911
                ],
                [
                    -89.397995,
                    42.33971
                ],
                [
                    -89.397797,
                    42.328712
                ],
                [
                    -89.397797,
                    42.307411
                ],
                [
                    -89.397499,
                    42.299511
                ],
                [
                    -89.3974,
                    42.288914
                ],
                [
                    -89.397598,
                    42.284512
                ],
                [
                    -89.396294,
                    42.202713
                ],
                [
                    -89.401596,
                    42.20211
                ],
                [
                    -89.434799,
                    42.201511
                ],
                [
                    -89.511597,
                    42.200813
                ],
                [
                    -89.555496,
                    42.200912
                ],
                [
                    -89.625099,
                    42.200512
                ],
                [
                    -89.678093,
                    42.199512
                ],
                [
                    -89.688499,
                    42.199112
                ],
                [
                    -89.708397,
                    42.198612
                ],
                [
                    -89.749596,
                    42.197914
                ],
                [
                    -89.776398,
                    42.197212
                ],
                [
                    -89.811798,
                    42.197212
                ],
                [
                    -89.841499,
                    42.197411
                ],
                [
                    -89.870995,
                    42.195911
                ],
                [
                    -89.919693,
                    42.196312
                ],
                [
                    -89.919395,
                    42.212513
                ],
                [
                    -89.919495,
                    42.219913
                ],
                [
                    -89.920197,
                    42.236012
                ],
                [
                    -89.920395,
                    42.244614
                ],
                [
                    -89.920494,
                    42.264812
                ],
                [
                    -89.920898,
                    42.279213
                ],
                [
                    -89.920593,
                    42.284412
                ],
                [
                    -89.9207,
                    42.290112
                ],
                [
                    -89.9217,
                    42.313011
                ],
                [
                    -89.922096,
                    42.317711
                ],
                [
                    -89.923996,
                    42.365311
                ],
                [
                    -89.923996,
                    42.371513
                ],
                [
                    -89.923698,
                    42.376011
                ],
                [
                    -89.923698,
                    42.382412
                ],
                [
                    -89.924393,
                    42.415211
                ],
                [
                    -89.926094,
                    42.471714
                ],
                [
                    -89.926598,
                    42.499111
                ],
                [
                    -89.926498,
                    42.505314
                ],
                [
                    -89.906593,
                    42.505814
                ],
                [
                    -89.837593,
                    42.505711
                ]
            ]
        ]
    },
    "properties": {
        "@id": "https://api.weather.gov/zones/forecast/ILZ002",
        "@type": "wx:Zone",
        "id": "ILZ002",
        "type": "public",
        "name": "Stephenson",
        "effectiveDate": "2026-04-16T18:00:00+00:00",
        "expirationDate": "2200-01-01T00:00:00+00:00",
        "state": "IL",
        "forecastOffice": "https://api.weather.gov/offices/DVN",
        "gridIdentifier": "DVN",
        "awipsLocationIdentifier": "DVN",
        "cwa": [
            "DVN"
        ],
        "forecastOffices": [
            "https://api.weather.gov/offices/DVN"
        ],
        "timeZone": [
            "America/Chicago"
        ],
        "observationStations": [
            "https://api.weather.gov/stations/KRFD",
            "https://api.weather.gov/stations/KDBQ",
            "https://api.weather.gov/stations/KFEP"
        ],
        "radarStation": "DVN"
    }
}