{
    "@context": {
        "@version": "1.1"
    },
    "id": "https://api.weather.gov/zones/forecast/HIZ041",
    "type": "Feature",
    "geometry": {
        "type": "Polygon",
        "coordinates": [
            [
                [
                    -156.926126,
                    21.12477
                ],
                [
                    -156.905498,
                    21.105059
                ],
                [
                    -156.90222,
                    21.101635
                ],
                [
                    -156.89913,
                    21.09804
                ],
                [
                    -156.895775,
                    21.093643
                ],
                [
                    -156.892703,
                    21.089044
                ],
                [
                    -156.889925,
                    21.084262
                ],
                [
                    -156.887786,
                    21.080031
                ],
                [
                    -156.885582,
                    21.074959
                ],
                [
                    -156.874745,
                    21.046138
                ],
                [
                    -156.874977,
                    21.046708
                ],
                [
                    -156.876045,
                    21.046654
                ],
                [
                    -156.876107,
                    21.047074
                ],
                [
                    -156.876748,
                    21.04712
                ],
                [
                    -156.876733,
                    21.046796
                ],
                [
                    -156.877786,
                    21.04679
                ],
                [
                    -156.878106,
                    21.046404
                ],
                [
                    -156.878518,
                    21.046603
                ],
                [
                    -156.879785,
                    21.046565
                ],
                [
                    -156.879876,
                    21.047331
                ],
                [
                    -156.880096,
                    21.04712
                ],
                [
                    -156.880155,
                    21.046662
                ],
                [
                    -156.880426,
                    21.046811
                ],
                [
                    -156.880456,
                    21.046417
                ],
                [
                    -156.880639,
                    21.046593
                ],
                [
                    -156.880787,
                    21.047221
                ],
                [
                    -156.8812,
                    21.047349
                ],
                [
                    -156.880761,
                    21.047593
                ],
                [
                    -156.880685,
                    21.048094
                ],
                [
                    -156.881391,
                    21.047566
                ],
                [
                    -156.881662,
                    21.046708
                ],
                [
                    -156.882879,
                    21.046679
                ],
                [
                    -156.883364,
                    21.04725
                ],
                [
                    -156.88334,
                    21.047371
                ],
                [
                    -156.882882,
                    21.047421
                ],
                [
                    -156.884202,
                    21.047625
                ],
                [
                    -156.885137,
                    21.048654
                ],
                [
                    -156.885766,
                    21.048531
                ],
                [
                    -156.886172,
                    21.04881
                ],
                [
                    -156.887475,
                    21.048611
                ],
                [
                    -156.889377,
                    21.04869
                ],
                [
                    -156.889455,
                    21.04911
                ],
                [
                    -156.888986,
                    21.049298
                ],
                [
                    -156.889044,
                    21.049394
                ],
                [
                    -156.889562,
                    21.049682
                ],
                [
                    -156.889838,
                    21.049568
                ],
                [
                    -156.890283,
                    21.049719
                ],
                [
                    -156.890879,
                    21.04962
                ],
                [
                    -156.891305,
                    21.051047
                ],
                [
                    -156.8926,
                    21.05263
                ],
                [
                    -156.893457,
                    21.052561
                ],
                [
                    -156.893459,
                    21.052142
                ],
                [
                    -156.893808,
                    21.05197
                ],
                [
                    -156.894174,
                    21.052977
                ],
                [
                    -156.893808,
                    21.0544
                ],
                [
                    -156.895284,
                    21.05524
                ],
                [
                    -156.896782,
                    21.055112
                ],
                [
                    -156.897973,
                    21.055237
                ],
                [
                    -156.89866,
                    21.054926
                ],
                [
                    -156.898889,
                    21.054238
                ],
                [
                    -156.900094,
                    21.054224
                ],
                [
                    -156.900718,
                    21.054351
                ],
                [
                    -156.901285,
                    21.055397
                ],
                [
                    -156.901697,
                    21.055613
                ],
                [
                    -156.903177,
                    21.055905
                ],
                [
                    -156.904222,
                    21.05548
                ],
                [
                    -156.904977,
                    21.054694
                ],
                [
                    -156.905571,
                    21.054481
                ],
                [
                    -156.905328,
                    21.055581
                ],
                [
                    -156.905786,
                    21.055893
                ],
                [
                    -156.905908,
                    21.056408
                ],
                [
                    -156.906822,
                    21.055969
                ],
                [
                    -156.907358,
                    21.056073
                ],
                [
                    -156.907515,
                    21.055755
                ],
                [
                    -156.90785,
                    21.05564
                ],
                [
                    -156.912388,
                    21.056571
                ],
                [
                    -156.914845,
                    21.056559
                ],
                [
                    -156.915277,
                    21.056904
                ],
                [
                    -156.91592,
                    21.056829
                ],
                [
                    -156.92428,
                    21.059403
                ],
                [
                    -156.92756,
                    21.059103
                ],
                [
                    -156.928522,
                    21.059276
                ],
                [
                    -156.929056,
                    21.05984
                ],
                [
                    -156.92962,
                    21.059878
                ],
                [
                    -156.93128,
                    21.06049
                ],
                [
                    -156.931573,
                    21.060343
                ],
                [
                    -156.932641,
                    21.060612
                ],
                [
                    -156.934073,
                    21.060565
                ],
                [
                    -156.935376,
                    21.060792
                ],
                [
                    -156.937188,
                    21.061558
                ],
                [
                    -156.943002,
                    21.062748
                ],
                [
                    -156.944685,
                    21.062869
                ],
                [
                    -156.946145,
                    21.062708
                ],
                [
                    -156.946936,
                    21.062849
                ],
                [
                    -156.949167,
                    21.06366
                ],
                [
                    -156.950265,
                    21.063471
                ],
                [
                    -156.950523,
                    21.063598
                ],
                [
                    -156.949808,
                    21.064013
                ],
                [
                    -156.95057,
                    21.064082
                ],
                [
                    -156.950403,
                    21.063961
                ],
                [
                    -156.950723,
                    21.063839
                ],
                [
                    -156.951436,
                    21.065119
                ],
                [
                    -156.953485,
                    21.066119
                ],
                [
                    -156.955118,
                    21.066561
                ],
                [
                    -156.956704,
                    21.066496
                ],
                [
                    -156.959466,
                    21.066918
                ],
                [
                    -156.960816,
                    21.067291
                ],
                [
                    -156.961526,
                    21.067223
                ],
                [
                    -156.961709,
                    21.067761
                ],
                [
                    -156.962423,
                    21.068178
                ],
                [
                    -156.965873,
                    21.06858
                ],
                [
                    -156.966562,
                    21.06798
                ],
                [
                    -156.967126,
                    21.067057
                ],
                [
                    -156.967248,
                    21.06746
                ],
                [
                    -156.966913,
                    21.068688
                ],
                [
                    -156.967075,
                    21.069397
                ],
                [
                    -156.968286,
                    21.069956
                ],
                [
                    -156.969217,
                    21.070161
                ],
                [
                    -156.970243,
                    21.070285
                ],
                [
                    -156.972253,
                    21.07021
                ],
                [
                    -156.973688,
                    21.070502
                ],
                [
                    -156.975473,
                    21.070555
                ],
                [
                    -156.976785,
                    21.070769
                ],
                [
                    -156.977177,
                    21.070452
                ],
                [
                    -156.97765,
                    21.070933
                ],
                [
                    -156.979516,
                    21.069785
                ],
                [
                    -156.980384,
                    21.069659
                ],
                [
                    -156.98031,
                    21.069806
                ],
                [
                    -156.981648,
                    21.070035
                ],
                [
                    -156.982187,
                    21.070746
                ],
                [
                    -156.982248,
                    21.071635
                ],
                [
                    -156.982046,
                    21.072669
                ],
                [
                    -156.98223,
                    21.073169
                ],
                [
                    -156.983178,
                    21.073083
                ],
                [
                    -156.983551,
                    21.073614
                ],
                [
                    -156.983553,
                    21.073945
                ],
                [
                    -156.98395,
                    21.074088
                ],
                [
                    -156.983774,
                    21.074402
                ],
                [
                    -156.98536,
                    21.075381
                ],
                [
                    -156.987024,
                    21.075888
                ],
                [
                    -156.988305,
                    21.075987
                ],
                [
                    -156.989126,
                    21.076555
                ],
                [
                    -156.99131,
                    21.077116
                ],
                [
                    -156.992853,
                    21.077108
                ],
                [
                    -156.993217,
                    21.077598
                ],
                [
                    -156.993459,
                    21.077662
                ],
                [
                    -156.994943,
                    21.077881
                ],
                [
                    -156.995444,
                    21.077781
                ],
                [
                    -156.995904,
                    21.078101
                ],
                [
                    -156.997835,
                    21.078732
                ],
                [
                    -156.998666,
                    21.078621
                ],
                [
                    -156.999002,
                    21.078063
                ],
                [
                    -156.999494,
                    21.07765
                ],
                [
                    -157.000253,
                    21.077307
                ],
                [
                    -157.000833,
                    21.077303
                ],
                [
                    -157.000924,
                    21.077486
                ],
                [
                    -157.000292,
                    21.077589
                ],
                [
                    -156.999551,
                    21.078148
                ],
                [
                    -156.99946,
                    21.078629
                ],
                [
                    -156.998922,
                    21.079297
                ],
                [
                    -156.998926,
                    21.079516
                ],
                [
                    -157.000375,
                    21.080142
                ],
                [
                    -157.00204,
                    21.080485
                ],
                [
                    -157.002786,
                    21.080238
                ],
                [
                    -157.00393,
                    21.080691
                ],
                [
                    -157.008752,
                    21.081326
                ],
                [
                    -157.010751,
                    21.082652
                ],
                [
                    -157.011464,
                    21.082855
                ],
                [
                    -157.012109,
                    21.083252
                ],
                [
                    -157.013936,
                    21.083636
                ],
                [
                    -157.016778,
                    21.084889
                ],
                [
                    -157.01835,
                    21.085799
                ],
                [
                    -157.021525,
                    21.085751
                ],
                [
                    -157.022983,
                    21.086039
                ],
                [
                    -157.023599,
                    21.085875
                ],
                [
                    -157.02514,
                    21.087155
                ],
                [
                    -157.025934,
                    21.087487
                ],
                [
                    -157.02688,
                    21.087264
                ],
                [
                    -157.028024,
                    21.087594
                ],
                [
                    -157.028315,
                    21.087295
                ],
                [
                    -157.028416,
                    21.08763
                ],
                [
                    -157.027902,
                    21.088189
                ],
                [
                    -157.027887,
                    21.088561
                ],
                [
                    -157.028335,
                    21.088259
                ],
                [
                    -157.028772,
                    21.087685
                ],
                [
                    -157.029474,
                    21.087954
                ],
                [
                    -157.029788,
                    21.088434
                ],
                [
                    -157.030481,
                    21.088831
                ],
                [
                    -157.03048,
                    21.089138
                ],
                [
                    -157.030276,
                    21.089381
                ],
                [
                    -157.030484,
                    21.089557
                ],
                [
                    -157.031,
                    21.089539
                ],
                [
                    -157.031651,
                    21.090516
                ],
                [
                    -157.03208,
                    21.091657
                ],
                [
                    -157.033929,
                    21.093569
                ],
                [
                    -157.034382,
                    21.093743
                ],
                [
                    -157.034646,
                    21.094507
                ],
                [
                    -157.035501,
                    21.094889
                ],
                [
                    -157.037713,
                    21.095379
                ],
                [
                    -157.038761,
                    21.095768
                ],
                [
                    -157.040198,
                    21.096008
                ],
                [
                    -157.040902,
                    21.095955
                ],
                [
                    -157.041643,
                    21.096263
                ],
                [
                    -157.042964,
                    21.095989
                ],
                [
                    -157.045861,
                    21.096114
                ],
                [
                    -157.047354,
                    21.095837
                ],
                [
                    -157.04874,
                    21.096102
                ],
                [
                    -157.049905,
                    21.096932
                ],
                [
                    -157.050065,
                    21.097439
                ],
                [
                    -157.049768,
                    21.097989
                ],
                [
                    -157.050243,
                    21.09747
                ],
                [
                    -157.051111,
                    21.097664
                ],
                [
                    -157.051156,
                    21.097544
                ],
                [
                    -157.052129,
                    21.097746
                ],
                [
                    -157.052545,
                    21.098227
                ],
                [
                    -157.053009,
                    21.098296
                ],
                [
                    -157.053248,
                    21.098142
                ],
                [
                    -157.05367,
                    21.098291
                ],
                [
                    -157.054905,
                    21.099064
                ],
                [
                    -157.055169,
                    21.098975
                ],
                [
                    -157.056131,
                    21.099385
                ],
                [
                    -157.057275,
                    21.099514
                ],
                [
                    -157.057748,
                    21.099793
                ],
                [
                    -157.059701,
                    21.100224
                ],
                [
                    -157.060331,
                    21.100082
                ],
                [
                    -157.061855,
                    21.100328
                ],
                [
                    -157.062107,
                    21.100456
                ],
                [
                    -157.062173,
                    21.100964
                ],
                [
                    -157.062799,
                    21.101483
                ],
                [
                    -157.06344,
                    21.10151
                ],
                [
                    -157.064172,
                    21.100499
                ],
                [
                    -157.064952,
                    21.100701
                ],
                [
                    -157.065423,
                    21.101181
                ],
                [
                    -157.065757,
                    21.101026
                ],
                [
                    -157.066847,
                    21.101147
                ],
                [
                    -157.067254,
                    21.101113
                ],
                [
                    -157.067391,
                    21.100925
                ],
                [
                    -157.068245,
                    21.100896
                ],
                [
                    -157.07125,
                    21.101648
                ],
                [
                    -157.071847,
                    21.1013
                ],
                [
                    -157.072428,
                    21.101278
                ],
                [
                    -157.073617,
                    21.101826
                ],
                [
                    -157.077126,
                    21.102694
                ],
                [
                    -157.0785,
                    21.102637
                ],
                [
                    -157.080728,
                    21.101767
                ],
                [
                    -157.082454,
                    21.101666
                ],
                [
                    -157.082935,
                    21.101662
                ],
                [
                    -157.083539,
                    21.10194
                ],
                [
                    -157.083764,
                    21.101843
                ],
                [
                    -157.084521,
                    21.102263
                ],
                [
                    -157.085121,
                    21.101888
                ],
                [
                    -157.086695,
                    21.102272
                ],
                [
                    -157.087457,
                    21.102662
                ],
                [
                    -157.089563,
                    21.102509
                ],
                [
                    -157.090234,
                    21.102208
                ],
                [
                    -157.091059,
                    21.102265
                ],
                [
                    -157.091454,
                    21.102141
                ],
                [
                    -157.091739,
                    21.102324
                ],
                [
                    -157.092072,
                    21.103039
                ],
                [
                    -157.092798,
                    21.10322
                ],
                [
                    -157.093698,
                    21.104247
                ],
                [
                    -157.093743,
                    21.104623
                ],
                [
                    -157.093225,
                    21.10536
                ],
                [
                    -157.093438,
                    21.105624
                ],
                [
                    -157.094521,
                    21.105333
                ],
                [
                    -157.09527,
                    21.104821
                ],
                [
                    -157.097091,
                    21.104356
                ],
                [
                    -157.097559,
                    21.103903
                ],
                [
                    -157.098001,
                    21.103755
                ],
                [
                    -157.099298,
                    21.102841
                ],
                [
                    -157.100777,
                    21.101612
                ],
                [
                    -157.102481,
                    21.101137
                ],
                [
                    -157.105371,
                    21.101928
                ],
                [
                    -157.105935,
                    21.101651
                ],
                [
                    -157.106872,
                    21.1005
                ],
                [
                    -157.107171,
                    21.100562
                ],
                [
                    -157.108285,
                    21.100296
                ],
                [
                    -157.108941,
                    21.100872
                ],
                [
                    -157.110376,
                    21.100804
                ],
                [
                    -157.111019,
                    21.101219
                ],
                [
                    -157.111734,
                    21.101326
                ],
                [
                    -157.112283,
                    21.10104
                ],
                [
                    -157.112789,
                    21.101214
                ],
                [
                    -157.113233,
                    21.100832
                ],
                [
                    -157.114134,
                    21.100737
                ],
                [
                    -157.115259,
                    21.100253
                ],
                [
                    -157.115411,
                    21.099463
                ],
                [
                    -157.115306,
                    21.098981
                ],
                [
                    -157.115536,
                    21.098874
                ],
                [
                    -157.116475,
                    21.098957
                ],
                [
                    -157.116924,
                    21.099347
                ],
                [
                    -157.117697,
                    21.099118
                ],
                [
                    -157.117758,
                    21.099373
                ],
                [
                    -157.118051,
                    21.099419
                ],
                [
                    -157.118677,
                    21.098692
                ],
                [
                    -157.118874,
                    21.098205
                ],
                [
                    -157.119225,
                    21.098033
                ],
                [
                    -157.119287,
                    21.098605
                ],
                [
                    -157.119481,
                    21.098845
                ],
                [
                    -157.120474,
                    21.099498
                ],
                [
                    -157.120935,
                    21.09964
                ],
                [
                    -157.12243,
                    21.099459
                ],
                [
                    -157.123956,
                    21.098765
                ],
                [
                    -157.124724,
                    21.098971
                ],
                [
                    -157.124938,
                    21.098438
                ],
                [
                    -157.125741,
                    21.097952
                ],
                [
                    -157.126036,
                    21.097363
                ],
                [
                    -157.126621,
                    21.097943
                ],
                [
                    -157.12699,
                    21.09762
                ],
                [
                    -157.12748,
                    21.097981
                ],
                [
                    -157.130655,
                    21.097161
                ],
                [
                    -157.132827,
                    21.096211
                ],
                [
                    -157.134303,
                    21.095273
                ],
                [
                    -157.134758,
                    21.095336
                ],
                [
                    -157.134989,
                    21.095038
                ],
                [
                    -157.138715,
                    21.093826
                ],
                [
                    -157.139871,
                    21.093792
                ],
                [
                    -157.140913,
                    21.093491
                ],
                [
                    -157.147012,
                    21.093026
                ],
                [
                    -157.147439,
                    21.092244
                ],
                [
                    -157.148263,
                    21.091603
                ],
                [
                    -157.149515,
                    21.091183
                ],
                [
                    -157.149712,
                    21.091181
                ],
                [
                    -157.149835,
                    21.091574
                ],
                [
                    -157.150301,
                    21.091991
                ],
                [
                    -157.150461,
                    21.092349
                ],
                [
                    -157.150891,
                    21.092436
                ],
                [
                    -157.151208,
                    21.092139
                ],
                [
                    -157.151666,
                    21.092114
                ],
                [
                    -157.151544,
                    21.092547
                ],
                [
                    -157.151712,
                    21.092669
                ],
                [
                    -157.154718,
                    21.093091
                ],
                [
                    -157.157205,
                    21.093085
                ],
                [
                    -157.157541,
                    21.092947
                ],
                [
                    -157.158121,
                    21.092339
                ],
                [
                    -157.158416,
                    21.092734
                ],
                [
                    -157.160812,
                    21.092365
                ],
                [
                    -157.160974,
                    21.091761
                ],
                [
                    -157.160853,
                    21.091479
                ],
                [
                    -157.16111,
                    21.091146
                ],
                [
                    -157.1616,
                    21.091234
                ],
                [
                    -157.162142,
                    21.091902
                ],
                [
                    -157.162423,
                    21.091958
                ],
                [
                    -157.163001,
                    21.09165
                ],
                [
                    -157.16349,
                    21.091714
                ],
                [
                    -157.163808,
                    21.091568
                ],
                [
                    -157.163929,
                    21.09189
                ],
                [
                    -157.164743,
                    21.091986
                ],
                [
                    -157.166131,
                    21.092097
                ],
                [
                    -157.166604,
                    21.091837
                ],
                [
                    -157.167016,
                    21.092366
                ],
                [
                    -157.16917,
                    21.092822
                ],
                [
                    -157.172191,
                    21.092419
                ],
                [
                    -157.173669,
                    21.092482
                ],
                [
                    -157.174022,
                    21.092407
                ],
                [
                    -157.174099,
                    21.092028
                ],
                [
                    -157.174615,
                    21.091866
                ],
                [
                    -157.175302,
                    21.092267
                ],
                [
                    -157.17802,
                    21.090995
                ],
                [
                    -157.180215,
                    21.091553
                ],
                [
                    -157.182779,
                    21.090918
                ],
                [
                    -157.185434,
                    21.091056
                ],
                [
                    -157.186287,
                    21.091772
                ],
                [
                    -157.186853,
                    21.091803
                ],
                [
                    -157.188848,
                    21.091388
                ],
                [
                    -157.191568,
                    21.091309
                ],
                [
                    -157.192376,
                    21.091532
                ],
                [
                    -157.193399,
                    21.091143
                ],
                [
                    -157.194333,
                    21.09118
                ],
                [
                    -157.194162,
                    21.089704
                ],
                [
                    -157.19436,
                    21.089688
                ],
                [
                    -157.194557,
                    21.091187
                ],
                [
                    -157.195295,
                    21.091185
                ],
                [
                    -157.196609,
                    21.090803
                ],
                [
                    -157.197157,
                    21.09043
                ],
                [
                    -157.199548,
                    21.090426
                ],
                [
                    -157.201593,
                    21.089968
                ],
                [
                    -157.204467,
                    21.090259
                ],
                [
                    -157.207101,
                    21.09014
                ],
                [
                    -157.210701,
                    21.089694
                ],
                [
                    -157.212488,
                    21.089754
                ],
                [
                    -157.213571,
                    21.090035
                ],
                [
                    -157.216287,
                    21.089688
                ],
                [
                    -157.218019,
                    21.089804
                ],
                [
                    -157.219264,
                    21.089551
                ],
                [
                    -157.226177,
                    21.08908
                ],
                [
                    -157.227333,
                    21.088763
                ],
                [
                    -157.229944,
                    21.088747
                ],
                [
                    -157.231623,
                    21.088349
                ],
                [
                    -157.233485,
                    21.088399
                ],
                [
                    -157.234308,
                    21.087969
                ],
                [
                    -157.237283,
                    21.087849
                ],
                [
                    -157.238698,
                    21.088126
                ],
                [
                    -157.239557,
                    21.087996
                ],
                [
                    -157.243097,
                    21.088221
                ],
                [
                    -157.243692,
                    21.087693
                ],
                [
                    -157.243558,
                    21.087355
                ],
                [
                    -157.243694,
                    21.087104
                ],
                [
                    -157.246747,
                    21.085417
                ],
                [
                    -157.24789,
                    21.085183
                ],
                [
                    -157.248832,
                    21.084633
                ],
                [
                    -157.248964,
                    21.084839
                ],
                [
                    -157.248849,
                    21.08514
                ],
                [
                    -157.247857,
                    21.085676
                ],
                [
                    -157.246896,
                    21.086613
                ],
                [
                    -157.246881,
                    21.08679
                ],
                [
                    -157.247033,
                    21.086918
                ],
                [
                    -157.247735,
                    21.086937
                ],
                [
                    -157.248712,
                    21.086732
                ],
                [
                    -157.250283,
                    21.086741
                ],
                [
                    -157.25094,
                    21.087035
                ],
                [
                    -157.251092,
                    21.08667
                ],
                [
                    -157.251016,
                    21.086403
                ],
                [
                    -157.250043,
                    21.085529
                ],
                [
                    -157.249734,
                    21.083438
                ],
                [
                    -157.250055,
                    21.084631
                ],
                [
                    -157.250436,
                    21.085385
                ],
                [
                    -157.251988,
                    21.086579
                ],
                [
                    -157.251245,
                    21.086821
                ],
                [
                    -157.2513,
                    21.087343
                ],
                [
                    -157.251489,
                    21.08746
                ],
                [
                    -157.253127,
                    21.087686
                ],
                [
                    -157.254094,
                    21.087538
                ],
                [
                    -157.256799,
                    21.088414
                ],
                [
                    -157.258,
                    21.088341
                ],
                [
                    -157.259637,
                    21.08885
                ],
                [
                    -157.261041,
                    21.088976
                ],
                [
                    -157.261667,
                    21.089207
                ],
                [
                    -157.262449,
                    21.089271
                ],
                [
                    -157.263742,
                    21.089077
                ],
                [
                    -157.264459,
                    21.089322
                ],
                [
                    -157.265264,
                    21.089224
                ],
                [
                    -157.266656,
                    21.089827
                ],
                [
                    -157.270603,
                    21.09045
                ],
                [
                    -157.271936,
                    21.090901
                ],
                [
                    -157.27308,
                    21.090975
                ],
                [
                    -157.274179,
                    21.090825
                ],
                [
                    -157.275592,
                    21.091288
                ],
                [
                    -157.277383,
                    21.091059
                ],
                [
                    -157.27802,
                    21.091652
                ],
                [
                    -157.27872,
                    21.091872
                ],
                [
                    -157.284394,
                    21.093059
                ],
                [
                    -157.285043,
                    21.092867
                ],
                [
                    -157.285167,
                    21.092657
                ],
                [
                    -157.285455,
                    21.092677
                ],
                [
                    -157.285564,
                    21.092385
                ],
                [
                    -157.285791,
                    21.092436
                ],
                [
                    -157.285959,
                    21.092232
                ],
                [
                    -157.286077,
                    21.092244
                ],
                [
                    -157.286335,
                    21.093061
                ],
                [
                    -157.286743,
                    21.093295
                ],
                [
                    -157.292077,
                    21.093724
                ],
                [
                    -157.292657,
                    21.093535
                ],
                [
                    -157.292871,
                    21.093707
                ],
                [
                    -157.29339,
                    21.093697
                ],
                [
                    -157.293763,
                    21.094004
                ],
                [
                    -157.294983,
                    21.094028
                ],
                [
                    -157.295999,
                    21.09342
                ],
                [
                    -157.296945,
                    21.093176
                ],
                [
                    -157.298588,
                    21.093142
                ],
                [
                    -157.300058,
                    21.093953
                ],
                [
                    -157.300273,
                    21.093876
                ],
                [
                    -157.301477,
                    21.094126
                ],
                [
                    -157.301946,
                    21.094447
                ],
                [
                    -157.302148,
                    21.095002
                ],
                [
                    -157.302575,
                    21.095292
                ],
                [
                    -157.30345,
                    21.095345
                ],
                [
                    -157.303766,
                    21.095194
                ],
                [
                    -157.305,
                    21.095161
                ],
                [
                    -157.305078,
                    21.095572
                ],
                [
                    -157.304956,
                    21.095969
                ],
                [
                    -157.305154,
                    21.096337
                ],
                [
                    -157.307535,
                    21.0975
                ],
                [
                    -157.308098,
                    21.097393
                ],
                [
                    -157.308801,
                    21.09841
                ],
                [
                    -157.308736,
                    21.098855
                ],
                [
                    -157.305142,
                    21.098772
                ],
                [
                    -157.30083,
                    21.098908
                ],
                [
                    -157.297249,
                    21.099217
                ],
                [
                    -157.292978,
                    21.099823
                ],
                [
                    -157.28875,
                    21.100683
                ],
                [
                    -157.285272,
                    21.101591
                ],
                [
                    -157.281164,
                    21.102907
                ],
                [
                    -157.277806,
                    21.10419
                ],
                [
                    -157.274515,
                    21.105638
                ],
                [
                    -157.270667,
                    21.107589
                ],
                [
                    -157.267555,
                    21.109387
                ],
                [
                    -157.263943,
                    21.111747
                ],
                [
                    -157.261046,
                    21.113875
                ],
                [
                    -157.257713,
                    21.116614
                ],
                [
                    -157.254551,
                    21.119548
                ],
                [
                    -157.252052,
                    21.122133
                ],
                [
                    -157.248332,
                    21.126518
                ],
                [
                    -157.245371,
                    21.130588
                ],
                [
                    -157.2427,
                    21.134853
                ],
                [
                    -157.240333,
                    21.139294
                ],
                [
                    -157.212951,
                    21.202045
                ],
                [
                    -157.190913,
                    21.191118
                ],
                [
                    -157.182886,
                    21.187605
                ],
                [
                    -157.175899,
                    21.184852
                ],
                [
                    -157.167633,
                    21.181946
                ],
                [
                    -157.159257,
                    21.179373
                ],
                [
                    -157.150786,
                    21.177138
                ],
                [
                    -157.141003,
                    21.175002
                ],
                [
                    -157.035313,
                    21.157177
                ],
                [
                    -157.023156,
                    21.155407
                ],
                [
                    -157.010767,
                    21.154157
                ],
                [
                    -156.998334,
                    21.153457
                ],
                [
                    -156.961698,
                    21.153217
                ],
                [
                    -156.926126,
                    21.12477
                ]
            ],
            [
                [
                    -156.980789,
                    21.069932
                ],
                [
                    -156.980168,
                    21.069896
                ],
                [
                    -156.979455,
                    21.070326
                ],
                [
                    -156.978357,
                    21.071438
                ],
                [
                    -156.979102,
                    21.071651
                ],
                [
                    -156.98028,
                    21.072759
                ],
                [
                    -156.981264,
                    21.073036
                ],
                [
                    -156.981948,
                    21.072722
                ],
                [
                    -156.982126,
                    21.071131
                ],
                [
                    -156.982049,
                    21.070761
                ],
                [
                    -156.981607,
                    21.070212
                ],
                [
                    -156.980789,
                    21.069932
                ]
            ]
        ]
    },
    "properties": {
        "@id": "https://api.weather.gov/zones/forecast/HIZ041",
        "@type": "wx:Zone",
        "id": "HIZ041",
        "type": "public",
        "name": "Molokai Leeward South",
        "effectiveDate": "2026-04-16T18:00:00+00:00",
        "expirationDate": "2200-01-01T00:00:00+00:00",
        "state": "HI",
        "forecastOffice": "https://api.weather.gov/offices/HFO",
        "gridIdentifier": "HFO",
        "awipsLocationIdentifier": "HFO",
        "cwa": [
            "HFO"
        ],
        "forecastOffices": [
            "https://api.weather.gov/offices/HFO"
        ],
        "timeZone": [
            "Pacific/Honolulu"
        ],
        "observationStations": [],
        "radarStation": null
    }
}