{
    "@context": {
        "@version": "1.1"
    },
    "id": "https://api.weather.gov/zones/forecast/CAZ560",
    "type": "Feature",
    "geometry": {
        "type": "Polygon",
        "coordinates": [
            [
                [
                    -116.053596,
                    34.121212
                ],
                [
                    -116.053596,
                    34.107014
                ],
                [
                    -116.035995,
                    34.107014
                ],
                [
                    -116.035698,
                    34.078312
                ],
                [
                    -116.000694,
                    34.077911
                ],
                [
                    -116.000793,
                    34.034412
                ],
                [
                    -115.987999,
                    34.034412
                ],
                [
                    -115.983894,
                    34.034813
                ],
                [
                    -115.961296,
                    34.03511
                ],
                [
                    -115.903204,
                    34.035213
                ],
                [
                    -115.9036,
                    34.0281
                ],
                [
                    -115.9078,
                    33.9815
                ],
                [
                    -115.9549,
                    33.9471
                ],
                [
                    -115.9601,
                    33.9435
                ],
                [
                    -115.9173,
                    33.8625
                ],
                [
                    -115.8814,
                    33.8605
                ],
                [
                    -115.8774,
                    33.8601
                ],
                [
                    -115.8364,
                    33.8577
                ],
                [
                    -115.7936,
                    33.791101
                ],
                [
                    -115.7224,
                    33.791101
                ],
                [
                    -115.6052,
                    33.801292
                ],
                [
                    -115.6088,
                    33.7615
                ],
                [
                    -115.707999,
                    33.7469
                ],
                [
                    -115.7677,
                    33.7351
                ],
                [
                    -115.946396,
                    33.7391
                ],
                [
                    -116.000893,
                    33.740311
                ],
                [
                    -116.125198,
                    33.831112
                ],
                [
                    -116.125198,
                    33.851913
                ],
                [
                    -116.199898,
                    33.919811
                ],
                [
                    -116.283997,
                    33.919811
                ],
                [
                    -116.319911,
                    33.929392
                ],
                [
                    -116.424194,
                    33.957211
                ],
                [
                    -116.472298,
                    34.03281
                ],
                [
                    -116.444901,
                    34.076012
                ],
                [
                    -116.352097,
                    34.076012
                ],
                [
                    -116.317398,
                    34.076214
                ],
                [
                    -116.299797,
                    34.076813
                ],
                [
                    -116.282394,
                    34.077812
                ],
                [
                    -116.2649,
                    34.077713
                ],
                [
                    -116.264999,
                    34.120514
                ],
                [
                    -116.2463,
                    34.120411
                ],
                [
                    -116.229294,
                    34.120613
                ],
                [
                    -116.105698,
                    34.120411
                ],
                [
                    -116.053596,
                    34.121212
                ]
            ]
        ]
    },
    "properties": {
        "@id": "https://api.weather.gov/zones/forecast/CAZ560",
        "@type": "wx:Zone",
        "id": "CAZ560",
        "type": "public",
        "name": "Joshua Tree NP West",
        "effectiveDate": "2026-04-16T18:00:00+00:00",
        "expirationDate": "2200-01-01T00:00:00+00:00",
        "state": "CA",
        "forecastOffice": "https://api.weather.gov/offices/PSR",
        "gridIdentifier": "PSR",
        "awipsLocationIdentifier": "PSR",
        "cwa": [
            "PSR"
        ],
        "forecastOffices": [
            "https://api.weather.gov/offices/PSR"
        ],
        "timeZone": [
            "America/Los_Angeles"
        ],
        "observationStations": [
            "https://api.weather.gov/stations/CI233",
            "https://api.weather.gov/stations/E9911",
            "https://api.weather.gov/stations/LTHC1",
            "https://api.weather.gov/stations/WCYC1"
        ],
        "radarStation": null
    }
}