{
    "@context": {
        "@version": "1.1"
    },
    "id": "https://api.weather.gov/zones/forecast/HIZ049",
    "type": "Feature",
    "geometry": {
        "type": "Polygon",
        "coordinates": [
            [
                [
                    -156.276754,
                    20.760603
                ],
                [
                    -156.27658,
                    20.758705
                ],
                [
                    -156.277693,
                    20.758921
                ],
                [
                    -156.279385,
                    20.75706
                ],
                [
                    -156.280122,
                    20.756865
                ],
                [
                    -156.281568,
                    20.755693
                ],
                [
                    -156.281676,
                    20.752768
                ],
                [
                    -156.28195,
                    20.75165
                ],
                [
                    -156.282984,
                    20.749326
                ],
                [
                    -156.282746,
                    20.747915
                ],
                [
                    -156.283994,
                    20.747402
                ],
                [
                    -156.284557,
                    20.746823
                ],
                [
                    -156.284878,
                    20.745691
                ],
                [
                    -156.284625,
                    20.744434
                ],
                [
                    -156.28508,
                    20.744234
                ],
                [
                    -156.28552,
                    20.743193
                ],
                [
                    -156.285507,
                    20.742776
                ],
                [
                    -156.285766,
                    20.742514
                ],
                [
                    -156.286601,
                    20.742522
                ],
                [
                    -156.286634,
                    20.741522
                ],
                [
                    -156.28716,
                    20.74168
                ],
                [
                    -156.288183,
                    20.741206
                ],
                [
                    -156.28849,
                    20.74012
                ],
                [
                    -156.289831,
                    20.739398
                ],
                [
                    -156.290569,
                    20.738555
                ],
                [
                    -156.291521,
                    20.738196
                ],
                [
                    -156.291658,
                    20.737094
                ],
                [
                    -156.292674,
                    20.736913
                ],
                [
                    -156.293863,
                    20.736341
                ],
                [
                    -156.29737,
                    20.731913
                ],
                [
                    -156.298046,
                    20.731668
                ],
                [
                    -156.298426,
                    20.730881
                ],
                [
                    -156.299032,
                    20.730167
                ],
                [
                    -156.30082,
                    20.726766
                ],
                [
                    -156.303049,
                    20.724068
                ],
                [
                    -156.304279,
                    20.723519
                ],
                [
                    -156.305597,
                    20.72233
                ],
                [
                    -156.306055,
                    20.722153
                ],
                [
                    -156.306678,
                    20.721109
                ],
                [
                    -156.30867,
                    20.718853
                ],
                [
                    -156.309011,
                    20.718022
                ],
                [
                    -156.311876,
                    20.71466
                ],
                [
                    -156.313266,
                    20.71399
                ],
                [
                    -156.313606,
                    20.713087
                ],
                [
                    -156.313573,
                    20.712429
                ],
                [
                    -156.315762,
                    20.710175
                ],
                [
                    -156.315785,
                    20.709463
                ],
                [
                    -156.316749,
                    20.708564
                ],
                [
                    -156.317624,
                    20.708068
                ],
                [
                    -156.317882,
                    20.706808
                ],
                [
                    -156.318608,
                    20.706639
                ],
                [
                    -156.320411,
                    20.704154
                ],
                [
                    -156.321547,
                    20.703591
                ],
                [
                    -156.321918,
                    20.70285
                ],
                [
                    -156.322378,
                    20.702793
                ],
                [
                    -156.325766,
                    20.699771
                ],
                [
                    -156.327307,
                    20.697718
                ],
                [
                    -156.327656,
                    20.696848
                ],
                [
                    -156.328402,
                    20.696029
                ],
                [
                    -156.329532,
                    20.693793
                ],
                [
                    -156.330299,
                    20.692952
                ],
                [
                    -156.3305,
                    20.692439
                ],
                [
                    -156.331179,
                    20.692008
                ],
                [
                    -156.333166,
                    20.690197
                ],
                [
                    -156.334479,
                    20.688444
                ],
                [
                    -156.334723,
                    20.686878
                ],
                [
                    -156.335281,
                    20.686654
                ],
                [
                    -156.337638,
                    20.683731
                ],
                [
                    -156.337802,
                    20.68268
                ],
                [
                    -156.339505,
                    20.678433
                ],
                [
                    -156.339437,
                    20.677619
                ],
                [
                    -156.340429,
                    20.675688
                ],
                [
                    -156.341312,
                    20.675078
                ],
                [
                    -156.342618,
                    20.673515
                ],
                [
                    -156.342674,
                    20.672731
                ],
                [
                    -156.343022,
                    20.672799
                ],
                [
                    -156.34362,
                    20.672642
                ],
                [
                    -156.343852,
                    20.671857
                ],
                [
                    -156.344906,
                    20.670821
                ],
                [
                    -156.344721,
                    20.670117
                ],
                [
                    -156.345287,
                    20.669744
                ],
                [
                    -156.345673,
                    20.667784
                ],
                [
                    -156.345018,
                    20.664975
                ],
                [
                    -156.346425,
                    20.663162
                ],
                [
                    -156.347326,
                    20.662821
                ],
                [
                    -156.347642,
                    20.661578
                ],
                [
                    -156.347305,
                    20.661308
                ],
                [
                    -156.348084,
                    20.660277
                ],
                [
                    -156.349829,
                    20.659496
                ],
                [
                    -156.351051,
                    20.658665
                ],
                [
                    -156.351968,
                    20.656956
                ],
                [
                    -156.3519,
                    20.655833
                ],
                [
                    -156.351383,
                    20.655655
                ],
                [
                    -156.351239,
                    20.654925
                ],
                [
                    -156.417123,
                    20.597275
                ],
                [
                    -156.41776,
                    20.597055
                ],
                [
                    -156.418205,
                    20.597407
                ],
                [
                    -156.419519,
                    20.597571
                ],
                [
                    -156.420465,
                    20.598935
                ],
                [
                    -156.421406,
                    20.599159
                ],
                [
                    -156.421484,
                    20.599815
                ],
                [
                    -156.422326,
                    20.60006
                ],
                [
                    -156.422326,
                    20.59912
                ],
                [
                    -156.422906,
                    20.598847
                ],
                [
                    -156.422372,
                    20.598467
                ],
                [
                    -156.422208,
                    20.597398
                ],
                [
                    -156.42283,
                    20.597514
                ],
                [
                    -156.423059,
                    20.597136
                ],
                [
                    -156.422998,
                    20.596071
                ],
                [
                    -156.42356,
                    20.596234
                ],
                [
                    -156.423546,
                    20.596669
                ],
                [
                    -156.424157,
                    20.597634
                ],
                [
                    -156.424203,
                    20.596329
                ],
                [
                    -156.425138,
                    20.595732
                ],
                [
                    -156.426065,
                    20.595425
                ],
                [
                    -156.426498,
                    20.594282
                ],
                [
                    -156.426917,
                    20.594391
                ],
                [
                    -156.427224,
                    20.595562
                ],
                [
                    -156.428079,
                    20.595469
                ],
                [
                    -156.428613,
                    20.594956
                ],
                [
                    -156.4293,
                    20.595002
                ],
                [
                    -156.429681,
                    20.595475
                ],
                [
                    -156.430427,
                    20.595477
                ],
                [
                    -156.430947,
                    20.596218
                ],
                [
                    -156.430627,
                    20.596812
                ],
                [
                    -156.431068,
                    20.597068
                ],
                [
                    -156.431394,
                    20.596959
                ],
                [
                    -156.432826,
                    20.597128
                ],
                [
                    -156.433206,
                    20.596924
                ],
                [
                    -156.433862,
                    20.597212
                ],
                [
                    -156.434047,
                    20.597701
                ],
                [
                    -156.435815,
                    20.598196
                ],
                [
                    -156.43624,
                    20.598839
                ],
                [
                    -156.436868,
                    20.599198
                ],
                [
                    -156.437641,
                    20.600723
                ],
                [
                    -156.437232,
                    20.60187
                ],
                [
                    -156.438217,
                    20.603572
                ],
                [
                    -156.439211,
                    20.604259
                ],
                [
                    -156.439795,
                    20.603941
                ],
                [
                    -156.441672,
                    20.604801
                ],
                [
                    -156.44172,
                    20.605599
                ],
                [
                    -156.44152,
                    20.606415
                ],
                [
                    -156.440606,
                    20.606917
                ],
                [
                    -156.440667,
                    20.607474
                ],
                [
                    -156.440377,
                    20.60802
                ],
                [
                    -156.440646,
                    20.608127
                ],
                [
                    -156.44082,
                    20.608784
                ],
                [
                    -156.440774,
                    20.609364
                ],
                [
                    -156.440314,
                    20.610701
                ],
                [
                    -156.439549,
                    20.611352
                ],
                [
                    -156.43803,
                    20.611567
                ],
                [
                    -156.437672,
                    20.611893
                ],
                [
                    -156.4376,
                    20.612592
                ],
                [
                    -156.437243,
                    20.612894
                ],
                [
                    -156.437307,
                    20.613211
                ],
                [
                    -156.437616,
                    20.613537
                ],
                [
                    -156.437279,
                    20.614056
                ],
                [
                    -156.437732,
                    20.614603
                ],
                [
                    -156.437839,
                    20.615139
                ],
                [
                    -156.438463,
                    20.61574
                ],
                [
                    -156.438028,
                    20.617491
                ],
                [
                    -156.437672,
                    20.617961
                ],
                [
                    -156.437884,
                    20.618307
                ],
                [
                    -156.43838,
                    20.618156
                ],
                [
                    -156.438512,
                    20.6183
                ],
                [
                    -156.438753,
                    20.619013
                ],
                [
                    -156.439508,
                    20.619982
                ],
                [
                    -156.439691,
                    20.620448
                ],
                [
                    -156.43924,
                    20.620795
                ],
                [
                    -156.439302,
                    20.621184
                ],
                [
                    -156.439645,
                    20.621292
                ],
                [
                    -156.439798,
                    20.622063
                ],
                [
                    -156.440271,
                    20.622397
                ],
                [
                    -156.440408,
                    20.623158
                ],
                [
                    -156.440942,
                    20.623229
                ],
                [
                    -156.440923,
                    20.623891
                ],
                [
                    -156.441461,
                    20.624127
                ],
                [
                    -156.441949,
                    20.623999
                ],
                [
                    -156.442468,
                    20.624396
                ],
                [
                    -156.442293,
                    20.624968
                ],
                [
                    -156.442407,
                    20.625193
                ],
                [
                    -156.443241,
                    20.625075
                ],
                [
                    -156.442972,
                    20.625454
                ],
                [
                    -156.443562,
                    20.625875
                ],
                [
                    -156.443612,
                    20.626174
                ],
                [
                    -156.443971,
                    20.626263
                ],
                [
                    -156.44436,
                    20.626814
                ],
                [
                    -156.444688,
                    20.628598
                ],
                [
                    -156.445971,
                    20.63024
                ],
                [
                    -156.45005,
                    20.633163
                ],
                [
                    -156.451318,
                    20.632988
                ],
                [
                    -156.451503,
                    20.632802
                ],
                [
                    -156.45169,
                    20.633109
                ],
                [
                    -156.451853,
                    20.632996
                ],
                [
                    -156.4526,
                    20.633088
                ],
                [
                    -156.45191,
                    20.633748
                ],
                [
                    -156.451864,
                    20.634426
                ],
                [
                    -156.452005,
                    20.634701
                ],
                [
                    -156.45275,
                    20.635074
                ],
                [
                    -156.453073,
                    20.635584
                ],
                [
                    -156.453342,
                    20.636528
                ],
                [
                    -156.453239,
                    20.636673
                ],
                [
                    -156.452736,
                    20.636673
                ],
                [
                    -156.452332,
                    20.637366
                ],
                [
                    -156.452032,
                    20.637479
                ],
                [
                    -156.451959,
                    20.637778
                ],
                [
                    -156.450945,
                    20.638107
                ],
                [
                    -156.451059,
                    20.638697
                ],
                [
                    -156.450876,
                    20.638808
                ],
                [
                    -156.449184,
                    20.638742
                ],
                [
                    -156.448083,
                    20.639069
                ],
                [
                    -156.447164,
                    20.640071
                ],
                [
                    -156.446597,
                    20.640974
                ],
                [
                    -156.446145,
                    20.643073
                ],
                [
                    -156.446373,
                    20.643801
                ],
                [
                    -156.446802,
                    20.644131
                ],
                [
                    -156.44684,
                    20.644399
                ],
                [
                    -156.446711,
                    20.644504
                ],
                [
                    -156.446396,
                    20.644253
                ],
                [
                    -156.446039,
                    20.644206
                ],
                [
                    -156.445071,
                    20.644638
                ],
                [
                    -156.44454,
                    20.645162
                ],
                [
                    -156.443796,
                    20.645396
                ],
                [
                    -156.443323,
                    20.64613
                ],
                [
                    -156.442891,
                    20.647534
                ],
                [
                    -156.443063,
                    20.64839
                ],
                [
                    -156.442894,
                    20.649012
                ],
                [
                    -156.44315,
                    20.649133
                ],
                [
                    -156.443337,
                    20.649481
                ],
                [
                    -156.443113,
                    20.649657
                ],
                [
                    -156.442671,
                    20.649253
                ],
                [
                    -156.442252,
                    20.649374
                ],
                [
                    -156.442157,
                    20.649713
                ],
                [
                    -156.442453,
                    20.650408
                ],
                [
                    -156.442407,
                    20.650761
                ],
                [
                    -156.44183,
                    20.650374
                ],
                [
                    -156.441507,
                    20.650551
                ],
                [
                    -156.441103,
                    20.652877
                ],
                [
                    -156.441415,
                    20.653758
                ],
                [
                    -156.441949,
                    20.654002
                ],
                [
                    -156.44233,
                    20.653735
                ],
                [
                    -156.443033,
                    20.653946
                ],
                [
                    -156.444091,
                    20.655239
                ],
                [
                    -156.443368,
                    20.655304
                ],
                [
                    -156.443246,
                    20.655894
                ],
                [
                    -156.443811,
                    20.655968
                ],
                [
                    -156.443751,
                    20.656095
                ],
                [
                    -156.44297,
                    20.656022
                ],
                [
                    -156.443122,
                    20.656586
                ],
                [
                    -156.442254,
                    20.656514
                ],
                [
                    -156.441995,
                    20.657238
                ],
                [
                    -156.442186,
                    20.657894
                ],
                [
                    -156.441934,
                    20.658339
                ],
                [
                    -156.442481,
                    20.658977
                ],
                [
                    -156.442499,
                    20.659276
                ],
                [
                    -156.441629,
                    20.660428
                ],
                [
                    -156.441659,
                    20.661673
                ],
                [
                    -156.442041,
                    20.663144
                ],
                [
                    -156.442512,
                    20.664121
                ],
                [
                    -156.442727,
                    20.665431
                ],
                [
                    -156.443366,
                    20.666489
                ],
                [
                    -156.444066,
                    20.666741
                ],
                [
                    -156.444192,
                    20.666974
                ],
                [
                    -156.444162,
                    20.667218
                ],
                [
                    -156.44317,
                    20.668089
                ],
                [
                    -156.443399,
                    20.668347
                ],
                [
                    -156.443396,
                    20.669978
                ],
                [
                    -156.444066,
                    20.671086
                ],
                [
                    -156.444173,
                    20.67216
                ],
                [
                    -156.444467,
                    20.672551
                ],
                [
                    -156.444399,
                    20.673307
                ],
                [
                    -156.444101,
                    20.673525
                ],
                [
                    -156.443809,
                    20.675785
                ],
                [
                    -156.443872,
                    20.676302
                ],
                [
                    -156.444676,
                    20.677023
                ],
                [
                    -156.444589,
                    20.678315
                ],
                [
                    -156.444696,
                    20.678921
                ],
                [
                    -156.445273,
                    20.679382
                ],
                [
                    -156.44436,
                    20.680745
                ],
                [
                    -156.443933,
                    20.681036
                ],
                [
                    -156.443564,
                    20.681971
                ],
                [
                    -156.443429,
                    20.682852
                ],
                [
                    -156.443473,
                    20.6834
                ],
                [
                    -156.444009,
                    20.684985
                ],
                [
                    -156.444984,
                    20.685778
                ],
                [
                    -156.444691,
                    20.686431
                ],
                [
                    -156.444738,
                    20.687489
                ],
                [
                    -156.444188,
                    20.688514
                ],
                [
                    -156.443987,
                    20.689725
                ],
                [
                    -156.44463,
                    20.691382
                ],
                [
                    -156.444465,
                    20.692149
                ],
                [
                    -156.444513,
                    20.69299
                ],
                [
                    -156.445061,
                    20.694831
                ],
                [
                    -156.444879,
                    20.695857
                ],
                [
                    -156.445108,
                    20.698126
                ],
                [
                    -156.445727,
                    20.699387
                ],
                [
                    -156.445764,
                    20.699774
                ],
                [
                    -156.445989,
                    20.700009
                ],
                [
                    -156.446008,
                    20.7011
                ],
                [
                    -156.446296,
                    20.702522
                ],
                [
                    -156.446832,
                    20.703701
                ],
                [
                    -156.447408,
                    20.704316
                ],
                [
                    -156.447152,
                    20.705674
                ],
                [
                    -156.447488,
                    20.7062
                ],
                [
                    -156.447434,
                    20.706367
                ],
                [
                    -156.446784,
                    20.706835
                ],
                [
                    -156.446172,
                    20.708086
                ],
                [
                    -156.446481,
                    20.709929
                ],
                [
                    -156.446693,
                    20.710348
                ],
                [
                    -156.446553,
                    20.711406
                ],
                [
                    -156.447091,
                    20.716713
                ],
                [
                    -156.44787,
                    20.718676
                ],
                [
                    -156.447885,
                    20.719912
                ],
                [
                    -156.44878,
                    20.723386
                ],
                [
                    -156.449502,
                    20.724835
                ],
                [
                    -156.450309,
                    20.72565
                ],
                [
                    -156.450448,
                    20.726822
                ],
                [
                    -156.450857,
                    20.727525
                ],
                [
                    -156.450296,
                    20.727807
                ],
                [
                    -156.450325,
                    20.728146
                ],
                [
                    -156.453249,
                    20.729944
                ],
                [
                    -156.455499,
                    20.732741
                ],
                [
                    -156.45694,
                    20.737033
                ],
                [
                    -156.456872,
                    20.739592
                ],
                [
                    -156.458395,
                    20.745403
                ],
                [
                    -156.458352,
                    20.745598
                ],
                [
                    -156.457889,
                    20.745822
                ],
                [
                    -156.458567,
                    20.747937
                ],
                [
                    -156.458437,
                    20.748126
                ],
                [
                    -156.459665,
                    20.750811
                ],
                [
                    -156.459588,
                    20.752726
                ],
                [
                    -156.459892,
                    20.753269
                ],
                [
                    -156.460275,
                    20.756897
                ],
                [
                    -156.460086,
                    20.757714
                ],
                [
                    -156.46,
                    20.760687
                ],
                [
                    -156.459237,
                    20.762213
                ],
                [
                    -156.460106,
                    20.762966
                ],
                [
                    -156.460198,
                    20.7635
                ],
                [
                    -156.460135,
                    20.764098
                ],
                [
                    -156.459586,
                    20.764614
                ],
                [
                    -156.45942,
                    20.767174
                ],
                [
                    -156.448129,
                    20.770071
                ],
                [
                    -156.429818,
                    20.774271
                ],
                [
                    -156.409631,
                    20.784371
                ],
                [
                    -156.386728,
                    20.800869
                ],
                [
                    -156.380358,
                    20.807881
                ],
                [
                    -156.376733,
                    20.811871
                ],
                [
                    -156.367532,
                    20.82437
                ],
                [
                    -156.362329,
                    20.83387
                ],
                [
                    -156.35473,
                    20.851572
                ],
                [
                    -156.348932,
                    20.850972
                ],
                [
                    -156.338525,
                    20.84787
                ],
                [
                    -156.330621,
                    20.841771
                ],
                [
                    -156.325433,
                    20.833271
                ],
                [
                    -156.314721,
                    20.808173
                ],
                [
                    -156.303125,
                    20.792973
                ],
                [
                    -156.291223,
                    20.77977
                ],
                [
                    -156.27359,
                    20.765732
                ],
                [
                    -156.274226,
                    20.764902
                ],
                [
                    -156.274512,
                    20.763837
                ],
                [
                    -156.274383,
                    20.762823
                ],
                [
                    -156.276754,
                    20.760603
                ]
            ]
        ]
    },
    "properties": {
        "@id": "https://api.weather.gov/zones/forecast/HIZ049",
        "@type": "wx:Zone",
        "id": "HIZ049",
        "type": "public",
        "name": "South Maui/Upcountry",
        "effectiveDate": "2026-04-16T18:00:00+00:00",
        "expirationDate": "2200-01-01T00:00:00+00:00",
        "state": "HI",
        "forecastOffice": "https://api.weather.gov/offices/HFO",
        "gridIdentifier": "HFO",
        "awipsLocationIdentifier": "HFO",
        "cwa": [
            "HFO"
        ],
        "forecastOffices": [
            "https://api.weather.gov/offices/HFO"
        ],
        "timeZone": [
            "Pacific/Honolulu"
        ],
        "observationStations": [
            "https://api.weather.gov/stations/PHJH"
        ],
        "radarStation": null
    }
}