{
    "@context": {
        "@version": "1.1"
    },
    "id": "https://api.weather.gov/zones/forecast/MAZ014",
    "type": "Feature",
    "geometry": {
        "type": "Polygon",
        "coordinates": [
            [
                [
                    -71.068893,
                    42.526314
                ],
                [
                    -71.065895,
                    42.524513
                ],
                [
                    -71.061996,
                    42.524513
                ],
                [
                    -71.056198,
                    42.524113
                ],
                [
                    -71.044197,
                    42.525711
                ],
                [
                    -71.041199,
                    42.525913
                ],
                [
                    -71.039093,
                    42.523911
                ],
                [
                    -71.041199,
                    42.519112
                ],
                [
                    -71.036896,
                    42.511311
                ],
                [
                    -71.035698,
                    42.506714
                ],
                [
                    -71.037796,
                    42.503513
                ],
                [
                    -71.041695,
                    42.502712
                ],
                [
                    -71.042999,
                    42.499512
                ],
                [
                    -71.040497,
                    42.49551
                ],
                [
                    -71.042297,
                    42.492714
                ],
                [
                    -71.046494,
                    42.488113
                ],
                [
                    -71.052399,
                    42.485111
                ],
                [
                    -71.053497,
                    42.480911
                ],
                [
                    -71.052895,
                    42.475513
                ],
                [
                    -71.046997,
                    42.468914
                ],
                [
                    -71.039894,
                    42.46051
                ],
                [
                    -71.035095,
                    42.455711
                ],
                [
                    -71.030396,
                    42.450111
                ],
                [
                    -71.026299,
                    42.446312
                ],
                [
                    -71.022598,
                    42.441113
                ],
                [
                    -71.020599,
                    42.437511
                ],
                [
                    -71.026398,
                    42.427311
                ],
                [
                    -71.032196,
                    42.416512
                ],
                [
                    -71.033699,
                    42.413113
                ],
                [
                    -71.035698,
                    42.409412
                ],
                [
                    -71.038895,
                    42.40451
                ],
                [
                    -71.041695,
                    42.401112
                ],
                [
                    -71.047897,
                    42.396912
                ],
                [
                    -71.051598,
                    42.396912
                ],
                [
                    -71.05056,
                    42.393036
                ],
                [
                    -71.05059,
                    42.393136
                ],
                [
                    -71.056396,
                    42.387329
                ],
                [
                    -71.065613,
                    42.386719
                ],
                [
                    -71.068451,
                    42.388416
                ],
                [
                    -71.069611,
                    42.387593
                ],
                [
                    -71.072166,
                    42.389698
                ],
                [
                    -71.072327,
                    42.39172
                ],
                [
                    -71.073608,
                    42.391113
                ],
                [
                    -71.074066,
                    42.390491
                ],
                [
                    -71.076599,
                    42.387211
                ],
                [
                    -71.079399,
                    42.382412
                ],
                [
                    -71.076599,
                    42.380413
                ],
                [
                    -71.074501,
                    42.377411
                ],
                [
                    -71.072998,
                    42.373814
                ],
                [
                    -71.068092,
                    42.372112
                ],
                [
                    -71.064995,
                    42.369312
                ],
                [
                    -71.0672,
                    42.369114
                ],
                [
                    -71.070793,
                    42.367912
                ],
                [
                    -71.075096,
                    42.362511
                ],
                [
                    -71.078094,
                    42.358414
                ],
                [
                    -71.083199,
                    42.356712
                ],
                [
                    -71.092598,
                    42.354012
                ],
                [
                    -71.098495,
                    42.352913
                ],
                [
                    -71.102997,
                    42.352612
                ],
                [
                    -71.110497,
                    42.351513
                ],
                [
                    -71.116997,
                    42.357113
                ],
                [
                    -71.116997,
                    42.361214
                ],
                [
                    -71.117195,
                    42.364014
                ],
                [
                    -71.117996,
                    42.368011
                ],
                [
                    -71.122597,
                    42.368912
                ],
                [
                    -71.127693,
                    42.373112
                ],
                [
                    -71.131996,
                    42.373112
                ],
                [
                    -71.132393,
                    42.369511
                ],
                [
                    -71.139595,
                    42.364811
                ],
                [
                    -71.143898,
                    42.364914
                ],
                [
                    -71.147293,
                    42.362114
                ],
                [
                    -71.155296,
                    42.359913
                ],
                [
                    -71.159599,
                    42.360012
                ],
                [
                    -71.161995,
                    42.359112
                ],
                [
                    -71.1642,
                    42.358711
                ],
                [
                    -71.169594,
                    42.358212
                ],
                [
                    -71.171898,
                    42.355713
                ],
                [
                    -71.174095,
                    42.352711
                ],
                [
                    -71.173996,
                    42.349514
                ],
                [
                    -71.171295,
                    42.345612
                ],
                [
                    -71.168999,
                    42.342812
                ],
                [
                    -71.167297,
                    42.33971
                ],
                [
                    -71.166199,
                    42.333313
                ],
                [
                    -71.160095,
                    42.332611
                ],
                [
                    -71.156898,
                    42.330311
                ],
                [
                    -71.164795,
                    42.324413
                ],
                [
                    -71.1679,
                    42.322514
                ],
                [
                    -71.174599,
                    42.317513
                ],
                [
                    -71.178398,
                    42.313911
                ],
                [
                    -71.169495,
                    42.307613
                ],
                [
                    -71.165596,
                    42.303814
                ],
                [
                    -71.169998,
                    42.300312
                ],
                [
                    -71.177399,
                    42.295212
                ],
                [
                    -71.183296,
                    42.289913
                ],
                [
                    -71.189995,
                    42.285412
                ],
                [
                    -71.194595,
                    42.287613
                ],
                [
                    -71.196198,
                    42.286114
                ],
                [
                    -71.204697,
                    42.289413
                ],
                [
                    -71.208099,
                    42.297112
                ],
                [
                    -71.2118,
                    42.300713
                ],
                [
                    -71.211693,
                    42.304012
                ],
                [
                    -71.212898,
                    42.305813
                ],
                [
                    -71.216995,
                    42.306511
                ],
                [
                    -71.219696,
                    42.306511
                ],
                [
                    -71.223793,
                    42.307213
                ],
                [
                    -71.226494,
                    42.309414
                ],
                [
                    -71.226898,
                    42.314812
                ],
                [
                    -71.228096,
                    42.317112
                ],
                [
                    -71.230392,
                    42.320313
                ],
                [
                    -71.239197,
                    42.321613
                ],
                [
                    -71.242798,
                    42.320313
                ],
                [
                    -71.246094,
                    42.321114
                ],
                [
                    -71.252396,
                    42.326214
                ],
                [
                    -71.255699,
                    42.324211
                ],
                [
                    -71.259697,
                    42.326412
                ],
                [
                    -71.2631,
                    42.326412
                ],
                [
                    -71.270598,
                    42.327812
                ],
                [
                    -71.269096,
                    42.330311
                ],
                [
                    -71.265297,
                    42.331512
                ],
                [
                    -71.264198,
                    42.334312
                ],
                [
                    -71.258698,
                    42.336411
                ],
                [
                    -71.256798,
                    42.340511
                ],
                [
                    -71.2603,
                    42.34111
                ],
                [
                    -71.261093,
                    42.344513
                ],
                [
                    -71.259499,
                    42.348911
                ],
                [
                    -71.259995,
                    42.353714
                ],
                [
                    -71.264198,
                    42.35511
                ],
                [
                    -71.270096,
                    42.363411
                ],
                [
                    -71.272598,
                    42.366611
                ],
                [
                    -71.2705,
                    42.369312
                ],
                [
                    -71.272598,
                    42.373013
                ],
                [
                    -71.2752,
                    42.374912
                ],
                [
                    -71.274498,
                    42.378014
                ],
                [
                    -71.271194,
                    42.383511
                ],
                [
                    -71.267395,
                    42.390312
                ],
                [
                    -71.273796,
                    42.392414
                ],
                [
                    -71.279198,
                    42.398911
                ],
                [
                    -71.282394,
                    42.399914
                ],
                [
                    -71.280998,
                    42.402714
                ],
                [
                    -71.284393,
                    42.406013
                ],
                [
                    -71.282394,
                    42.409512
                ],
                [
                    -71.2798,
                    42.411713
                ],
                [
                    -71.273598,
                    42.410713
                ],
                [
                    -71.270599,
                    42.416813
                ],
                [
                    -71.269493,
                    42.41991
                ],
                [
                    -71.2668,
                    42.424911
                ],
                [
                    -71.266098,
                    42.427811
                ],
                [
                    -71.266396,
                    42.431511
                ],
                [
                    -71.2677,
                    42.436512
                ],
                [
                    -71.271896,
                    42.456913
                ],
                [
                    -71.271698,
                    42.460712
                ],
                [
                    -71.2686,
                    42.465511
                ],
                [
                    -71.264694,
                    42.470913
                ],
                [
                    -71.261795,
                    42.475311
                ],
                [
                    -71.258995,
                    42.477112
                ],
                [
                    -71.255096,
                    42.480213
                ],
                [
                    -71.252899,
                    42.483513
                ],
                [
                    -71.248795,
                    42.486012
                ],
                [
                    -71.242798,
                    42.488911
                ],
                [
                    -71.229294,
                    42.480312
                ],
                [
                    -71.220894,
                    42.473312
                ],
                [
                    -71.213997,
                    42.467911
                ],
                [
                    -71.210899,
                    42.466713
                ],
                [
                    -71.209999,
                    42.469513
                ],
                [
                    -71.205795,
                    42.467312
                ],
                [
                    -71.201096,
                    42.468513
                ],
                [
                    -71.187195,
                    42.479813
                ],
                [
                    -71.183899,
                    42.481613
                ],
                [
                    -71.181396,
                    42.483311
                ],
                [
                    -71.174599,
                    42.485413
                ],
                [
                    -71.169395,
                    42.488911
                ],
                [
                    -71.168793,
                    42.494511
                ],
                [
                    -71.168694,
                    42.498112
                ],
                [
                    -71.168999,
                    42.506714
                ],
                [
                    -71.169296,
                    42.510113
                ],
                [
                    -71.168793,
                    42.515511
                ],
                [
                    -71.147896,
                    42.524712
                ],
                [
                    -71.1352,
                    42.529713
                ],
                [
                    -71.123894,
                    42.508114
                ],
                [
                    -71.121696,
                    42.504513
                ],
                [
                    -71.117996,
                    42.501114
                ],
                [
                    -71.105698,
                    42.501713
                ],
                [
                    -71.101196,
                    42.502312
                ],
                [
                    -71.099693,
                    42.50531
                ],
                [
                    -71.097099,
                    42.506413
                ],
                [
                    -71.094597,
                    42.507813
                ],
                [
                    -71.096298,
                    42.511513
                ],
                [
                    -71.092094,
                    42.516212
                ],
                [
                    -71.085495,
                    42.523113
                ],
                [
                    -71.082497,
                    42.525414
                ],
                [
                    -71.079994,
                    42.526714
                ],
                [
                    -71.075294,
                    42.531212
                ],
                [
                    -71.068893,
                    42.526314
                ]
            ]
        ]
    },
    "properties": {
        "@id": "https://api.weather.gov/zones/forecast/MAZ014",
        "@type": "wx:Zone",
        "id": "MAZ014",
        "type": "public",
        "name": "Southeast Middlesex",
        "effectiveDate": "2026-04-16T18:00:00+00:00",
        "expirationDate": "2200-01-01T00:00:00+00:00",
        "state": "MA",
        "forecastOffice": "https://api.weather.gov/offices/BOX",
        "gridIdentifier": "BOX",
        "awipsLocationIdentifier": "BOX",
        "cwa": [
            "BOX"
        ],
        "forecastOffices": [
            "https://api.weather.gov/offices/BOX"
        ],
        "timeZone": [
            "America/New_York"
        ],
        "observationStations": [
            "https://api.weather.gov/stations/KBED",
            "https://api.weather.gov/stations/KBOS",
            "https://api.weather.gov/stations/KBVY",
            "https://api.weather.gov/stations/KMQE",
            "https://api.weather.gov/stations/KOWD"
        ],
        "radarStation": "BOX"
    }
}