{
    "@context": {
        "@version": "1.1"
    },
    "id": "https://api.weather.gov/zones/forecast/FLZ010",
    "type": "Feature",
    "geometry": {
        "type": "Polygon",
        "coordinates": [
            [
                [
                    -85.494581,
                    30.829614
                ],
                [
                    -85.489952,
                    30.829712
                ],
                [
                    -85.482451,
                    30.829012
                ],
                [
                    -85.483051,
                    30.786113
                ],
                [
                    -85.476751,
                    30.785813
                ],
                [
                    -85.432449,
                    30.785412
                ],
                [
                    -85.432651,
                    30.752713
                ],
                [
                    -85.432851,
                    30.750213
                ],
                [
                    -85.432751,
                    30.737213
                ],
                [
                    -85.432951,
                    30.732013
                ],
                [
                    -85.432851,
                    30.723713
                ],
                [
                    -85.433051,
                    30.700513
                ],
                [
                    -85.433751,
                    30.681313
                ],
                [
                    -85.433851,
                    30.668013
                ],
                [
                    -85.434551,
                    30.643413
                ],
                [
                    -85.435249,
                    30.625011
                ],
                [
                    -85.435351,
                    30.610913
                ],
                [
                    -85.435249,
                    30.578012
                ],
                [
                    -85.435951,
                    30.567715
                ],
                [
                    -85.448395,
                    30.567812
                ],
                [
                    -85.485497,
                    30.567411
                ],
                [
                    -85.486198,
                    30.563112
                ],
                [
                    -85.486298,
                    30.524313
                ],
                [
                    -85.486496,
                    30.516212
                ],
                [
                    -85.486595,
                    30.491411
                ],
                [
                    -85.487595,
                    30.458813
                ],
                [
                    -85.487595,
                    30.447613
                ],
                [
                    -85.487793,
                    30.437113
                ],
                [
                    -85.526497,
                    30.437113
                ],
                [
                    -85.5802,
                    30.437912
                ],
                [
                    -85.622398,
                    30.438313
                ],
                [
                    -85.625893,
                    30.438513
                ],
                [
                    -85.670593,
                    30.439013
                ],
                [
                    -85.675499,
                    30.439213
                ],
                [
                    -85.701897,
                    30.439611
                ],
                [
                    -85.705498,
                    30.439512
                ],
                [
                    -85.723,
                    30.439812
                ],
                [
                    -85.793694,
                    30.440311
                ],
                [
                    -85.825195,
                    30.440811
                ],
                [
                    -85.845993,
                    30.440813
                ],
                [
                    -85.854095,
                    30.440512
                ],
                [
                    -85.860298,
                    30.437912
                ],
                [
                    -85.863594,
                    30.432013
                ],
                [
                    -85.863899,
                    30.428612
                ],
                [
                    -85.866295,
                    30.425211
                ],
                [
                    -85.869194,
                    30.421713
                ],
                [
                    -85.870796,
                    30.419512
                ],
                [
                    -85.875198,
                    30.415812
                ],
                [
                    -85.878494,
                    30.413412
                ],
                [
                    -85.884598,
                    30.410311
                ],
                [
                    -85.887695,
                    30.410212
                ],
                [
                    -85.8899,
                    30.410313
                ],
                [
                    -85.892494,
                    30.410112
                ],
                [
                    -85.895599,
                    30.410212
                ],
                [
                    -85.898094,
                    30.410812
                ],
                [
                    -85.902298,
                    30.407112
                ],
                [
                    -85.906799,
                    30.406212
                ],
                [
                    -85.910095,
                    30.406912
                ],
                [
                    -85.916397,
                    30.409912
                ],
                [
                    -85.917,
                    30.412413
                ],
                [
                    -85.919296,
                    30.414213
                ],
                [
                    -85.922897,
                    30.415913
                ],
                [
                    -85.9272,
                    30.416012
                ],
                [
                    -85.930496,
                    30.413113
                ],
                [
                    -85.934799,
                    30.410812
                ],
                [
                    -85.937798,
                    30.410313
                ],
                [
                    -85.940994,
                    30.408613
                ],
                [
                    -85.944893,
                    30.408413
                ],
                [
                    -85.947594,
                    30.409813
                ],
                [
                    -85.949493,
                    30.411512
                ],
                [
                    -85.952194,
                    30.412312
                ],
                [
                    -85.9562,
                    30.411812
                ],
                [
                    -85.960899,
                    30.410711
                ],
                [
                    -85.964699,
                    30.408812
                ],
                [
                    -85.966698,
                    30.406113
                ],
                [
                    -85.969299,
                    30.404911
                ],
                [
                    -85.972,
                    30.402712
                ],
                [
                    -85.973595,
                    30.400513
                ],
                [
                    -85.974899,
                    30.399012
                ],
                [
                    -85.976196,
                    30.397013
                ],
                [
                    -85.978996,
                    30.394611
                ],
                [
                    -85.982399,
                    30.392012
                ],
                [
                    -85.984795,
                    30.391413
                ],
                [
                    -85.986618,
                    30.390717
                ],
                [
                    -85.9897,
                    30.390312
                ],
                [
                    -85.9925,
                    30.389612
                ],
                [
                    -85.99263,
                    30.390459
                ],
                [
                    -85.99369,
                    30.39093
                ],
                [
                    -86.004074,
                    30.396967
                ],
                [
                    -86.003304,
                    30.397461
                ],
                [
                    -86.003197,
                    30.397852
                ],
                [
                    -86.00341,
                    30.398262
                ],
                [
                    -86.003937,
                    30.398676
                ],
                [
                    -86.003067,
                    30.399614
                ],
                [
                    -86.002296,
                    30.400005
                ],
                [
                    -86,
                    30.400555
                ],
                [
                    -85.999634,
                    30.4006
                ],
                [
                    -85.99958,
                    30.399342
                ],
                [
                    -85.998993,
                    30.39831
                ],
                [
                    -85.9981,
                    30.398333
                ],
                [
                    -85.99527,
                    30.401016
                ],
                [
                    -85.994164,
                    30.402735
                ],
                [
                    -85.99408,
                    30.403492
                ],
                [
                    -85.993683,
                    30.403902
                ],
                [
                    -85.993393,
                    30.405901
                ],
                [
                    -85.993111,
                    30.40625
                ],
                [
                    -85.992149,
                    30.406744
                ],
                [
                    -85.989891,
                    30.408579
                ],
                [
                    -85.989441,
                    30.409565
                ],
                [
                    -85.987679,
                    30.411867
                ],
                [
                    -85.987358,
                    30.414021
                ],
                [
                    -85.986435,
                    30.415672
                ],
                [
                    -85.985428,
                    30.416794
                ],
                [
                    -85.984177,
                    30.417501
                ],
                [
                    -85.983727,
                    30.418482
                ],
                [
                    -85.983627,
                    30.42136
                ],
                [
                    -85.984093,
                    30.421843
                ],
                [
                    -85.984871,
                    30.421864
                ],
                [
                    -85.985542,
                    30.421442
                ],
                [
                    -85.986076,
                    30.421659
                ],
                [
                    -85.986588,
                    30.423515
                ],
                [
                    -85.986136,
                    30.42411
                ],
                [
                    -85.984779,
                    30.425898
                ],
                [
                    -85.982803,
                    30.427368
                ],
                [
                    -85.981949,
                    30.428526
                ],
                [
                    -85.98188,
                    30.429522
                ],
                [
                    -85.980919,
                    30.430187
                ],
                [
                    -85.979568,
                    30.430811
                ],
                [
                    -85.979218,
                    30.432579
                ],
                [
                    -85.978836,
                    30.432758
                ],
                [
                    -85.978561,
                    30.432446
                ],
                [
                    -85.978462,
                    30.431362
                ],
                [
                    -85.978142,
                    30.430868
                ],
                [
                    -85.976982,
                    30.431267
                ],
                [
                    -85.976227,
                    30.431807
                ],
                [
                    -85.975639,
                    30.431974
                ],
                [
                    -85.974907,
                    30.431837
                ],
                [
                    -85.974373,
                    30.431431
                ],
                [
                    -85.974197,
                    30.43158
                ],
                [
                    -85.974327,
                    30.432909
                ],
                [
                    -85.974846,
                    30.433485
                ],
                [
                    -85.974358,
                    30.434229
                ],
                [
                    -85.971512,
                    30.435865
                ],
                [
                    -85.9701,
                    30.43594
                ],
                [
                    -85.968887,
                    30.435757
                ],
                [
                    -85.968651,
                    30.435261
                ],
                [
                    -85.970329,
                    30.433245
                ],
                [
                    -85.970818,
                    30.431671
                ],
                [
                    -85.970131,
                    30.431198
                ],
                [
                    -85.969116,
                    30.431105
                ],
                [
                    -85.967972,
                    30.431665
                ],
                [
                    -85.966934,
                    30.432669
                ],
                [
                    -85.966263,
                    30.433897
                ],
                [
                    -85.965912,
                    30.436459
                ],
                [
                    -85.965378,
                    30.437532
                ],
                [
                    -85.963699,
                    30.439936
                ],
                [
                    -85.962418,
                    30.440584
                ],
                [
                    -85.958824,
                    30.440569
                ],
                [
                    -85.955391,
                    30.44241
                ],
                [
                    -85.954208,
                    30.443375
                ],
                [
                    -85.952827,
                    30.44417
                ],
                [
                    -85.949593,
                    30.444756
                ],
                [
                    -85.946983,
                    30.444622
                ],
                [
                    -85.943466,
                    30.44364
                ],
                [
                    -85.939934,
                    30.44393
                ],
                [
                    -85.935936,
                    30.445244
                ],
                [
                    -85.934059,
                    30.445251
                ],
                [
                    -85.933205,
                    30.444891
                ],
                [
                    -85.932938,
                    30.444025
                ],
                [
                    -85.933174,
                    30.44243
                ],
                [
                    -85.932434,
                    30.441645
                ],
                [
                    -85.931007,
                    30.441465
                ],
                [
                    -85.928482,
                    30.441444
                ],
                [
                    -85.924408,
                    30.440094
                ],
                [
                    -85.916153,
                    30.438503
                ],
                [
                    -85.914787,
                    30.438622
                ],
                [
                    -85.911697,
                    30.440012
                ],
                [
                    -85.910278,
                    30.441172
                ],
                [
                    -85.910019,
                    30.442217
                ],
                [
                    -85.908882,
                    30.442713
                ],
                [
                    -85.904945,
                    30.441998
                ],
                [
                    -85.902718,
                    30.442442
                ],
                [
                    -85.901222,
                    30.44385
                ],
                [
                    -85.899612,
                    30.447447
                ],
                [
                    -85.897446,
                    30.453512
                ],
                [
                    -85.897621,
                    30.45612
                ],
                [
                    -85.897346,
                    30.456274
                ],
                [
                    -85.896629,
                    30.456123
                ],
                [
                    -85.89505,
                    30.455334
                ],
                [
                    -85.89386,
                    30.455168
                ],
                [
                    -85.893059,
                    30.456316
                ],
                [
                    -85.893349,
                    30.457064
                ],
                [
                    -85.894188,
                    30.457897
                ],
                [
                    -85.89447,
                    30.458813
                ],
                [
                    -85.89415,
                    30.459532
                ],
                [
                    -85.892639,
                    30.460899
                ],
                [
                    -85.891365,
                    30.462641
                ],
                [
                    -85.889656,
                    30.468105
                ],
                [
                    -85.889305,
                    30.469955
                ],
                [
                    -85.889359,
                    30.47114
                ],
                [
                    -85.888458,
                    30.472134
                ],
                [
                    -85.887054,
                    30.472469
                ],
                [
                    -85.886177,
                    30.472233
                ],
                [
                    -85.885735,
                    30.47151
                ],
                [
                    -85.886032,
                    30.470333
                ],
                [
                    -85.886879,
                    30.468372
                ],
                [
                    -85.887024,
                    30.467083
                ],
                [
                    -85.886452,
                    30.465918
                ],
                [
                    -85.884331,
                    30.46537
                ],
                [
                    -85.879173,
                    30.466431
                ],
                [
                    -85.878021,
                    30.466845
                ],
                [
                    -85.877357,
                    30.467896
                ],
                [
                    -85.875069,
                    30.475367
                ],
                [
                    -85.873253,
                    30.479149
                ],
                [
                    -85.871475,
                    30.482134
                ],
                [
                    -85.87001,
                    30.4841
                ],
                [
                    -85.866821,
                    30.487637
                ],
                [
                    -85.859772,
                    30.490135
                ],
                [
                    -85.859474,
                    30.490782
                ],
                [
                    -85.859352,
                    30.491613
                ],
                [
                    -85.859795,
                    30.492176
                ],
                [
                    -85.860054,
                    30.493212
                ],
                [
                    -85.859566,
                    30.494448
                ],
                [
                    -85.858673,
                    30.495659
                ],
                [
                    -85.858002,
                    30.496904
                ],
                [
                    -85.858421,
                    30.497177
                ],
                [
                    -85.860588,
                    30.497318
                ],
                [
                    -85.864227,
                    30.498249
                ],
                [
                    -85.865746,
                    30.498276
                ],
                [
                    -85.866302,
                    30.498842
                ],
                [
                    -85.866653,
                    30.500195
                ],
                [
                    -85.866028,
                    30.501196
                ],
                [
                    -85.865501,
                    30.501646
                ],
                [
                    -85.865372,
                    30.502136
                ],
                [
                    -85.86586,
                    30.502399
                ],
                [
                    -85.867462,
                    30.502659
                ],
                [
                    -85.868271,
                    30.503302
                ],
                [
                    -85.868713,
                    30.504234
                ],
                [
                    -85.868637,
                    30.50522
                ],
                [
                    -85.867935,
                    30.506613
                ],
                [
                    -85.867912,
                    30.506927
                ],
                [
                    -85.86824,
                    30.50704
                ],
                [
                    -85.86895,
                    30.506826
                ],
                [
                    -85.870255,
                    30.505827
                ],
                [
                    -85.873238,
                    30.504818
                ],
                [
                    -85.87368,
                    30.504864
                ],
                [
                    -85.873848,
                    30.505106
                ],
                [
                    -85.874107,
                    30.506517
                ],
                [
                    -85.874931,
                    30.507467
                ],
                [
                    -85.875862,
                    30.506367
                ],
                [
                    -85.875885,
                    30.505301
                ],
                [
                    -85.878204,
                    30.504358
                ],
                [
                    -85.879829,
                    30.504635
                ],
                [
                    -85.88382,
                    30.507843
                ],
                [
                    -85.883972,
                    30.508423
                ],
                [
                    -85.883842,
                    30.508923
                ],
                [
                    -85.883446,
                    30.509199
                ],
                [
                    -85.882988,
                    30.509209
                ],
                [
                    -85.882469,
                    30.508995
                ],
                [
                    -85.881035,
                    30.507505
                ],
                [
                    -85.880264,
                    30.507471
                ],
                [
                    -85.880463,
                    30.508457
                ],
                [
                    -85.881027,
                    30.509321
                ],
                [
                    -85.881302,
                    30.510286
                ],
                [
                    -85.880936,
                    30.511072
                ],
                [
                    -85.879128,
                    30.512157
                ],
                [
                    -85.879089,
                    30.512415
                ],
                [
                    -85.879616,
                    30.513102
                ],
                [
                    -85.881264,
                    30.514515
                ],
                [
                    -85.881645,
                    30.516346
                ],
                [
                    -85.882179,
                    30.516796
                ],
                [
                    -85.883514,
                    30.517244
                ],
                [
                    -85.886299,
                    30.517437
                ],
                [
                    -85.8871,
                    30.51783
                ],
                [
                    -85.887566,
                    30.518545
                ],
                [
                    -85.887383,
                    30.519394
                ],
                [
                    -85.886703,
                    30.519938
                ],
                [
                    -85.883446,
                    30.520262
                ],
                [
                    -85.88279,
                    30.520443
                ],
                [
                    -85.882362,
                    30.52095
                ],
                [
                    -85.882835,
                    30.522289
                ],
                [
                    -85.883621,
                    30.523062
                ],
                [
                    -85.8862,
                    30.524538
                ],
                [
                    -85.886894,
                    30.525528
                ],
                [
                    -85.887146,
                    30.527037
                ],
                [
                    -85.887062,
                    30.527958
                ],
                [
                    -85.886208,
                    30.528629
                ],
                [
                    -85.883476,
                    30.53014
                ],
                [
                    -85.882561,
                    30.531336
                ],
                [
                    -85.881653,
                    30.533873
                ],
                [
                    -85.881287,
                    30.534479
                ],
                [
                    -85.880592,
                    30.534983
                ],
                [
                    -85.879814,
                    30.533636
                ],
                [
                    -85.880249,
                    30.532139
                ],
                [
                    -85.880043,
                    30.53129
                ],
                [
                    -85.878647,
                    30.530863
                ],
                [
                    -85.877769,
                    30.531303
                ],
                [
                    -85.877281,
                    30.53195
                ],
                [
                    -85.879395,
                    30.539513
                ],
                [
                    -85.879501,
                    30.540155
                ],
                [
                    -85.879356,
                    30.541618
                ],
                [
                    -85.879791,
                    30.542013
                ],
                [
                    -85.879898,
                    30.542612
                ],
                [
                    -85.879272,
                    30.544832
                ],
                [
                    -85.878593,
                    30.54542
                ],
                [
                    -85.878304,
                    30.546293
                ],
                [
                    -85.878479,
                    30.546833
                ],
                [
                    -85.878944,
                    30.547455
                ],
                [
                    -85.879494,
                    30.550913
                ],
                [
                    -85.879829,
                    30.556206
                ],
                [
                    -85.882149,
                    30.559175
                ],
                [
                    -85.883369,
                    30.559866
                ],
                [
                    -85.885307,
                    30.56007
                ],
                [
                    -85.887733,
                    30.559385
                ],
                [
                    -85.888435,
                    30.559776
                ],
                [
                    -85.888596,
                    30.561932
                ],
                [
                    -85.890556,
                    30.563845
                ],
                [
                    -85.890938,
                    30.56448
                ],
                [
                    -85.891212,
                    30.56591
                ],
                [
                    -85.890839,
                    30.566572
                ],
                [
                    -85.888947,
                    30.568047
                ],
                [
                    -85.888687,
                    30.568783
                ],
                [
                    -85.889275,
                    30.574259
                ],
                [
                    -85.890167,
                    30.578638
                ],
                [
                    -85.889977,
                    30.579994
                ],
                [
                    -85.889572,
                    30.580786
                ],
                [
                    -85.889076,
                    30.581142
                ],
                [
                    -85.889053,
                    30.581537
                ],
                [
                    -85.889549,
                    30.581778
                ],
                [
                    -85.893867,
                    30.580828
                ],
                [
                    -85.894089,
                    30.581522
                ],
                [
                    -85.893951,
                    30.582304
                ],
                [
                    -85.893105,
                    30.583694
                ],
                [
                    -85.893051,
                    30.584446
                ],
                [
                    -85.89357,
                    30.585283
                ],
                [
                    -85.894592,
                    30.586054
                ],
                [
                    -85.895348,
                    30.586349
                ],
                [
                    -85.896408,
                    30.58633
                ],
                [
                    -85.897659,
                    30.586044
                ],
                [
                    -85.89962,
                    30.585117
                ],
                [
                    -85.903198,
                    30.584806
                ],
                [
                    -85.903824,
                    30.584887
                ],
                [
                    -85.904579,
                    30.585724
                ],
                [
                    -85.906189,
                    30.586388
                ],
                [
                    -85.909454,
                    30.586876
                ],
                [
                    -85.909576,
                    30.587379
                ],
                [
                    -85.909294,
                    30.588062
                ],
                [
                    -85.908981,
                    30.588524
                ],
                [
                    -85.908455,
                    30.588913
                ],
                [
                    -85.90831,
                    30.58931
                ],
                [
                    -85.908318,
                    30.590891
                ],
                [
                    -85.910271,
                    30.592886
                ],
                [
                    -85.910507,
                    30.593821
                ],
                [
                    -85.910408,
                    30.594595
                ],
                [
                    -85.909119,
                    30.595997
                ],
                [
                    -85.908813,
                    30.596756
                ],
                [
                    -85.908928,
                    30.597401
                ],
                [
                    -85.909409,
                    30.598013
                ],
                [
                    -85.909958,
                    30.598221
                ],
                [
                    -85.910622,
                    30.598209
                ],
                [
                    -85.911331,
                    30.597973
                ],
                [
                    -85.912209,
                    30.597197
                ],
                [
                    -85.912788,
                    30.596121
                ],
                [
                    -85.913261,
                    30.595919
                ],
                [
                    -85.91436,
                    30.59597
                ],
                [
                    -85.915405,
                    30.596363
                ],
                [
                    -85.915924,
                    30.596788
                ],
                [
                    -85.915901,
                    30.598015
                ],
                [
                    -85.915489,
                    30.598734
                ],
                [
                    -85.915001,
                    30.599115
                ],
                [
                    -85.913574,
                    30.599604
                ],
                [
                    -85.913055,
                    30.599993
                ],
                [
                    -85.912712,
                    30.601414
                ],
                [
                    -85.911247,
                    30.602549
                ],
                [
                    -85.91095,
                    30.603882
                ],
                [
                    -85.911301,
                    30.605938
                ],
                [
                    -85.911964,
                    30.60709
                ],
                [
                    -85.911667,
                    30.607656
                ],
                [
                    -85.911171,
                    30.607964
                ],
                [
                    -85.910469,
                    30.60803
                ],
                [
                    -85.909645,
                    30.60836
                ],
                [
                    -85.909393,
                    30.609915
                ],
                [
                    -85.908279,
                    30.612476
                ],
                [
                    -85.908218,
                    30.613688
                ],
                [
                    -85.908264,
                    30.614042
                ],
                [
                    -85.908714,
                    30.614355
                ],
                [
                    -85.90892,
                    30.614475
                ],
                [
                    -85.909386,
                    30.614321
                ],
                [
                    -85.909966,
                    30.614834
                ],
                [
                    -85.909843,
                    30.615643
                ],
                [
                    -85.910225,
                    30.615883
                ],
                [
                    -85.912697,
                    30.61594
                ],
                [
                    -85.91333,
                    30.616318
                ],
                [
                    -85.913811,
                    30.61725
                ],
                [
                    -85.913666,
                    30.617615
                ],
                [
                    -85.912041,
                    30.618315
                ],
                [
                    -85.910736,
                    30.619347
                ],
                [
                    -85.910301,
                    30.620829
                ],
                [
                    -85.9105,
                    30.621256
                ],
                [
                    -85.910843,
                    30.621401
                ],
                [
                    -85.912354,
                    30.62112
                ],
                [
                    -85.91291,
                    30.621159
                ],
                [
                    -85.913422,
                    30.621691
                ],
                [
                    -85.913368,
                    30.621964
                ],
                [
                    -85.913017,
                    30.622208
                ],
                [
                    -85.911034,
                    30.62285
                ],
                [
                    -85.910751,
                    30.623207
                ],
                [
                    -85.91098,
                    30.623941
                ],
                [
                    -85.911911,
                    30.624559
                ],
                [
                    -85.912285,
                    30.625191
                ],
                [
                    -85.912338,
                    30.625622
                ],
                [
                    -85.912308,
                    30.626268
                ],
                [
                    -85.911995,
                    30.627195
                ],
                [
                    -85.911308,
                    30.628252
                ],
                [
                    -85.910881,
                    30.630398
                ],
                [
                    -85.911041,
                    30.630867
                ],
                [
                    -85.912537,
                    30.631565
                ],
                [
                    -85.91288,
                    30.632414
                ],
                [
                    -85.912491,
                    30.633657
                ],
                [
                    -85.914177,
                    30.634743
                ],
                [
                    -85.914597,
                    30.635187
                ],
                [
                    -85.915298,
                    30.636427
                ],
                [
                    -85.915176,
                    30.636974
                ],
                [
                    -85.914719,
                    30.637304
                ],
                [
                    -85.914207,
                    30.637465
                ],
                [
                    -85.912674,
                    30.637468
                ],
                [
                    -85.912041,
                    30.637821
                ],
                [
                    -85.911713,
                    30.63887
                ],
                [
                    -85.911331,
                    30.63933
                ],
                [
                    -85.90847,
                    30.639734
                ],
                [
                    -85.907532,
                    30.640192
                ],
                [
                    -85.906364,
                    30.641951
                ],
                [
                    -85.905846,
                    30.644896
                ],
                [
                    -85.90564,
                    30.645073
                ],
                [
                    -85.905327,
                    30.645073
                ],
                [
                    -85.90416,
                    30.644278
                ],
                [
                    -85.903709,
                    30.644108
                ],
                [
                    -85.902977,
                    30.644276
                ],
                [
                    -85.901825,
                    30.646423
                ],
                [
                    -85.901398,
                    30.647591
                ],
                [
                    -85.901085,
                    30.647936
                ],
                [
                    -85.899826,
                    30.648376
                ],
                [
                    -85.898445,
                    30.648003
                ],
                [
                    -85.898262,
                    30.647688
                ],
                [
                    -85.898163,
                    30.645588
                ],
                [
                    -85.897926,
                    30.645239
                ],
                [
                    -85.897156,
                    30.645479
                ],
                [
                    -85.896988,
                    30.645706
                ],
                [
                    -85.896797,
                    30.647797
                ],
                [
                    -85.896591,
                    30.648279
                ],
                [
                    -85.895935,
                    30.649296
                ],
                [
                    -85.894653,
                    30.650591
                ],
                [
                    -85.894371,
                    30.651657
                ],
                [
                    -85.893982,
                    30.652351
                ],
                [
                    -85.89328,
                    30.652607
                ],
                [
                    -85.892647,
                    30.652483
                ],
                [
                    -85.891762,
                    30.651981
                ],
                [
                    -85.891388,
                    30.651585
                ],
                [
                    -85.890602,
                    30.651438
                ],
                [
                    -85.890282,
                    30.651485
                ],
                [
                    -85.889481,
                    30.652525
                ],
                [
                    -85.88929,
                    30.653357
                ],
                [
                    -85.889374,
                    30.653679
                ],
                [
                    -85.889816,
                    30.65443
                ],
                [
                    -85.890678,
                    30.655354
                ],
                [
                    -85.890747,
                    30.656063
                ],
                [
                    -85.890602,
                    30.656452
                ],
                [
                    -85.888939,
                    30.656851
                ],
                [
                    -85.887733,
                    30.656639
                ],
                [
                    -85.886459,
                    30.656092
                ],
                [
                    -85.886246,
                    30.656301
                ],
                [
                    -85.885735,
                    30.656322
                ],
                [
                    -85.885597,
                    30.656179
                ],
                [
                    -85.884964,
                    30.656439
                ],
                [
                    -85.881653,
                    30.656832
                ],
                [
                    -85.880051,
                    30.658699
                ],
                [
                    -85.879448,
                    30.659653
                ],
                [
                    -85.879417,
                    30.661144
                ],
                [
                    -85.879166,
                    30.661686
                ],
                [
                    -85.878555,
                    30.661919
                ],
                [
                    -85.877861,
                    30.661715
                ],
                [
                    -85.876556,
                    30.659883
                ],
                [
                    -85.874931,
                    30.660019
                ],
                [
                    -85.874191,
                    30.660398
                ],
                [
                    -85.873581,
                    30.661009
                ],
                [
                    -85.873352,
                    30.661798
                ],
                [
                    -85.873314,
                    30.662663
                ],
                [
                    -85.872917,
                    30.66321
                ],
                [
                    -85.872284,
                    30.663301
                ],
                [
                    -85.87117,
                    30.663004
                ],
                [
                    -85.870049,
                    30.66242
                ],
                [
                    -85.869652,
                    30.662403
                ],
                [
                    -85.867928,
                    30.662579
                ],
                [
                    -85.867119,
                    30.66313
                ],
                [
                    -85.867676,
                    30.663675
                ],
                [
                    -85.869186,
                    30.664158
                ],
                [
                    -85.871193,
                    30.666155
                ],
                [
                    -85.871925,
                    30.666409
                ],
                [
                    -85.873238,
                    30.666079
                ],
                [
                    -85.87384,
                    30.666374
                ],
                [
                    -85.875565,
                    30.66807
                ],
                [
                    -85.87561,
                    30.668467
                ],
                [
                    -85.875389,
                    30.668982
                ],
                [
                    -85.874931,
                    30.669159
                ],
                [
                    -85.874413,
                    30.66901
                ],
                [
                    -85.872604,
                    30.667763
                ],
                [
                    -85.87207,
                    30.667704
                ],
                [
                    -85.871414,
                    30.66803
                ],
                [
                    -85.870926,
                    30.668522
                ],
                [
                    -85.870796,
                    30.669132
                ],
                [
                    -85.870911,
                    30.669634
                ],
                [
                    -85.872078,
                    30.671589
                ],
                [
                    -85.872314,
                    30.673122
                ],
                [
                    -85.871201,
                    30.674604
                ],
                [
                    -85.871017,
                    30.675097
                ],
                [
                    -85.871475,
                    30.676182
                ],
                [
                    -85.872696,
                    30.677992
                ],
                [
                    -85.87542,
                    30.679512
                ],
                [
                    -85.875603,
                    30.679754
                ],
                [
                    -85.875633,
                    30.680561
                ],
                [
                    -85.875252,
                    30.681093
                ],
                [
                    -85.873856,
                    30.68187
                ],
                [
                    -85.873199,
                    30.681784
                ],
                [
                    -85.87043,
                    30.680225
                ],
                [
                    -85.868401,
                    30.680113
                ],
                [
                    -85.867348,
                    30.680492
                ],
                [
                    -85.864883,
                    30.683239
                ],
                [
                    -85.863312,
                    30.68549
                ],
                [
                    -85.863556,
                    30.686913
                ],
                [
                    -85.86499,
                    30.689203
                ],
                [
                    -85.865753,
                    30.689829
                ],
                [
                    -85.865997,
                    30.690365
                ],
                [
                    -85.866066,
                    30.690792
                ],
                [
                    -85.865822,
                    30.691147
                ],
                [
                    -85.863594,
                    30.691359
                ],
                [
                    -85.861397,
                    30.692175
                ],
                [
                    -85.860481,
                    30.692806
                ],
                [
                    -85.859924,
                    30.693644
                ],
                [
                    -85.859482,
                    30.694876
                ],
                [
                    -85.85833,
                    30.696766
                ],
                [
                    -85.858063,
                    30.697468
                ],
                [
                    -85.858315,
                    30.698254
                ],
                [
                    -85.857986,
                    30.698574
                ],
                [
                    -85.855698,
                    30.698446
                ],
                [
                    -85.855156,
                    30.698553
                ],
                [
                    -85.854507,
                    30.698868
                ],
                [
                    -85.854309,
                    30.699638
                ],
                [
                    -85.853485,
                    30.700094
                ],
                [
                    -85.85289,
                    30.699087
                ],
                [
                    -85.852554,
                    30.69869
                ],
                [
                    -85.852264,
                    30.698631
                ],
                [
                    -85.851715,
                    30.698971
                ],
                [
                    -85.851227,
                    30.700676
                ],
                [
                    -85.850754,
                    30.701214
                ],
                [
                    -85.850258,
                    30.701332
                ],
                [
                    -85.847816,
                    30.701317
                ],
                [
                    -85.845467,
                    30.702381
                ],
                [
                    -85.84491,
                    30.702938
                ],
                [
                    -85.844421,
                    30.703131
                ],
                [
                    -85.845284,
                    30.702934
                ],
                [
                    -85.846077,
                    30.702282
                ],
                [
                    -85.8479,
                    30.701422
                ],
                [
                    -85.848671,
                    30.701376
                ],
                [
                    -85.850372,
                    30.701605
                ],
                [
                    -85.851272,
                    30.701314
                ],
                [
                    -85.8507,
                    30.701912
                ],
                [
                    -85.847893,
                    30.702013
                ],
                [
                    -85.844795,
                    30.703313
                ],
                [
                    -85.844398,
                    30.707912
                ],
                [
                    -85.842797,
                    30.709813
                ],
                [
                    -85.839395,
                    30.711413
                ],
                [
                    -85.835801,
                    30.711213
                ],
                [
                    -85.837097,
                    30.713112
                ],
                [
                    -85.839096,
                    30.715313
                ],
                [
                    -85.837494,
                    30.718311
                ],
                [
                    -85.834198,
                    30.720912
                ],
                [
                    -85.833,
                    30.723812
                ],
                [
                    -85.829193,
                    30.724512
                ],
                [
                    -85.825996,
                    30.726612
                ],
                [
                    -85.828094,
                    30.729212
                ],
                [
                    -85.827599,
                    30.731712
                ],
                [
                    -85.8237,
                    30.736012
                ],
                [
                    -85.8237,
                    30.738811
                ],
                [
                    -85.8265,
                    30.739012
                ],
                [
                    -85.829094,
                    30.741512
                ],
                [
                    -85.825294,
                    30.743612
                ],
                [
                    -85.827896,
                    30.747011
                ],
                [
                    -85.830994,
                    30.748512
                ],
                [
                    -85.832794,
                    30.749912
                ],
                [
                    -85.830894,
                    30.751713
                ],
                [
                    -85.828194,
                    30.752811
                ],
                [
                    -85.831398,
                    30.757011
                ],
                [
                    -85.831597,
                    30.760213
                ],
                [
                    -85.828697,
                    30.761612
                ],
                [
                    -85.829897,
                    30.764112
                ],
                [
                    -85.830498,
                    30.766413
                ],
                [
                    -85.830299,
                    30.768713
                ],
                [
                    -85.829097,
                    30.772113
                ],
                [
                    -85.827197,
                    30.776013
                ],
                [
                    -85.824797,
                    30.777813
                ],
                [
                    -85.8228,
                    30.779013
                ],
                [
                    -85.819,
                    30.780212
                ],
                [
                    -85.817101,
                    30.783812
                ],
                [
                    -85.820797,
                    30.790513
                ],
                [
                    -85.817697,
                    30.790713
                ],
                [
                    -85.814395,
                    30.790713
                ],
                [
                    -85.756195,
                    30.789913
                ],
                [
                    -85.751895,
                    30.789713
                ],
                [
                    -85.751895,
                    30.775713
                ],
                [
                    -85.738295,
                    30.775413
                ],
                [
                    -85.735095,
                    30.774012
                ],
                [
                    -85.735395,
                    30.753313
                ],
                [
                    -85.735794,
                    30.749811
                ],
                [
                    -85.735395,
                    30.746413
                ],
                [
                    -85.728996,
                    30.746313
                ],
                [
                    -85.719095,
                    30.745813
                ],
                [
                    -85.691995,
                    30.745013
                ],
                [
                    -85.663895,
                    30.744613
                ],
                [
                    -85.633195,
                    30.744413
                ],
                [
                    -85.618897,
                    30.743813
                ],
                [
                    -85.619297,
                    30.746713
                ],
                [
                    -85.619097,
                    30.752613
                ],
                [
                    -85.620598,
                    30.754911
                ],
                [
                    -85.621201,
                    30.757013
                ],
                [
                    -85.619698,
                    30.762213
                ],
                [
                    -85.620499,
                    30.764812
                ],
                [
                    -85.620499,
                    30.771511
                ],
                [
                    -85.617599,
                    30.775013
                ],
                [
                    -85.615898,
                    30.777712
                ],
                [
                    -85.615197,
                    30.780613
                ],
                [
                    -85.610199,
                    30.788412
                ],
                [
                    -85.606197,
                    30.793413
                ],
                [
                    -85.604297,
                    30.795313
                ],
                [
                    -85.603197,
                    30.797913
                ],
                [
                    -85.602497,
                    30.800913
                ],
                [
                    -85.602097,
                    30.804113
                ],
                [
                    -85.601497,
                    30.806913
                ],
                [
                    -85.599998,
                    30.810211
                ],
                [
                    -85.599397,
                    30.813913
                ],
                [
                    -85.598801,
                    30.819113
                ],
                [
                    -85.599397,
                    30.822513
                ],
                [
                    -85.599497,
                    30.825913
                ],
                [
                    -85.599297,
                    30.829718
                ],
                [
                    -85.590712,
                    30.830511
                ],
                [
                    -85.494581,
                    30.829614
                ]
            ]
        ]
    },
    "properties": {
        "@id": "https://api.weather.gov/zones/forecast/FLZ010",
        "@type": "wx:Zone",
        "id": "FLZ010",
        "type": "public",
        "name": "Washington",
        "effectiveDate": "2026-04-16T18:00:00+00:00",
        "expirationDate": "2200-01-01T00:00:00+00:00",
        "state": "FL",
        "forecastOffice": "https://api.weather.gov/offices/TAE",
        "gridIdentifier": "TAE",
        "awipsLocationIdentifier": "TAE",
        "cwa": [
            "TAE"
        ],
        "forecastOffices": [
            "https://api.weather.gov/offices/TAE"
        ],
        "timeZone": [
            "America/Chicago"
        ],
        "observationStations": [
            "https://api.weather.gov/stations/KMAI",
            "https://api.weather.gov/stations/K79J",
            "https://api.weather.gov/stations/KCEW",
            "https://api.weather.gov/stations/KDHN",
            "https://api.weather.gov/stations/KDTS",
            "https://api.weather.gov/stations/KECP",
            "https://api.weather.gov/stations/KHEY",
            "https://api.weather.gov/stations/KLOR",
            "https://api.weather.gov/stations/KOZR",
            "https://api.weather.gov/stations/KPAM"
        ],
        "radarStation": "EVX"
    }
}