{
    "@context": {
        "@version": "1.1"
    },
    "id": "https://api.weather.gov/zones/forecast/NJZ008",
    "type": "Feature",
    "geometry": {
        "type": "Polygon",
        "coordinates": [
            [
                [
                    -74.499695,
                    41.037411
                ],
                [
                    -74.497696,
                    41.034912
                ],
                [
                    -74.4935,
                    41.036812
                ],
                [
                    -74.488998,
                    41.038414
                ],
                [
                    -74.485596,
                    41.041512
                ],
                [
                    -74.481895,
                    41.043911
                ],
                [
                    -74.4795,
                    41.045914
                ],
                [
                    -74.476898,
                    41.046913
                ],
                [
                    -74.473396,
                    41.048012
                ],
                [
                    -74.4702,
                    41.048012
                ],
                [
                    -74.467499,
                    41.048611
                ],
                [
                    -74.462097,
                    41.051311
                ],
                [
                    -74.458794,
                    41.052013
                ],
                [
                    -74.454796,
                    41.052311
                ],
                [
                    -74.447395,
                    41.054211
                ],
                [
                    -74.444595,
                    41.052113
                ],
                [
                    -74.441994,
                    41.04911
                ],
                [
                    -74.441299,
                    41.045811
                ],
                [
                    -74.438896,
                    41.043213
                ],
                [
                    -74.434593,
                    41.040112
                ],
                [
                    -74.432999,
                    41.038513
                ],
                [
                    -74.429794,
                    41.038212
                ],
                [
                    -74.427094,
                    41.036613
                ],
                [
                    -74.428299,
                    41.03231
                ],
                [
                    -74.431198,
                    41.030312
                ],
                [
                    -74.431595,
                    41.027813
                ],
                [
                    -74.433495,
                    41.025414
                ],
                [
                    -74.433495,
                    41.019913
                ],
                [
                    -74.428596,
                    41.020714
                ],
                [
                    -74.426598,
                    41.022213
                ],
                [
                    -74.425095,
                    41.024014
                ],
                [
                    -74.423698,
                    41.027012
                ],
                [
                    -74.420799,
                    41.028511
                ],
                [
                    -74.418396,
                    41.028614
                ],
                [
                    -74.415695,
                    41.027912
                ],
                [
                    -74.408997,
                    41.024914
                ],
                [
                    -74.405899,
                    41.023811
                ],
                [
                    -74.403694,
                    41.022011
                ],
                [
                    -74.400795,
                    41.018414
                ],
                [
                    -74.396599,
                    41.016811
                ],
                [
                    -74.392097,
                    41.016113
                ],
                [
                    -74.389099,
                    41.012711
                ],
                [
                    -74.383194,
                    41.013313
                ],
                [
                    -74.380592,
                    41.014111
                ],
                [
                    -74.377296,
                    41.013912
                ],
                [
                    -74.372398,
                    41.011612
                ],
                [
                    -74.369598,
                    41.011414
                ],
                [
                    -74.366699,
                    41.011711
                ],
                [
                    -74.364296,
                    41.011112
                ],
                [
                    -74.362495,
                    41.012814
                ],
                [
                    -74.358994,
                    41.013813
                ],
                [
                    -74.355598,
                    41.013714
                ],
                [
                    -74.351494,
                    41.010014
                ],
                [
                    -74.351295,
                    41.005814
                ],
                [
                    -74.347397,
                    41.004414
                ],
                [
                    -74.3442,
                    41.005913
                ],
                [
                    -74.341095,
                    41.00621
                ],
                [
                    -74.337997,
                    41.007011
                ],
                [
                    -74.335297,
                    41.006611
                ],
                [
                    -74.333298,
                    41.00341
                ],
                [
                    -74.330299,
                    41.002811
                ],
                [
                    -74.328094,
                    41.001511
                ],
                [
                    -74.325699,
                    41.001011
                ],
                [
                    -74.319695,
                    41.001812
                ],
                [
                    -74.315895,
                    41.00201
                ],
                [
                    -74.309296,
                    40.998512
                ],
                [
                    -74.306198,
                    40.999012
                ],
                [
                    -74.301193,
                    40.999512
                ],
                [
                    -74.299896,
                    41.002514
                ],
                [
                    -74.297699,
                    40.999611
                ],
                [
                    -74.297096,
                    40.996212
                ],
                [
                    -74.295395,
                    40.992512
                ],
                [
                    -74.294296,
                    40.990913
                ],
                [
                    -74.292999,
                    40.988113
                ],
                [
                    -74.296295,
                    40.984211
                ],
                [
                    -74.297096,
                    40.98101
                ],
                [
                    -74.293694,
                    40.979313
                ],
                [
                    -74.288994,
                    40.979713
                ],
                [
                    -74.285294,
                    40.979313
                ],
                [
                    -74.281898,
                    40.979214
                ],
                [
                    -74.280899,
                    40.976513
                ],
                [
                    -74.277794,
                    40.974613
                ],
                [
                    -74.277596,
                    40.971912
                ],
                [
                    -74.280296,
                    40.97171
                ],
                [
                    -74.281998,
                    40.969711
                ],
                [
                    -74.2808,
                    40.968212
                ],
                [
                    -74.2799,
                    40.966011
                ],
                [
                    -74.279694,
                    40.961613
                ],
                [
                    -74.280296,
                    40.958412
                ],
                [
                    -74.279297,
                    40.956112
                ],
                [
                    -74.277,
                    40.954712
                ],
                [
                    -74.277397,
                    40.951214
                ],
                [
                    -74.279694,
                    40.941013
                ],
                [
                    -74.282494,
                    40.935612
                ],
                [
                    -74.2855,
                    40.931011
                ],
                [
                    -74.288895,
                    40.928913
                ],
                [
                    -74.2882,
                    40.926311
                ],
                [
                    -74.284294,
                    40.920513
                ],
                [
                    -74.284195,
                    40.917713
                ],
                [
                    -74.280693,
                    40.917812
                ],
                [
                    -74.278496,
                    40.916611
                ],
                [
                    -74.276497,
                    40.916012
                ],
                [
                    -74.2743,
                    40.916111
                ],
                [
                    -74.271996,
                    40.915611
                ],
                [
                    -74.2677,
                    40.911114
                ],
                [
                    -74.268295,
                    40.908211
                ],
                [
                    -74.271599,
                    40.909512
                ],
                [
                    -74.272499,
                    40.906914
                ],
                [
                    -74.2714,
                    40.903011
                ],
                [
                    -74.272301,
                    40.900211
                ],
                [
                    -74.272499,
                    40.897911
                ],
                [
                    -74.274994,
                    40.897011
                ],
                [
                    -74.279594,
                    40.897812
                ],
                [
                    -74.284294,
                    40.895012
                ],
                [
                    -74.285599,
                    40.898014
                ],
                [
                    -74.282196,
                    40.900711
                ],
                [
                    -74.286797,
                    40.900814
                ],
                [
                    -74.289398,
                    40.89941
                ],
                [
                    -74.291595,
                    40.900513
                ],
                [
                    -74.292198,
                    40.90451
                ],
                [
                    -74.295296,
                    40.906212
                ],
                [
                    -74.302498,
                    40.90591
                ],
                [
                    -74.306297,
                    40.905411
                ],
                [
                    -74.310699,
                    40.905113
                ],
                [
                    -74.314995,
                    40.903912
                ],
                [
                    -74.319,
                    40.903313
                ],
                [
                    -74.319,
                    40.907913
                ],
                [
                    -74.322693,
                    40.907913
                ],
                [
                    -74.325394,
                    40.90731
                ],
                [
                    -74.327698,
                    40.905212
                ],
                [
                    -74.327797,
                    40.907211
                ],
                [
                    -74.330498,
                    40.907814
                ],
                [
                    -74.334297,
                    40.905411
                ],
                [
                    -74.335594,
                    40.901814
                ],
                [
                    -74.3377,
                    40.897213
                ],
                [
                    -74.337494,
                    40.893211
                ],
                [
                    -74.339699,
                    40.889511
                ],
                [
                    -74.338295,
                    40.887512
                ],
                [
                    -74.339897,
                    40.882214
                ],
                [
                    -74.339493,
                    40.879612
                ],
                [
                    -74.337799,
                    40.878212
                ],
                [
                    -74.335297,
                    40.877113
                ],
                [
                    -74.337395,
                    40.874611
                ],
                [
                    -74.337395,
                    40.869713
                ],
                [
                    -74.336296,
                    40.867012
                ],
                [
                    -74.333298,
                    40.868313
                ],
                [
                    -74.329895,
                    40.866711
                ],
                [
                    -74.3255,
                    40.865513
                ],
                [
                    -74.321098,
                    40.863312
                ],
                [
                    -74.319695,
                    40.860313
                ],
                [
                    -74.319595,
                    40.858311
                ],
                [
                    -74.3246,
                    40.857613
                ],
                [
                    -74.325897,
                    40.853512
                ],
                [
                    -74.327499,
                    40.850113
                ],
                [
                    -74.329994,
                    40.848312
                ],
                [
                    -74.328697,
                    40.844612
                ],
                [
                    -74.326195,
                    40.843914
                ],
                [
                    -74.328796,
                    40.841614
                ],
                [
                    -74.329201,
                    40.83831
                ],
                [
                    -74.330299,
                    40.835011
                ],
                [
                    -74.3293,
                    40.831413
                ],
                [
                    -74.333199,
                    40.829613
                ],
                [
                    -74.335197,
                    40.827511
                ],
                [
                    -74.332893,
                    40.823112
                ],
                [
                    -74.334496,
                    40.818512
                ],
                [
                    -74.338196,
                    40.813812
                ],
                [
                    -74.3414,
                    40.812714
                ],
                [
                    -74.344093,
                    40.813713
                ],
                [
                    -74.348396,
                    40.812511
                ],
                [
                    -74.350494,
                    40.809711
                ],
                [
                    -74.351196,
                    40.806812
                ],
                [
                    -74.354294,
                    40.805111
                ],
                [
                    -74.360497,
                    40.800213
                ],
                [
                    -74.364494,
                    40.798313
                ],
                [
                    -74.366493,
                    40.794411
                ],
                [
                    -74.366898,
                    40.78421
                ],
                [
                    -74.367996,
                    40.779713
                ],
                [
                    -74.370697,
                    40.77721
                ],
                [
                    -74.372993,
                    40.775414
                ],
                [
                    -74.370995,
                    40.774612
                ],
                [
                    -74.370094,
                    40.770611
                ],
                [
                    -74.371796,
                    40.768112
                ],
                [
                    -74.3703,
                    40.766712
                ],
                [
                    -74.371193,
                    40.764011
                ],
                [
                    -74.373497,
                    40.76321
                ],
                [
                    -74.376396,
                    40.761612
                ],
                [
                    -74.375198,
                    40.758312
                ],
                [
                    -74.370995,
                    40.759613
                ],
                [
                    -74.368195,
                    40.760811
                ],
                [
                    -74.367798,
                    40.758213
                ],
                [
                    -74.365097,
                    40.757713
                ],
                [
                    -74.361694,
                    40.755814
                ],
                [
                    -74.3582,
                    40.755711
                ],
                [
                    -74.358994,
                    40.752911
                ],
                [
                    -74.361099,
                    40.751011
                ],
                [
                    -74.3675,
                    40.749111
                ],
                [
                    -74.364998,
                    40.746811
                ],
                [
                    -74.366501,
                    40.744114
                ],
                [
                    -74.369301,
                    40.742813
                ],
                [
                    -74.371597,
                    40.743912
                ],
                [
                    -74.372597,
                    40.741512
                ],
                [
                    -74.370895,
                    40.739113
                ],
                [
                    -74.3713,
                    40.735012
                ],
                [
                    -74.375099,
                    40.733913
                ],
                [
                    -74.378593,
                    40.734314
                ],
                [
                    -74.380295,
                    40.733311
                ],
                [
                    -74.378494,
                    40.72961
                ],
                [
                    -74.3853,
                    40.724312
                ],
                [
                    -74.387794,
                    40.725811
                ],
                [
                    -74.390297,
                    40.725311
                ],
                [
                    -74.3909,
                    40.720413
                ],
                [
                    -74.391701,
                    40.718212
                ],
                [
                    -74.394997,
                    40.717411
                ],
                [
                    -74.399193,
                    40.717911
                ],
                [
                    -74.402199,
                    40.718014
                ],
                [
                    -74.405594,
                    40.714912
                ],
                [
                    -74.410194,
                    40.709713
                ],
                [
                    -74.412498,
                    40.710312
                ],
                [
                    -74.413994,
                    40.707611
                ],
                [
                    -74.417099,
                    40.705311
                ],
                [
                    -74.421799,
                    40.703213
                ],
                [
                    -74.424599,
                    40.702312
                ],
                [
                    -74.427094,
                    40.701813
                ],
                [
                    -74.430298,
                    40.697014
                ],
                [
                    -74.431694,
                    40.693111
                ],
                [
                    -74.4347,
                    40.693413
                ],
                [
                    -74.440598,
                    40.689713
                ],
                [
                    -74.449097,
                    40.685814
                ],
                [
                    -74.452194,
                    40.68531
                ],
                [
                    -74.453194,
                    40.683514
                ],
                [
                    -74.4524,
                    40.680012
                ],
                [
                    -74.453796,
                    40.675911
                ],
                [
                    -74.458199,
                    40.675011
                ],
                [
                    -74.4608,
                    40.674213
                ],
                [
                    -74.462296,
                    40.672211
                ],
                [
                    -74.466896,
                    40.669514
                ],
                [
                    -74.469093,
                    40.66851
                ],
                [
                    -74.474998,
                    40.668312
                ],
                [
                    -74.482399,
                    40.66621
                ],
                [
                    -74.484299,
                    40.665913
                ],
                [
                    -74.483994,
                    40.663311
                ],
                [
                    -74.486496,
                    40.663013
                ],
                [
                    -74.489395,
                    40.663811
                ],
                [
                    -74.492393,
                    40.661713
                ],
                [
                    -74.496399,
                    40.661713
                ],
                [
                    -74.499199,
                    40.660213
                ],
                [
                    -74.505997,
                    40.658413
                ],
                [
                    -74.5056,
                    40.656013
                ],
                [
                    -74.507599,
                    40.652714
                ],
                [
                    -74.510498,
                    40.650814
                ],
                [
                    -74.513397,
                    40.649811
                ],
                [
                    -74.516594,
                    40.650513
                ],
                [
                    -74.519394,
                    40.649014
                ],
                [
                    -74.523193,
                    40.649014
                ],
                [
                    -74.523895,
                    40.651112
                ],
                [
                    -74.526299,
                    40.653011
                ],
                [
                    -74.527199,
                    40.658512
                ],
                [
                    -74.526299,
                    40.660912
                ],
                [
                    -74.529694,
                    40.664013
                ],
                [
                    -74.531197,
                    40.666012
                ],
                [
                    -74.529297,
                    40.669312
                ],
                [
                    -74.525795,
                    40.670914
                ],
                [
                    -74.526695,
                    40.674713
                ],
                [
                    -74.528198,
                    40.678013
                ],
                [
                    -74.528694,
                    40.680511
                ],
                [
                    -74.527,
                    40.684811
                ],
                [
                    -74.525993,
                    40.68671
                ],
                [
                    -74.524193,
                    40.688812
                ],
                [
                    -74.520996,
                    40.688313
                ],
                [
                    -74.516899,
                    40.689812
                ],
                [
                    -74.518494,
                    40.692013
                ],
                [
                    -74.518494,
                    40.693913
                ],
                [
                    -74.516098,
                    40.693111
                ],
                [
                    -74.514793,
                    40.694912
                ],
                [
                    -74.514,
                    40.698112
                ],
                [
                    -74.5149,
                    40.701511
                ],
                [
                    -74.517296,
                    40.703411
                ],
                [
                    -74.521698,
                    40.707912
                ],
                [
                    -74.5252,
                    40.708912
                ],
                [
                    -74.526894,
                    40.710712
                ],
                [
                    -74.525093,
                    40.712311
                ],
                [
                    -74.524994,
                    40.715611
                ],
                [
                    -74.527893,
                    40.717312
                ],
                [
                    -74.529594,
                    40.719311
                ],
                [
                    -74.531898,
                    40.720512
                ],
                [
                    -74.530396,
                    40.726013
                ],
                [
                    -74.532097,
                    40.730011
                ],
                [
                    -74.536896,
                    40.731712
                ],
                [
                    -74.539993,
                    40.733414
                ],
                [
                    -74.542695,
                    40.733112
                ],
                [
                    -74.549095,
                    40.733913
                ],
                [
                    -74.548096,
                    40.737511
                ],
                [
                    -74.548996,
                    40.740513
                ],
                [
                    -74.548897,
                    40.746311
                ],
                [
                    -74.551895,
                    40.749611
                ],
                [
                    -74.553101,
                    40.75621
                ],
                [
                    -74.555496,
                    40.757412
                ],
                [
                    -74.558594,
                    40.757511
                ],
                [
                    -74.571495,
                    40.75481
                ],
                [
                    -74.619194,
                    40.744011
                ],
                [
                    -74.653198,
                    40.736111
                ],
                [
                    -74.667595,
                    40.733212
                ],
                [
                    -74.689697,
                    40.728111
                ],
                [
                    -74.693993,
                    40.727512
                ],
                [
                    -74.705399,
                    40.725014
                ],
                [
                    -74.718796,
                    40.721512
                ],
                [
                    -74.725296,
                    40.720013
                ],
                [
                    -74.733093,
                    40.719913
                ],
                [
                    -74.7388,
                    40.722111
                ],
                [
                    -74.742897,
                    40.723213
                ],
                [
                    -74.743996,
                    40.725811
                ],
                [
                    -74.748497,
                    40.728512
                ],
                [
                    -74.752899,
                    40.730812
                ],
                [
                    -74.760498,
                    40.733311
                ],
                [
                    -74.768997,
                    40.735813
                ],
                [
                    -74.791199,
                    40.739811
                ],
                [
                    -74.799599,
                    40.741814
                ],
                [
                    -74.809799,
                    40.741112
                ],
                [
                    -74.813194,
                    40.741413
                ],
                [
                    -74.816299,
                    40.742611
                ],
                [
                    -74.818993,
                    40.742813
                ],
                [
                    -74.822998,
                    40.742512
                ],
                [
                    -74.826897,
                    40.743813
                ],
                [
                    -74.842598,
                    40.756012
                ],
                [
                    -74.844093,
                    40.758614
                ],
                [
                    -74.851295,
                    40.763412
                ],
                [
                    -74.857094,
                    40.766811
                ],
                [
                    -74.8601,
                    40.769012
                ],
                [
                    -74.872993,
                    40.777214
                ],
                [
                    -74.887794,
                    40.786312
                ],
                [
                    -74.889099,
                    40.788513
                ],
                [
                    -74.886894,
                    40.790012
                ],
                [
                    -74.884499,
                    40.791214
                ],
                [
                    -74.881798,
                    40.790913
                ],
                [
                    -74.878494,
                    40.791412
                ],
                [
                    -74.875999,
                    40.793312
                ],
                [
                    -74.873795,
                    40.794514
                ],
                [
                    -74.870094,
                    40.794811
                ],
                [
                    -74.867897,
                    40.796013
                ],
                [
                    -74.864899,
                    40.801514
                ],
                [
                    -74.863594,
                    40.803013
                ],
                [
                    -74.860397,
                    40.802212
                ],
                [
                    -74.8564,
                    40.803013
                ],
                [
                    -74.854393,
                    40.803913
                ],
                [
                    -74.850197,
                    40.80471
                ],
                [
                    -74.847099,
                    40.809212
                ],
                [
                    -74.843994,
                    40.811413
                ],
                [
                    -74.841797,
                    40.813614
                ],
                [
                    -74.839798,
                    40.816311
                ],
                [
                    -74.8377,
                    40.817612
                ],
                [
                    -74.835396,
                    40.819313
                ],
                [
                    -74.833893,
                    40.822811
                ],
                [
                    -74.830498,
                    40.825111
                ],
                [
                    -74.831696,
                    40.827812
                ],
                [
                    -74.828896,
                    40.831112
                ],
                [
                    -74.822098,
                    40.835411
                ],
                [
                    -74.818695,
                    40.837013
                ],
                [
                    -74.819496,
                    40.839211
                ],
                [
                    -74.820999,
                    40.841614
                ],
                [
                    -74.823494,
                    40.844612
                ],
                [
                    -74.822197,
                    40.846512
                ],
                [
                    -74.821396,
                    40.84901
                ],
                [
                    -74.819695,
                    40.850113
                ],
                [
                    -74.815895,
                    40.851112
                ],
                [
                    -74.812195,
                    40.852913
                ],
                [
                    -74.809799,
                    40.856613
                ],
                [
                    -74.808296,
                    40.86071
                ],
                [
                    -74.804398,
                    40.861313
                ],
                [
                    -74.802795,
                    40.862411
                ],
                [
                    -74.802094,
                    40.864311
                ],
                [
                    -74.806694,
                    40.86771
                ],
                [
                    -74.807594,
                    40.870712
                ],
                [
                    -74.805794,
                    40.873913
                ],
                [
                    -74.805794,
                    40.875713
                ],
                [
                    -74.806793,
                    40.878014
                ],
                [
                    -74.8069,
                    40.881512
                ],
                [
                    -74.805794,
                    40.884212
                ],
                [
                    -74.802399,
                    40.886414
                ],
                [
                    -74.793098,
                    40.889713
                ],
                [
                    -74.790199,
                    40.892113
                ],
                [
                    -74.789795,
                    40.895813
                ],
                [
                    -74.786697,
                    40.898312
                ],
                [
                    -74.783699,
                    40.900311
                ],
                [
                    -74.782097,
                    40.902412
                ],
                [
                    -74.7799,
                    40.904114
                ],
                [
                    -74.778496,
                    40.906311
                ],
                [
                    -74.7761,
                    40.905613
                ],
                [
                    -74.772194,
                    40.908611
                ],
                [
                    -74.770393,
                    40.909714
                ],
                [
                    -74.768196,
                    40.911812
                ],
                [
                    -74.764793,
                    40.912312
                ],
                [
                    -74.762794,
                    40.91341
                ],
                [
                    -74.760498,
                    40.912811
                ],
                [
                    -74.756897,
                    40.913612
                ],
                [
                    -74.753296,
                    40.914913
                ],
                [
                    -74.748695,
                    40.918911
                ],
                [
                    -74.746796,
                    40.920013
                ],
                [
                    -74.744598,
                    40.919613
                ],
                [
                    -74.7407,
                    40.919811
                ],
                [
                    -74.736794,
                    40.918911
                ],
                [
                    -74.731598,
                    40.920811
                ],
                [
                    -74.729996,
                    40.919312
                ],
                [
                    -74.727493,
                    40.91621
                ],
                [
                    -74.721001,
                    40.913811
                ],
                [
                    -74.714996,
                    40.909714
                ],
                [
                    -74.712799,
                    40.907711
                ],
                [
                    -74.712296,
                    40.90451
                ],
                [
                    -74.713997,
                    40.902813
                ],
                [
                    -74.713898,
                    40.900311
                ],
                [
                    -74.710594,
                    40.899712
                ],
                [
                    -74.706795,
                    40.901512
                ],
                [
                    -74.7043,
                    40.901913
                ],
                [
                    -74.700294,
                    40.904213
                ],
                [
                    -74.695396,
                    40.906414
                ],
                [
                    -74.692093,
                    40.904411
                ],
                [
                    -74.688896,
                    40.905212
                ],
                [
                    -74.687996,
                    40.908813
                ],
                [
                    -74.682999,
                    40.909912
                ],
                [
                    -74.68,
                    40.90921
                ],
                [
                    -74.677094,
                    40.910412
                ],
                [
                    -74.6707,
                    40.914112
                ],
                [
                    -74.6642,
                    40.917614
                ],
                [
                    -74.655594,
                    40.920712
                ],
                [
                    -74.652199,
                    40.922611
                ],
                [
                    -74.653595,
                    40.927311
                ],
                [
                    -74.650696,
                    40.931213
                ],
                [
                    -74.645798,
                    40.934113
                ],
                [
                    -74.6399,
                    40.938011
                ],
                [
                    -74.635994,
                    40.943111
                ],
                [
                    -74.634995,
                    40.945812
                ],
                [
                    -74.634598,
                    40.948513
                ],
                [
                    -74.634995,
                    40.951214
                ],
                [
                    -74.636696,
                    40.954014
                ],
                [
                    -74.638893,
                    40.956413
                ],
                [
                    -74.641098,
                    40.960213
                ],
                [
                    -74.640999,
                    40.964413
                ],
                [
                    -74.639297,
                    40.966911
                ],
                [
                    -74.631195,
                    40.974113
                ],
                [
                    -74.612694,
                    40.991013
                ],
                [
                    -74.5942,
                    41.007313
                ],
                [
                    -74.580994,
                    41.019413
                ],
                [
                    -74.574898,
                    41.024712
                ],
                [
                    -74.571899,
                    41.027111
                ],
                [
                    -74.547997,
                    41.048412
                ],
                [
                    -74.527397,
                    41.06591
                ],
                [
                    -74.5047,
                    41.084812
                ],
                [
                    -74.502197,
                    41.086212
                ],
                [
                    -74.499298,
                    41.084614
                ],
                [
                    -74.495796,
                    41.081913
                ],
                [
                    -74.4935,
                    41.081013
                ],
                [
                    -74.492195,
                    41.079411
                ],
                [
                    -74.489799,
                    41.078011
                ],
                [
                    -74.487297,
                    41.076813
                ],
                [
                    -74.488297,
                    41.07291
                ],
                [
                    -74.487099,
                    41.065613
                ],
                [
                    -74.489899,
                    41.063313
                ],
                [
                    -74.493996,
                    41.062511
                ],
                [
                    -74.496094,
                    41.060413
                ],
                [
                    -74.497093,
                    41.058212
                ],
                [
                    -74.497498,
                    41.055111
                ],
                [
                    -74.497498,
                    41.050911
                ],
                [
                    -74.498695,
                    41.047012
                ],
                [
                    -74.500298,
                    41.044014
                ],
                [
                    -74.501198,
                    41.039612
                ],
                [
                    -74.499695,
                    41.037411
                ]
            ]
        ]
    },
    "properties": {
        "@id": "https://api.weather.gov/zones/forecast/NJZ008",
        "@type": "wx:Zone",
        "id": "NJZ008",
        "type": "public",
        "name": "Morris",
        "effectiveDate": "2026-04-16T18:00:00+00:00",
        "expirationDate": "2200-01-01T00:00:00+00:00",
        "state": "NJ",
        "forecastOffice": "https://api.weather.gov/offices/PHI",
        "gridIdentifier": "PHI",
        "awipsLocationIdentifier": "PHI",
        "cwa": [
            "PHI"
        ],
        "forecastOffices": [
            "https://api.weather.gov/offices/PHI"
        ],
        "timeZone": [
            "America/New_York"
        ],
        "observationStations": [
            "https://api.weather.gov/stations/KCDW",
            "https://api.weather.gov/stations/K12N",
            "https://api.weather.gov/stations/KABE",
            "https://api.weather.gov/stations/KEWR",
            "https://api.weather.gov/stations/KFWN",
            "https://api.weather.gov/stations/KMMU",
            "https://api.weather.gov/stations/KMPO",
            "https://api.weather.gov/stations/KNYC",
            "https://api.weather.gov/stations/KSMQ",
            "https://api.weather.gov/stations/KTEB",
            "https://api.weather.gov/stations/KTTN"
        ],
        "radarStation": "DIX"
    }
}