{
    "@context": {
        "@version": "1.1"
    },
    "id": "https://api.weather.gov/zones/forecast/CAZ561",
    "type": "Feature",
    "geometry": {
        "type": "Polygon",
        "coordinates": [
            [
                [
                    -115.4077,
                    34.092213
                ],
                [
                    -115.402695,
                    34.092213
                ],
                [
                    -115.390694,
                    34.091213
                ],
                [
                    -115.386192,
                    34.090412
                ],
                [
                    -115.375,
                    34.087711
                ],
                [
                    -115.3573,
                    34.083813
                ],
                [
                    -115.316093,
                    34.072712
                ],
                [
                    -115.3162,
                    34.034101
                ],
                [
                    -115.3372,
                    34.0345
                ],
                [
                    -115.3802,
                    34.0347
                ],
                [
                    -115.3704,
                    33.9893
                ],
                [
                    -115.3813,
                    33.9753
                ],
                [
                    -115.4287,
                    33.9153
                ],
                [
                    -115.545099,
                    33.9259
                ],
                [
                    -115.5982,
                    33.8781
                ],
                [
                    -115.6052,
                    33.801292
                ],
                [
                    -115.7224,
                    33.791101
                ],
                [
                    -115.7936,
                    33.791101
                ],
                [
                    -115.8364,
                    33.8577
                ],
                [
                    -115.8774,
                    33.8601
                ],
                [
                    -115.8814,
                    33.8605
                ],
                [
                    -115.9173,
                    33.8625
                ],
                [
                    -115.9601,
                    33.9435
                ],
                [
                    -115.9549,
                    33.9471
                ],
                [
                    -115.9078,
                    33.9815
                ],
                [
                    -115.9036,
                    34.0281
                ],
                [
                    -115.903204,
                    34.035213
                ],
                [
                    -115.840897,
                    34.035412
                ],
                [
                    -115.686699,
                    34.035313
                ],
                [
                    -115.677498,
                    34.03561
                ],
                [
                    -115.667,
                    34.035313
                ],
                [
                    -115.596199,
                    34.035412
                ],
                [
                    -115.597397,
                    34.037212
                ],
                [
                    -115.607697,
                    34.072712
                ],
                [
                    -115.598495,
                    34.094513
                ],
                [
                    -115.582397,
                    34.089813
                ],
                [
                    -115.578194,
                    34.084312
                ],
                [
                    -115.575394,
                    34.081913
                ],
                [
                    -115.573593,
                    34.080513
                ],
                [
                    -115.569298,
                    34.077812
                ],
                [
                    -115.565399,
                    34.075611
                ],
                [
                    -115.557396,
                    34.074314
                ],
                [
                    -115.552994,
                    34.073311
                ],
                [
                    -115.549095,
                    34.073513
                ],
                [
                    -115.544197,
                    34.081413
                ],
                [
                    -115.538895,
                    34.09251
                ],
                [
                    -115.535393,
                    34.100613
                ],
                [
                    -115.531998,
                    34.106812
                ],
                [
                    -115.529999,
                    34.110111
                ],
                [
                    -115.528297,
                    34.113411
                ],
                [
                    -115.526695,
                    34.115513
                ],
                [
                    -115.524597,
                    34.117012
                ],
                [
                    -115.509094,
                    34.115711
                ],
                [
                    -115.479401,
                    34.111511
                ],
                [
                    -115.475395,
                    34.11071
                ],
                [
                    -115.463196,
                    34.10741
                ],
                [
                    -115.458794,
                    34.106514
                ],
                [
                    -115.453697,
                    34.104813
                ],
                [
                    -115.439095,
                    34.100811
                ],
                [
                    -115.4114,
                    34.092911
                ],
                [
                    -115.4077,
                    34.092213
                ]
            ]
        ]
    },
    "properties": {
        "@id": "https://api.weather.gov/zones/forecast/CAZ561",
        "@type": "wx:Zone",
        "id": "CAZ561",
        "type": "public",
        "name": "Joshua Tree NP East",
        "effectiveDate": "2026-04-16T18:00:00+00:00",
        "expirationDate": "2200-01-01T00:00:00+00:00",
        "state": "CA",
        "forecastOffice": "https://api.weather.gov/offices/PSR",
        "gridIdentifier": "PSR",
        "awipsLocationIdentifier": "PSR",
        "cwa": [
            "PSR"
        ],
        "forecastOffices": [
            "https://api.weather.gov/offices/PSR"
        ],
        "timeZone": [
            "America/Los_Angeles"
        ],
        "observationStations": [
            "https://api.weather.gov/stations/WCYC1"
        ],
        "radarStation": null
    }
}