{
    "@context": {
        "@version": "1.1"
    },
    "id": "https://api.weather.gov/zones/forecast/AZZ002",
    "type": "Feature",
    "geometry": {
        "type": "Polygon",
        "coordinates": [
            [
                [
                    -114.165398,
                    34.508411
                ],
                [
                    -114.108597,
                    34.295513
                ],
                [
                    -114.111595,
                    34.295013
                ],
                [
                    -114.115395,
                    34.295914
                ],
                [
                    -114.118797,
                    34.298111
                ],
                [
                    -114.122299,
                    34.299614
                ],
                [
                    -114.126495,
                    34.302113
                ],
                [
                    -114.129097,
                    34.304211
                ],
                [
                    -114.131493,
                    34.303711
                ],
                [
                    -114.134193,
                    34.304211
                ],
                [
                    -114.137695,
                    34.303612
                ],
                [
                    -114.154396,
                    34.315712
                ],
                [
                    -114.157494,
                    34.319111
                ],
                [
                    -114.162193,
                    34.327511
                ],
                [
                    -114.164299,
                    34.330811
                ],
                [
                    -114.167,
                    34.335812
                ],
                [
                    -114.1688,
                    34.339512
                ],
                [
                    -114.172798,
                    34.345013
                ],
                [
                    -114.176895,
                    34.349312
                ],
                [
                    -114.181099,
                    34.352211
                ],
                [
                    -114.1856,
                    34.354412
                ],
                [
                    -114.1922,
                    34.356712
                ],
                [
                    -114.196495,
                    34.359211
                ],
                [
                    -114.199493,
                    34.361412
                ],
                [
                    -114.213799,
                    34.362411
                ],
                [
                    -114.219894,
                    34.364014
                ],
                [
                    -114.226097,
                    34.365913
                ],
                [
                    -114.229698,
                    34.368912
                ],
                [
                    -114.232796,
                    34.374512
                ],
                [
                    -114.234299,
                    34.376614
                ],
                [
                    -114.242699,
                    34.383713
                ],
                [
                    -114.248695,
                    34.388111
                ],
                [
                    -114.251801,
                    34.389713
                ],
                [
                    -114.255196,
                    34.392212
                ],
                [
                    -114.258194,
                    34.395012
                ],
                [
                    -114.263596,
                    34.400913
                ],
                [
                    -114.266693,
                    34.402313
                ],
                [
                    -114.2714,
                    34.402912
                ],
                [
                    -114.280098,
                    34.403111
                ],
                [
                    -114.283195,
                    34.403912
                ],
                [
                    -114.286194,
                    34.405113
                ],
                [
                    -114.288696,
                    34.406612
                ],
                [
                    -114.291199,
                    34.410412
                ],
                [
                    -114.292,
                    34.416214
                ],
                [
                    -114.294098,
                    34.420513
                ],
                [
                    -114.300797,
                    34.426613
                ],
                [
                    -114.309494,
                    34.43111
                ],
                [
                    -114.312294,
                    34.432713
                ],
                [
                    -114.316093,
                    34.434711
                ],
                [
                    -114.319099,
                    34.435814
                ],
                [
                    -114.3265,
                    34.437611
                ],
                [
                    -114.328499,
                    34.441513
                ],
                [
                    -114.3312,
                    34.446011
                ],
                [
                    -114.333,
                    34.448112
                ],
                [
                    -114.334793,
                    34.449711
                ],
                [
                    -114.337395,
                    34.450912
                ],
                [
                    -114.340195,
                    34.451511
                ],
                [
                    -114.343498,
                    34.451313
                ],
                [
                    -114.347893,
                    34.450512
                ],
                [
                    -114.355995,
                    34.449711
                ],
                [
                    -114.3629,
                    34.448013
                ],
                [
                    -114.367294,
                    34.447311
                ],
                [
                    -114.371201,
                    34.447014
                ],
                [
                    -114.374397,
                    34.447212
                ],
                [
                    -114.378899,
                    34.450413
                ],
                [
                    -114.382996,
                    34.454014
                ],
                [
                    -114.3852,
                    34.456211
                ],
                [
                    -114.3871,
                    34.459213
                ],
                [
                    -114.386894,
                    34.462914
                ],
                [
                    -114.383499,
                    34.470413
                ],
                [
                    -114.3825,
                    34.473114
                ],
                [
                    -114.381599,
                    34.477013
                ],
                [
                    -114.381897,
                    34.48101
                ],
                [
                    -114.382698,
                    34.485912
                ],
                [
                    -114.382896,
                    34.490211
                ],
                [
                    -114.3825,
                    34.494713
                ],
                [
                    -114.381393,
                    34.499111
                ],
                [
                    -114.378098,
                    34.507313
                ],
                [
                    -114.378197,
                    34.516514
                ],
                [
                    -114.380501,
                    34.528412
                ],
                [
                    -114.389595,
                    34.543011
                ],
                [
                    -114.398895,
                    34.559113
                ],
                [
                    -114.4049,
                    34.569111
                ],
                [
                    -114.422394,
                    34.580711
                ],
                [
                    -114.434998,
                    34.593212
                ],
                [
                    -114.4366,
                    34.596512
                ],
                [
                    -114.427498,
                    34.599213
                ],
                [
                    -114.424797,
                    34.601513
                ],
                [
                    -114.424194,
                    34.610413
                ],
                [
                    -114.428696,
                    34.614613
                ],
                [
                    -114.438797,
                    34.62191
                ],
                [
                    -114.439598,
                    34.625912
                ],
                [
                    -114.440796,
                    34.628613
                ],
                [
                    -114.441399,
                    34.630913
                ],
                [
                    -114.440399,
                    34.637314
                ],
                [
                    -114.440994,
                    34.641312
                ],
                [
                    -114.442795,
                    34.644711
                ],
                [
                    -114.449196,
                    34.651112
                ],
                [
                    -114.451797,
                    34.653011
                ],
                [
                    -114.456993,
                    34.656311
                ],
                [
                    -114.458099,
                    34.657913
                ],
                [
                    -114.4571,
                    34.659912
                ],
                [
                    -114.4524,
                    34.663414
                ],
                [
                    -114.450699,
                    34.665813
                ],
                [
                    -114.451195,
                    34.668213
                ],
                [
                    -114.452995,
                    34.66991
                ],
                [
                    -114.454697,
                    34.672211
                ],
                [
                    -114.454796,
                    34.675114
                ],
                [
                    -114.455994,
                    34.678112
                ],
                [
                    -114.460098,
                    34.683514
                ],
                [
                    -114.462898,
                    34.686813
                ],
                [
                    -114.464996,
                    34.690712
                ],
                [
                    -114.465897,
                    34.693211
                ],
                [
                    -114.467697,
                    34.700111
                ],
                [
                    -114.468201,
                    34.704613
                ],
                [
                    -114.469093,
                    34.708813
                ],
                [
                    -114.470695,
                    34.711811
                ],
                [
                    -114.472595,
                    34.713512
                ],
                [
                    -114.4767,
                    34.714512
                ],
                [
                    -114.481697,
                    34.714611
                ],
                [
                    -114.484795,
                    34.715214
                ],
                [
                    -114.487595,
                    34.716812
                ],
                [
                    -114.491501,
                    34.725212
                ],
                [
                    -114.495796,
                    34.727814
                ],
                [
                    -114.498993,
                    34.729111
                ],
                [
                    -114.500793,
                    34.730412
                ],
                [
                    -114.5112,
                    34.734013
                ],
                [
                    -114.514198,
                    34.735313
                ],
                [
                    -114.516098,
                    34.736511
                ],
                [
                    -114.518196,
                    34.738312
                ],
                [
                    -114.520493,
                    34.740612
                ],
                [
                    -114.522293,
                    34.743111
                ],
                [
                    -114.524696,
                    34.746014
                ],
                [
                    -114.529694,
                    34.750713
                ],
                [
                    -114.535896,
                    34.754311
                ],
                [
                    -114.540298,
                    34.757111
                ],
                [
                    -114.546898,
                    34.76181
                ],
                [
                    -114.552696,
                    34.766911
                ],
                [
                    -114.558693,
                    34.773811
                ],
                [
                    -114.563499,
                    34.781712
                ],
                [
                    -114.565094,
                    34.785412
                ],
                [
                    -114.566795,
                    34.788414
                ],
                [
                    -114.569397,
                    34.791611
                ],
                [
                    -114.570694,
                    34.793812
                ],
                [
                    -114.571899,
                    34.79631
                ],
                [
                    -114.572899,
                    34.800011
                ],
                [
                    -114.5746,
                    34.804913
                ],
                [
                    -114.574799,
                    34.807713
                ],
                [
                    -114.575493,
                    34.811314
                ],
                [
                    -114.5765,
                    34.815311
                ],
                [
                    -114.577599,
                    34.818314
                ],
                [
                    -114.580498,
                    34.825012
                ],
                [
                    -114.586998,
                    34.835911
                ],
                [
                    -114.590096,
                    34.839111
                ],
                [
                    -114.592094,
                    34.840912
                ],
                [
                    -114.595093,
                    34.84341
                ],
                [
                    -114.598396,
                    34.845814
                ],
                [
                    -114.602699,
                    34.848713
                ],
                [
                    -114.604996,
                    34.849911
                ],
                [
                    -114.617599,
                    34.855713
                ],
                [
                    -114.620895,
                    34.857613
                ],
                [
                    -114.623894,
                    34.859711
                ],
                [
                    -114.626396,
                    34.861912
                ],
                [
                    -114.628296,
                    34.863613
                ],
                [
                    -114.630196,
                    34.86581
                ],
                [
                    -114.632599,
                    34.869312
                ],
                [
                    -114.634796,
                    34.874012
                ],
                [
                    -114.636597,
                    34.884911
                ],
                [
                    -114.636696,
                    34.889111
                ],
                [
                    -114.635399,
                    34.89521
                ],
                [
                    -114.634499,
                    34.897812
                ],
                [
                    -114.632195,
                    34.903111
                ],
                [
                    -114.630898,
                    34.90731
                ],
                [
                    -114.6306,
                    34.911312
                ],
                [
                    -114.633194,
                    34.921913
                ],
                [
                    -114.633255,
                    34.923481
                ],
                [
                    -114.301384,
                    34.923481
                ],
                [
                    -114.273499,
                    34.854313
                ],
                [
                    -114.165398,
                    34.508411
                ]
            ]
        ]
    },
    "properties": {
        "@id": "https://api.weather.gov/zones/forecast/AZZ002",
        "@type": "wx:Zone",
        "id": "AZZ002",
        "type": "public",
        "name": "Lake Havasu and Fort Mohave",
        "effectiveDate": "2026-04-16T18:00:00+00:00",
        "expirationDate": "2200-01-01T00:00:00+00:00",
        "state": "AZ",
        "forecastOffice": "https://api.weather.gov/offices/VEF",
        "gridIdentifier": "VEF",
        "awipsLocationIdentifier": "VEF",
        "cwa": [
            "VEF"
        ],
        "forecastOffices": [
            "https://api.weather.gov/offices/VEF"
        ],
        "timeZone": [
            "America/Phoenix"
        ],
        "observationStations": [
            "https://api.weather.gov/stations/KHII",
            "https://api.weather.gov/stations/AKPA3",
            "https://api.weather.gov/stations/KBLH",
            "https://api.weather.gov/stations/KEED",
            "https://api.weather.gov/stations/KIFP",
            "https://api.weather.gov/stations/QHAA3"
        ],
        "radarStation": null
    }
}