{
    "@context": {
        "@version": "1.1"
    },
    "id": "https://api.weather.gov/zones/forecast/HIZ043",
    "type": "Feature",
    "geometry": {
        "type": "Polygon",
        "coordinates": [
            [
                [
                    -157.033214,
                    20.923938
                ],
                [
                    -156.99653,
                    20.879973
                ],
                [
                    -156.99743,
                    20.875971
                ],
                [
                    -156.995523,
                    20.872271
                ],
                [
                    -156.987527,
                    20.86327
                ],
                [
                    -156.976236,
                    20.85207
                ],
                [
                    -156.965433,
                    20.840273
                ],
                [
                    -156.95672,
                    20.822171
                ],
                [
                    -156.953225,
                    20.806872
                ],
                [
                    -156.954629,
                    20.787371
                ],
                [
                    -156.957223,
                    20.772772
                ],
                [
                    -156.952524,
                    20.765971
                ],
                [
                    -156.96499,
                    20.732031
                ],
                [
                    -156.96532,
                    20.731939
                ],
                [
                    -156.965655,
                    20.732671
                ],
                [
                    -156.965188,
                    20.73313
                ],
                [
                    -156.965112,
                    20.733443
                ],
                [
                    -156.965265,
                    20.733729
                ],
                [
                    -156.965555,
                    20.734
                ],
                [
                    -156.966317,
                    20.733481
                ],
                [
                    -156.966445,
                    20.733774
                ],
                [
                    -156.966356,
                    20.734766
                ],
                [
                    -156.965875,
                    20.735318
                ],
                [
                    -156.965722,
                    20.735974
                ],
                [
                    -156.966296,
                    20.736765
                ],
                [
                    -156.966699,
                    20.736859
                ],
                [
                    -156.967157,
                    20.737357
                ],
                [
                    -156.967782,
                    20.737496
                ],
                [
                    -156.96792,
                    20.73947
                ],
                [
                    -156.968448,
                    20.74037
                ],
                [
                    -156.969671,
                    20.741047
                ],
                [
                    -156.970375,
                    20.741672
                ],
                [
                    -156.970971,
                    20.742859
                ],
                [
                    -156.971994,
                    20.744349
                ],
                [
                    -156.972497,
                    20.744563
                ],
                [
                    -156.972966,
                    20.74532
                ],
                [
                    -156.973383,
                    20.745314
                ],
                [
                    -156.973638,
                    20.745508
                ],
                [
                    -156.973748,
                    20.746306
                ],
                [
                    -156.973977,
                    20.746668
                ],
                [
                    -156.975412,
                    20.747366
                ],
                [
                    -156.976195,
                    20.747096
                ],
                [
                    -156.977105,
                    20.747488
                ],
                [
                    -156.977624,
                    20.74897
                ],
                [
                    -156.979756,
                    20.750985
                ],
                [
                    -156.980119,
                    20.752015
                ],
                [
                    -156.9815,
                    20.752846
                ],
                [
                    -156.982171,
                    20.753535
                ],
                [
                    -156.982232,
                    20.755057
                ],
                [
                    -156.98298,
                    20.756501
                ],
                [
                    -156.98417,
                    20.760014
                ],
                [
                    -156.984792,
                    20.76263
                ],
                [
                    -156.985215,
                    20.765423
                ],
                [
                    -156.985925,
                    20.767893
                ],
                [
                    -156.986408,
                    20.76877
                ],
                [
                    -156.986758,
                    20.770144
                ],
                [
                    -156.98768,
                    20.771796
                ],
                [
                    -156.98772,
                    20.7723
                ],
                [
                    -156.988164,
                    20.772572
                ],
                [
                    -156.988321,
                    20.773898
                ],
                [
                    -156.98867,
                    20.774902
                ],
                [
                    -156.988656,
                    20.776642
                ],
                [
                    -156.989068,
                    20.77689
                ],
                [
                    -156.988774,
                    20.777329
                ],
                [
                    -156.988885,
                    20.778429
                ],
                [
                    -156.98916,
                    20.778946
                ],
                [
                    -156.989688,
                    20.779217
                ],
                [
                    -156.989923,
                    20.779534
                ],
                [
                    -156.990426,
                    20.779704
                ],
                [
                    -156.990608,
                    20.780265
                ],
                [
                    -156.99134,
                    20.779878
                ],
                [
                    -156.991617,
                    20.779885
                ],
                [
                    -156.991433,
                    20.780339
                ],
                [
                    -156.991948,
                    20.780922
                ],
                [
                    -156.991676,
                    20.781613
                ],
                [
                    -156.991144,
                    20.78213
                ],
                [
                    -156.991128,
                    20.782322
                ],
                [
                    -156.991423,
                    20.782564
                ],
                [
                    -156.991983,
                    20.782408
                ],
                [
                    -156.992257,
                    20.783598
                ],
                [
                    -156.992102,
                    20.783724
                ],
                [
                    -156.991433,
                    20.78353
                ],
                [
                    -156.990544,
                    20.783772
                ],
                [
                    -156.989526,
                    20.784804
                ],
                [
                    -156.98945,
                    20.785292
                ],
                [
                    -156.989847,
                    20.785599
                ],
                [
                    -156.990099,
                    20.786312
                ],
                [
                    -156.990649,
                    20.786719
                ],
                [
                    -156.99238,
                    20.786322
                ],
                [
                    -156.992351,
                    20.785583
                ],
                [
                    -156.992547,
                    20.785721
                ],
                [
                    -156.992694,
                    20.786502
                ],
                [
                    -156.992085,
                    20.787733
                ],
                [
                    -156.991395,
                    20.787839
                ],
                [
                    -156.99096,
                    20.788104
                ],
                [
                    -156.990243,
                    20.788102
                ],
                [
                    -156.990518,
                    20.788947
                ],
                [
                    -156.990332,
                    20.789332
                ],
                [
                    -156.989786,
                    20.789328
                ],
                [
                    -156.989842,
                    20.79001
                ],
                [
                    -156.989658,
                    20.790641
                ],
                [
                    -156.99021,
                    20.791158
                ],
                [
                    -156.989932,
                    20.79116
                ],
                [
                    -156.98887,
                    20.791714
                ],
                [
                    -156.988683,
                    20.79206
                ],
                [
                    -156.989092,
                    20.792754
                ],
                [
                    -156.990594,
                    20.793314
                ],
                [
                    -156.990624,
                    20.793473
                ],
                [
                    -156.99035,
                    20.793568
                ],
                [
                    -156.990574,
                    20.793961
                ],
                [
                    -156.989871,
                    20.794596
                ],
                [
                    -156.989862,
                    20.794756
                ],
                [
                    -156.990639,
                    20.795228
                ],
                [
                    -156.990677,
                    20.795539
                ],
                [
                    -156.989523,
                    20.79601
                ],
                [
                    -156.988106,
                    20.796223
                ],
                [
                    -156.987832,
                    20.79646
                ],
                [
                    -156.988822,
                    20.798056
                ],
                [
                    -156.990148,
                    20.798895
                ],
                [
                    -156.990274,
                    20.799496
                ],
                [
                    -156.989999,
                    20.799685
                ],
                [
                    -156.989951,
                    20.799971
                ],
                [
                    -156.990381,
                    20.800219
                ],
                [
                    -156.990472,
                    20.800951
                ],
                [
                    -156.989847,
                    20.801165
                ],
                [
                    -156.990014,
                    20.801449
                ],
                [
                    -156.989497,
                    20.801982
                ],
                [
                    -156.988881,
                    20.801979
                ],
                [
                    -156.987828,
                    20.802709
                ],
                [
                    -156.987814,
                    20.803188
                ],
                [
                    -156.987481,
                    20.803919
                ],
                [
                    -156.987695,
                    20.804415
                ],
                [
                    -156.988166,
                    20.804446
                ],
                [
                    -156.988503,
                    20.80509
                ],
                [
                    -156.988516,
                    20.805635
                ],
                [
                    -156.988214,
                    20.806227
                ],
                [
                    -156.988426,
                    20.806711
                ],
                [
                    -156.988031,
                    20.807311
                ],
                [
                    -156.987558,
                    20.807591
                ],
                [
                    -156.986764,
                    20.807774
                ],
                [
                    -156.986668,
                    20.80801
                ],
                [
                    -156.986762,
                    20.80848
                ],
                [
                    -156.987299,
                    20.808535
                ],
                [
                    -156.987924,
                    20.810563
                ],
                [
                    -156.987444,
                    20.810625
                ],
                [
                    -156.986774,
                    20.811025
                ],
                [
                    -156.98636,
                    20.812095
                ],
                [
                    -156.98649,
                    20.812674
                ],
                [
                    -156.986789,
                    20.812906
                ],
                [
                    -156.987733,
                    20.813016
                ],
                [
                    -156.988077,
                    20.813208
                ],
                [
                    -156.987353,
                    20.813792
                ],
                [
                    -156.988107,
                    20.814164
                ],
                [
                    -156.987924,
                    20.814671
                ],
                [
                    -156.987954,
                    20.815577
                ],
                [
                    -156.987554,
                    20.816369
                ],
                [
                    -156.987567,
                    20.816949
                ],
                [
                    -156.987768,
                    20.817342
                ],
                [
                    -156.988244,
                    20.817347
                ],
                [
                    -156.988391,
                    20.81774
                ],
                [
                    -156.988656,
                    20.81779
                ],
                [
                    -156.987705,
                    20.81835
                ],
                [
                    -156.987584,
                    20.818939
                ],
                [
                    -156.988258,
                    20.82016
                ],
                [
                    -156.98932,
                    20.82158
                ],
                [
                    -156.989419,
                    20.822361
                ],
                [
                    -156.989264,
                    20.823462
                ],
                [
                    -156.989976,
                    20.823835
                ],
                [
                    -156.990479,
                    20.823847
                ],
                [
                    -156.990544,
                    20.824065
                ],
                [
                    -156.990152,
                    20.824463
                ],
                [
                    -156.990381,
                    20.825007
                ],
                [
                    -156.990544,
                    20.825199
                ],
                [
                    -156.991033,
                    20.825259
                ],
                [
                    -156.991388,
                    20.825695
                ],
                [
                    -156.991876,
                    20.825861
                ],
                [
                    -156.991783,
                    20.826231
                ],
                [
                    -156.991983,
                    20.827162
                ],
                [
                    -156.992547,
                    20.827452
                ],
                [
                    -156.992334,
                    20.827824
                ],
                [
                    -156.992517,
                    20.828696
                ],
                [
                    -156.993611,
                    20.830207
                ],
                [
                    -156.994589,
                    20.831106
                ],
                [
                    -156.995035,
                    20.831362
                ],
                [
                    -156.995635,
                    20.83138
                ],
                [
                    -156.99563,
                    20.831753
                ],
                [
                    -156.996118,
                    20.832665
                ],
                [
                    -156.996373,
                    20.834041
                ],
                [
                    -156.996709,
                    20.834551
                ],
                [
                    -156.99743,
                    20.835032
                ],
                [
                    -156.99791,
                    20.837161
                ],
                [
                    -156.999504,
                    20.839488
                ],
                [
                    -157.000589,
                    20.84146
                ],
                [
                    -157.001779,
                    20.842154
                ],
                [
                    -157.003671,
                    20.846461
                ],
                [
                    -157.004098,
                    20.847018
                ],
                [
                    -157.004697,
                    20.847406
                ],
                [
                    -157.005441,
                    20.847474
                ],
                [
                    -157.006474,
                    20.847087
                ],
                [
                    -157.006723,
                    20.847254
                ],
                [
                    -157.006577,
                    20.84781
                ],
                [
                    -157.00614,
                    20.848435
                ],
                [
                    -157.00614,
                    20.848755
                ],
                [
                    -157.006595,
                    20.849101
                ],
                [
                    -157.006677,
                    20.84964
                ],
                [
                    -157.007174,
                    20.850231
                ],
                [
                    -157.008341,
                    20.851335
                ],
                [
                    -157.009846,
                    20.852482
                ],
                [
                    -157.011877,
                    20.853704
                ],
                [
                    -157.0125,
                    20.853864
                ],
                [
                    -157.01304,
                    20.853713
                ],
                [
                    -157.013835,
                    20.853114
                ],
                [
                    -157.014001,
                    20.853264
                ],
                [
                    -157.01397,
                    20.853475
                ],
                [
                    -157.013589,
                    20.854521
                ],
                [
                    -157.015173,
                    20.855879
                ],
                [
                    -157.016865,
                    20.85646
                ],
                [
                    -157.017618,
                    20.857211
                ],
                [
                    -157.018451,
                    20.85775
                ],
                [
                    -157.018945,
                    20.85781
                ],
                [
                    -157.019885,
                    20.858382
                ],
                [
                    -157.020349,
                    20.85845
                ],
                [
                    -157.021248,
                    20.859132
                ],
                [
                    -157.024054,
                    20.859848
                ],
                [
                    -157.024615,
                    20.860421
                ],
                [
                    -157.025873,
                    20.860295
                ],
                [
                    -157.027078,
                    20.861678
                ],
                [
                    -157.029087,
                    20.862435
                ],
                [
                    -157.029621,
                    20.862747
                ],
                [
                    -157.029748,
                    20.863018
                ],
                [
                    -157.031473,
                    20.863539
                ],
                [
                    -157.032347,
                    20.863581
                ],
                [
                    -157.033288,
                    20.862215
                ],
                [
                    -157.034677,
                    20.86213
                ],
                [
                    -157.035272,
                    20.863293
                ],
                [
                    -157.035806,
                    20.86336
                ],
                [
                    -157.036264,
                    20.863944
                ],
                [
                    -157.036508,
                    20.863764
                ],
                [
                    -157.036863,
                    20.862912
                ],
                [
                    -157.037103,
                    20.862887
                ],
                [
                    -157.03721,
                    20.864389
                ],
                [
                    -157.036767,
                    20.864844
                ],
                [
                    -157.0369,
                    20.865645
                ],
                [
                    -157.038272,
                    20.86685
                ],
                [
                    -157.03927,
                    20.867457
                ],
                [
                    -157.039902,
                    20.86755
                ],
                [
                    -157.041819,
                    20.866952
                ],
                [
                    -157.04253,
                    20.867186
                ],
                [
                    -157.042655,
                    20.868071
                ],
                [
                    -157.04343,
                    20.869074
                ],
                [
                    -157.044168,
                    20.869521
                ],
                [
                    -157.044438,
                    20.86938
                ],
                [
                    -157.044517,
                    20.869875
                ],
                [
                    -157.045203,
                    20.869867
                ],
                [
                    -157.04545,
                    20.870354
                ],
                [
                    -157.045764,
                    20.870465
                ],
                [
                    -157.046869,
                    20.870228
                ],
                [
                    -157.047525,
                    20.870413
                ],
                [
                    -157.048089,
                    20.870303
                ],
                [
                    -157.048578,
                    20.870413
                ],
                [
                    -157.048761,
                    20.870743
                ],
                [
                    -157.049753,
                    20.870244
                ],
                [
                    -157.049443,
                    20.870876
                ],
                [
                    -157.049595,
                    20.871382
                ],
                [
                    -157.049791,
                    20.871407
                ],
                [
                    -157.04972,
                    20.871736
                ],
                [
                    -157.051324,
                    20.872242
                ],
                [
                    -157.052236,
                    20.872962
                ],
                [
                    -157.05198,
                    20.874077
                ],
                [
                    -157.052087,
                    20.874821
                ],
                [
                    -157.052377,
                    20.875498
                ],
                [
                    -157.053027,
                    20.875811
                ],
                [
                    -157.053302,
                    20.876132
                ],
                [
                    -157.053216,
                    20.876564
                ],
                [
                    -157.052867,
                    20.876798
                ],
                [
                    -157.052606,
                    20.876755
                ],
                [
                    -157.052309,
                    20.877315
                ],
                [
                    -157.052922,
                    20.877833
                ],
                [
                    -157.052957,
                    20.878262
                ],
                [
                    -157.052741,
                    20.878473
                ],
                [
                    -157.052972,
                    20.878813
                ],
                [
                    -157.05401,
                    20.8792
                ],
                [
                    -157.054268,
                    20.879606
                ],
                [
                    -157.054468,
                    20.879598
                ],
                [
                    -157.054605,
                    20.879801
                ],
                [
                    -157.055261,
                    20.879659
                ],
                [
                    -157.05549,
                    20.880095
                ],
                [
                    -157.055964,
                    20.880106
                ],
                [
                    -157.057092,
                    20.881493
                ],
                [
                    -157.05665,
                    20.882378
                ],
                [
                    -157.056573,
                    20.882988
                ],
                [
                    -157.056253,
                    20.883013
                ],
                [
                    -157.056817,
                    20.883901
                ],
                [
                    -157.057253,
                    20.88396
                ],
                [
                    -157.057626,
                    20.884528
                ],
                [
                    -157.057626,
                    20.885405
                ],
                [
                    -157.057862,
                    20.885541
                ],
                [
                    -157.058435,
                    20.886843
                ],
                [
                    -157.058557,
                    20.887495
                ],
                [
                    -157.058904,
                    20.887747
                ],
                [
                    -157.059424,
                    20.888674
                ],
                [
                    -157.060323,
                    20.889253
                ],
                [
                    -157.060693,
                    20.888932
                ],
                [
                    -157.060922,
                    20.888941
                ],
                [
                    -157.061178,
                    20.889456
                ],
                [
                    -157.06148,
                    20.889583
                ],
                [
                    -157.061685,
                    20.891273
                ],
                [
                    -157.061055,
                    20.89134
                ],
                [
                    -157.060046,
                    20.892033
                ],
                [
                    -157.059869,
                    20.892718
                ],
                [
                    -157.060098,
                    20.89325
                ],
                [
                    -157.0597,
                    20.89417
                ],
                [
                    -157.059912,
                    20.894559
                ],
                [
                    -157.059928,
                    20.895058
                ],
                [
                    -157.059669,
                    20.895362
                ],
                [
                    -157.0599,
                    20.896164
                ],
                [
                    -157.060155,
                    20.896376
                ],
                [
                    -157.059577,
                    20.896785
                ],
                [
                    -157.059467,
                    20.897363
                ],
                [
                    -157.05903,
                    20.897305
                ],
                [
                    -157.058725,
                    20.897805
                ],
                [
                    -157.059533,
                    20.899258
                ],
                [
                    -157.058481,
                    20.899855
                ],
                [
                    -157.058481,
                    20.900168
                ],
                [
                    -157.059472,
                    20.901194
                ],
                [
                    -157.059941,
                    20.901245
                ],
                [
                    -157.059747,
                    20.901633
                ],
                [
                    -157.059868,
                    20.901962
                ],
                [
                    -157.058965,
                    20.902865
                ],
                [
                    -157.058969,
                    20.903271
                ],
                [
                    -157.057866,
                    20.903744
                ],
                [
                    -157.05797,
                    20.90447
                ],
                [
                    -157.058526,
                    20.904681
                ],
                [
                    -157.058755,
                    20.904995
                ],
                [
                    -157.058537,
                    20.905485
                ],
                [
                    -157.058251,
                    20.905704
                ],
                [
                    -157.058151,
                    20.90627
                ],
                [
                    -157.057329,
                    20.907047
                ],
                [
                    -157.05747,
                    20.90725
                ],
                [
                    -157.057255,
                    20.907791
                ],
                [
                    -157.05729,
                    20.908659
                ],
                [
                    -157.056428,
                    20.909844
                ],
                [
                    -157.056558,
                    20.910267
                ],
                [
                    -157.05541,
                    20.91084
                ],
                [
                    -157.055026,
                    20.910865
                ],
                [
                    -157.054873,
                    20.911321
                ],
                [
                    -157.054574,
                    20.911524
                ],
                [
                    -157.052316,
                    20.912215
                ],
                [
                    -157.05253,
                    20.912867
                ],
                [
                    -157.052006,
                    20.913525
                ],
                [
                    -157.051568,
                    20.913651
                ],
                [
                    -157.051113,
                    20.914031
                ],
                [
                    -157.049783,
                    20.913378
                ],
                [
                    -157.048791,
                    20.913539
                ],
                [
                    -157.048271,
                    20.914282
                ],
                [
                    -157.047876,
                    20.914374
                ],
                [
                    -157.047342,
                    20.915108
                ],
                [
                    -157.045369,
                    20.9163
                ],
                [
                    -157.044931,
                    20.916375
                ],
                [
                    -157.044839,
                    20.916596
                ],
                [
                    -157.044513,
                    20.916654
                ],
                [
                    -157.044198,
                    20.916998
                ],
                [
                    -157.044214,
                    20.917287
                ],
                [
                    -157.043905,
                    20.917296
                ],
                [
                    -157.043815,
                    20.917566
                ],
                [
                    -157.043313,
                    20.917422
                ],
                [
                    -157.042428,
                    20.917532
                ],
                [
                    -157.042001,
                    20.917794
                ],
                [
                    -157.04171,
                    20.918477
                ],
                [
                    -157.040915,
                    20.919017
                ],
                [
                    -157.040796,
                    20.919389
                ],
                [
                    -157.039969,
                    20.919439
                ],
                [
                    -157.039361,
                    20.919751
                ],
                [
                    -157.037557,
                    20.921355
                ],
                [
                    -157.035867,
                    20.922528
                ],
                [
                    -157.035425,
                    20.922596
                ],
                [
                    -157.033214,
                    20.923938
                ]
            ]
        ]
    },
    "properties": {
        "@id": "https://api.weather.gov/zones/forecast/HIZ043",
        "@type": "wx:Zone",
        "id": "HIZ043",
        "type": "public",
        "name": "Lanai Leeward",
        "effectiveDate": "2026-04-16T18:00:00+00:00",
        "expirationDate": "2200-01-01T00:00:00+00:00",
        "state": "HI",
        "forecastOffice": "https://api.weather.gov/offices/HFO",
        "gridIdentifier": "HFO",
        "awipsLocationIdentifier": "HFO",
        "cwa": [
            "HFO"
        ],
        "forecastOffices": [
            "https://api.weather.gov/offices/HFO"
        ],
        "timeZone": [
            "Pacific/Honolulu"
        ],
        "observationStations": [],
        "radarStation": null
    }
}