{
    "@context": {
        "@version": "1.1"
    },
    "id": "https://api.weather.gov/zones/forecast/AZZ570",
    "type": "Feature",
    "geometry": {
        "type": "Polygon",
        "coordinates": [
            [
                [
                    -113.744949,
                    36.039032
                ],
                [
                    -113.743896,
                    36.026814
                ],
                [
                    -114.024895,
                    35.924213
                ],
                [
                    -114.111397,
                    35.902611
                ],
                [
                    -114.2789,
                    35.929611
                ],
                [
                    -114.478798,
                    35.897213
                ],
                [
                    -114.602192,
                    35.923624
                ],
                [
                    -114.61935,
                    35.923923
                ],
                [
                    -114.708496,
                    35.917011
                ],
                [
                    -114.707298,
                    35.926212
                ],
                [
                    -114.707893,
                    35.928513
                ],
                [
                    -114.715698,
                    35.934711
                ],
                [
                    -114.726898,
                    35.940014
                ],
                [
                    -114.729195,
                    35.941414
                ],
                [
                    -114.730995,
                    35.943913
                ],
                [
                    -114.730499,
                    35.947613
                ],
                [
                    -114.7285,
                    35.955414
                ],
                [
                    -114.729195,
                    35.959713
                ],
                [
                    -114.730499,
                    35.963211
                ],
                [
                    -114.732498,
                    35.965912
                ],
                [
                    -114.735497,
                    35.968811
                ],
                [
                    -114.740593,
                    35.975613
                ],
                [
                    -114.743599,
                    35.983711
                ],
                [
                    -114.7435,
                    35.986412
                ],
                [
                    -114.740097,
                    35.992012
                ],
                [
                    -114.740593,
                    35.99641
                ],
                [
                    -114.742996,
                    36.005611
                ],
                [
                    -114.742897,
                    36.009312
                ],
                [
                    -114.741096,
                    36.012611
                ],
                [
                    -114.7388,
                    36.015011
                ],
                [
                    -114.730095,
                    36.021111
                ],
                [
                    -114.727097,
                    36.023712
                ],
                [
                    -114.724098,
                    36.026711
                ],
                [
                    -114.722595,
                    36.029114
                ],
                [
                    -114.722198,
                    36.031712
                ],
                [
                    -114.724693,
                    36.033913
                ],
                [
                    -114.729897,
                    36.035511
                ],
                [
                    -114.731796,
                    36.036911
                ],
                [
                    -114.733795,
                    36.038113
                ],
                [
                    -114.736595,
                    36.038811
                ],
                [
                    -114.739395,
                    36.038712
                ],
                [
                    -114.743195,
                    36.039913
                ],
                [
                    -114.743698,
                    36.044113
                ],
                [
                    -114.740494,
                    36.049412
                ],
                [
                    -114.735893,
                    36.053513
                ],
                [
                    -114.735794,
                    36.057911
                ],
                [
                    -114.739899,
                    36.062214
                ],
                [
                    -114.741898,
                    36.066711
                ],
                [
                    -114.743294,
                    36.070511
                ],
                [
                    -114.745293,
                    36.072712
                ],
                [
                    -114.749496,
                    36.075611
                ],
                [
                    -114.754097,
                    36.079411
                ],
                [
                    -114.755295,
                    36.081211
                ],
                [
                    -114.755798,
                    36.085213
                ],
                [
                    -114.754196,
                    36.089813
                ],
                [
                    -114.751396,
                    36.092812
                ],
                [
                    -114.745995,
                    36.097912
                ],
                [
                    -114.741997,
                    36.10041
                ],
                [
                    -114.737297,
                    36.103611
                ],
                [
                    -114.722298,
                    36.106812
                ],
                [
                    -114.715996,
                    36.107811
                ],
                [
                    -114.709793,
                    36.107914
                ],
                [
                    -114.703499,
                    36.109013
                ],
                [
                    -114.697495,
                    36.111111
                ],
                [
                    -114.694496,
                    36.112911
                ],
                [
                    -114.690697,
                    36.112713
                ],
                [
                    -114.687294,
                    36.111012
                ],
                [
                    -114.684601,
                    36.109913
                ],
                [
                    -114.680695,
                    36.11021
                ],
                [
                    -114.676094,
                    36.114613
                ],
                [
                    -114.673401,
                    36.116112
                ],
                [
                    -114.6661,
                    36.116611
                ],
                [
                    -114.662697,
                    36.118813
                ],
                [
                    -114.660797,
                    36.122414
                ],
                [
                    -114.659294,
                    36.124611
                ],
                [
                    -114.655495,
                    36.127213
                ],
                [
                    -114.651894,
                    36.129414
                ],
                [
                    -114.641197,
                    36.135212
                ],
                [
                    -114.637497,
                    36.135914
                ],
                [
                    -114.633598,
                    36.139912
                ],
                [
                    -114.630798,
                    36.14241
                ],
                [
                    -114.627899,
                    36.141014
                ],
                [
                    -114.625793,
                    36.138714
                ],
                [
                    -114.621895,
                    36.132111
                ],
                [
                    -114.619293,
                    36.130611
                ],
                [
                    -114.615898,
                    36.130314
                ],
                [
                    -114.611198,
                    36.132412
                ],
                [
                    -114.608299,
                    36.133911
                ],
                [
                    -114.600998,
                    36.139214
                ],
                [
                    -114.598297,
                    36.141411
                ],
                [
                    -114.593697,
                    36.143211
                ],
                [
                    -114.590294,
                    36.143913
                ],
                [
                    -114.584999,
                    36.145611
                ],
                [
                    -114.581398,
                    36.146511
                ],
                [
                    -114.579597,
                    36.148312
                ],
                [
                    -114.577194,
                    36.149712
                ],
                [
                    -114.572495,
                    36.151413
                ],
                [
                    -114.569397,
                    36.151611
                ],
                [
                    -114.563499,
                    36.151211
                ],
                [
                    -114.560097,
                    36.151913
                ],
                [
                    -114.556999,
                    36.152813
                ],
                [
                    -114.553398,
                    36.151711
                ],
                [
                    -114.550194,
                    36.151112
                ],
                [
                    -114.5467,
                    36.151913
                ],
                [
                    -114.542999,
                    36.152412
                ],
                [
                    -114.539299,
                    36.152111
                ],
                [
                    -114.535797,
                    36.150513
                ],
                [
                    -114.532898,
                    36.148411
                ],
                [
                    -114.5289,
                    36.148411
                ],
                [
                    -114.523193,
                    36.149513
                ],
                [
                    -114.515999,
                    36.151211
                ],
                [
                    -114.5121,
                    36.150913
                ],
                [
                    -114.507996,
                    36.149212
                ],
                [
                    -114.504196,
                    36.146511
                ],
                [
                    -114.5019,
                    36.14381
                ],
                [
                    -114.501694,
                    36.141712
                ],
                [
                    -114.505196,
                    36.139214
                ],
                [
                    -114.507294,
                    36.138111
                ],
                [
                    -114.509995,
                    36.134411
                ],
                [
                    -114.509201,
                    36.129513
                ],
                [
                    -114.506096,
                    36.127613
                ],
                [
                    -114.501999,
                    36.126911
                ],
                [
                    -114.493797,
                    36.128811
                ],
                [
                    -114.487595,
                    36.129211
                ],
                [
                    -114.476898,
                    36.134712
                ],
                [
                    -114.473396,
                    36.137012
                ],
                [
                    -114.4702,
                    36.138813
                ],
                [
                    -114.4674,
                    36.139511
                ],
                [
                    -114.4636,
                    36.139713
                ],
                [
                    -114.460098,
                    36.139313
                ],
                [
                    -114.457893,
                    36.138214
                ],
                [
                    -114.455894,
                    36.134712
                ],
                [
                    -114.4533,
                    36.130711
                ],
                [
                    -114.447693,
                    36.126114
                ],
                [
                    -114.444397,
                    36.126812
                ],
                [
                    -114.4272,
                    36.136311
                ],
                [
                    -114.424095,
                    36.138813
                ],
                [
                    -114.420601,
                    36.142014
                ],
                [
                    -114.417892,
                    36.144913
                ],
                [
                    -114.414597,
                    36.146713
                ],
                [
                    -114.412094,
                    36.147312
                ],
                [
                    -114.408897,
                    36.147511
                ],
                [
                    -114.405495,
                    36.147411
                ],
                [
                    -114.400993,
                    36.14661
                ],
                [
                    -114.387695,
                    36.142712
                ],
                [
                    -114.382095,
                    36.141911
                ],
                [
                    -114.376793,
                    36.143913
                ],
                [
                    -114.372093,
                    36.143112
                ],
                [
                    -114.369896,
                    36.140312
                ],
                [
                    -114.365295,
                    36.133011
                ],
                [
                    -114.363396,
                    36.130711
                ],
                [
                    -114.3601,
                    36.127411
                ],
                [
                    -114.354393,
                    36.124512
                ],
                [
                    -114.346397,
                    36.11861
                ],
                [
                    -114.341293,
                    36.112411
                ],
                [
                    -114.338295,
                    36.109612
                ],
                [
                    -114.334694,
                    36.107014
                ],
                [
                    -114.329399,
                    36.105911
                ],
                [
                    -114.327499,
                    36.103611
                ],
                [
                    -114.325096,
                    36.101212
                ],
                [
                    -114.323196,
                    36.097412
                ],
                [
                    -114.317497,
                    36.092411
                ],
                [
                    -114.314796,
                    36.089012
                ],
                [
                    -114.312294,
                    36.086311
                ],
                [
                    -114.309196,
                    36.083313
                ],
                [
                    -114.307098,
                    36.079212
                ],
                [
                    -114.305794,
                    36.07571
                ],
                [
                    -114.306496,
                    36.073311
                ],
                [
                    -114.308395,
                    36.070812
                ],
                [
                    -114.310196,
                    36.069313
                ],
                [
                    -114.3134,
                    36.067314
                ],
                [
                    -114.315697,
                    36.064011
                ],
                [
                    -114.315994,
                    36.060612
                ],
                [
                    -114.313995,
                    36.058212
                ],
                [
                    -114.310799,
                    36.057312
                ],
                [
                    -114.301994,
                    36.057812
                ],
                [
                    -114.298294,
                    36.056911
                ],
                [
                    -114.295898,
                    36.055412
                ],
                [
                    -114.292099,
                    36.050713
                ],
                [
                    -114.286697,
                    36.048912
                ],
                [
                    -114.282997,
                    36.047314
                ],
                [
                    -114.279198,
                    36.046413
                ],
                [
                    -114.274994,
                    36.046913
                ],
                [
                    -114.2715,
                    36.044514
                ],
                [
                    -114.270699,
                    36.036114
                ],
                [
                    -114.269196,
                    36.033211
                ],
                [
                    -114.266693,
                    36.029213
                ],
                [
                    -114.2631,
                    36.025913
                ],
                [
                    -114.245895,
                    36.016911
                ],
                [
                    -114.237495,
                    36.014412
                ],
                [
                    -114.232895,
                    36.014412
                ],
                [
                    -114.229095,
                    36.015114
                ],
                [
                    -114.224495,
                    36.014912
                ],
                [
                    -114.218597,
                    36.015411
                ],
                [
                    -114.213699,
                    36.015614
                ],
                [
                    -114.200493,
                    36.019012
                ],
                [
                    -114.195496,
                    36.020012
                ],
                [
                    -114.192398,
                    36.021011
                ],
                [
                    -114.187401,
                    36.023113
                ],
                [
                    -114.180794,
                    36.025612
                ],
                [
                    -114.177498,
                    36.027412
                ],
                [
                    -114.173798,
                    36.027714
                ],
                [
                    -114.167694,
                    36.027714
                ],
                [
                    -114.162796,
                    36.027012
                ],
                [
                    -114.159393,
                    36.025913
                ],
                [
                    -114.157196,
                    36.024914
                ],
                [
                    -114.154594,
                    36.024014
                ],
                [
                    -114.150993,
                    36.025112
                ],
                [
                    -114.148193,
                    36.028812
                ],
                [
                    -114.148193,
                    36.033012
                ],
                [
                    -114.146194,
                    36.035614
                ],
                [
                    -114.144096,
                    36.036713
                ],
                [
                    -114.141701,
                    36.037411
                ],
                [
                    -114.138794,
                    36.040611
                ],
                [
                    -114.137299,
                    36.044811
                ],
                [
                    -114.137398,
                    36.048012
                ],
                [
                    -114.138,
                    36.054413
                ],
                [
                    -114.136101,
                    36.060711
                ],
                [
                    -114.1325,
                    36.065811
                ],
                [
                    -114.1306,
                    36.069214
                ],
                [
                    -114.128998,
                    36.071712
                ],
                [
                    -114.125793,
                    36.077511
                ],
                [
                    -114.121796,
                    36.086811
                ],
                [
                    -114.118195,
                    36.091114
                ],
                [
                    -114.114594,
                    36.096111
                ],
                [
                    -114.1175,
                    36.10091
                ],
                [
                    -114.120293,
                    36.102413
                ],
                [
                    -114.123596,
                    36.105614
                ],
                [
                    -114.123497,
                    36.110313
                ],
                [
                    -114.120895,
                    36.114613
                ],
                [
                    -114.1185,
                    36.116211
                ],
                [
                    -114.110497,
                    36.12001
                ],
                [
                    -114.101395,
                    36.120911
                ],
                [
                    -114.098595,
                    36.125011
                ],
                [
                    -114.093399,
                    36.137413
                ],
                [
                    -114.091599,
                    36.141014
                ],
                [
                    -114.088997,
                    36.144413
                ],
                [
                    -114.086395,
                    36.146713
                ],
                [
                    -114.082794,
                    36.152714
                ],
                [
                    -114.077698,
                    36.162312
                ],
                [
                    -114.074196,
                    36.170212
                ],
                [
                    -114.068001,
                    36.180714
                ],
                [
                    -114.062996,
                    36.186913
                ],
                [
                    -114.059395,
                    36.189713
                ],
                [
                    -114.054001,
                    36.191414
                ],
                [
                    -114.046799,
                    36.194111
                ],
                [
                    -114.046799,
                    36.246014
                ],
                [
                    -114.048195,
                    36.269913
                ],
                [
                    -114.048393,
                    36.282413
                ],
                [
                    -114.048294,
                    36.295712
                ],
                [
                    -114.047997,
                    36.301613
                ],
                [
                    -114.046799,
                    36.31591
                ],
                [
                    -114.0476,
                    36.325611
                ],
                [
                    -114.045799,
                    36.391113
                ],
                [
                    -114.045799,
                    36.415413
                ],
                [
                    -113.776398,
                    36.410507
                ],
                [
                    -113.744949,
                    36.039032
                ]
            ]
        ]
    },
    "properties": {
        "@id": "https://api.weather.gov/zones/forecast/AZZ570",
        "@type": "wx:Zone",
        "id": "AZZ570",
        "type": "public",
        "name": "Lake Mead - AZ side",
        "effectiveDate": "2026-04-16T18:00:00+00:00",
        "expirationDate": "2200-01-01T00:00:00+00:00",
        "state": "AZ",
        "forecastOffice": "https://api.weather.gov/offices/VEF",
        "gridIdentifier": "VEF",
        "awipsLocationIdentifier": "VEF",
        "cwa": [
            "VEF"
        ],
        "forecastOffices": [
            "https://api.weather.gov/offices/VEF"
        ],
        "timeZone": [
            "America/Phoenix"
        ],
        "observationStations": [
            "https://api.weather.gov/stations/TCRA3"
        ],
        "radarStation": null
    }
}