{
    "@context": {
        "@version": "1.1"
    },
    "id": "https://api.weather.gov/zones/forecast/KYZ104",
    "type": "Feature",
    "geometry": {
        "type": "Polygon",
        "coordinates": [
            [
                [
                    -82.924095,
                    38.174614
                ],
                [
                    -82.921799,
                    38.173313
                ],
                [
                    -82.919197,
                    38.174011
                ],
                [
                    -82.915894,
                    38.172913
                ],
                [
                    -82.917099,
                    38.169411
                ],
                [
                    -82.916298,
                    38.163212
                ],
                [
                    -82.913696,
                    38.16151
                ],
                [
                    -82.912697,
                    38.159214
                ],
                [
                    -82.910294,
                    38.158112
                ],
                [
                    -82.907997,
                    38.156414
                ],
                [
                    -82.908493,
                    38.154011
                ],
                [
                    -82.908699,
                    38.151112
                ],
                [
                    -82.907799,
                    38.148811
                ],
                [
                    -82.908501,
                    38.145714
                ],
                [
                    -82.906197,
                    38.143513
                ],
                [
                    -82.906097,
                    38.139812
                ],
                [
                    -82.906395,
                    38.135712
                ],
                [
                    -82.905998,
                    38.132713
                ],
                [
                    -82.902695,
                    38.132011
                ],
                [
                    -82.899399,
                    38.129112
                ],
                [
                    -82.898598,
                    38.125511
                ],
                [
                    -82.896797,
                    38.120712
                ],
                [
                    -82.892494,
                    38.119614
                ],
                [
                    -82.8909,
                    38.115711
                ],
                [
                    -82.889,
                    38.112011
                ],
                [
                    -82.894394,
                    38.108913
                ],
                [
                    -82.896797,
                    38.107113
                ],
                [
                    -82.897293,
                    38.105011
                ],
                [
                    -82.898697,
                    38.103413
                ],
                [
                    -82.9021,
                    38.103012
                ],
                [
                    -82.9049,
                    38.103912
                ],
                [
                    -82.906799,
                    38.102013
                ],
                [
                    -82.9077,
                    38.100113
                ],
                [
                    -82.907196,
                    38.098011
                ],
                [
                    -82.9076,
                    38.096012
                ],
                [
                    -82.9104,
                    38.096012
                ],
                [
                    -82.912498,
                    38.097813
                ],
                [
                    -82.915199,
                    38.098614
                ],
                [
                    -82.919693,
                    38.096912
                ],
                [
                    -82.920799,
                    38.093113
                ],
                [
                    -82.9244,
                    38.092911
                ],
                [
                    -82.928596,
                    38.089111
                ],
                [
                    -82.927795,
                    38.086514
                ],
                [
                    -82.931297,
                    38.083412
                ],
                [
                    -82.941498,
                    38.076714
                ],
                [
                    -82.940697,
                    38.071812
                ],
                [
                    -82.942596,
                    38.069214
                ],
                [
                    -82.942093,
                    38.066311
                ],
                [
                    -82.942299,
                    38.063713
                ],
                [
                    -82.944496,
                    38.062714
                ],
                [
                    -82.947098,
                    38.060711
                ],
                [
                    -82.950096,
                    38.059811
                ],
                [
                    -82.9505,
                    38.056713
                ],
                [
                    -82.952896,
                    38.052811
                ],
                [
                    -82.954697,
                    38.050812
                ],
                [
                    -82.956795,
                    38.049614
                ],
                [
                    -82.958893,
                    38.050713
                ],
                [
                    -82.961296,
                    38.049313
                ],
                [
                    -82.965393,
                    38.051712
                ],
                [
                    -82.9692,
                    38.051613
                ],
                [
                    -82.9729,
                    38.049713
                ],
                [
                    -82.976097,
                    38.048412
                ],
                [
                    -82.982094,
                    38.048912
                ],
                [
                    -82.984299,
                    38.043713
                ],
                [
                    -82.9888,
                    38.040913
                ],
                [
                    -82.991997,
                    38.038414
                ],
                [
                    -82.994194,
                    38.038513
                ],
                [
                    -82.996399,
                    38.038113
                ],
                [
                    -83,
                    38.035713
                ],
                [
                    -83.002197,
                    38.032913
                ],
                [
                    -83.000999,
                    38.02951
                ],
                [
                    -83.002693,
                    38.026711
                ],
                [
                    -83.002693,
                    38.023911
                ],
                [
                    -83.005394,
                    38.022312
                ],
                [
                    -83.007996,
                    38.022114
                ],
                [
                    -83.008499,
                    38.018211
                ],
                [
                    -83.012497,
                    38.016712
                ],
                [
                    -83.014595,
                    38.014313
                ],
                [
                    -83.0112,
                    38.012314
                ],
                [
                    -83.014496,
                    38.009312
                ],
                [
                    -83.0196,
                    38.008114
                ],
                [
                    -83.021996,
                    38.006413
                ],
                [
                    -83.024399,
                    38.008411
                ],
                [
                    -83.028496,
                    38.009312
                ],
                [
                    -83.031693,
                    38.007313
                ],
                [
                    -83.033295,
                    38.005013
                ],
                [
                    -83.035698,
                    38.003712
                ],
                [
                    -83.037399,
                    38.000912
                ],
                [
                    -83.040695,
                    37.999611
                ],
                [
                    -83.043297,
                    38.001511
                ],
                [
                    -83.0448,
                    37.998814
                ],
                [
                    -83.047699,
                    37.997013
                ],
                [
                    -83.050797,
                    37.997513
                ],
                [
                    -83.052994,
                    37.998611
                ],
                [
                    -83.055595,
                    37.998611
                ],
                [
                    -83.056801,
                    38.000511
                ],
                [
                    -83.056999,
                    38.003014
                ],
                [
                    -83.060097,
                    38.005913
                ],
                [
                    -83.064796,
                    38.007511
                ],
                [
                    -83.067299,
                    38.006714
                ],
                [
                    -83.072899,
                    38.002113
                ],
                [
                    -83.075294,
                    38.004711
                ],
                [
                    -83.077698,
                    38.007011
                ],
                [
                    -83.082199,
                    38.007011
                ],
                [
                    -83.088997,
                    38.009411
                ],
                [
                    -83.094299,
                    38.008114
                ],
                [
                    -83.097198,
                    38.009911
                ],
                [
                    -83.100494,
                    38.009712
                ],
                [
                    -83.102898,
                    38.007813
                ],
                [
                    -83.106499,
                    38.005711
                ],
                [
                    -83.110596,
                    38.004711
                ],
                [
                    -83.114601,
                    38.00481
                ],
                [
                    -83.119095,
                    38.003914
                ],
                [
                    -83.122398,
                    38.002514
                ],
                [
                    -83.124397,
                    38.004112
                ],
                [
                    -83.127098,
                    38.004414
                ],
                [
                    -83.130096,
                    38.003712
                ],
                [
                    -83.132896,
                    38.004414
                ],
                [
                    -83.136299,
                    38.003513
                ],
                [
                    -83.139793,
                    38.001312
                ],
                [
                    -83.141998,
                    37.997211
                ],
                [
                    -83.144699,
                    37.996613
                ],
                [
                    -83.146095,
                    37.999813
                ],
                [
                    -83.148399,
                    38.001911
                ],
                [
                    -83.149696,
                    38.004211
                ],
                [
                    -83.151794,
                    38.006611
                ],
                [
                    -83.152397,
                    38.010113
                ],
                [
                    -83.156197,
                    38.010311
                ],
                [
                    -83.160194,
                    38.008812
                ],
                [
                    -83.163895,
                    38.010811
                ],
                [
                    -83.166595,
                    38.011711
                ],
                [
                    -83.1689,
                    38.013912
                ],
                [
                    -83.173294,
                    38.015911
                ],
                [
                    -83.176399,
                    38.013714
                ],
                [
                    -83.178894,
                    38.012711
                ],
                [
                    -83.181396,
                    38.012211
                ],
                [
                    -83.183693,
                    38.013012
                ],
                [
                    -83.186295,
                    38.012314
                ],
                [
                    -83.192299,
                    38.011211
                ],
                [
                    -83.194695,
                    38.011211
                ],
                [
                    -83.197495,
                    38.013512
                ],
                [
                    -83.201996,
                    38.013912
                ],
                [
                    -83.204498,
                    38.015713
                ],
                [
                    -83.205894,
                    38.017612
                ],
                [
                    -83.207901,
                    38.018612
                ],
                [
                    -83.209,
                    38.021313
                ],
                [
                    -83.211395,
                    38.022312
                ],
                [
                    -83.211899,
                    38.026314
                ],
                [
                    -83.214798,
                    38.028111
                ],
                [
                    -83.216995,
                    38.026314
                ],
                [
                    -83.2202,
                    38.026814
                ],
                [
                    -83.223099,
                    38.030811
                ],
                [
                    -83.2211,
                    38.032913
                ],
                [
                    -83.220894,
                    38.035812
                ],
                [
                    -83.221298,
                    38.038612
                ],
                [
                    -83.222794,
                    38.042912
                ],
                [
                    -83.224594,
                    38.044212
                ],
                [
                    -83.227097,
                    38.04491
                ],
                [
                    -83.229897,
                    38.046112
                ],
                [
                    -83.231194,
                    38.049313
                ],
                [
                    -83.232895,
                    38.051811
                ],
                [
                    -83.234993,
                    38.052311
                ],
                [
                    -83.237297,
                    38.053413
                ],
                [
                    -83.239594,
                    38.052612
                ],
                [
                    -83.241699,
                    38.051311
                ],
                [
                    -83.2453,
                    38.050613
                ],
                [
                    -83.250397,
                    38.050411
                ],
                [
                    -83.252594,
                    38.051712
                ],
                [
                    -83.256195,
                    38.054211
                ],
                [
                    -83.2603,
                    38.055313
                ],
                [
                    -83.265594,
                    38.058613
                ],
                [
                    -83.268196,
                    38.059612
                ],
                [
                    -83.268097,
                    38.062511
                ],
                [
                    -83.269295,
                    38.065514
                ],
                [
                    -83.270599,
                    38.069714
                ],
                [
                    -83.270393,
                    38.075211
                ],
                [
                    -83.268799,
                    38.07851
                ],
                [
                    -83.267097,
                    38.081112
                ],
                [
                    -83.266098,
                    38.083012
                ],
                [
                    -83.265694,
                    38.086613
                ],
                [
                    -83.263695,
                    38.089912
                ],
                [
                    -83.263596,
                    38.092113
                ],
                [
                    -83.263794,
                    38.094311
                ],
                [
                    -83.262497,
                    38.09671
                ],
                [
                    -83.260597,
                    38.099113
                ],
                [
                    -83.261597,
                    38.102413
                ],
                [
                    -83.266296,
                    38.106411
                ],
                [
                    -83.270096,
                    38.106213
                ],
                [
                    -83.269699,
                    38.108913
                ],
                [
                    -83.267395,
                    38.110813
                ],
                [
                    -83.265594,
                    38.113514
                ],
                [
                    -83.263298,
                    38.115513
                ],
                [
                    -83.261597,
                    38.116611
                ],
                [
                    -83.260094,
                    38.119614
                ],
                [
                    -83.253296,
                    38.125313
                ],
                [
                    -83.252098,
                    38.126614
                ],
                [
                    -83.249794,
                    38.128311
                ],
                [
                    -83.247795,
                    38.130211
                ],
                [
                    -83.245193,
                    38.130611
                ],
                [
                    -83.242401,
                    38.130413
                ],
                [
                    -83.2397,
                    38.131611
                ],
                [
                    -83.237099,
                    38.132011
                ],
                [
                    -83.232796,
                    38.132214
                ],
                [
                    -83.227493,
                    38.131313
                ],
                [
                    -83.225296,
                    38.13121
                ],
                [
                    -83.223,
                    38.131813
                ],
                [
                    -83.221596,
                    38.134312
                ],
                [
                    -83.220894,
                    38.136612
                ],
                [
                    -83.220596,
                    38.138813
                ],
                [
                    -83.219795,
                    38.141312
                ],
                [
                    -83.218498,
                    38.144512
                ],
                [
                    -83.218895,
                    38.147911
                ],
                [
                    -83.218094,
                    38.15081
                ],
                [
                    -83.216698,
                    38.153812
                ],
                [
                    -83.217598,
                    38.156914
                ],
                [
                    -83.216499,
                    38.160412
                ],
                [
                    -83.214195,
                    38.162514
                ],
                [
                    -83.211594,
                    38.16431
                ],
                [
                    -83.208794,
                    38.164913
                ],
                [
                    -83.206398,
                    38.165813
                ],
                [
                    -83.202293,
                    38.167011
                ],
                [
                    -83.199394,
                    38.169712
                ],
                [
                    -83.202797,
                    38.172112
                ],
                [
                    -83.205093,
                    38.174614
                ],
                [
                    -83.209,
                    38.174911
                ],
                [
                    -83.212799,
                    38.176212
                ],
                [
                    -83.216393,
                    38.17691
                ],
                [
                    -83.223595,
                    38.174412
                ],
                [
                    -83.226494,
                    38.173912
                ],
                [
                    -83.229996,
                    38.175713
                ],
                [
                    -83.233299,
                    38.176613
                ],
                [
                    -83.235497,
                    38.176712
                ],
                [
                    -83.237297,
                    38.177513
                ],
                [
                    -83.243294,
                    38.176311
                ],
                [
                    -83.2463,
                    38.177711
                ],
                [
                    -83.2491,
                    38.180313
                ],
                [
                    -83.257896,
                    38.183514
                ],
                [
                    -83.260796,
                    38.185711
                ],
                [
                    -83.264198,
                    38.187412
                ],
                [
                    -83.2621,
                    38.189911
                ],
                [
                    -83.258896,
                    38.189011
                ],
                [
                    -83.255898,
                    38.189213
                ],
                [
                    -83.253296,
                    38.186813
                ],
                [
                    -83.2491,
                    38.186413
                ],
                [
                    -83.244598,
                    38.187313
                ],
                [
                    -83.244095,
                    38.192112
                ],
                [
                    -83.242195,
                    38.191711
                ],
                [
                    -83.239197,
                    38.192814
                ],
                [
                    -83.235497,
                    38.193314
                ],
                [
                    -83.232399,
                    38.194611
                ],
                [
                    -83.232697,
                    38.197514
                ],
                [
                    -83.230095,
                    38.200413
                ],
                [
                    -83.227699,
                    38.203514
                ],
                [
                    -83.2239,
                    38.207012
                ],
                [
                    -83.221794,
                    38.210613
                ],
                [
                    -83.221497,
                    38.213314
                ],
                [
                    -83.222694,
                    38.215714
                ],
                [
                    -83.222099,
                    38.218914
                ],
                [
                    -83.223198,
                    38.22171
                ],
                [
                    -83.220993,
                    38.224411
                ],
                [
                    -83.219994,
                    38.227413
                ],
                [
                    -83.2173,
                    38.229214
                ],
                [
                    -83.218399,
                    38.231613
                ],
                [
                    -83.218697,
                    38.234013
                ],
                [
                    -83.218201,
                    38.236813
                ],
                [
                    -83.215393,
                    38.237812
                ],
                [
                    -83.212593,
                    38.239811
                ],
                [
                    -83.2099,
                    38.241413
                ],
                [
                    -83.206596,
                    38.243713
                ],
                [
                    -83.203598,
                    38.246212
                ],
                [
                    -83.202896,
                    38.249912
                ],
                [
                    -83.199799,
                    38.250412
                ],
                [
                    -83.197098,
                    38.248814
                ],
                [
                    -83.194,
                    38.250011
                ],
                [
                    -83.185799,
                    38.253811
                ],
                [
                    -83.184898,
                    38.258312
                ],
                [
                    -83.180695,
                    38.259811
                ],
                [
                    -83.177597,
                    38.261414
                ],
                [
                    -83.177399,
                    38.264011
                ],
                [
                    -83.176697,
                    38.266411
                ],
                [
                    -83.171898,
                    38.26601
                ],
                [
                    -83.1679,
                    38.266113
                ],
                [
                    -83.164398,
                    38.26601
                ],
                [
                    -83.162697,
                    38.265213
                ],
                [
                    -83.159798,
                    38.264412
                ],
                [
                    -83.156494,
                    38.262211
                ],
                [
                    -83.155197,
                    38.260212
                ],
                [
                    -83.1549,
                    38.258614
                ],
                [
                    -83.134995,
                    38.241913
                ],
                [
                    -83.124695,
                    38.236412
                ],
                [
                    -83.118996,
                    38.233711
                ],
                [
                    -83.115799,
                    38.235714
                ],
                [
                    -83.111794,
                    38.235611
                ],
                [
                    -83.108696,
                    38.234413
                ],
                [
                    -83.106094,
                    38.232914
                ],
                [
                    -83.103996,
                    38.230114
                ],
                [
                    -83.103096,
                    38.227013
                ],
                [
                    -83.099197,
                    38.226212
                ],
                [
                    -83.095497,
                    38.227314
                ],
                [
                    -83.091896,
                    38.22731
                ],
                [
                    -83.087296,
                    38.224712
                ],
                [
                    -83.084,
                    38.222412
                ],
                [
                    -83.084297,
                    38.219711
                ],
                [
                    -83.082794,
                    38.218311
                ],
                [
                    -83.082298,
                    38.216213
                ],
                [
                    -83.081093,
                    38.214512
                ],
                [
                    -83.079399,
                    38.213013
                ],
                [
                    -83.077995,
                    38.211311
                ],
                [
                    -83.075897,
                    38.207211
                ],
                [
                    -83.073196,
                    38.205311
                ],
                [
                    -83.069199,
                    38.201412
                ],
                [
                    -83.065697,
                    38.199612
                ],
                [
                    -83.062393,
                    38.197514
                ],
                [
                    -83.060997,
                    38.194611
                ],
                [
                    -83.060196,
                    38.191811
                ],
                [
                    -83.057495,
                    38.191711
                ],
                [
                    -83.054497,
                    38.191113
                ],
                [
                    -83.053894,
                    38.189114
                ],
                [
                    -83.055199,
                    38.18531
                ],
                [
                    -83.0513,
                    38.180813
                ],
                [
                    -83.0467,
                    38.187912
                ],
                [
                    -83.048195,
                    38.191914
                ],
                [
                    -83.044098,
                    38.194813
                ],
                [
                    -83.041496,
                    38.198811
                ],
                [
                    -83.038498,
                    38.199913
                ],
                [
                    -83.035896,
                    38.19931
                ],
                [
                    -83.029495,
                    38.195713
                ],
                [
                    -83.027298,
                    38.195511
                ],
                [
                    -83.012596,
                    38.204411
                ],
                [
                    -83.011093,
                    38.197712
                ],
                [
                    -83.009399,
                    38.193611
                ],
                [
                    -83.006096,
                    38.191914
                ],
                [
                    -82.999001,
                    38.191711
                ],
                [
                    -82.993599,
                    38.190712
                ],
                [
                    -82.990898,
                    38.190613
                ],
                [
                    -82.989098,
                    38.188812
                ],
                [
                    -82.989296,
                    38.185913
                ],
                [
                    -82.990494,
                    38.182812
                ],
                [
                    -82.989494,
                    38.17971
                ],
                [
                    -82.986794,
                    38.178413
                ],
                [
                    -82.9841,
                    38.176411
                ],
                [
                    -82.979095,
                    38.174812
                ],
                [
                    -82.976196,
                    38.172413
                ],
                [
                    -82.973999,
                    38.172611
                ],
                [
                    -82.9711,
                    38.173412
                ],
                [
                    -82.967499,
                    38.172913
                ],
                [
                    -82.964493,
                    38.173611
                ],
                [
                    -82.961693,
                    38.173912
                ],
                [
                    -82.958496,
                    38.173912
                ],
                [
                    -82.954994,
                    38.173512
                ],
                [
                    -82.952301,
                    38.173012
                ],
                [
                    -82.947701,
                    38.169514
                ],
                [
                    -82.944099,
                    38.168812
                ],
                [
                    -82.935898,
                    38.171711
                ],
                [
                    -82.932594,
                    38.17271
                ],
                [
                    -82.924095,
                    38.174614
                ]
            ]
        ]
    },
    "properties": {
        "@id": "https://api.weather.gov/zones/forecast/KYZ104",
        "@type": "wx:Zone",
        "id": "KYZ104",
        "type": "public",
        "name": "Elliott",
        "effectiveDate": "2026-04-16T18:00:00+00:00",
        "expirationDate": "2200-01-01T00:00:00+00:00",
        "state": "KY",
        "forecastOffice": "https://api.weather.gov/offices/JKL",
        "gridIdentifier": "JKL",
        "awipsLocationIdentifier": "JKL",
        "cwa": [
            "JKL"
        ],
        "forecastOffices": [
            "https://api.weather.gov/offices/JKL"
        ],
        "timeZone": [
            "America/New_York"
        ],
        "observationStations": [
            "https://api.weather.gov/stations/KSYM",
            "https://api.weather.gov/stations/KCRW",
            "https://api.weather.gov/stations/KCVG",
            "https://api.weather.gov/stations/KDWU",
            "https://api.weather.gov/stations/KFGX",
            "https://api.weather.gov/stations/KHTS",
            "https://api.weather.gov/stations/KILN",
            "https://api.weather.gov/stations/KIOB",
            "https://api.weather.gov/stations/KJKL",
            "https://api.weather.gov/stations/KLEX",
            "https://api.weather.gov/stations/KSJS"
        ],
        "radarStation": "JKL"
    }
}