{
    "@context": {
        "@version": "1.1"
    },
    "id": "https://api.weather.gov/zones/forecast/AKZ843",
    "type": "Feature",
    "geometry": {
        "type": "Polygon",
        "coordinates": [
            [
                [
                    -147.208455,
                    64.759096
                ],
                [
                    -147.198263,
                    64.776255
                ],
                [
                    -147.184211,
                    64.788483
                ],
                [
                    -147.179319,
                    64.80913
                ],
                [
                    -147.269873,
                    64.88564
                ],
                [
                    -147.259859,
                    64.896959
                ],
                [
                    -147.285579,
                    64.915217
                ],
                [
                    -147.37367,
                    64.939614
                ],
                [
                    -146.679122,
                    65.177781
                ],
                [
                    -146.451112,
                    64.756117
                ],
                [
                    -146.860862,
                    64.728697
                ],
                [
                    -146.863694,
                    64.735457
                ],
                [
                    -147.078689,
                    64.757131
                ],
                [
                    -147.193571,
                    64.756685
                ],
                [
                    -147.208455,
                    64.759096
                ]
            ]
        ]
    },
    "properties": {
        "@id": "https://api.weather.gov/zones/forecast/AKZ843",
        "@type": "wx:Zone",
        "id": "AKZ843",
        "type": "public",
        "name": "Two Rivers",
        "effectiveDate": "2026-04-16T18:00:00+00:00",
        "expirationDate": "2200-01-01T00:00:00+00:00",
        "state": "AK",
        "forecastOffice": "https://api.weather.gov/offices/AFG",
        "gridIdentifier": "AFG",
        "awipsLocationIdentifier": "AFG",
        "cwa": [
            "AFG"
        ],
        "forecastOffices": [
            "https://api.weather.gov/offices/AFG"
        ],
        "timeZone": [
            "America/Anchorage"
        ],
        "observationStations": [
            "https://api.weather.gov/stations/PAEI",
            "https://api.weather.gov/stations/PAFB"
        ],
        "radarStation": null
    }
}