{
    "@context": {
        "@version": "1.1"
    },
    "id": "https://api.weather.gov/zones/forecast/ILZ010",
    "type": "Feature",
    "geometry": {
        "type": "Polygon",
        "coordinates": [
            [
                [
                    -88.941498,
                    41.891811
                ],
                [
                    -88.941498,
                    41.855511
                ],
                [
                    -88.941696,
                    41.833813
                ],
                [
                    -88.941399,
                    41.819214
                ],
                [
                    -88.941399,
                    41.786713
                ],
                [
                    -88.941795,
                    41.71981
                ],
                [
                    -88.940994,
                    41.717113
                ],
                [
                    -88.9403,
                    41.708912
                ],
                [
                    -88.940094,
                    41.696613
                ],
                [
                    -88.939499,
                    41.682114
                ],
                [
                    -88.939598,
                    41.668911
                ],
                [
                    -88.9394,
                    41.664413
                ],
                [
                    -88.938797,
                    41.628513
                ],
                [
                    -88.952896,
                    41.628014
                ],
                [
                    -88.959099,
                    41.628014
                ],
                [
                    -88.9879,
                    41.627411
                ],
                [
                    -89.000694,
                    41.627411
                ],
                [
                    -89.0355,
                    41.626713
                ],
                [
                    -89.051796,
                    41.626614
                ],
                [
                    -89.129196,
                    41.627712
                ],
                [
                    -89.167198,
                    41.628712
                ],
                [
                    -89.166496,
                    41.584812
                ],
                [
                    -89.190193,
                    41.585213
                ],
                [
                    -89.261894,
                    41.585213
                ],
                [
                    -89.335297,
                    41.584713
                ],
                [
                    -89.379898,
                    41.584812
                ],
                [
                    -89.400795,
                    41.584614
                ],
                [
                    -89.451996,
                    41.584911
                ],
                [
                    -89.495399,
                    41.584812
                ],
                [
                    -89.512497,
                    41.585011
                ],
                [
                    -89.632393,
                    41.584911
                ],
                [
                    -89.631599,
                    41.592113
                ],
                [
                    -89.632401,
                    41.648712
                ],
                [
                    -89.631897,
                    41.745811
                ],
                [
                    -89.6306,
                    41.808311
                ],
                [
                    -89.630196,
                    41.849712
                ],
                [
                    -89.630196,
                    41.874012
                ],
                [
                    -89.629799,
                    41.902012
                ],
                [
                    -89.625099,
                    41.901711
                ],
                [
                    -89.543198,
                    41.902412
                ],
                [
                    -89.538994,
                    41.902714
                ],
                [
                    -89.532799,
                    41.902714
                ],
                [
                    -89.516899,
                    41.902313
                ],
                [
                    -89.506798,
                    41.902412
                ],
                [
                    -89.495399,
                    41.902214
                ],
                [
                    -89.481995,
                    41.902412
                ],
                [
                    -89.478996,
                    41.907913
                ],
                [
                    -89.476395,
                    41.91011
                ],
                [
                    -89.472496,
                    41.911911
                ],
                [
                    -89.468597,
                    41.912411
                ],
                [
                    -89.465294,
                    41.912514
                ],
                [
                    -89.4608,
                    41.911911
                ],
                [
                    -89.457794,
                    41.911213
                ],
                [
                    -89.454697,
                    41.910812
                ],
                [
                    -89.447899,
                    41.910313
                ],
                [
                    -89.444695,
                    41.909912
                ],
                [
                    -89.437698,
                    41.908314
                ],
                [
                    -89.433197,
                    41.907913
                ],
                [
                    -89.430099,
                    41.908112
                ],
                [
                    -89.427299,
                    41.908012
                ],
                [
                    -89.424095,
                    41.907112
                ],
                [
                    -89.420296,
                    41.904713
                ],
                [
                    -89.419098,
                    41.901611
                ],
                [
                    -89.4207,
                    41.898911
                ],
                [
                    -89.428596,
                    41.895813
                ],
                [
                    -89.427094,
                    41.893112
                ],
                [
                    -89.4207,
                    41.889912
                ],
                [
                    -89.417595,
                    41.887814
                ],
                [
                    -89.4133,
                    41.886513
                ],
                [
                    -89.411995,
                    41.888714
                ],
                [
                    -89.412399,
                    41.891911
                ],
                [
                    -89.411293,
                    41.894913
                ],
                [
                    -89.408295,
                    41.895912
                ],
                [
                    -89.403793,
                    41.900013
                ],
                [
                    -89.403,
                    41.901711
                ],
                [
                    -89.399399,
                    41.902412
                ],
                [
                    -89.3881,
                    41.902714
                ],
                [
                    -89.365295,
                    41.902813
                ],
                [
                    -89.360497,
                    41.902611
                ],
                [
                    -89.360695,
                    41.888111
                ],
                [
                    -89.292297,
                    41.887913
                ],
                [
                    -89.283096,
                    41.888012
                ],
                [
                    -89.280594,
                    41.888313
                ],
                [
                    -89.277397,
                    41.88821
                ],
                [
                    -89.244698,
                    41.888714
                ],
                [
                    -89.207199,
                    41.889011
                ],
                [
                    -89.203194,
                    41.889214
                ],
                [
                    -89.153297,
                    41.889713
                ],
                [
                    -89.095299,
                    41.890011
                ],
                [
                    -89.058098,
                    41.890614
                ],
                [
                    -89.039795,
                    41.890511
                ],
                [
                    -88.980995,
                    41.891411
                ],
                [
                    -88.941498,
                    41.891811
                ]
            ]
        ]
    },
    "properties": {
        "@id": "https://api.weather.gov/zones/forecast/ILZ010",
        "@type": "wx:Zone",
        "id": "ILZ010",
        "type": "public",
        "name": "Lee",
        "effectiveDate": "2026-04-16T18:00:00+00:00",
        "expirationDate": "2200-01-01T00:00:00+00:00",
        "state": "IL",
        "forecastOffice": "https://api.weather.gov/offices/LOT",
        "gridIdentifier": "LOT",
        "awipsLocationIdentifier": "LOT",
        "cwa": [
            "LOT"
        ],
        "forecastOffices": [
            "https://api.weather.gov/offices/LOT"
        ],
        "timeZone": [
            "America/Chicago"
        ],
        "observationStations": [
            "https://api.weather.gov/stations/KRFD",
            "https://api.weather.gov/stations/KRPJ",
            "https://api.weather.gov/stations/KSQI"
        ],
        "radarStation": "LOT"
    }
}