{
    "@context": {
        "@version": "1.1"
    },
    "id": "https://api.weather.gov/zones/forecast/HIZ038",
    "type": "Feature",
    "geometry": {
        "type": "Polygon",
        "coordinates": [
            [
                [
                    -156.711543,
                    21.153136
                ],
                [
                    -156.711194,
                    21.152486
                ],
                [
                    -156.711024,
                    21.152664
                ],
                [
                    -156.710878,
                    21.152552
                ],
                [
                    -156.711053,
                    21.151961
                ],
                [
                    -156.711224,
                    21.151878
                ],
                [
                    -156.711337,
                    21.151054
                ],
                [
                    -156.711526,
                    21.151013
                ],
                [
                    -156.711438,
                    21.15077
                ],
                [
                    -156.711588,
                    21.150219
                ],
                [
                    -156.711456,
                    21.1498
                ],
                [
                    -156.711588,
                    21.149097
                ],
                [
                    -156.711221,
                    21.14888
                ],
                [
                    -156.711328,
                    21.14795
                ],
                [
                    -156.712243,
                    21.147185
                ],
                [
                    -156.713652,
                    21.146398
                ],
                [
                    -156.713891,
                    21.145451
                ],
                [
                    -156.713769,
                    21.144935
                ],
                [
                    -156.712961,
                    21.144375
                ],
                [
                    -156.71322,
                    21.143671
                ],
                [
                    -156.715008,
                    21.143084
                ],
                [
                    -156.715173,
                    21.142403
                ],
                [
                    -156.715633,
                    21.141794
                ],
                [
                    -156.715496,
                    21.141723
                ],
                [
                    -156.715682,
                    21.141543
                ],
                [
                    -156.71556,
                    21.141367
                ],
                [
                    -156.716416,
                    21.140996
                ],
                [
                    -156.7175,
                    21.140261
                ],
                [
                    -156.717253,
                    21.139431
                ],
                [
                    -156.717371,
                    21.13909
                ],
                [
                    -156.717767,
                    21.139121
                ],
                [
                    -156.717752,
                    21.138941
                ],
                [
                    -156.718469,
                    21.138663
                ],
                [
                    -156.71853,
                    21.138232
                ],
                [
                    -156.718382,
                    21.137814
                ],
                [
                    -156.718995,
                    21.137187
                ],
                [
                    -156.719278,
                    21.136498
                ],
                [
                    -156.719644,
                    21.136206
                ],
                [
                    -156.719524,
                    21.135753
                ],
                [
                    -156.719766,
                    21.135558
                ],
                [
                    -156.719858,
                    21.135209
                ],
                [
                    -156.720409,
                    21.134761
                ],
                [
                    -156.720682,
                    21.134282
                ],
                [
                    -156.721448,
                    21.133799
                ],
                [
                    -156.721887,
                    21.133311
                ],
                [
                    -156.722452,
                    21.131344
                ],
                [
                    -156.723108,
                    21.130684
                ],
                [
                    -156.723069,
                    21.129311
                ],
                [
                    -156.724087,
                    21.128939
                ],
                [
                    -156.725686,
                    21.127724
                ],
                [
                    -156.726098,
                    21.127144
                ],
                [
                    -156.726775,
                    21.126971
                ],
                [
                    -156.727351,
                    21.126078
                ],
                [
                    -156.728049,
                    21.125808
                ],
                [
                    -156.728998,
                    21.126244
                ],
                [
                    -156.729428,
                    21.125973
                ],
                [
                    -156.729425,
                    21.125342
                ],
                [
                    -156.729226,
                    21.125218
                ],
                [
                    -156.729135,
                    21.124861
                ],
                [
                    -156.729716,
                    21.124207
                ],
                [
                    -156.731015,
                    21.123763
                ],
                [
                    -156.730882,
                    21.123279
                ],
                [
                    -156.730523,
                    21.122977
                ],
                [
                    -156.730543,
                    21.122717
                ],
                [
                    -156.731062,
                    21.122228
                ],
                [
                    -156.731134,
                    21.121859
                ],
                [
                    -156.731683,
                    21.121582
                ],
                [
                    -156.731853,
                    21.121222
                ],
                [
                    -156.732431,
                    21.120894
                ],
                [
                    -156.732644,
                    21.119885
                ],
                [
                    -156.733607,
                    21.11906
                ],
                [
                    -156.733743,
                    21.11847
                ],
                [
                    -156.734186,
                    21.118199
                ],
                [
                    -156.734842,
                    21.117056
                ],
                [
                    -156.73506,
                    21.116396
                ],
                [
                    -156.734877,
                    21.116135
                ],
                [
                    -156.735429,
                    21.115961
                ],
                [
                    -156.735915,
                    21.115439
                ],
                [
                    -156.736291,
                    21.114682
                ],
                [
                    -156.736192,
                    21.114342
                ],
                [
                    -156.737192,
                    21.1141
                ],
                [
                    -156.738016,
                    21.114413
                ],
                [
                    -156.738068,
                    21.113838
                ],
                [
                    -156.738501,
                    21.113559
                ],
                [
                    -156.73974,
                    21.11436
                ],
                [
                    -156.740325,
                    21.114324
                ],
                [
                    -156.740584,
                    21.11418
                ],
                [
                    -156.740686,
                    21.113778
                ],
                [
                    -156.739788,
                    21.111668
                ],
                [
                    -156.741159,
                    21.111395
                ],
                [
                    -156.742029,
                    21.110724
                ],
                [
                    -156.742632,
                    21.110759
                ],
                [
                    -156.743112,
                    21.110974
                ],
                [
                    -156.743556,
                    21.110856
                ],
                [
                    -156.744684,
                    21.111147
                ],
                [
                    -156.745141,
                    21.110884
                ],
                [
                    -156.745309,
                    21.11047
                ],
                [
                    -156.744806,
                    21.109522
                ],
                [
                    -156.744546,
                    21.107888
                ],
                [
                    -156.744289,
                    21.107732
                ],
                [
                    -156.744821,
                    21.107081
                ],
                [
                    -156.745605,
                    21.106992
                ],
                [
                    -156.744748,
                    21.105992
                ],
                [
                    -156.746199,
                    21.106054
                ],
                [
                    -156.746423,
                    21.105306
                ],
                [
                    -156.746728,
                    21.105067
                ],
                [
                    -156.747415,
                    21.105071
                ],
                [
                    -156.748287,
                    21.104828
                ],
                [
                    -156.749109,
                    21.103932
                ],
                [
                    -156.749889,
                    21.103574
                ],
                [
                    -156.751047,
                    21.102221
                ],
                [
                    -156.752313,
                    21.101778
                ],
                [
                    -156.752984,
                    21.101254
                ],
                [
                    -156.753976,
                    21.099961
                ],
                [
                    -156.75567,
                    21.098885
                ],
                [
                    -156.757562,
                    21.096982
                ],
                [
                    -156.75892,
                    21.095906
                ],
                [
                    -156.760263,
                    21.095522
                ],
                [
                    -156.761865,
                    21.094687
                ],
                [
                    -156.762648,
                    21.094015
                ],
                [
                    -156.763391,
                    21.093691
                ],
                [
                    -156.764189,
                    21.092729
                ],
                [
                    -156.766076,
                    21.09198
                ],
                [
                    -156.768106,
                    21.090245
                ],
                [
                    -156.770089,
                    21.089512
                ],
                [
                    -156.770471,
                    21.089103
                ],
                [
                    -156.771066,
                    21.087347
                ],
                [
                    -156.771432,
                    21.086964
                ],
                [
                    -156.771937,
                    21.086671
                ],
                [
                    -156.772485,
                    21.086819
                ],
                [
                    -156.773431,
                    21.086611
                ],
                [
                    -156.773492,
                    21.086337
                ],
                [
                    -156.774118,
                    21.085888
                ],
                [
                    -156.774698,
                    21.085022
                ],
                [
                    -156.775097,
                    21.083371
                ],
                [
                    -156.775461,
                    21.082873
                ],
                [
                    -156.776132,
                    21.082695
                ],
                [
                    -156.779743,
                    21.082685
                ],
                [
                    -156.781305,
                    21.081924
                ],
                [
                    -156.781701,
                    21.081959
                ],
                [
                    -156.78161,
                    21.082282
                ],
                [
                    -156.78113,
                    21.082285
                ],
                [
                    -156.780481,
                    21.082797
                ],
                [
                    -156.780801,
                    21.08313
                ],
                [
                    -156.781233,
                    21.083223
                ],
                [
                    -156.782318,
                    21.082926
                ],
                [
                    -156.782037,
                    21.082348
                ],
                [
                    -156.78174,
                    21.08225
                ],
                [
                    -156.781884,
                    21.081954
                ],
                [
                    -156.782422,
                    21.081958
                ],
                [
                    -156.782922,
                    21.081324
                ],
                [
                    -156.7832,
                    21.080584
                ],
                [
                    -156.783407,
                    21.080456
                ],
                [
                    -156.783532,
                    21.080588
                ],
                [
                    -156.783334,
                    21.081343
                ],
                [
                    -156.783609,
                    21.081509
                ],
                [
                    -156.784402,
                    21.081307
                ],
                [
                    -156.784622,
                    21.081016
                ],
                [
                    -156.784463,
                    21.080395
                ],
                [
                    -156.784045,
                    21.080195
                ],
                [
                    -156.783655,
                    21.080456
                ],
                [
                    -156.783555,
                    21.080312
                ],
                [
                    -156.783822,
                    21.080098
                ],
                [
                    -156.784647,
                    21.080225
                ],
                [
                    -156.786561,
                    21.079434
                ],
                [
                    -156.788496,
                    21.078321
                ],
                [
                    -156.788873,
                    21.076975
                ],
                [
                    -156.788919,
                    21.075659
                ],
                [
                    -156.789104,
                    21.074967
                ],
                [
                    -156.789865,
                    21.074004
                ],
                [
                    -156.791238,
                    21.072806
                ],
                [
                    -156.791174,
                    21.073217
                ],
                [
                    -156.790636,
                    21.073737
                ],
                [
                    -156.790445,
                    21.074374
                ],
                [
                    -156.790155,
                    21.074774
                ],
                [
                    -156.78959,
                    21.07511
                ],
                [
                    -156.789422,
                    21.0756
                ],
                [
                    -156.789544,
                    21.075915
                ],
                [
                    -156.790262,
                    21.076569
                ],
                [
                    -156.790735,
                    21.076498
                ],
                [
                    -156.791931,
                    21.075823
                ],
                [
                    -156.792764,
                    21.074538
                ],
                [
                    -156.792831,
                    21.0742
                ],
                [
                    -156.792767,
                    21.073772
                ],
                [
                    -156.791566,
                    21.072655
                ],
                [
                    -156.79161,
                    21.072494
                ],
                [
                    -156.791905,
                    21.072376
                ],
                [
                    -156.792654,
                    21.072915
                ],
                [
                    -156.794366,
                    21.072283
                ],
                [
                    -156.796005,
                    21.071095
                ],
                [
                    -156.796792,
                    21.070826
                ],
                [
                    -156.797021,
                    21.070176
                ],
                [
                    -156.79734,
                    21.069847
                ],
                [
                    -156.798227,
                    21.069596
                ],
                [
                    -156.799465,
                    21.069365
                ],
                [
                    -156.799875,
                    21.069434
                ],
                [
                    -156.800165,
                    21.070164
                ],
                [
                    -156.8005,
                    21.070042
                ],
                [
                    -156.801785,
                    21.068529
                ],
                [
                    -156.802182,
                    21.067386
                ],
                [
                    -156.802599,
                    21.066945
                ],
                [
                    -156.803735,
                    21.066964
                ],
                [
                    -156.80505,
                    21.066619
                ],
                [
                    -156.806046,
                    21.066692
                ],
                [
                    -156.807521,
                    21.066092
                ],
                [
                    -156.809679,
                    21.0659
                ],
                [
                    -156.811136,
                    21.066058
                ],
                [
                    -156.812095,
                    21.065429
                ],
                [
                    -156.813028,
                    21.065566
                ],
                [
                    -156.817496,
                    21.065072
                ],
                [
                    -156.817575,
                    21.065394
                ],
                [
                    -156.817773,
                    21.065518
                ],
                [
                    -156.818403,
                    21.065426
                ],
                [
                    -156.819259,
                    21.064892
                ],
                [
                    -156.819131,
                    21.064261
                ],
                [
                    -156.81926,
                    21.063802
                ],
                [
                    -156.819787,
                    21.06337
                ],
                [
                    -156.820647,
                    21.063032
                ],
                [
                    -156.821374,
                    21.063006
                ],
                [
                    -156.821832,
                    21.063097
                ],
                [
                    -156.822576,
                    21.063814
                ],
                [
                    -156.822915,
                    21.063834
                ],
                [
                    -156.824234,
                    21.061923
                ],
                [
                    -156.825252,
                    21.061479
                ],
                [
                    -156.828058,
                    21.060864
                ],
                [
                    -156.828353,
                    21.060625
                ],
                [
                    -156.828607,
                    21.060061
                ],
                [
                    -156.829305,
                    21.059786
                ],
                [
                    -156.830095,
                    21.059857
                ],
                [
                    -156.830987,
                    21.060469
                ],
                [
                    -156.831522,
                    21.060298
                ],
                [
                    -156.832406,
                    21.060383
                ],
                [
                    -156.832788,
                    21.060219
                ],
                [
                    -156.833296,
                    21.05927
                ],
                [
                    -156.833308,
                    21.058956
                ],
                [
                    -156.83294,
                    21.058316
                ],
                [
                    -156.83303,
                    21.058197
                ],
                [
                    -156.83348,
                    21.058387
                ],
                [
                    -156.834682,
                    21.057078
                ],
                [
                    -156.834451,
                    21.056761
                ],
                [
                    -156.834942,
                    21.055958
                ],
                [
                    -156.835232,
                    21.055784
                ],
                [
                    -156.835458,
                    21.055905
                ],
                [
                    -156.835946,
                    21.055634
                ],
                [
                    -156.836343,
                    21.054121
                ],
                [
                    -156.836816,
                    21.053833
                ],
                [
                    -156.837298,
                    21.053781
                ],
                [
                    -156.837331,
                    21.053975
                ],
                [
                    -156.836647,
                    21.054551
                ],
                [
                    -156.836603,
                    21.054762
                ],
                [
                    -156.837964,
                    21.055135
                ],
                [
                    -156.838189,
                    21.054991
                ],
                [
                    -156.838144,
                    21.054287
                ],
                [
                    -156.838325,
                    21.05421
                ],
                [
                    -156.839029,
                    21.055031
                ],
                [
                    -156.839776,
                    21.054965
                ],
                [
                    -156.84083,
                    21.054578
                ],
                [
                    -156.841275,
                    21.053831
                ],
                [
                    -156.841668,
                    21.053803
                ],
                [
                    -156.842755,
                    21.054546
                ],
                [
                    -156.84472,
                    21.054369
                ],
                [
                    -156.845604,
                    21.053891
                ],
                [
                    -156.8462,
                    21.053969
                ],
                [
                    -156.847504,
                    21.053673
                ],
                [
                    -156.847961,
                    21.052643
                ],
                [
                    -156.849147,
                    21.051555
                ],
                [
                    -156.849161,
                    21.050215
                ],
                [
                    -156.848906,
                    21.04881
                ],
                [
                    -156.849084,
                    21.04881
                ],
                [
                    -156.850056,
                    21.049867
                ],
                [
                    -156.851297,
                    21.050597
                ],
                [
                    -156.85151,
                    21.050871
                ],
                [
                    -156.850641,
                    21.051228
                ],
                [
                    -156.850457,
                    21.052107
                ],
                [
                    -156.849494,
                    21.052115
                ],
                [
                    -156.848511,
                    21.0526
                ],
                [
                    -156.848241,
                    21.053954
                ],
                [
                    -156.848657,
                    21.055233
                ],
                [
                    -156.849233,
                    21.056352
                ],
                [
                    -156.849829,
                    21.056922
                ],
                [
                    -156.85177,
                    21.05748
                ],
                [
                    -156.852628,
                    21.057099
                ],
                [
                    -156.853665,
                    21.056907
                ],
                [
                    -156.854458,
                    21.057034
                ],
                [
                    -156.855203,
                    21.056435
                ],
                [
                    -156.855516,
                    21.056938
                ],
                [
                    -156.855905,
                    21.056908
                ],
                [
                    -156.856794,
                    21.056108
                ],
                [
                    -156.857538,
                    21.055897
                ],
                [
                    -156.858411,
                    21.055944
                ],
                [
                    -156.858635,
                    21.055392
                ],
                [
                    -156.859237,
                    21.055773
                ],
                [
                    -156.860135,
                    21.055296
                ],
                [
                    -156.86006,
                    21.054109
                ],
                [
                    -156.860481,
                    21.054023
                ],
                [
                    -156.86065,
                    21.054743
                ],
                [
                    -156.860879,
                    21.054877
                ],
                [
                    -156.861566,
                    21.054696
                ],
                [
                    -156.863229,
                    21.054661
                ],
                [
                    -156.863946,
                    21.054406
                ],
                [
                    -156.864511,
                    21.053
                ],
                [
                    -156.864374,
                    21.052699
                ],
                [
                    -156.863966,
                    21.052495
                ],
                [
                    -156.8641,
                    21.051857
                ],
                [
                    -156.865473,
                    21.051029
                ],
                [
                    -156.865737,
                    21.050474
                ],
                [
                    -156.866235,
                    21.050211
                ],
                [
                    -156.867151,
                    21.050196
                ],
                [
                    -156.867318,
                    21.049977
                ],
                [
                    -156.867105,
                    21.049622
                ],
                [
                    -156.868097,
                    21.049452
                ],
                [
                    -156.870431,
                    21.049971
                ],
                [
                    -156.871064,
                    21.050227
                ],
                [
                    -156.871208,
                    21.050487
                ],
                [
                    -156.871621,
                    21.050168
                ],
                [
                    -156.872034,
                    21.049379
                ],
                [
                    -156.87243,
                    21.04902
                ],
                [
                    -156.873163,
                    21.049153
                ],
                [
                    -156.873163,
                    21.048843
                ],
                [
                    -156.873422,
                    21.048949
                ],
                [
                    -156.873287,
                    21.04871
                ],
                [
                    -156.873499,
                    21.047991
                ],
                [
                    -156.873315,
                    21.047144
                ],
                [
                    -156.874431,
                    21.046177
                ],
                [
                    -156.874745,
                    21.046138
                ],
                [
                    -156.885582,
                    21.074959
                ],
                [
                    -156.887786,
                    21.080031
                ],
                [
                    -156.889925,
                    21.084262
                ],
                [
                    -156.892703,
                    21.089044
                ],
                [
                    -156.895775,
                    21.093643
                ],
                [
                    -156.89913,
                    21.09804
                ],
                [
                    -156.90222,
                    21.101635
                ],
                [
                    -156.905498,
                    21.105059
                ],
                [
                    -156.926126,
                    21.12477
                ],
                [
                    -156.961698,
                    21.153217
                ],
                [
                    -156.953579,
                    21.147092
                ],
                [
                    -156.946455,
                    21.142069
                ],
                [
                    -156.937974,
                    21.136486
                ],
                [
                    -156.929307,
                    21.131199
                ],
                [
                    -156.920463,
                    21.126213
                ],
                [
                    -156.911452,
                    21.121535
                ],
                [
                    -156.902285,
                    21.11717
                ],
                [
                    -156.89296,
                    21.113118
                ],
                [
                    -156.884845,
                    21.109897
                ],
                [
                    -156.873561,
                    21.105728
                ],
                [
                    -156.867632,
                    21.103883
                ],
                [
                    -156.861618,
                    21.102357
                ],
                [
                    -156.854658,
                    21.101007
                ],
                [
                    -156.847629,
                    21.10008
                ],
                [
                    -156.840579,
                    21.099582
                ],
                [
                    -156.832802,
                    21.099527
                ],
                [
                    -156.824746,
                    21.100016
                ],
                [
                    -156.8175,
                    21.100937
                ],
                [
                    -156.810325,
                    21.102308
                ],
                [
                    -156.80325,
                    21.104124
                ],
                [
                    -156.796983,
                    21.106225
                ],
                [
                    -156.788564,
                    21.109506
                ],
                [
                    -156.780278,
                    21.11311
                ],
                [
                    -156.772137,
                    21.117031
                ],
                [
                    -156.764154,
                    21.121263
                ],
                [
                    -156.75634,
                    21.1258
                ],
                [
                    -156.748706,
                    21.130634
                ],
                [
                    -156.741265,
                    21.13576
                ],
                [
                    -156.734028,
                    21.141169
                ],
                [
                    -156.726019,
                    21.147688
                ],
                [
                    -156.719252,
                    21.153676
                ],
                [
                    -156.712722,
                    21.159921
                ],
                [
                    -156.711913,
                    21.159701
                ],
                [
                    -156.711059,
                    21.159215
                ],
                [
                    -156.710126,
                    21.158406
                ],
                [
                    -156.709925,
                    21.156938
                ],
                [
                    -156.710172,
                    21.156588
                ],
                [
                    -156.711343,
                    21.15599
                ],
                [
                    -156.711984,
                    21.154765
                ],
                [
                    -156.712033,
                    21.154239
                ],
                [
                    -156.711543,
                    21.153136
                ]
            ]
        ]
    },
    "properties": {
        "@id": "https://api.weather.gov/zones/forecast/HIZ038",
        "@type": "wx:Zone",
        "id": "HIZ038",
        "type": "public",
        "name": "Molokai Southeast",
        "effectiveDate": "2026-04-16T18:00:00+00:00",
        "expirationDate": "2200-01-01T00:00:00+00:00",
        "state": "HI",
        "forecastOffice": "https://api.weather.gov/offices/HFO",
        "gridIdentifier": "HFO",
        "awipsLocationIdentifier": "HFO",
        "cwa": [
            "HFO"
        ],
        "forecastOffices": [
            "https://api.weather.gov/offices/HFO"
        ],
        "timeZone": [
            "Pacific/Honolulu"
        ],
        "observationStations": [],
        "radarStation": null
    }
}