{
    "@context": {
        "@version": "1.1"
    },
    "id": "https://api.weather.gov/zones/forecast/KYZ044",
    "type": "Feature",
    "geometry": {
        "type": "Polygon",
        "coordinates": [
            [
                [
                    -83.454094,
                    38.381611
                ],
                [
                    -83.454094,
                    38.378014
                ],
                [
                    -83.4561,
                    38.375214
                ],
                [
                    -83.456398,
                    38.37281
                ],
                [
                    -83.458199,
                    38.372112
                ],
                [
                    -83.460693,
                    38.373013
                ],
                [
                    -83.463295,
                    38.373112
                ],
                [
                    -83.464294,
                    38.371014
                ],
                [
                    -83.462494,
                    38.368813
                ],
                [
                    -83.463295,
                    38.367111
                ],
                [
                    -83.460899,
                    38.364613
                ],
                [
                    -83.459595,
                    38.361511
                ],
                [
                    -83.462898,
                    38.359013
                ],
                [
                    -83.465401,
                    38.358013
                ],
                [
                    -83.467094,
                    38.356514
                ],
                [
                    -83.470795,
                    38.355713
                ],
                [
                    -83.472099,
                    38.357914
                ],
                [
                    -83.4739,
                    38.360512
                ],
                [
                    -83.476295,
                    38.359612
                ],
                [
                    -83.482193,
                    38.359413
                ],
                [
                    -83.487099,
                    38.353313
                ],
                [
                    -83.492393,
                    38.351414
                ],
                [
                    -83.496696,
                    38.350311
                ],
                [
                    -83.498993,
                    38.348713
                ],
                [
                    -83.498093,
                    38.345711
                ],
                [
                    -83.500595,
                    38.342613
                ],
                [
                    -83.498795,
                    38.340714
                ],
                [
                    -83.496193,
                    38.338612
                ],
                [
                    -83.495094,
                    38.335411
                ],
                [
                    -83.497398,
                    38.333111
                ],
                [
                    -83.494698,
                    38.331711
                ],
                [
                    -83.4935,
                    38.328812
                ],
                [
                    -83.491096,
                    38.328812
                ],
                [
                    -83.488594,
                    38.326912
                ],
                [
                    -83.490196,
                    38.323711
                ],
                [
                    -83.495293,
                    38.323013
                ],
                [
                    -83.4972,
                    38.320511
                ],
                [
                    -83.501297,
                    38.316013
                ],
                [
                    -83.500793,
                    38.313511
                ],
                [
                    -83.502098,
                    38.311314
                ],
                [
                    -83.502998,
                    38.308811
                ],
                [
                    -83.5047,
                    38.305912
                ],
                [
                    -83.505096,
                    38.301311
                ],
                [
                    -83.503899,
                    38.29771
                ],
                [
                    -83.505295,
                    38.294312
                ],
                [
                    -83.507896,
                    38.293613
                ],
                [
                    -83.511497,
                    38.293411
                ],
                [
                    -83.514,
                    38.291714
                ],
                [
                    -83.513496,
                    38.288311
                ],
                [
                    -83.512398,
                    38.285511
                ],
                [
                    -83.510094,
                    38.282913
                ],
                [
                    -83.510399,
                    38.280811
                ],
                [
                    -83.508698,
                    38.278011
                ],
                [
                    -83.507896,
                    38.274014
                ],
                [
                    -83.505798,
                    38.272213
                ],
                [
                    -83.507896,
                    38.269711
                ],
                [
                    -83.512093,
                    38.268711
                ],
                [
                    -83.515396,
                    38.266911
                ],
                [
                    -83.518295,
                    38.266911
                ],
                [
                    -83.521797,
                    38.267414
                ],
                [
                    -83.522797,
                    38.265312
                ],
                [
                    -83.521698,
                    38.263512
                ],
                [
                    -83.523094,
                    38.260212
                ],
                [
                    -83.521095,
                    38.25761
                ],
                [
                    -83.524498,
                    38.255211
                ],
                [
                    -83.529099,
                    38.255314
                ],
                [
                    -83.531395,
                    38.254913
                ],
                [
                    -83.534294,
                    38.254013
                ],
                [
                    -83.5373,
                    38.250912
                ],
                [
                    -83.535995,
                    38.248211
                ],
                [
                    -83.538498,
                    38.246014
                ],
                [
                    -83.541794,
                    38.244812
                ],
                [
                    -83.545296,
                    38.243813
                ],
                [
                    -83.549194,
                    38.241512
                ],
                [
                    -83.553093,
                    38.239914
                ],
                [
                    -83.555099,
                    38.237911
                ],
                [
                    -83.557495,
                    38.234913
                ],
                [
                    -83.559395,
                    38.231514
                ],
                [
                    -83.559494,
                    38.227612
                ],
                [
                    -83.559898,
                    38.223011
                ],
                [
                    -83.5616,
                    38.219112
                ],
                [
                    -83.564194,
                    38.216713
                ],
                [
                    -83.575699,
                    38.214012
                ],
                [
                    -83.5784,
                    38.215012
                ],
                [
                    -83.5812,
                    38.217812
                ],
                [
                    -83.586899,
                    38.216511
                ],
                [
                    -83.589897,
                    38.212212
                ],
                [
                    -83.593399,
                    38.209812
                ],
                [
                    -83.597198,
                    38.208912
                ],
                [
                    -83.599495,
                    38.205112
                ],
                [
                    -83.603294,
                    38.202511
                ],
                [
                    -83.606995,
                    38.20211
                ],
                [
                    -83.611595,
                    38.202713
                ],
                [
                    -83.613098,
                    38.200211
                ],
                [
                    -83.614998,
                    38.19371
                ],
                [
                    -83.617897,
                    38.192612
                ],
                [
                    -83.620193,
                    38.194012
                ],
                [
                    -83.624001,
                    38.194111
                ],
                [
                    -83.6278,
                    38.191711
                ],
                [
                    -83.630295,
                    38.192413
                ],
                [
                    -83.633598,
                    38.191414
                ],
                [
                    -83.635498,
                    38.187714
                ],
                [
                    -83.637894,
                    38.180511
                ],
                [
                    -83.639397,
                    38.177612
                ],
                [
                    -83.641495,
                    38.174812
                ],
                [
                    -83.644196,
                    38.172314
                ],
                [
                    -83.6464,
                    38.171112
                ],
                [
                    -83.649696,
                    38.176311
                ],
                [
                    -83.649895,
                    38.181313
                ],
                [
                    -83.651695,
                    38.187511
                ],
                [
                    -83.652695,
                    38.18951
                ],
                [
                    -83.653694,
                    38.192013
                ],
                [
                    -83.655495,
                    38.194714
                ],
                [
                    -83.657394,
                    38.196812
                ],
                [
                    -83.658096,
                    38.199013
                ],
                [
                    -83.659195,
                    38.201111
                ],
                [
                    -83.662399,
                    38.202213
                ],
                [
                    -83.665695,
                    38.201714
                ],
                [
                    -83.6679,
                    38.200512
                ],
                [
                    -83.670593,
                    38.196911
                ],
                [
                    -83.673195,
                    38.197613
                ],
                [
                    -83.677597,
                    38.204411
                ],
                [
                    -83.679298,
                    38.206211
                ],
                [
                    -83.680397,
                    38.208611
                ],
                [
                    -83.681694,
                    38.212112
                ],
                [
                    -83.6838,
                    38.214211
                ],
                [
                    -83.686699,
                    38.212914
                ],
                [
                    -83.689293,
                    38.210911
                ],
                [
                    -83.693695,
                    38.209614
                ],
                [
                    -83.693398,
                    38.207111
                ],
                [
                    -83.6894,
                    38.200314
                ],
                [
                    -83.688995,
                    38.198112
                ],
                [
                    -83.690796,
                    38.196911
                ],
                [
                    -83.693596,
                    38.197014
                ],
                [
                    -83.696098,
                    38.197411
                ],
                [
                    -83.698593,
                    38.199211
                ],
                [
                    -83.700394,
                    38.201714
                ],
                [
                    -83.700996,
                    38.207314
                ],
                [
                    -83.696693,
                    38.212914
                ],
                [
                    -83.696999,
                    38.215012
                ],
                [
                    -83.6977,
                    38.218014
                ],
                [
                    -83.697693,
                    38.221912
                ],
                [
                    -83.6959,
                    38.226612
                ],
                [
                    -83.692093,
                    38.229511
                ],
                [
                    -83.691299,
                    38.231911
                ],
                [
                    -83.691498,
                    38.234913
                ],
                [
                    -83.694199,
                    38.238613
                ],
                [
                    -83.695297,
                    38.243313
                ],
                [
                    -83.694199,
                    38.245514
                ],
                [
                    -83.6903,
                    38.248413
                ],
                [
                    -83.687294,
                    38.250111
                ],
                [
                    -83.684593,
                    38.252113
                ],
                [
                    -83.684998,
                    38.255413
                ],
                [
                    -83.685898,
                    38.258114
                ],
                [
                    -83.688797,
                    38.261112
                ],
                [
                    -83.692497,
                    38.257313
                ],
                [
                    -83.692894,
                    38.251911
                ],
                [
                    -83.693993,
                    38.249714
                ],
                [
                    -83.696396,
                    38.247711
                ],
                [
                    -83.698593,
                    38.246212
                ],
                [
                    -83.704094,
                    38.244312
                ],
                [
                    -83.709496,
                    38.243912
                ],
                [
                    -83.711899,
                    38.245411
                ],
                [
                    -83.713493,
                    38.247612
                ],
                [
                    -83.716293,
                    38.250713
                ],
                [
                    -83.716499,
                    38.253712
                ],
                [
                    -83.7136,
                    38.256714
                ],
                [
                    -83.710495,
                    38.257412
                ],
                [
                    -83.707695,
                    38.258614
                ],
                [
                    -83.7062,
                    38.260311
                ],
                [
                    -83.705795,
                    38.263012
                ],
                [
                    -83.708099,
                    38.266811
                ],
                [
                    -83.710594,
                    38.268112
                ],
                [
                    -83.715195,
                    38.268513
                ],
                [
                    -83.719597,
                    38.268513
                ],
                [
                    -83.723297,
                    38.268913
                ],
                [
                    -83.727295,
                    38.268013
                ],
                [
                    -83.732193,
                    38.262512
                ],
                [
                    -83.736298,
                    38.263412
                ],
                [
                    -83.737801,
                    38.265812
                ],
                [
                    -83.738098,
                    38.269112
                ],
                [
                    -83.7369,
                    38.271412
                ],
                [
                    -83.735596,
                    38.276711
                ],
                [
                    -83.733093,
                    38.282112
                ],
                [
                    -83.729294,
                    38.28371
                ],
                [
                    -83.725395,
                    38.28371
                ],
                [
                    -83.723793,
                    38.286613
                ],
                [
                    -83.724396,
                    38.290211
                ],
                [
                    -83.725395,
                    38.292511
                ],
                [
                    -83.728195,
                    38.293713
                ],
                [
                    -83.734894,
                    38.29351
                ],
                [
                    -83.738899,
                    38.291412
                ],
                [
                    -83.7397,
                    38.289112
                ],
                [
                    -83.741196,
                    38.285812
                ],
                [
                    -83.743797,
                    38.284714
                ],
                [
                    -83.749695,
                    38.284412
                ],
                [
                    -83.755295,
                    38.284412
                ],
                [
                    -83.758194,
                    38.285713
                ],
                [
                    -83.7593,
                    38.289013
                ],
                [
                    -83.759399,
                    38.292412
                ],
                [
                    -83.760597,
                    38.294514
                ],
                [
                    -83.763496,
                    38.295212
                ],
                [
                    -83.766296,
                    38.294712
                ],
                [
                    -83.769196,
                    38.292614
                ],
                [
                    -83.771599,
                    38.289013
                ],
                [
                    -83.773094,
                    38.287113
                ],
                [
                    -83.775894,
                    38.285713
                ],
                [
                    -83.778297,
                    38.287312
                ],
                [
                    -83.781395,
                    38.292213
                ],
                [
                    -83.783897,
                    38.294312
                ],
                [
                    -83.786995,
                    38.294113
                ],
                [
                    -83.793098,
                    38.292614
                ],
                [
                    -83.795998,
                    38.291412
                ],
                [
                    -83.797394,
                    38.288311
                ],
                [
                    -83.798798,
                    38.282612
                ],
                [
                    -83.801498,
                    38.279312
                ],
                [
                    -83.804398,
                    38.279911
                ],
                [
                    -83.806694,
                    38.281013
                ],
                [
                    -83.809097,
                    38.281811
                ],
                [
                    -83.812897,
                    38.282513
                ],
                [
                    -83.814995,
                    38.286011
                ],
                [
                    -83.814896,
                    38.287811
                ],
                [
                    -83.813797,
                    38.290813
                ],
                [
                    -83.8172,
                    38.293312
                ],
                [
                    -83.821495,
                    38.295113
                ],
                [
                    -83.821098,
                    38.299911
                ],
                [
                    -83.826797,
                    38.301411
                ],
                [
                    -83.834496,
                    38.302513
                ],
                [
                    -83.840996,
                    38.301811
                ],
                [
                    -83.843094,
                    38.300213
                ],
                [
                    -83.845398,
                    38.297512
                ],
                [
                    -83.848,
                    38.296711
                ],
                [
                    -83.848595,
                    38.298813
                ],
                [
                    -83.846497,
                    38.301712
                ],
                [
                    -83.841698,
                    38.30611
                ],
                [
                    -83.840797,
                    38.309513
                ],
                [
                    -83.839493,
                    38.312714
                ],
                [
                    -83.834099,
                    38.313911
                ],
                [
                    -83.835495,
                    38.317612
                ],
                [
                    -83.839096,
                    38.320412
                ],
                [
                    -83.841293,
                    38.321411
                ],
                [
                    -83.844696,
                    38.321411
                ],
                [
                    -83.847298,
                    38.322113
                ],
                [
                    -83.848297,
                    38.324413
                ],
                [
                    -83.847298,
                    38.326511
                ],
                [
                    -83.845299,
                    38.328312
                ],
                [
                    -83.842995,
                    38.330914
                ],
                [
                    -83.841698,
                    38.332813
                ],
                [
                    -83.840698,
                    38.334911
                ],
                [
                    -83.840195,
                    38.338711
                ],
                [
                    -83.843399,
                    38.339012
                ],
                [
                    -83.846794,
                    38.336014
                ],
                [
                    -83.849693,
                    38.332813
                ],
                [
                    -83.8564,
                    38.332912
                ],
                [
                    -83.858299,
                    38.335114
                ],
                [
                    -83.858795,
                    38.344711
                ],
                [
                    -83.857597,
                    38.347813
                ],
                [
                    -83.857094,
                    38.351013
                ],
                [
                    -83.860695,
                    38.351612
                ],
                [
                    -83.863693,
                    38.350014
                ],
                [
                    -83.866493,
                    38.349411
                ],
                [
                    -83.869194,
                    38.351913
                ],
                [
                    -83.870193,
                    38.354912
                ],
                [
                    -83.871193,
                    38.360111
                ],
                [
                    -83.872696,
                    38.362011
                ],
                [
                    -83.874893,
                    38.361912
                ],
                [
                    -83.883698,
                    38.359913
                ],
                [
                    -83.885094,
                    38.357811
                ],
                [
                    -83.886497,
                    38.354313
                ],
                [
                    -83.888199,
                    38.351612
                ],
                [
                    -83.893593,
                    38.349113
                ],
                [
                    -83.898895,
                    38.348412
                ],
                [
                    -83.900795,
                    38.351711
                ],
                [
                    -83.900398,
                    38.353714
                ],
                [
                    -83.897797,
                    38.356411
                ],
                [
                    -83.8955,
                    38.357811
                ],
                [
                    -83.890594,
                    38.359612
                ],
                [
                    -83.890198,
                    38.362411
                ],
                [
                    -83.893196,
                    38.364613
                ],
                [
                    -83.901695,
                    38.36581
                ],
                [
                    -83.9048,
                    38.366013
                ],
                [
                    -83.907898,
                    38.365513
                ],
                [
                    -83.911896,
                    38.364513
                ],
                [
                    -83.913795,
                    38.363213
                ],
                [
                    -83.915894,
                    38.360912
                ],
                [
                    -83.917,
                    38.364513
                ],
                [
                    -83.919395,
                    38.374912
                ],
                [
                    -83.921593,
                    38.383411
                ],
                [
                    -83.942993,
                    38.414013
                ],
                [
                    -83.949898,
                    38.423313
                ],
                [
                    -83.972099,
                    38.435112
                ],
                [
                    -83.980293,
                    38.437813
                ],
                [
                    -83.9814,
                    38.440014
                ],
                [
                    -83.982994,
                    38.441513
                ],
                [
                    -83.9842,
                    38.444313
                ],
                [
                    -83.982597,
                    38.451511
                ],
                [
                    -83.979797,
                    38.45351
                ],
                [
                    -83.976295,
                    38.454811
                ],
                [
                    -83.969894,
                    38.464211
                ],
                [
                    -83.930298,
                    38.492413
                ],
                [
                    -83.8592,
                    38.456413
                ],
                [
                    -83.756393,
                    38.492111
                ],
                [
                    -83.745499,
                    38.493912
                ],
                [
                    -83.721596,
                    38.503914
                ],
                [
                    -83.6493,
                    38.523411
                ],
                [
                    -83.641594,
                    38.524414
                ],
                [
                    -83.639297,
                    38.521511
                ],
                [
                    -83.637199,
                    38.518414
                ],
                [
                    -83.634697,
                    38.518414
                ],
                [
                    -83.633194,
                    38.521011
                ],
                [
                    -83.631393,
                    38.522312
                ],
                [
                    -83.628494,
                    38.521614
                ],
                [
                    -83.626396,
                    38.519814
                ],
                [
                    -83.626099,
                    38.517712
                ],
                [
                    -83.630699,
                    38.515812
                ],
                [
                    -83.629196,
                    38.51461
                ],
                [
                    -83.6269,
                    38.51181
                ],
                [
                    -83.630898,
                    38.510014
                ],
                [
                    -83.632095,
                    38.508213
                ],
                [
                    -83.6287,
                    38.506512
                ],
                [
                    -83.625,
                    38.504311
                ],
                [
                    -83.621399,
                    38.504414
                ],
                [
                    -83.616096,
                    38.503811
                ],
                [
                    -83.6129,
                    38.502113
                ],
                [
                    -83.608795,
                    38.502514
                ],
                [
                    -83.607399,
                    38.505814
                ],
                [
                    -83.6036,
                    38.505413
                ],
                [
                    -83.605499,
                    38.500912
                ],
                [
                    -83.601997,
                    38.501411
                ],
                [
                    -83.598694,
                    38.501411
                ],
                [
                    -83.597893,
                    38.499512
                ],
                [
                    -83.599693,
                    38.496113
                ],
                [
                    -83.594498,
                    38.494614
                ],
                [
                    -83.5961,
                    38.491013
                ],
                [
                    -83.594093,
                    38.490513
                ],
                [
                    -83.591393,
                    38.48941
                ],
                [
                    -83.592598,
                    38.48661
                ],
                [
                    -83.5868,
                    38.485012
                ],
                [
                    -83.588699,
                    38.482613
                ],
                [
                    -83.584694,
                    38.482014
                ],
                [
                    -83.588898,
                    38.474312
                ],
                [
                    -83.585999,
                    38.472912
                ],
                [
                    -83.584,
                    38.469711
                ],
                [
                    -83.581696,
                    38.465511
                ],
                [
                    -83.580498,
                    38.461712
                ],
                [
                    -83.578499,
                    38.459812
                ],
                [
                    -83.577599,
                    38.457111
                ],
                [
                    -83.579399,
                    38.455112
                ],
                [
                    -83.579193,
                    38.452412
                ],
                [
                    -83.577599,
                    38.447212
                ],
                [
                    -83.575798,
                    38.444012
                ],
                [
                    -83.5802,
                    38.438911
                ],
                [
                    -83.581795,
                    38.435913
                ],
                [
                    -83.5812,
                    38.431812
                ],
                [
                    -83.576393,
                    38.429012
                ],
                [
                    -83.572395,
                    38.428413
                ],
                [
                    -83.569298,
                    38.427311
                ],
                [
                    -83.563194,
                    38.425812
                ],
                [
                    -83.561295,
                    38.424713
                ],
                [
                    -83.559395,
                    38.42411
                ],
                [
                    -83.555397,
                    38.421413
                ],
                [
                    -83.552193,
                    38.419613
                ],
                [
                    -83.548897,
                    38.418812
                ],
                [
                    -83.545395,
                    38.418411
                ],
                [
                    -83.541893,
                    38.418411
                ],
                [
                    -83.536797,
                    38.416611
                ],
                [
                    -83.534195,
                    38.416813
                ],
                [
                    -83.531799,
                    38.417812
                ],
                [
                    -83.529495,
                    38.418411
                ],
                [
                    -83.527397,
                    38.416313
                ],
                [
                    -83.527794,
                    38.41151
                ],
                [
                    -83.523598,
                    38.409512
                ],
                [
                    -83.520897,
                    38.411213
                ],
                [
                    -83.5187,
                    38.411411
                ],
                [
                    -83.516098,
                    38.413414
                ],
                [
                    -83.512695,
                    38.414413
                ],
                [
                    -83.5121,
                    38.411411
                ],
                [
                    -83.509499,
                    38.411011
                ],
                [
                    -83.507095,
                    38.411613
                ],
                [
                    -83.505096,
                    38.409714
                ],
                [
                    -83.503098,
                    38.406513
                ],
                [
                    -83.500397,
                    38.404911
                ],
                [
                    -83.4981,
                    38.402512
                ],
                [
                    -83.495094,
                    38.402813
                ],
                [
                    -83.492294,
                    38.403614
                ],
                [
                    -83.4879,
                    38.404312
                ],
                [
                    -83.484596,
                    38.40451
                ],
                [
                    -83.4814,
                    38.40361
                ],
                [
                    -83.478798,
                    38.402012
                ],
                [
                    -83.476494,
                    38.400414
                ],
                [
                    -83.473694,
                    38.397812
                ],
                [
                    -83.471298,
                    38.397312
                ],
                [
                    -83.468796,
                    38.398514
                ],
                [
                    -83.465599,
                    38.397411
                ],
                [
                    -83.465897,
                    38.394012
                ],
                [
                    -83.463097,
                    38.392914
                ],
                [
                    -83.4618,
                    38.390511
                ],
                [
                    -83.459,
                    38.38821
                ],
                [
                    -83.457794,
                    38.384212
                ],
                [
                    -83.454094,
                    38.381611
                ]
            ]
        ]
    },
    "properties": {
        "@id": "https://api.weather.gov/zones/forecast/KYZ044",
        "@type": "wx:Zone",
        "id": "KYZ044",
        "type": "public",
        "name": "Fleming",
        "effectiveDate": "2026-04-16T18:00:00+00:00",
        "expirationDate": "2200-01-01T00:00:00+00:00",
        "state": "KY",
        "forecastOffice": "https://api.weather.gov/offices/JKL",
        "gridIdentifier": "JKL",
        "awipsLocationIdentifier": "JKL",
        "cwa": [
            "JKL"
        ],
        "forecastOffices": [
            "https://api.weather.gov/offices/JKL"
        ],
        "timeZone": [
            "America/New_York"
        ],
        "observationStations": [
            "https://api.weather.gov/stations/KFGX",
            "https://api.weather.gov/stations/KCVG",
            "https://api.weather.gov/stations/KDWU",
            "https://api.weather.gov/stations/KFFT",
            "https://api.weather.gov/stations/KHTS",
            "https://api.weather.gov/stations/KILN",
            "https://api.weather.gov/stations/KLEX",
            "https://api.weather.gov/stations/KSYM"
        ],
        "radarStation": "JKL"
    }
}