{
    "@context": {
        "@version": "1.1"
    },
    "id": "https://api.weather.gov/zones/forecast/AKZ844",
    "type": "Feature",
    "geometry": {
        "type": "Polygon",
        "coordinates": [
            [
                [
                    -147.37367,
                    64.939614
                ],
                [
                    -147.285579,
                    64.915217
                ],
                [
                    -147.259859,
                    64.896959
                ],
                [
                    -147.269873,
                    64.88564
                ],
                [
                    -147.179319,
                    64.80913
                ],
                [
                    -147.184211,
                    64.788483
                ],
                [
                    -147.198263,
                    64.776255
                ],
                [
                    -147.208455,
                    64.759096
                ],
                [
                    -147.242417,
                    64.738826
                ],
                [
                    -147.27112,
                    64.723994
                ],
                [
                    -147.294135,
                    64.716652
                ],
                [
                    -147.401335,
                    64.712347
                ],
                [
                    -147.402119,
                    64.713092
                ],
                [
                    -147.465594,
                    64.732942
                ],
                [
                    -147.638122,
                    64.764665
                ],
                [
                    -147.857933,
                    64.776992
                ],
                [
                    -148.063461,
                    64.722976
                ],
                [
                    -148.122501,
                    64.738366
                ],
                [
                    -148.133429,
                    64.763756
                ],
                [
                    -148.211254,
                    64.77474
                ],
                [
                    -148.216816,
                    64.809566
                ],
                [
                    -148.161277,
                    64.840687
                ],
                [
                    -148.0835,
                    64.844046
                ],
                [
                    -148.0252,
                    64.882862
                ],
                [
                    -148.186027,
                    64.908102
                ],
                [
                    -148.189467,
                    64.916008
                ],
                [
                    -148.154206,
                    64.929658
                ],
                [
                    -148.066059,
                    64.943591
                ],
                [
                    -147.960339,
                    64.954928
                ],
                [
                    -147.855298,
                    64.956479
                ],
                [
                    -147.746718,
                    64.968426
                ],
                [
                    -147.66332,
                    64.972919
                ],
                [
                    -147.575865,
                    64.969122
                ],
                [
                    -147.454494,
                    64.961479
                ],
                [
                    -147.37367,
                    64.939614
                ]
            ]
        ]
    },
    "properties": {
        "@id": "https://api.weather.gov/zones/forecast/AKZ844",
        "@type": "wx:Zone",
        "id": "AKZ844",
        "type": "public",
        "name": "Fairbanks Metro Area",
        "effectiveDate": "2026-04-16T18:00:00+00:00",
        "expirationDate": "2200-01-01T00:00:00+00:00",
        "state": "AK",
        "forecastOffice": "https://api.weather.gov/offices/AFG",
        "gridIdentifier": "AFG",
        "awipsLocationIdentifier": "AFG",
        "cwa": [
            "AFG"
        ],
        "forecastOffices": [
            "https://api.weather.gov/offices/AFG"
        ],
        "timeZone": [
            "America/Anchorage"
        ],
        "observationStations": [
            "https://api.weather.gov/stations/PAFA",
            "https://api.weather.gov/stations/PAEI",
            "https://api.weather.gov/stations/PAFB"
        ],
        "radarStation": null
    }
}