{
    "@context": {
        "@version": "1.1"
    },
    "id": "https://api.weather.gov/zones/forecast/UTZ127",
    "type": "Feature",
    "geometry": {
        "type": "Polygon",
        "coordinates": [
            [
                [
                    -111.989919,
                    37.814134
                ],
                [
                    -112.011012,
                    37.785193
                ],
                [
                    -112.042897,
                    37.757232
                ],
                [
                    -112.072329,
                    37.726819
                ],
                [
                    -112.0864,
                    37.706811
                ],
                [
                    -112.083961,
                    37.662712
                ],
                [
                    -112.097664,
                    37.662506
                ],
                [
                    -112.097488,
                    37.651691
                ],
                [
                    -112.102257,
                    37.651646
                ],
                [
                    -112.102219,
                    37.633533
                ],
                [
                    -112.111305,
                    37.633366
                ],
                [
                    -112.111153,
                    37.623672
                ],
                [
                    -112.120476,
                    37.623703
                ],
                [
                    -112.120338,
                    37.615417
                ],
                [
                    -112.134117,
                    37.615208
                ],
                [
                    -112.134018,
                    37.607998
                ],
                [
                    -112.129707,
                    37.60804
                ],
                [
                    -112.129684,
                    37.60434
                ],
                [
                    -112.1343,
                    37.60429
                ],
                [
                    -112.134193,
                    37.597172
                ],
                [
                    -112.129784,
                    37.59713
                ],
                [
                    -112.129326,
                    37.56477
                ],
                [
                    -112.168358,
                    37.564392
                ],
                [
                    -112.168343,
                    37.566055
                ],
                [
                    -112.211281,
                    37.565765
                ],
                [
                    -112.211105,
                    37.551338
                ],
                [
                    -112.220222,
                    37.55125
                ],
                [
                    -112.220123,
                    37.544121
                ],
                [
                    -112.238564,
                    37.543938
                ],
                [
                    -112.238228,
                    37.522388
                ],
                [
                    -112.247498,
                    37.522305
                ],
                [
                    -112.246964,
                    37.49284
                ],
                [
                    -112.215515,
                    37.493149
                ],
                [
                    -112.214943,
                    37.456753
                ],
                [
                    -112.229095,
                    37.456612
                ],
                [
                    -112.229042,
                    37.451401
                ],
                [
                    -112.230515,
                    37.451427
                ],
                [
                    -112.230362,
                    37.442162
                ],
                [
                    -112.265533,
                    37.441788
                ],
                [
                    -112.266441,
                    37.493092
                ],
                [
                    -112.273865,
                    37.493011
                ],
                [
                    -112.274704,
                    37.543915
                ],
                [
                    -112.256653,
                    37.544106
                ],
                [
                    -112.25679,
                    37.551231
                ],
                [
                    -112.252052,
                    37.551445
                ],
                [
                    -112.25219,
                    37.558571
                ],
                [
                    -112.247612,
                    37.558628
                ],
                [
                    -112.24762,
                    37.565746
                ],
                [
                    -112.243095,
                    37.565792
                ],
                [
                    -112.243233,
                    37.572998
                ],
                [
                    -112.238609,
                    37.573051
                ],
                [
                    -112.238731,
                    37.580334
                ],
                [
                    -112.233932,
                    37.580399
                ],
                [
                    -112.234077,
                    37.587505
                ],
                [
                    -112.229416,
                    37.587574
                ],
                [
                    -112.229523,
                    37.594784
                ],
                [
                    -112.220367,
                    37.594875
                ],
                [
                    -112.22049,
                    37.601902
                ],
                [
                    -112.211075,
                    37.602001
                ],
                [
                    -112.21125,
                    37.612816
                ],
                [
                    -112.216971,
                    37.619896
                ],
                [
                    -112.249814,
                    37.634031
                ],
                [
                    -112.260207,
                    37.635486
                ],
                [
                    -112.27164,
                    37.634654
                ],
                [
                    -112.284319,
                    37.641722
                ],
                [
                    -112.283904,
                    37.657311
                ],
                [
                    -112.270808,
                    37.673941
                ],
                [
                    -112.261246,
                    37.694519
                ],
                [
                    -112.264572,
                    37.702418
                ],
                [
                    -112.278133,
                    37.70992
                ],
                [
                    -112.293465,
                    37.715513
                ],
                [
                    -112.303651,
                    37.72653
                ],
                [
                    -112.316122,
                    37.72757
                ],
                [
                    -112.340661,
                    37.734694
                ],
                [
                    -112.335599,
                    37.758279
                ],
                [
                    -112.332836,
                    37.790075
                ],
                [
                    -112.343085,
                    37.799493
                ],
                [
                    -112.341018,
                    37.816478
                ],
                [
                    -112.265196,
                    37.821732
                ],
                [
                    -112.213583,
                    37.804169
                ],
                [
                    -112.178286,
                    37.795494
                ],
                [
                    -112.149834,
                    37.805305
                ],
                [
                    -112.111082,
                    37.848963
                ],
                [
                    -112.085555,
                    37.895053
                ],
                [
                    -112.048293,
                    37.94707
                ],
                [
                    -112.018861,
                    37.9559
                ],
                [
                    -111.987466,
                    37.952466
                ],
                [
                    -111.978636,
                    37.944127
                ],
                [
                    -111.97275,
                    37.925977
                ],
                [
                    -111.973731,
                    37.904393
                ],
                [
                    -111.97324,
                    37.877904
                ],
                [
                    -111.975693,
                    37.845529
                ],
                [
                    -111.989919,
                    37.814134
                ]
            ]
        ]
    },
    "properties": {
        "@id": "https://api.weather.gov/zones/forecast/UTZ127",
        "@type": "wx:Zone",
        "id": "UTZ127",
        "type": "public",
        "name": "Bryce Canyon Country",
        "effectiveDate": "2026-04-16T18:00:00+00:00",
        "expirationDate": "2200-01-01T00:00:00+00:00",
        "state": "UT",
        "forecastOffice": "https://api.weather.gov/offices/SLC",
        "gridIdentifier": "SLC",
        "awipsLocationIdentifier": "SLC",
        "cwa": [
            "SLC"
        ],
        "forecastOffices": [
            "https://api.weather.gov/offices/SLC"
        ],
        "timeZone": [
            "America/Denver"
        ],
        "observationStations": [
            "https://api.weather.gov/stations/ACRU1",
            "https://api.weather.gov/stations/BYCU1",
            "https://api.weather.gov/stations/KBCE"
        ],
        "radarStation": null
    }
}