{
    "@context": {
        "@version": "1.1"
    },
    "id": "https://api.weather.gov/zones/forecast/IAZ041",
    "type": "Feature",
    "geometry": {
        "type": "Polygon",
        "coordinates": [
            [
                [
                    -91.130096,
                    42.295712
                ],
                [
                    -91.213699,
                    42.295914
                ],
                [
                    -91.249397,
                    42.296211
                ],
                [
                    -91.260597,
                    42.296112
                ],
                [
                    -91.265793,
                    42.295914
                ],
                [
                    -91.295494,
                    42.296211
                ],
                [
                    -91.299294,
                    42.296211
                ],
                [
                    -91.302299,
                    42.296013
                ],
                [
                    -91.309998,
                    42.296013
                ],
                [
                    -91.315193,
                    42.296211
                ],
                [
                    -91.363098,
                    42.296211
                ],
                [
                    -91.383194,
                    42.296413
                ],
                [
                    -91.402298,
                    42.296211
                ],
                [
                    -91.461197,
                    42.296112
                ],
                [
                    -91.479195,
                    42.295914
                ],
                [
                    -91.596893,
                    42.296211
                ],
                [
                    -91.597,
                    42.318314
                ],
                [
                    -91.5979,
                    42.375713
                ],
                [
                    -91.597595,
                    42.427513
                ],
                [
                    -91.597397,
                    42.43531
                ],
                [
                    -91.597397,
                    42.465611
                ],
                [
                    -91.5979,
                    42.469112
                ],
                [
                    -91.608498,
                    42.469112
                ],
                [
                    -91.608398,
                    42.476414
                ],
                [
                    -91.608994,
                    42.531513
                ],
                [
                    -91.608795,
                    42.571011
                ],
                [
                    -91.608299,
                    42.592411
                ],
                [
                    -91.607994,
                    42.597713
                ],
                [
                    -91.608093,
                    42.600113
                ],
                [
                    -91.607193,
                    42.639713
                ],
                [
                    -91.606293,
                    42.643913
                ],
                [
                    -91.5457,
                    42.644112
                ],
                [
                    -91.542297,
                    42.644413
                ],
                [
                    -91.5392,
                    42.644413
                ],
                [
                    -91.487999,
                    42.643913
                ],
                [
                    -91.466698,
                    42.644012
                ],
                [
                    -91.460495,
                    42.643711
                ],
                [
                    -91.456993,
                    42.643711
                ],
                [
                    -91.453499,
                    42.643913
                ],
                [
                    -91.431496,
                    42.644211
                ],
                [
                    -91.418297,
                    42.644112
                ],
                [
                    -91.410194,
                    42.644314
                ],
                [
                    -91.378998,
                    42.644512
                ],
                [
                    -91.375099,
                    42.644711
                ],
                [
                    -91.281898,
                    42.645512
                ],
                [
                    -91.231194,
                    42.645611
                ],
                [
                    -91.210693,
                    42.645813
                ],
                [
                    -91.132797,
                    42.645813
                ],
                [
                    -91.133095,
                    42.625011
                ],
                [
                    -91.133499,
                    42.617512
                ],
                [
                    -91.133598,
                    42.594311
                ],
                [
                    -91.133896,
                    42.587414
                ],
                [
                    -91.134399,
                    42.550114
                ],
                [
                    -91.134399,
                    42.496212
                ],
                [
                    -91.134193,
                    42.489914
                ],
                [
                    -91.134094,
                    42.471313
                ],
                [
                    -91.131294,
                    42.470913
                ],
                [
                    -91.130798,
                    42.447613
                ],
                [
                    -91.130096,
                    42.295712
                ]
            ]
        ]
    },
    "properties": {
        "@id": "https://api.weather.gov/zones/forecast/IAZ041",
        "@type": "wx:Zone",
        "id": "IAZ041",
        "type": "public",
        "name": "Delaware",
        "effectiveDate": "2026-04-16T18:00:00+00:00",
        "expirationDate": "2200-01-01T00:00:00+00:00",
        "state": "IA",
        "forecastOffice": "https://api.weather.gov/offices/DVN",
        "gridIdentifier": "DVN",
        "awipsLocationIdentifier": "DVN",
        "cwa": [
            "DVN"
        ],
        "forecastOffices": [
            "https://api.weather.gov/offices/DVN"
        ],
        "timeZone": [
            "America/Chicago"
        ],
        "observationStations": [
            "https://api.weather.gov/stations/KDBQ",
            "https://api.weather.gov/stations/KALO",
            "https://api.weather.gov/stations/KIIB",
            "https://api.weather.gov/stations/KMXO",
            "https://api.weather.gov/stations/KOLZ",
            "https://api.weather.gov/stations/KPDC"
        ],
        "radarStation": "DVN"
    }
}