{
    "@context": {
        "@version": "1.1"
    },
    "id": "https://api.weather.gov/zones/forecast/HIZ022",
    "type": "Feature",
    "geometry": {
        "type": "Polygon",
        "coordinates": [
            [
                [
                    -156.237817,
                    20.795011
                ],
                [
                    -156.236648,
                    20.794186
                ],
                [
                    -156.23546,
                    20.794316
                ],
                [
                    -156.234809,
                    20.794629
                ],
                [
                    -156.23367,
                    20.794411
                ],
                [
                    -156.232758,
                    20.79469
                ],
                [
                    -156.230466,
                    20.79426
                ],
                [
                    -156.230441,
                    20.793156
                ],
                [
                    -156.229414,
                    20.79338
                ],
                [
                    -156.228873,
                    20.793241
                ],
                [
                    -156.228202,
                    20.7937
                ],
                [
                    -156.226923,
                    20.793481
                ],
                [
                    -156.225794,
                    20.794112
                ],
                [
                    -156.225274,
                    20.793502
                ],
                [
                    -156.225165,
                    20.792911
                ],
                [
                    -156.224348,
                    20.792356
                ],
                [
                    -156.222778,
                    20.791865
                ],
                [
                    -156.222153,
                    20.791101
                ],
                [
                    -156.221909,
                    20.789726
                ],
                [
                    -156.221244,
                    20.789708
                ],
                [
                    -156.218946,
                    20.788477
                ],
                [
                    -156.218709,
                    20.78784
                ],
                [
                    -156.217935,
                    20.788154
                ],
                [
                    -156.217255,
                    20.787817
                ],
                [
                    -156.216879,
                    20.786751
                ],
                [
                    -156.216135,
                    20.786805
                ],
                [
                    -156.215841,
                    20.786244
                ],
                [
                    -156.215972,
                    20.784914
                ],
                [
                    -156.215361,
                    20.784627
                ],
                [
                    -156.214674,
                    20.785843
                ],
                [
                    -156.213727,
                    20.785323
                ],
                [
                    -156.213368,
                    20.784706
                ],
                [
                    -156.212351,
                    20.784317
                ],
                [
                    -156.211579,
                    20.783473
                ],
                [
                    -156.211788,
                    20.782763
                ],
                [
                    -156.210103,
                    20.783458
                ],
                [
                    -156.209645,
                    20.78294
                ],
                [
                    -156.208629,
                    20.782589
                ],
                [
                    -156.208073,
                    20.781528
                ],
                [
                    -156.20746,
                    20.781997
                ],
                [
                    -156.207014,
                    20.781669
                ],
                [
                    -156.206329,
                    20.781853
                ],
                [
                    -156.205742,
                    20.781374
                ],
                [
                    -156.205163,
                    20.781244
                ],
                [
                    -156.204879,
                    20.780484
                ],
                [
                    -156.203865,
                    20.780634
                ],
                [
                    -156.20292,
                    20.780176
                ],
                [
                    -156.203894,
                    20.779056
                ],
                [
                    -156.202731,
                    20.778625
                ],
                [
                    -156.206073,
                    20.775908
                ],
                [
                    -156.207068,
                    20.772743
                ],
                [
                    -156.206648,
                    20.772207
                ],
                [
                    -156.206489,
                    20.771392
                ],
                [
                    -156.205971,
                    20.770748
                ],
                [
                    -156.204361,
                    20.769323
                ],
                [
                    -156.202887,
                    20.768847
                ],
                [
                    -156.200627,
                    20.768818
                ],
                [
                    -156.198703,
                    20.768467
                ],
                [
                    -156.197592,
                    20.767712
                ],
                [
                    -156.196737,
                    20.767461
                ],
                [
                    -156.193984,
                    20.767758
                ],
                [
                    -156.189056,
                    20.766482
                ],
                [
                    -156.185776,
                    20.766435
                ],
                [
                    -156.184743,
                    20.76613
                ],
                [
                    -156.184071,
                    20.76612
                ],
                [
                    -156.182834,
                    20.76553
                ],
                [
                    -156.181788,
                    20.765482
                ],
                [
                    -156.18098,
                    20.764965
                ],
                [
                    -156.180693,
                    20.764561
                ],
                [
                    -156.179711,
                    20.764202
                ],
                [
                    -156.178838,
                    20.763624
                ],
                [
                    -156.178304,
                    20.762807
                ],
                [
                    -156.177758,
                    20.762708
                ],
                [
                    -156.177235,
                    20.762104
                ],
                [
                    -156.17644,
                    20.762168
                ],
                [
                    -156.175286,
                    20.761709
                ],
                [
                    -156.174894,
                    20.761089
                ],
                [
                    -156.171575,
                    20.759932
                ],
                [
                    -156.171044,
                    20.75952
                ],
                [
                    -156.169413,
                    20.759486
                ],
                [
                    -156.168715,
                    20.75907
                ],
                [
                    -156.167684,
                    20.758853
                ],
                [
                    -156.166728,
                    20.759336
                ],
                [
                    -156.162375,
                    20.757489
                ],
                [
                    -156.162054,
                    20.757134
                ],
                [
                    -156.161317,
                    20.757272
                ],
                [
                    -156.160293,
                    20.756552
                ],
                [
                    -156.159388,
                    20.755454
                ],
                [
                    -156.157239,
                    20.754587
                ],
                [
                    -156.156749,
                    20.754064
                ],
                [
                    -156.155338,
                    20.753942
                ],
                [
                    -156.154249,
                    20.753274
                ],
                [
                    -156.152761,
                    20.753111
                ],
                [
                    -156.152059,
                    20.753798
                ],
                [
                    -156.15169,
                    20.75377
                ],
                [
                    -156.151008,
                    20.753101
                ],
                [
                    -156.148942,
                    20.75233
                ],
                [
                    -156.147096,
                    20.751909
                ],
                [
                    -156.145462,
                    20.752039
                ],
                [
                    -156.144411,
                    20.751796
                ],
                [
                    -156.143379,
                    20.751825
                ],
                [
                    -156.139793,
                    20.751444
                ],
                [
                    -156.138878,
                    20.75192
                ],
                [
                    -156.13777,
                    20.75195
                ],
                [
                    -156.137312,
                    20.75164
                ],
                [
                    -156.134616,
                    20.752091
                ],
                [
                    -156.131338,
                    20.751314
                ],
                [
                    -156.129312,
                    20.750403
                ],
                [
                    -156.127262,
                    20.750177
                ],
                [
                    -156.126386,
                    20.750659
                ],
                [
                    -156.125718,
                    20.750647
                ],
                [
                    -156.124564,
                    20.749986
                ],
                [
                    -156.123803,
                    20.750413
                ],
                [
                    -156.118948,
                    20.750144
                ],
                [
                    -156.118329,
                    20.749883
                ],
                [
                    -156.116107,
                    20.750239
                ],
                [
                    -156.114765,
                    20.750216
                ],
                [
                    -156.113962,
                    20.749437
                ],
                [
                    -156.11307,
                    20.749537
                ],
                [
                    -156.112407,
                    20.749106
                ],
                [
                    -156.112132,
                    20.749449
                ],
                [
                    -156.109717,
                    20.749668
                ],
                [
                    -156.106839,
                    20.74918
                ],
                [
                    -156.103374,
                    20.747026
                ],
                [
                    -156.102155,
                    20.744544
                ],
                [
                    -156.101348,
                    20.743381
                ],
                [
                    -156.100057,
                    20.742481
                ],
                [
                    -156.099493,
                    20.741856
                ],
                [
                    -156.098327,
                    20.74181
                ],
                [
                    -156.096734,
                    20.741482
                ],
                [
                    -156.095693,
                    20.74021
                ],
                [
                    -156.094656,
                    20.739748
                ],
                [
                    -156.094404,
                    20.73934
                ],
                [
                    -156.093399,
                    20.739383
                ],
                [
                    -156.092165,
                    20.738664
                ],
                [
                    -156.091796,
                    20.737864
                ],
                [
                    -156.090677,
                    20.738274
                ],
                [
                    -156.089967,
                    20.738157
                ],
                [
                    -156.089591,
                    20.737762
                ],
                [
                    -156.088818,
                    20.738045
                ],
                [
                    -156.087901,
                    20.737918
                ],
                [
                    -156.087201,
                    20.738193
                ],
                [
                    -156.085945,
                    20.737746
                ],
                [
                    -156.084446,
                    20.73808
                ],
                [
                    -156.083679,
                    20.738895
                ],
                [
                    -156.08316,
                    20.738831
                ],
                [
                    -156.082727,
                    20.73761
                ],
                [
                    -156.082064,
                    20.737325
                ],
                [
                    -156.081553,
                    20.736603
                ],
                [
                    -156.079593,
                    20.735577
                ],
                [
                    -156.079343,
                    20.734031
                ],
                [
                    -156.078887,
                    20.732935
                ],
                [
                    -156.07891,
                    20.732295
                ],
                [
                    -156.078269,
                    20.731255
                ],
                [
                    -156.077837,
                    20.729279
                ],
                [
                    -156.078471,
                    20.728208
                ],
                [
                    -156.078616,
                    20.726477
                ],
                [
                    -156.079141,
                    20.725369
                ],
                [
                    -156.080539,
                    20.724379
                ],
                [
                    -156.081768,
                    20.72447
                ],
                [
                    -156.082463,
                    20.724105
                ],
                [
                    -156.0825,
                    20.722209
                ],
                [
                    -156.083868,
                    20.720914
                ],
                [
                    -156.084709,
                    20.721181
                ],
                [
                    -156.086017,
                    20.72086
                ],
                [
                    -156.086509,
                    20.720292
                ],
                [
                    -156.087019,
                    20.720148
                ],
                [
                    -156.087672,
                    20.720886
                ],
                [
                    -156.088379,
                    20.720222
                ],
                [
                    -156.089228,
                    20.720538
                ],
                [
                    -156.09008,
                    20.720318
                ],
                [
                    -156.090779,
                    20.720549
                ],
                [
                    -156.091406,
                    20.720375
                ],
                [
                    -156.092075,
                    20.721146
                ],
                [
                    -156.095108,
                    20.721231
                ],
                [
                    -156.095755,
                    20.721519
                ],
                [
                    -156.097892,
                    20.72141
                ],
                [
                    -156.099079,
                    20.720414
                ],
                [
                    -156.100208,
                    20.719899
                ],
                [
                    -156.102308,
                    20.719992
                ],
                [
                    -156.104315,
                    20.720447
                ],
                [
                    -156.105213,
                    20.722052
                ],
                [
                    -156.105659,
                    20.721998
                ],
                [
                    -156.106192,
                    20.721047
                ],
                [
                    -156.106838,
                    20.720849
                ],
                [
                    -156.107963,
                    20.721119
                ],
                [
                    -156.109276,
                    20.720745
                ],
                [
                    -156.111256,
                    20.721431
                ],
                [
                    -156.112142,
                    20.722595
                ],
                [
                    -156.112436,
                    20.721987
                ],
                [
                    -156.111163,
                    20.719827
                ],
                [
                    -156.111608,
                    20.719433
                ],
                [
                    -156.111863,
                    20.718671
                ],
                [
                    -156.112382,
                    20.718075
                ],
                [
                    -156.112997,
                    20.717965
                ],
                [
                    -156.114229,
                    20.71629
                ],
                [
                    -156.112831,
                    20.715048
                ],
                [
                    -156.112822,
                    20.714326
                ],
                [
                    -156.11341,
                    20.713884
                ],
                [
                    -156.113522,
                    20.713118
                ],
                [
                    -156.110915,
                    20.711378
                ],
                [
                    -156.110302,
                    20.71044
                ],
                [
                    -156.109856,
                    20.708907
                ],
                [
                    -156.109979,
                    20.707909
                ],
                [
                    -156.111581,
                    20.703875
                ],
                [
                    -156.112669,
                    20.702913
                ],
                [
                    -156.112204,
                    20.701724
                ],
                [
                    -156.110985,
                    20.701476
                ],
                [
                    -156.109942,
                    20.70173
                ],
                [
                    -156.108366,
                    20.701342
                ],
                [
                    -156.106992,
                    20.701229
                ],
                [
                    -156.106949,
                    20.699928
                ],
                [
                    -156.106154,
                    20.698958
                ],
                [
                    -156.104919,
                    20.698715
                ],
                [
                    -156.104081,
                    20.697375
                ],
                [
                    -156.103199,
                    20.696326
                ],
                [
                    -156.102262,
                    20.696165
                ],
                [
                    -156.101057,
                    20.693365
                ],
                [
                    -156.100061,
                    20.69186
                ],
                [
                    -156.099986,
                    20.691465
                ],
                [
                    -156.101358,
                    20.690688
                ],
                [
                    -156.102195,
                    20.690629
                ],
                [
                    -156.103861,
                    20.688766
                ],
                [
                    -156.104634,
                    20.688495
                ],
                [
                    -156.105496,
                    20.688555
                ],
                [
                    -156.105918,
                    20.688302
                ],
                [
                    -156.106214,
                    20.687703
                ],
                [
                    -156.106852,
                    20.687422
                ],
                [
                    -156.10747,
                    20.687458
                ],
                [
                    -156.107971,
                    20.687072
                ],
                [
                    -156.110431,
                    20.686299
                ],
                [
                    -156.112524,
                    20.686963
                ],
                [
                    -156.113246,
                    20.687559
                ],
                [
                    -156.114246,
                    20.6875
                ],
                [
                    -156.115153,
                    20.687689
                ],
                [
                    -156.115745,
                    20.68799
                ],
                [
                    -156.116396,
                    20.687714
                ],
                [
                    -156.118206,
                    20.687357
                ],
                [
                    -156.11895,
                    20.68728
                ],
                [
                    -156.119351,
                    20.687554
                ],
                [
                    -156.119813,
                    20.68709
                ],
                [
                    -156.121065,
                    20.686376
                ],
                [
                    -156.121721,
                    20.686337
                ],
                [
                    -156.122986,
                    20.685768
                ],
                [
                    -156.123889,
                    20.685609
                ],
                [
                    -156.125723,
                    20.684577
                ],
                [
                    -156.126498,
                    20.685057
                ],
                [
                    -156.126728,
                    20.684678
                ],
                [
                    -156.129283,
                    20.684004
                ],
                [
                    -156.129809,
                    20.684313
                ],
                [
                    -156.130504,
                    20.684289
                ],
                [
                    -156.1313,
                    20.683543
                ],
                [
                    -156.132072,
                    20.683943
                ],
                [
                    -156.133938,
                    20.687506
                ],
                [
                    -156.134064,
                    20.68894
                ],
                [
                    -156.134846,
                    20.691674
                ],
                [
                    -156.136198,
                    20.693449
                ],
                [
                    -156.140252,
                    20.692138
                ],
                [
                    -156.140741,
                    20.692325
                ],
                [
                    -156.142365,
                    20.692027
                ],
                [
                    -156.14296,
                    20.692099
                ],
                [
                    -156.145433,
                    20.691385
                ],
                [
                    -156.146883,
                    20.691548
                ],
                [
                    -156.148814,
                    20.690874
                ],
                [
                    -156.149629,
                    20.690421
                ],
                [
                    -156.15045,
                    20.690302
                ],
                [
                    -156.152702,
                    20.690396
                ],
                [
                    -156.153878,
                    20.689692
                ],
                [
                    -156.154957,
                    20.689457
                ],
                [
                    -156.155087,
                    20.688896
                ],
                [
                    -156.154307,
                    20.686542
                ],
                [
                    -156.152608,
                    20.684093
                ],
                [
                    -156.152168,
                    20.682364
                ],
                [
                    -156.152041,
                    20.680826
                ],
                [
                    -156.152744,
                    20.680809
                ],
                [
                    -156.153793,
                    20.681103
                ],
                [
                    -156.154646,
                    20.681691
                ],
                [
                    -156.154848,
                    20.681113
                ],
                [
                    -156.15609,
                    20.680575
                ],
                [
                    -156.157188,
                    20.680513
                ],
                [
                    -156.159134,
                    20.681004
                ],
                [
                    -156.159486,
                    20.681393
                ],
                [
                    -156.159549,
                    20.682171
                ],
                [
                    -156.160222,
                    20.681523
                ],
                [
                    -156.162037,
                    20.681449
                ],
                [
                    -156.163283,
                    20.681847
                ],
                [
                    -156.163895,
                    20.681557
                ],
                [
                    -156.165016,
                    20.68171
                ],
                [
                    -156.166244,
                    20.682191
                ],
                [
                    -156.166711,
                    20.684233
                ],
                [
                    -156.167502,
                    20.683949
                ],
                [
                    -156.167953,
                    20.685056
                ],
                [
                    -156.168586,
                    20.683903
                ],
                [
                    -156.169232,
                    20.683305
                ],
                [
                    -156.170199,
                    20.684314
                ],
                [
                    -156.170554,
                    20.682568
                ],
                [
                    -156.17152,
                    20.683179
                ],
                [
                    -156.172182,
                    20.682707
                ],
                [
                    -156.172873,
                    20.683455
                ],
                [
                    -156.174183,
                    20.68347
                ],
                [
                    -156.174402,
                    20.68201
                ],
                [
                    -156.174788,
                    20.682045
                ],
                [
                    -156.175082,
                    20.681504
                ],
                [
                    -156.176377,
                    20.681127
                ],
                [
                    -156.177544,
                    20.681423
                ],
                [
                    -156.178007,
                    20.680955
                ],
                [
                    -156.178538,
                    20.68111
                ],
                [
                    -156.17901,
                    20.681751
                ],
                [
                    -156.180016,
                    20.681044
                ],
                [
                    -156.181059,
                    20.680953
                ],
                [
                    -156.181173,
                    20.681927
                ],
                [
                    -156.181469,
                    20.682307
                ],
                [
                    -156.181892,
                    20.681614
                ],
                [
                    -156.182633,
                    20.681267
                ],
                [
                    -156.183049,
                    20.681259
                ],
                [
                    -156.183817,
                    20.682666
                ],
                [
                    -156.184168,
                    20.682089
                ],
                [
                    -156.184266,
                    20.681233
                ],
                [
                    -156.184498,
                    20.68074
                ],
                [
                    -156.185623,
                    20.680382
                ],
                [
                    -156.186475,
                    20.680427
                ],
                [
                    -156.186989,
                    20.680928
                ],
                [
                    -156.187428,
                    20.680304
                ],
                [
                    -156.187874,
                    20.680615
                ],
                [
                    -156.188126,
                    20.681443
                ],
                [
                    -156.18948,
                    20.680098
                ],
                [
                    -156.190444,
                    20.68021
                ],
                [
                    -156.19131,
                    20.680685
                ],
                [
                    -156.19136,
                    20.679909
                ],
                [
                    -156.193091,
                    20.679689
                ],
                [
                    -156.19392,
                    20.68
                ],
                [
                    -156.194685,
                    20.67975
                ],
                [
                    -156.196415,
                    20.67956
                ],
                [
                    -156.197215,
                    20.679733
                ],
                [
                    -156.198031,
                    20.68037
                ],
                [
                    -156.198534,
                    20.679631
                ],
                [
                    -156.199785,
                    20.678864
                ],
                [
                    -156.200561,
                    20.678767
                ],
                [
                    -156.201713,
                    20.67966
                ],
                [
                    -156.202043,
                    20.678117
                ],
                [
                    -156.202963,
                    20.677524
                ],
                [
                    -156.204139,
                    20.677277
                ],
                [
                    -156.205064,
                    20.677917
                ],
                [
                    -156.207518,
                    20.676601
                ],
                [
                    -156.207772,
                    20.676079
                ],
                [
                    -156.210982,
                    20.675112
                ],
                [
                    -156.211872,
                    20.675546
                ],
                [
                    -156.212895,
                    20.675402
                ],
                [
                    -156.2131,
                    20.674722
                ],
                [
                    -156.214653,
                    20.673732
                ],
                [
                    -156.215372,
                    20.673719
                ],
                [
                    -156.216583,
                    20.673055
                ],
                [
                    -156.21758,
                    20.673206
                ],
                [
                    -156.220067,
                    20.672137
                ],
                [
                    -156.220625,
                    20.672389
                ],
                [
                    -156.220917,
                    20.672139
                ],
                [
                    -156.22087,
                    20.671596
                ],
                [
                    -156.222086,
                    20.671134
                ],
                [
                    -156.223127,
                    20.671105
                ],
                [
                    -156.22524,
                    20.670194
                ],
                [
                    -156.225797,
                    20.670554
                ],
                [
                    -156.226322,
                    20.670507
                ],
                [
                    -156.22696,
                    20.670903
                ],
                [
                    -156.227304,
                    20.670184
                ],
                [
                    -156.228716,
                    20.669355
                ],
                [
                    -156.229256,
                    20.669513
                ],
                [
                    -156.230398,
                    20.668881
                ],
                [
                    -156.231019,
                    20.669164
                ],
                [
                    -156.231531,
                    20.668697
                ],
                [
                    -156.232314,
                    20.668817
                ],
                [
                    -156.232595,
                    20.668244
                ],
                [
                    -156.234384,
                    20.668056
                ],
                [
                    -156.235089,
                    20.668234
                ],
                [
                    -156.235827,
                    20.667365
                ],
                [
                    -156.238738,
                    20.667098
                ],
                [
                    -156.238781,
                    20.666557
                ],
                [
                    -156.24088,
                    20.666596
                ],
                [
                    -156.240694,
                    20.665955
                ],
                [
                    -156.241379,
                    20.666072
                ],
                [
                    -156.24185,
                    20.665676
                ],
                [
                    -156.242327,
                    20.665838
                ],
                [
                    -156.243,
                    20.665538
                ],
                [
                    -156.243286,
                    20.665867
                ],
                [
                    -156.243973,
                    20.665007
                ],
                [
                    -156.245806,
                    20.664433
                ],
                [
                    -156.246906,
                    20.665187
                ],
                [
                    -156.247375,
                    20.664011
                ],
                [
                    -156.248492,
                    20.663733
                ],
                [
                    -156.249765,
                    20.662972
                ],
                [
                    -156.250435,
                    20.663067
                ],
                [
                    -156.251206,
                    20.662816
                ],
                [
                    -156.251881,
                    20.662969
                ],
                [
                    -156.253314,
                    20.662263
                ],
                [
                    -156.254138,
                    20.662331
                ],
                [
                    -156.256789,
                    20.661973
                ],
                [
                    -156.257289,
                    20.661633
                ],
                [
                    -156.258519,
                    20.661579
                ],
                [
                    -156.259488,
                    20.661008
                ],
                [
                    -156.260229,
                    20.661097
                ],
                [
                    -156.260966,
                    20.660501
                ],
                [
                    -156.261987,
                    20.660768
                ],
                [
                    -156.263028,
                    20.660195
                ],
                [
                    -156.264145,
                    20.660226
                ],
                [
                    -156.267265,
                    20.659314
                ],
                [
                    -156.26874,
                    20.658594
                ],
                [
                    -156.270789,
                    20.658521
                ],
                [
                    -156.272225,
                    20.658265
                ],
                [
                    -156.276891,
                    20.657022
                ],
                [
                    -156.277992,
                    20.656965
                ],
                [
                    -156.279331,
                    20.656371
                ],
                [
                    -156.280447,
                    20.656352
                ],
                [
                    -156.281476,
                    20.655884
                ],
                [
                    -156.283007,
                    20.655953
                ],
                [
                    -156.285516,
                    20.655224
                ],
                [
                    -156.288372,
                    20.655043
                ],
                [
                    -156.290363,
                    20.655472
                ],
                [
                    -156.295029,
                    20.655026
                ],
                [
                    -156.296097,
                    20.655238
                ],
                [
                    -156.297921,
                    20.654719
                ],
                [
                    -156.300921,
                    20.654607
                ],
                [
                    -156.303338,
                    20.65393
                ],
                [
                    -156.304025,
                    20.652873
                ],
                [
                    -156.306043,
                    20.65212
                ],
                [
                    -156.3088,
                    20.651564
                ],
                [
                    -156.310049,
                    20.651071
                ],
                [
                    -156.311659,
                    20.650829
                ],
                [
                    -156.314091,
                    20.651079
                ],
                [
                    -156.315862,
                    20.650817
                ],
                [
                    -156.317065,
                    20.651231
                ],
                [
                    -156.317982,
                    20.651928
                ],
                [
                    -156.320532,
                    20.652317
                ],
                [
                    -156.321388,
                    20.651824
                ],
                [
                    -156.322959,
                    20.651871
                ],
                [
                    -156.325829,
                    20.652326
                ],
                [
                    -156.326981,
                    20.652277
                ],
                [
                    -156.330453,
                    20.653427
                ],
                [
                    -156.332942,
                    20.653737
                ],
                [
                    -156.33574,
                    20.655186
                ],
                [
                    -156.337636,
                    20.65559
                ],
                [
                    -156.338512,
                    20.656125
                ],
                [
                    -156.340536,
                    20.656097
                ],
                [
                    -156.34259,
                    20.655519
                ],
                [
                    -156.343505,
                    20.656196
                ],
                [
                    -156.344662,
                    20.65532
                ],
                [
                    -156.346544,
                    20.656448
                ],
                [
                    -156.347364,
                    20.657478
                ],
                [
                    -156.348376,
                    20.657562
                ],
                [
                    -156.349121,
                    20.656912
                ],
                [
                    -156.349376,
                    20.65621
                ],
                [
                    -156.350429,
                    20.654572
                ],
                [
                    -156.350761,
                    20.654472
                ],
                [
                    -156.351239,
                    20.654925
                ],
                [
                    -156.351383,
                    20.655655
                ],
                [
                    -156.3519,
                    20.655833
                ],
                [
                    -156.351968,
                    20.656956
                ],
                [
                    -156.351051,
                    20.658665
                ],
                [
                    -156.349829,
                    20.659496
                ],
                [
                    -156.348084,
                    20.660277
                ],
                [
                    -156.347305,
                    20.661308
                ],
                [
                    -156.347642,
                    20.661578
                ],
                [
                    -156.347326,
                    20.662821
                ],
                [
                    -156.346425,
                    20.663162
                ],
                [
                    -156.345018,
                    20.664975
                ],
                [
                    -156.345673,
                    20.667784
                ],
                [
                    -156.345287,
                    20.669744
                ],
                [
                    -156.344721,
                    20.670117
                ],
                [
                    -156.344906,
                    20.670821
                ],
                [
                    -156.343852,
                    20.671857
                ],
                [
                    -156.34362,
                    20.672642
                ],
                [
                    -156.343022,
                    20.672799
                ],
                [
                    -156.342674,
                    20.672731
                ],
                [
                    -156.342618,
                    20.673515
                ],
                [
                    -156.341312,
                    20.675078
                ],
                [
                    -156.340429,
                    20.675688
                ],
                [
                    -156.339437,
                    20.677619
                ],
                [
                    -156.339505,
                    20.678433
                ],
                [
                    -156.337802,
                    20.68268
                ],
                [
                    -156.337638,
                    20.683731
                ],
                [
                    -156.335281,
                    20.686654
                ],
                [
                    -156.334723,
                    20.686878
                ],
                [
                    -156.334479,
                    20.688444
                ],
                [
                    -156.333166,
                    20.690197
                ],
                [
                    -156.331179,
                    20.692008
                ],
                [
                    -156.3305,
                    20.692439
                ],
                [
                    -156.330299,
                    20.692952
                ],
                [
                    -156.329532,
                    20.693793
                ],
                [
                    -156.328402,
                    20.696029
                ],
                [
                    -156.327656,
                    20.696848
                ],
                [
                    -156.327307,
                    20.697718
                ],
                [
                    -156.325766,
                    20.699771
                ],
                [
                    -156.322378,
                    20.702793
                ],
                [
                    -156.321918,
                    20.70285
                ],
                [
                    -156.321547,
                    20.703591
                ],
                [
                    -156.320411,
                    20.704154
                ],
                [
                    -156.318608,
                    20.706639
                ],
                [
                    -156.317882,
                    20.706808
                ],
                [
                    -156.317624,
                    20.708068
                ],
                [
                    -156.316749,
                    20.708564
                ],
                [
                    -156.315785,
                    20.709463
                ],
                [
                    -156.315762,
                    20.710175
                ],
                [
                    -156.313573,
                    20.712429
                ],
                [
                    -156.313606,
                    20.713087
                ],
                [
                    -156.313266,
                    20.71399
                ],
                [
                    -156.311876,
                    20.71466
                ],
                [
                    -156.309011,
                    20.718022
                ],
                [
                    -156.30867,
                    20.718853
                ],
                [
                    -156.306678,
                    20.721109
                ],
                [
                    -156.306055,
                    20.722153
                ],
                [
                    -156.305597,
                    20.72233
                ],
                [
                    -156.304279,
                    20.723519
                ],
                [
                    -156.303049,
                    20.724068
                ],
                [
                    -156.30082,
                    20.726766
                ],
                [
                    -156.299032,
                    20.730167
                ],
                [
                    -156.298426,
                    20.730881
                ],
                [
                    -156.298046,
                    20.731668
                ],
                [
                    -156.29737,
                    20.731913
                ],
                [
                    -156.293863,
                    20.736341
                ],
                [
                    -156.292674,
                    20.736913
                ],
                [
                    -156.291658,
                    20.737094
                ],
                [
                    -156.291521,
                    20.738196
                ],
                [
                    -156.290569,
                    20.738555
                ],
                [
                    -156.289831,
                    20.739398
                ],
                [
                    -156.28849,
                    20.74012
                ],
                [
                    -156.288183,
                    20.741206
                ],
                [
                    -156.28716,
                    20.74168
                ],
                [
                    -156.286634,
                    20.741522
                ],
                [
                    -156.286601,
                    20.742522
                ],
                [
                    -156.285766,
                    20.742514
                ],
                [
                    -156.285507,
                    20.742776
                ],
                [
                    -156.28552,
                    20.743193
                ],
                [
                    -156.28508,
                    20.744234
                ],
                [
                    -156.284625,
                    20.744434
                ],
                [
                    -156.284878,
                    20.745691
                ],
                [
                    -156.284557,
                    20.746823
                ],
                [
                    -156.283994,
                    20.747402
                ],
                [
                    -156.282746,
                    20.747915
                ],
                [
                    -156.282984,
                    20.749326
                ],
                [
                    -156.28195,
                    20.75165
                ],
                [
                    -156.281676,
                    20.752768
                ],
                [
                    -156.281568,
                    20.755693
                ],
                [
                    -156.280122,
                    20.756865
                ],
                [
                    -156.279385,
                    20.75706
                ],
                [
                    -156.277693,
                    20.758921
                ],
                [
                    -156.27658,
                    20.758705
                ],
                [
                    -156.276754,
                    20.760603
                ],
                [
                    -156.274383,
                    20.762823
                ],
                [
                    -156.274512,
                    20.763837
                ],
                [
                    -156.274226,
                    20.764902
                ],
                [
                    -156.27359,
                    20.765732
                ],
                [
                    -156.270803,
                    20.769373
                ],
                [
                    -156.26981,
                    20.769792
                ],
                [
                    -156.270126,
                    20.770756
                ],
                [
                    -156.268517,
                    20.772751
                ],
                [
                    -156.267962,
                    20.774231
                ],
                [
                    -156.266949,
                    20.775633
                ],
                [
                    -156.267055,
                    20.776838
                ],
                [
                    -156.265958,
                    20.778343
                ],
                [
                    -156.265127,
                    20.778565
                ],
                [
                    -156.265014,
                    20.779196
                ],
                [
                    -156.263783,
                    20.780911
                ],
                [
                    -156.262882,
                    20.781854
                ],
                [
                    -156.261926,
                    20.783448
                ],
                [
                    -156.260849,
                    20.783475
                ],
                [
                    -156.260792,
                    20.784391
                ],
                [
                    -156.260232,
                    20.785049
                ],
                [
                    -156.25953,
                    20.785314
                ],
                [
                    -156.258434,
                    20.787396
                ],
                [
                    -156.257216,
                    20.787747
                ],
                [
                    -156.256621,
                    20.7883
                ],
                [
                    -156.255976,
                    20.788441
                ],
                [
                    -156.256322,
                    20.789173
                ],
                [
                    -156.256142,
                    20.789707
                ],
                [
                    -156.254647,
                    20.790206
                ],
                [
                    -156.25302,
                    20.791039
                ],
                [
                    -156.25243,
                    20.791815
                ],
                [
                    -156.251229,
                    20.792575
                ],
                [
                    -156.249629,
                    20.793034
                ],
                [
                    -156.248487,
                    20.793857
                ],
                [
                    -156.247583,
                    20.793896
                ],
                [
                    -156.24672,
                    20.794331
                ],
                [
                    -156.244512,
                    20.794275
                ],
                [
                    -156.242564,
                    20.794431
                ],
                [
                    -156.239409,
                    20.79512
                ],
                [
                    -156.237817,
                    20.795011
                ]
            ]
        ]
    },
    "properties": {
        "@id": "https://api.weather.gov/zones/forecast/HIZ022",
        "@type": "wx:Zone",
        "id": "HIZ022",
        "type": "public",
        "name": "Haleakala Summit",
        "effectiveDate": "2026-04-16T18:00:00+00:00",
        "expirationDate": "2200-01-01T00:00:00+00:00",
        "state": "HI",
        "forecastOffice": "https://api.weather.gov/offices/HFO",
        "gridIdentifier": "HFO",
        "awipsLocationIdentifier": "HFO",
        "cwa": [
            "HFO"
        ],
        "forecastOffices": [
            "https://api.weather.gov/offices/HFO"
        ],
        "timeZone": [
            "Pacific/Honolulu"
        ],
        "observationStations": [
            "https://api.weather.gov/stations/PHJH"
        ],
        "radarStation": null
    }
}