{
    "@context": {
        "@version": "1.1"
    },
    "id": "https://api.weather.gov/zones/forecast/MDZ510",
    "type": "Feature",
    "geometry": {
        "type": "Polygon",
        "coordinates": [
            [
                [
                    -79.044296,
                    39.722912
                ],
                [
                    -78.990601,
                    39.722511
                ],
                [
                    -78.931297,
                    39.722713
                ],
                [
                    -78.938499,
                    39.71051
                ],
                [
                    -78.946297,
                    39.697811
                ],
                [
                    -78.958099,
                    39.676014
                ],
                [
                    -78.971397,
                    39.652912
                ],
                [
                    -78.987,
                    39.625111
                ],
                [
                    -78.991295,
                    39.616913
                ],
                [
                    -78.997299,
                    39.606712
                ],
                [
                    -79.005798,
                    39.590313
                ],
                [
                    -79.014999,
                    39.573811
                ],
                [
                    -79.032997,
                    39.542912
                ],
                [
                    -79.042496,
                    39.525814
                ],
                [
                    -79.054497,
                    39.50621
                ],
                [
                    -79.064194,
                    39.486313
                ],
                [
                    -79.067299,
                    39.47961
                ],
                [
                    -79.0681,
                    39.475914
                ],
                [
                    -79.071297,
                    39.473812
                ],
                [
                    -79.074097,
                    39.473412
                ],
                [
                    -79.079697,
                    39.472012
                ],
                [
                    -79.0839,
                    39.471413
                ],
                [
                    -79.087494,
                    39.471611
                ],
                [
                    -79.090996,
                    39.472313
                ],
                [
                    -79.097893,
                    39.476112
                ],
                [
                    -79.101295,
                    39.476612
                ],
                [
                    -79.105293,
                    39.473412
                ],
                [
                    -79.103394,
                    39.470013
                ],
                [
                    -79.101097,
                    39.468811
                ],
                [
                    -79.096992,
                    39.467911
                ],
                [
                    -79.0952,
                    39.463512
                ],
                [
                    -79.099297,
                    39.462311
                ],
                [
                    -79.104095,
                    39.462914
                ],
                [
                    -79.1073,
                    39.461411
                ],
                [
                    -79.108299,
                    39.457211
                ],
                [
                    -79.102699,
                    39.456711
                ],
                [
                    -79.102501,
                    39.452114
                ],
                [
                    -79.1035,
                    39.449314
                ],
                [
                    -79.106995,
                    39.44651
                ],
                [
                    -79.113594,
                    39.443611
                ],
                [
                    -79.115997,
                    39.441212
                ],
                [
                    -79.116493,
                    39.438213
                ],
                [
                    -79.112396,
                    39.435513
                ],
                [
                    -79.111,
                    39.432213
                ],
                [
                    -79.113396,
                    39.431011
                ],
                [
                    -79.120697,
                    39.432911
                ],
                [
                    -79.123497,
                    39.433212
                ],
                [
                    -79.127998,
                    39.430214
                ],
                [
                    -79.129295,
                    39.429012
                ],
                [
                    -79.129097,
                    39.425812
                ],
                [
                    -79.127495,
                    39.422512
                ],
                [
                    -79.128494,
                    39.418011
                ],
                [
                    -79.132896,
                    39.417912
                ],
                [
                    -79.138199,
                    39.418411
                ],
                [
                    -79.141701,
                    39.41711
                ],
                [
                    -79.141998,
                    39.414711
                ],
                [
                    -79.141197,
                    39.411114
                ],
                [
                    -79.141197,
                    39.408611
                ],
                [
                    -79.142799,
                    39.405712
                ],
                [
                    -79.1474,
                    39.404613
                ],
                [
                    -79.149796,
                    39.405811
                ],
                [
                    -79.149498,
                    39.408012
                ],
                [
                    -79.149399,
                    39.410511
                ],
                [
                    -79.149696,
                    39.41431
                ],
                [
                    -79.151093,
                    39.416813
                ],
                [
                    -79.154694,
                    39.418011
                ],
                [
                    -79.157097,
                    39.41761
                ],
                [
                    -79.159897,
                    39.415913
                ],
                [
                    -79.158897,
                    39.411114
                ],
                [
                    -79.1604,
                    39.408211
                ],
                [
                    -79.163094,
                    39.406612
                ],
                [
                    -79.1651,
                    39.404312
                ],
                [
                    -79.166397,
                    39.400414
                ],
                [
                    -79.165199,
                    39.396214
                ],
                [
                    -79.163399,
                    39.394012
                ],
                [
                    -79.1623,
                    39.392212
                ],
                [
                    -79.161697,
                    39.389412
                ],
                [
                    -79.164093,
                    39.387413
                ],
                [
                    -79.166695,
                    39.387814
                ],
                [
                    -79.1698,
                    39.389912
                ],
                [
                    -79.175499,
                    39.396011
                ],
                [
                    -79.178596,
                    39.396713
                ],
                [
                    -79.180695,
                    39.394711
                ],
                [
                    -79.178596,
                    39.391811
                ],
                [
                    -79.176994,
                    39.390114
                ],
                [
                    -79.178398,
                    39.388714
                ],
                [
                    -79.180794,
                    39.38681
                ],
                [
                    -79.183594,
                    39.385513
                ],
                [
                    -79.186996,
                    39.38541
                ],
                [
                    -79.189995,
                    39.38681
                ],
                [
                    -79.192497,
                    39.388412
                ],
                [
                    -79.194298,
                    39.388813
                ],
                [
                    -79.196396,
                    39.388611
                ],
                [
                    -79.198196,
                    39.387413
                ],
                [
                    -79.200394,
                    39.381714
                ],
                [
                    -79.201897,
                    39.379311
                ],
                [
                    -79.205696,
                    39.375111
                ],
                [
                    -79.209099,
                    39.372414
                ],
                [
                    -79.211197,
                    39.37141
                ],
                [
                    -79.212997,
                    39.368412
                ],
                [
                    -79.214096,
                    39.364014
                ],
                [
                    -79.219696,
                    39.363213
                ],
                [
                    -79.227997,
                    39.36441
                ],
                [
                    -79.231293,
                    39.36441
                ],
                [
                    -79.232193,
                    39.361012
                ],
                [
                    -79.233894,
                    39.359013
                ],
                [
                    -79.237999,
                    39.35881
                ],
                [
                    -79.241096,
                    39.359612
                ],
                [
                    -79.246597,
                    39.357811
                ],
                [
                    -79.248894,
                    39.356312
                ],
                [
                    -79.252396,
                    39.355812
                ],
                [
                    -79.254494,
                    39.356812
                ],
                [
                    -79.256294,
                    39.356812
                ],
                [
                    -79.256599,
                    39.354313
                ],
                [
                    -79.254196,
                    39.350113
                ],
                [
                    -79.253799,
                    39.347214
                ],
                [
                    -79.255295,
                    39.344711
                ],
                [
                    -79.257195,
                    39.342113
                ],
                [
                    -79.256096,
                    39.340012
                ],
                [
                    -79.254196,
                    39.337414
                ],
                [
                    -79.258995,
                    39.334412
                ],
                [
                    -79.261497,
                    39.334312
                ],
                [
                    -79.266693,
                    39.335911
                ],
                [
                    -79.268898,
                    39.335312
                ],
                [
                    -79.240946,
                    39.470805
                ],
                [
                    -79.24549,
                    39.546035
                ],
                [
                    -79.214252,
                    39.614301
                ],
                [
                    -79.169338,
                    39.722242
                ],
                [
                    -79.124794,
                    39.722511
                ],
                [
                    -79.084595,
                    39.722511
                ],
                [
                    -79.044296,
                    39.722912
                ]
            ]
        ]
    },
    "properties": {
        "@id": "https://api.weather.gov/zones/forecast/MDZ510",
        "@type": "wx:Zone",
        "id": "MDZ510",
        "type": "public",
        "name": "Eastern Garrett",
        "effectiveDate": "2026-04-16T18:00:00+00:00",
        "expirationDate": "2200-01-01T00:00:00+00:00",
        "state": "MD",
        "forecastOffice": "https://api.weather.gov/offices/LWX",
        "gridIdentifier": "LWX",
        "awipsLocationIdentifier": "LWX",
        "cwa": [
            "LWX"
        ],
        "forecastOffices": [
            "https://api.weather.gov/offices/LWX"
        ],
        "timeZone": [
            "America/New_York"
        ],
        "observationStations": [],
        "radarStation": null
    }
}