{
    "@context": {
        "@version": "1.1"
    },
    "id": "https://api.weather.gov/zones/forecast/KYZ100",
    "type": "Feature",
    "geometry": {
        "type": "Polygon",
        "coordinates": [
            [
                [
                    -83.166893,
                    38.504112
                ],
                [
                    -83.172699,
                    38.50061
                ],
                [
                    -83.176697,
                    38.503113
                ],
                [
                    -83.178696,
                    38.501713
                ],
                [
                    -83.181396,
                    38.499313
                ],
                [
                    -83.183998,
                    38.496513
                ],
                [
                    -83.187698,
                    38.496014
                ],
                [
                    -83.187294,
                    38.493111
                ],
                [
                    -83.185699,
                    38.489113
                ],
                [
                    -83.187698,
                    38.480011
                ],
                [
                    -83.189896,
                    38.478313
                ],
                [
                    -83.188797,
                    38.476513
                ],
                [
                    -83.186897,
                    38.474514
                ],
                [
                    -83.186897,
                    38.470413
                ],
                [
                    -83.188896,
                    38.468113
                ],
                [
                    -83.192497,
                    38.468311
                ],
                [
                    -83.194298,
                    38.465214
                ],
                [
                    -83.196999,
                    38.464413
                ],
                [
                    -83.198097,
                    38.458214
                ],
                [
                    -83.199493,
                    38.454914
                ],
                [
                    -83.2033,
                    38.454311
                ],
                [
                    -83.205994,
                    38.453312
                ],
                [
                    -83.209999,
                    38.454514
                ],
                [
                    -83.213196,
                    38.454613
                ],
                [
                    -83.213196,
                    38.449314
                ],
                [
                    -83.210693,
                    38.446411
                ],
                [
                    -83.208496,
                    38.442013
                ],
                [
                    -83.211098,
                    38.439812
                ],
                [
                    -83.2146,
                    38.439911
                ],
                [
                    -83.217293,
                    38.438011
                ],
                [
                    -83.218193,
                    38.435814
                ],
                [
                    -83.218498,
                    38.433514
                ],
                [
                    -83.220596,
                    38.432114
                ],
                [
                    -83.223,
                    38.432411
                ],
                [
                    -83.225998,
                    38.43251
                ],
                [
                    -83.2267,
                    38.429913
                ],
                [
                    -83.228493,
                    38.428013
                ],
                [
                    -83.231194,
                    38.427811
                ],
                [
                    -83.2332,
                    38.428513
                ],
                [
                    -83.236198,
                    38.42691
                ],
                [
                    -83.236198,
                    38.424511
                ],
                [
                    -83.235298,
                    38.422512
                ],
                [
                    -83.237,
                    38.419113
                ],
                [
                    -83.237198,
                    38.416611
                ],
                [
                    -83.235497,
                    38.412312
                ],
                [
                    -83.234497,
                    38.410511
                ],
                [
                    -83.235794,
                    38.407513
                ],
                [
                    -83.236496,
                    38.404011
                ],
                [
                    -83.236397,
                    38.400711
                ],
                [
                    -83.237198,
                    38.398014
                ],
                [
                    -83.235397,
                    38.395313
                ],
                [
                    -83.235497,
                    38.392811
                ],
                [
                    -83.234596,
                    38.390713
                ],
                [
                    -83.235794,
                    38.387611
                ],
                [
                    -83.234497,
                    38.384911
                ],
                [
                    -83.232094,
                    38.383614
                ],
                [
                    -83.2342,
                    38.380314
                ],
                [
                    -83.234299,
                    38.377514
                ],
                [
                    -83.233093,
                    38.373711
                ],
                [
                    -83.233299,
                    38.368813
                ],
                [
                    -83.234497,
                    38.365311
                ],
                [
                    -83.235794,
                    38.363312
                ],
                [
                    -83.2341,
                    38.359913
                ],
                [
                    -83.236893,
                    38.35881
                ],
                [
                    -83.239296,
                    38.356411
                ],
                [
                    -83.238197,
                    38.354214
                ],
                [
                    -83.238594,
                    38.351913
                ],
                [
                    -83.237495,
                    38.348812
                ],
                [
                    -83.233894,
                    38.347912
                ],
                [
                    -83.230499,
                    38.345814
                ],
                [
                    -83.229294,
                    38.343914
                ],
                [
                    -83.2313,
                    38.34201
                ],
                [
                    -83.2313,
                    38.339413
                ],
                [
                    -83.233093,
                    38.338612
                ],
                [
                    -83.234596,
                    38.337212
                ],
                [
                    -83.239594,
                    38.335213
                ],
                [
                    -83.242798,
                    38.335812
                ],
                [
                    -83.246399,
                    38.334011
                ],
                [
                    -83.247093,
                    38.331413
                ],
                [
                    -83.250298,
                    38.330711
                ],
                [
                    -83.253494,
                    38.331211
                ],
                [
                    -83.2565,
                    38.329811
                ],
                [
                    -83.259796,
                    38.328911
                ],
                [
                    -83.262993,
                    38.330112
                ],
                [
                    -83.264496,
                    38.328213
                ],
                [
                    -83.266693,
                    38.326313
                ],
                [
                    -83.269699,
                    38.326511
                ],
                [
                    -83.272499,
                    38.326912
                ],
                [
                    -83.274498,
                    38.325314
                ],
                [
                    -83.276794,
                    38.323914
                ],
                [
                    -83.280998,
                    38.324112
                ],
                [
                    -83.285393,
                    38.325012
                ],
                [
                    -83.2883,
                    38.327114
                ],
                [
                    -83.292297,
                    38.329014
                ],
                [
                    -83.295998,
                    38.32991
                ],
                [
                    -83.310097,
                    38.331413
                ],
                [
                    -83.312195,
                    38.333313
                ],
                [
                    -83.319794,
                    38.331814
                ],
                [
                    -83.323898,
                    38.330112
                ],
                [
                    -83.326195,
                    38.328613
                ],
                [
                    -83.3274,
                    38.326714
                ],
                [
                    -83.329399,
                    38.324512
                ],
                [
                    -83.3302,
                    38.321411
                ],
                [
                    -83.332199,
                    38.319511
                ],
                [
                    -83.334999,
                    38.318314
                ],
                [
                    -83.337898,
                    38.320011
                ],
                [
                    -83.341499,
                    38.318813
                ],
                [
                    -83.343498,
                    38.319912
                ],
                [
                    -83.345993,
                    38.320213
                ],
                [
                    -83.348595,
                    38.321213
                ],
                [
                    -83.351395,
                    38.322014
                ],
                [
                    -83.354095,
                    38.321911
                ],
                [
                    -83.356796,
                    38.322411
                ],
                [
                    -83.358795,
                    38.324211
                ],
                [
                    -83.357796,
                    38.326813
                ],
                [
                    -83.360497,
                    38.328114
                ],
                [
                    -83.363693,
                    38.328911
                ],
                [
                    -83.362099,
                    38.332012
                ],
                [
                    -83.363098,
                    38.334911
                ],
                [
                    -83.363899,
                    38.342911
                ],
                [
                    -83.365898,
                    38.343914
                ],
                [
                    -83.366898,
                    38.345814
                ],
                [
                    -83.368797,
                    38.348011
                ],
                [
                    -83.372299,
                    38.350113
                ],
                [
                    -83.376495,
                    38.353313
                ],
                [
                    -83.3787,
                    38.358513
                ],
                [
                    -83.378395,
                    38.362011
                ],
                [
                    -83.383095,
                    38.36441
                ],
                [
                    -83.386497,
                    38.365513
                ],
                [
                    -83.388596,
                    38.367512
                ],
                [
                    -83.391594,
                    38.366711
                ],
                [
                    -83.392593,
                    38.369511
                ],
                [
                    -83.394699,
                    38.370911
                ],
                [
                    -83.394997,
                    38.372913
                ],
                [
                    -83.4002,
                    38.375412
                ],
                [
                    -83.398994,
                    38.377911
                ],
                [
                    -83.400597,
                    38.380512
                ],
                [
                    -83.400894,
                    38.388813
                ],
                [
                    -83.404198,
                    38.391113
                ],
                [
                    -83.406998,
                    38.392311
                ],
                [
                    -83.409393,
                    38.393112
                ],
                [
                    -83.412193,
                    38.395412
                ],
                [
                    -83.416298,
                    38.395912
                ],
                [
                    -83.419098,
                    38.394314
                ],
                [
                    -83.4217,
                    38.393211
                ],
                [
                    -83.428093,
                    38.388313
                ],
                [
                    -83.431999,
                    38.389011
                ],
                [
                    -83.436394,
                    38.388512
                ],
                [
                    -83.439796,
                    38.388313
                ],
                [
                    -83.441994,
                    38.387611
                ],
                [
                    -83.443893,
                    38.386414
                ],
                [
                    -83.444397,
                    38.384212
                ],
                [
                    -83.445595,
                    38.381611
                ],
                [
                    -83.449394,
                    38.381012
                ],
                [
                    -83.454094,
                    38.381611
                ],
                [
                    -83.457794,
                    38.384212
                ],
                [
                    -83.459,
                    38.38821
                ],
                [
                    -83.4618,
                    38.390511
                ],
                [
                    -83.463097,
                    38.392914
                ],
                [
                    -83.465897,
                    38.394012
                ],
                [
                    -83.465599,
                    38.397411
                ],
                [
                    -83.468796,
                    38.398514
                ],
                [
                    -83.471298,
                    38.397312
                ],
                [
                    -83.473694,
                    38.397812
                ],
                [
                    -83.476494,
                    38.400414
                ],
                [
                    -83.478798,
                    38.402012
                ],
                [
                    -83.4814,
                    38.40361
                ],
                [
                    -83.484596,
                    38.40451
                ],
                [
                    -83.4879,
                    38.404312
                ],
                [
                    -83.492294,
                    38.403614
                ],
                [
                    -83.495094,
                    38.402813
                ],
                [
                    -83.4981,
                    38.402512
                ],
                [
                    -83.500397,
                    38.404911
                ],
                [
                    -83.503098,
                    38.406513
                ],
                [
                    -83.505096,
                    38.409714
                ],
                [
                    -83.507095,
                    38.411613
                ],
                [
                    -83.509499,
                    38.411011
                ],
                [
                    -83.5121,
                    38.411411
                ],
                [
                    -83.512695,
                    38.414413
                ],
                [
                    -83.516098,
                    38.413414
                ],
                [
                    -83.5187,
                    38.411411
                ],
                [
                    -83.520897,
                    38.411213
                ],
                [
                    -83.523598,
                    38.409512
                ],
                [
                    -83.527794,
                    38.41151
                ],
                [
                    -83.527397,
                    38.416313
                ],
                [
                    -83.529495,
                    38.418411
                ],
                [
                    -83.531799,
                    38.417812
                ],
                [
                    -83.534195,
                    38.416813
                ],
                [
                    -83.536797,
                    38.416611
                ],
                [
                    -83.541893,
                    38.418411
                ],
                [
                    -83.545395,
                    38.418411
                ],
                [
                    -83.548897,
                    38.418812
                ],
                [
                    -83.552193,
                    38.419613
                ],
                [
                    -83.555397,
                    38.421413
                ],
                [
                    -83.559395,
                    38.42411
                ],
                [
                    -83.561295,
                    38.424713
                ],
                [
                    -83.563194,
                    38.425812
                ],
                [
                    -83.569298,
                    38.427311
                ],
                [
                    -83.572395,
                    38.428413
                ],
                [
                    -83.576393,
                    38.429012
                ],
                [
                    -83.5812,
                    38.431812
                ],
                [
                    -83.581795,
                    38.435913
                ],
                [
                    -83.5802,
                    38.438911
                ],
                [
                    -83.575798,
                    38.444012
                ],
                [
                    -83.577599,
                    38.447212
                ],
                [
                    -83.579193,
                    38.452412
                ],
                [
                    -83.579399,
                    38.455112
                ],
                [
                    -83.577599,
                    38.457111
                ],
                [
                    -83.578499,
                    38.459812
                ],
                [
                    -83.580498,
                    38.461712
                ],
                [
                    -83.581696,
                    38.465511
                ],
                [
                    -83.584,
                    38.469711
                ],
                [
                    -83.585999,
                    38.472912
                ],
                [
                    -83.588898,
                    38.474312
                ],
                [
                    -83.584694,
                    38.482014
                ],
                [
                    -83.588699,
                    38.482613
                ],
                [
                    -83.5868,
                    38.485012
                ],
                [
                    -83.592598,
                    38.48661
                ],
                [
                    -83.591393,
                    38.48941
                ],
                [
                    -83.594093,
                    38.490513
                ],
                [
                    -83.5961,
                    38.491013
                ],
                [
                    -83.594498,
                    38.494614
                ],
                [
                    -83.599693,
                    38.496113
                ],
                [
                    -83.597893,
                    38.499512
                ],
                [
                    -83.598694,
                    38.501411
                ],
                [
                    -83.601997,
                    38.501411
                ],
                [
                    -83.605499,
                    38.500912
                ],
                [
                    -83.6036,
                    38.505413
                ],
                [
                    -83.607399,
                    38.505814
                ],
                [
                    -83.608795,
                    38.502514
                ],
                [
                    -83.6129,
                    38.502113
                ],
                [
                    -83.616096,
                    38.503811
                ],
                [
                    -83.621399,
                    38.504414
                ],
                [
                    -83.625,
                    38.504311
                ],
                [
                    -83.6287,
                    38.506512
                ],
                [
                    -83.632095,
                    38.508213
                ],
                [
                    -83.630898,
                    38.510014
                ],
                [
                    -83.6269,
                    38.51181
                ],
                [
                    -83.629196,
                    38.51461
                ],
                [
                    -83.630699,
                    38.515812
                ],
                [
                    -83.626099,
                    38.517712
                ],
                [
                    -83.626396,
                    38.519814
                ],
                [
                    -83.628494,
                    38.521614
                ],
                [
                    -83.631393,
                    38.522312
                ],
                [
                    -83.633194,
                    38.521011
                ],
                [
                    -83.634697,
                    38.518414
                ],
                [
                    -83.637199,
                    38.518414
                ],
                [
                    -83.639297,
                    38.521511
                ],
                [
                    -83.641594,
                    38.524414
                ],
                [
                    -83.641197,
                    38.528812
                ],
                [
                    -83.629997,
                    38.585114
                ],
                [
                    -83.6278,
                    38.595013
                ],
                [
                    -83.624695,
                    38.610813
                ],
                [
                    -83.627899,
                    38.616314
                ],
                [
                    -83.640297,
                    38.634613
                ],
                [
                    -83.645699,
                    38.636612
                ],
                [
                    -83.642799,
                    38.643711
                ],
                [
                    -83.640198,
                    38.652412
                ],
                [
                    -83.639397,
                    38.659012
                ],
                [
                    -83.638695,
                    38.661812
                ],
                [
                    -83.638199,
                    38.664814
                ],
                [
                    -83.636497,
                    38.670212
                ],
                [
                    -83.633995,
                    38.673412
                ],
                [
                    -83.629097,
                    38.677711
                ],
                [
                    -83.625999,
                    38.67971
                ],
                [
                    -83.622498,
                    38.68111
                ],
                [
                    -83.6203,
                    38.682312
                ],
                [
                    -83.615295,
                    38.684311
                ],
                [
                    -83.597397,
                    38.687813
                ],
                [
                    -83.594299,
                    38.688713
                ],
                [
                    -83.588593,
                    38.690014
                ],
                [
                    -83.574394,
                    38.692211
                ],
                [
                    -83.568794,
                    38.692913
                ],
                [
                    -83.561897,
                    38.695412
                ],
                [
                    -83.549294,
                    38.698811
                ],
                [
                    -83.539795,
                    38.701012
                ],
                [
                    -83.530098,
                    38.702614
                ],
                [
                    -83.5252,
                    38.702911
                ],
                [
                    -83.521996,
                    38.702812
                ],
                [
                    -83.5168,
                    38.702412
                ],
                [
                    -83.512596,
                    38.701714
                ],
                [
                    -83.509697,
                    38.701012
                ],
                [
                    -83.505394,
                    38.699612
                ],
                [
                    -83.498596,
                    38.696911
                ],
                [
                    -83.493294,
                    38.694214
                ],
                [
                    -83.486496,
                    38.690113
                ],
                [
                    -83.476395,
                    38.682213
                ],
                [
                    -83.474098,
                    38.679913
                ],
                [
                    -83.471199,
                    38.677513
                ],
                [
                    -83.468094,
                    38.67551
                ],
                [
                    -83.459297,
                    38.673714
                ],
                [
                    -83.456993,
                    38.673813
                ],
                [
                    -83.448196,
                    38.670712
                ],
                [
                    -83.443298,
                    38.669712
                ],
                [
                    -83.440399,
                    38.669312
                ],
                [
                    -83.426994,
                    38.668911
                ],
                [
                    -83.422493,
                    38.66851
                ],
                [
                    -83.418594,
                    38.667614
                ],
                [
                    -83.414894,
                    38.666313
                ],
                [
                    -83.4095,
                    38.666512
                ],
                [
                    -83.398796,
                    38.665112
                ],
                [
                    -83.390396,
                    38.663712
                ],
                [
                    -83.385498,
                    38.663311
                ],
                [
                    -83.383095,
                    38.662613
                ],
                [
                    -83.379395,
                    38.662113
                ],
                [
                    -83.374794,
                    38.661011
                ],
                [
                    -83.3657,
                    38.658112
                ],
                [
                    -83.362297,
                    38.656811
                ],
                [
                    -83.359695,
                    38.655411
                ],
                [
                    -83.3564,
                    38.654011
                ],
                [
                    -83.354393,
                    38.652611
                ],
                [
                    -83.349495,
                    38.650414
                ],
                [
                    -83.339996,
                    38.645714
                ],
                [
                    -83.3368,
                    38.643513
                ],
                [
                    -83.334297,
                    38.642113
                ],
                [
                    -83.3302,
                    38.639412
                ],
                [
                    -83.326294,
                    38.635914
                ],
                [
                    -83.323997,
                    38.632813
                ],
                [
                    -83.321999,
                    38.629612
                ],
                [
                    -83.320496,
                    38.621811
                ],
                [
                    -83.320099,
                    38.616711
                ],
                [
                    -83.319397,
                    38.613312
                ],
                [
                    -83.317993,
                    38.609913
                ],
                [
                    -83.315598,
                    38.607311
                ],
                [
                    -83.311096,
                    38.603012
                ],
                [
                    -83.308594,
                    38.601311
                ],
                [
                    -83.305298,
                    38.599514
                ],
                [
                    -83.300896,
                    38.597912
                ],
                [
                    -83.2948,
                    38.596714
                ],
                [
                    -83.292,
                    38.597012
                ],
                [
                    -83.289299,
                    38.597912
                ],
                [
                    -83.286598,
                    38.599213
                ],
                [
                    -83.280998,
                    38.604111
                ],
                [
                    -83.278099,
                    38.606911
                ],
                [
                    -83.274994,
                    38.609413
                ],
                [
                    -83.268295,
                    38.615711
                ],
                [
                    -83.267899,
                    38.618313
                ],
                [
                    -83.265396,
                    38.620411
                ],
                [
                    -83.262497,
                    38.622211
                ],
                [
                    -83.2593,
                    38.622913
                ],
                [
                    -83.254997,
                    38.623413
                ],
                [
                    -83.252197,
                    38.625412
                ],
                [
                    -83.249893,
                    38.626614
                ],
                [
                    -83.245598,
                    38.627911
                ],
                [
                    -83.242599,
                    38.62841
                ],
                [
                    -83.239494,
                    38.628613
                ],
                [
                    -83.232994,
                    38.627712
                ],
                [
                    -83.230499,
                    38.62701
                ],
                [
                    -83.224998,
                    38.624912
                ],
                [
                    -83.213394,
                    38.619614
                ],
                [
                    -83.210197,
                    38.618412
                ],
                [
                    -83.205597,
                    38.617413
                ],
                [
                    -83.202499,
                    38.616913
                ],
                [
                    -83.199097,
                    38.616913
                ],
                [
                    -83.186096,
                    38.618214
                ],
                [
                    -83.180695,
                    38.619312
                ],
                [
                    -83.173599,
                    38.620113
                ],
                [
                    -83.161896,
                    38.620213
                ],
                [
                    -83.155396,
                    38.620911
                ],
                [
                    -83.142799,
                    38.625111
                ],
                [
                    -83.138596,
                    38.628311
                ],
                [
                    -83.134995,
                    38.631714
                ],
                [
                    -83.132896,
                    38.634411
                ],
                [
                    -83.129295,
                    38.639713
                ],
                [
                    -83.127693,
                    38.64241
                ],
                [
                    -83.125893,
                    38.646511
                ],
                [
                    -83.122795,
                    38.657112
                ],
                [
                    -83.120697,
                    38.662312
                ],
                [
                    -83.117897,
                    38.666111
                ],
                [
                    -83.112396,
                    38.671711
                ],
                [
                    -83.109596,
                    38.673714
                ],
                [
                    -83.106697,
                    38.67551
                ],
                [
                    -83.102699,
                    38.677311
                ],
                [
                    -83.098999,
                    38.67831
                ],
                [
                    -83.092697,
                    38.679314
                ],
                [
                    -83.084694,
                    38.681011
                ],
                [
                    -83.076996,
                    38.68391
                ],
                [
                    -83.072296,
                    38.686012
                ],
                [
                    -83.0681,
                    38.687511
                ],
                [
                    -83.060898,
                    38.69091
                ],
                [
                    -83.057495,
                    38.693413
                ],
                [
                    -83.055199,
                    38.694611
                ],
                [
                    -83.052498,
                    38.696411
                ],
                [
                    -83.049797,
                    38.699913
                ],
                [
                    -83.044296,
                    38.705914
                ],
                [
                    -83.041794,
                    38.709614
                ],
                [
                    -83.038399,
                    38.716412
                ],
                [
                    -83.035995,
                    38.720112
                ],
                [
                    -83.0336,
                    38.722912
                ],
                [
                    -83.0308,
                    38.725613
                ],
                [
                    -83.028198,
                    38.721912
                ],
                [
                    -83.038094,
                    38.699413
                ],
                [
                    -83.034393,
                    38.693012
                ],
                [
                    -83.032394,
                    38.691013
                ],
                [
                    -83.031197,
                    38.689011
                ],
                [
                    -83.029297,
                    38.687511
                ],
                [
                    -83.031601,
                    38.685413
                ],
                [
                    -83.027695,
                    38.68391
                ],
                [
                    -83.024696,
                    38.68391
                ],
                [
                    -83.028397,
                    38.680111
                ],
                [
                    -83.032394,
                    38.679413
                ],
                [
                    -83.034698,
                    38.676811
                ],
                [
                    -83.035294,
                    38.674313
                ],
                [
                    -83.038498,
                    38.67271
                ],
                [
                    -83.036995,
                    38.66991
                ],
                [
                    -83.038498,
                    38.666714
                ],
                [
                    -83.041496,
                    38.663612
                ],
                [
                    -83.045097,
                    38.662712
                ],
                [
                    -83.048096,
                    38.663612
                ],
                [
                    -83.051193,
                    38.662712
                ],
                [
                    -83.050896,
                    38.659412
                ],
                [
                    -83.053299,
                    38.656414
                ],
                [
                    -83.052399,
                    38.653713
                ],
                [
                    -83.0495,
                    38.651211
                ],
                [
                    -83.049599,
                    38.648212
                ],
                [
                    -83.051498,
                    38.643612
                ],
                [
                    -83.051796,
                    38.640411
                ],
                [
                    -83.056496,
                    38.640213
                ],
                [
                    -83.060394,
                    38.639313
                ],
                [
                    -83.063797,
                    38.638111
                ],
                [
                    -83.065498,
                    38.635914
                ],
                [
                    -83.067894,
                    38.635811
                ],
                [
                    -83.069893,
                    38.634514
                ],
                [
                    -83.073395,
                    38.632813
                ],
                [
                    -83.072098,
                    38.62981
                ],
                [
                    -83.071495,
                    38.626213
                ],
                [
                    -83.07,
                    38.621113
                ],
                [
                    -83.074699,
                    38.618912
                ],
                [
                    -83.077896,
                    38.616112
                ],
                [
                    -83.080399,
                    38.612213
                ],
                [
                    -83.077393,
                    38.609112
                ],
                [
                    -83.077393,
                    38.605511
                ],
                [
                    -83.076401,
                    38.601913
                ],
                [
                    -83.075195,
                    38.598911
                ],
                [
                    -83.074097,
                    38.597412
                ],
                [
                    -83.0718,
                    38.596111
                ],
                [
                    -83.073898,
                    38.590813
                ],
                [
                    -83.077194,
                    38.588013
                ],
                [
                    -83.081299,
                    38.587612
                ],
                [
                    -83.083694,
                    38.585011
                ],
                [
                    -83.087097,
                    38.580711
                ],
                [
                    -83.090096,
                    38.577312
                ],
                [
                    -83.091698,
                    38.574211
                ],
                [
                    -83.093994,
                    38.57151
                ],
                [
                    -83.095695,
                    38.56871
                ],
                [
                    -83.098694,
                    38.569012
                ],
                [
                    -83.099998,
                    38.567112
                ],
                [
                    -83.098694,
                    38.564213
                ],
                [
                    -83.099998,
                    38.559612
                ],
                [
                    -83.101898,
                    38.556614
                ],
                [
                    -83.102699,
                    38.553513
                ],
                [
                    -83.104897,
                    38.551212
                ],
                [
                    -83.107597,
                    38.549011
                ],
                [
                    -83.108795,
                    38.547012
                ],
                [
                    -83.111397,
                    38.546211
                ],
                [
                    -83.113899,
                    38.545113
                ],
                [
                    -83.1157,
                    38.542713
                ],
                [
                    -83.116997,
                    38.539112
                ],
                [
                    -83.124596,
                    38.534912
                ],
                [
                    -83.129494,
                    38.533611
                ],
                [
                    -83.132401,
                    38.535011
                ],
                [
                    -83.134895,
                    38.533413
                ],
                [
                    -83.137993,
                    38.535412
                ],
                [
                    -83.139496,
                    38.534111
                ],
                [
                    -83.146698,
                    38.530212
                ],
                [
                    -83.147995,
                    38.528011
                ],
                [
                    -83.147194,
                    38.526112
                ],
                [
                    -83.148895,
                    38.521511
                ],
                [
                    -83.150497,
                    38.519112
                ],
                [
                    -83.155594,
                    38.518612
                ],
                [
                    -83.157097,
                    38.515411
                ],
                [
                    -83.159393,
                    38.513012
                ],
                [
                    -83.160995,
                    38.509712
                ],
                [
                    -83.164101,
                    38.509014
                ],
                [
                    -83.166695,
                    38.508812
                ],
                [
                    -83.167198,
                    38.506912
                ],
                [
                    -83.166893,
                    38.504112
                ]
            ]
        ]
    },
    "properties": {
        "@id": "https://api.weather.gov/zones/forecast/KYZ100",
        "@type": "wx:Zone",
        "id": "KYZ100",
        "type": "public",
        "name": "Lewis",
        "effectiveDate": "2026-04-16T18:00:00+00:00",
        "expirationDate": "2200-01-01T00:00:00+00:00",
        "state": "KY",
        "forecastOffice": "https://api.weather.gov/offices/ILN",
        "gridIdentifier": "ILN",
        "awipsLocationIdentifier": "ILN",
        "cwa": [
            "ILN"
        ],
        "forecastOffices": [
            "https://api.weather.gov/offices/ILN"
        ],
        "timeZone": [
            "America/New_York"
        ],
        "observationStations": [
            "https://api.weather.gov/stations/KHTS",
            "https://api.weather.gov/stations/KCMH",
            "https://api.weather.gov/stations/KCRW",
            "https://api.weather.gov/stations/KCVG",
            "https://api.weather.gov/stations/KDAY",
            "https://api.weather.gov/stations/KFFT",
            "https://api.weather.gov/stations/KILN",
            "https://api.weather.gov/stations/KJKL",
            "https://api.weather.gov/stations/KLEX",
            "https://api.weather.gov/stations/KSDF"
        ],
        "radarStation": "JKL"
    }
}