{
    "@context": {
        "@version": "1.1"
    },
    "id": "https://api.weather.gov/zones/forecast/IAZ040",
    "type": "Feature",
    "geometry": {
        "type": "Polygon",
        "coordinates": [
            [
                [
                    -91.596893,
                    42.296211
                ],
                [
                    -91.684998,
                    42.296413
                ],
                [
                    -91.708199,
                    42.29631
                ],
                [
                    -91.773499,
                    42.297611
                ],
                [
                    -91.777496,
                    42.297512
                ],
                [
                    -91.830994,
                    42.298912
                ],
                [
                    -91.948898,
                    42.297211
                ],
                [
                    -91.977493,
                    42.297314
                ],
                [
                    -92,
                    42.297611
                ],
                [
                    -92.0625,
                    42.297211
                ],
                [
                    -92.064499,
                    42.297512
                ],
                [
                    -92.064697,
                    42.299812
                ],
                [
                    -92.064499,
                    42.319012
                ],
                [
                    -92.064499,
                    42.370911
                ],
                [
                    -92.064796,
                    42.375011
                ],
                [
                    -92.064796,
                    42.378212
                ],
                [
                    -92.064095,
                    42.448513
                ],
                [
                    -92.064194,
                    42.456612
                ],
                [
                    -92.063995,
                    42.463612
                ],
                [
                    -92.0644,
                    42.468014
                ],
                [
                    -92.081093,
                    42.468014
                ],
                [
                    -92.081497,
                    42.470013
                ],
                [
                    -92.081795,
                    42.497112
                ],
                [
                    -92.082397,
                    42.501213
                ],
                [
                    -92.082497,
                    42.511414
                ],
                [
                    -92.082397,
                    42.569412
                ],
                [
                    -92.081993,
                    42.609413
                ],
                [
                    -92.081894,
                    42.642014
                ],
                [
                    -92.000793,
                    42.642311
                ],
                [
                    -91.958,
                    42.641911
                ],
                [
                    -91.953194,
                    42.642113
                ],
                [
                    -91.943199,
                    42.641811
                ],
                [
                    -91.926895,
                    42.641712
                ],
                [
                    -91.909195,
                    42.642212
                ],
                [
                    -91.897995,
                    42.642811
                ],
                [
                    -91.890999,
                    42.643013
                ],
                [
                    -91.876099,
                    42.643013
                ],
                [
                    -91.854797,
                    42.643513
                ],
                [
                    -91.820099,
                    42.643711
                ],
                [
                    -91.810394,
                    42.643513
                ],
                [
                    -91.806,
                    42.643612
                ],
                [
                    -91.750198,
                    42.643112
                ],
                [
                    -91.705696,
                    42.643112
                ],
                [
                    -91.685898,
                    42.643211
                ],
                [
                    -91.637497,
                    42.64381
                ],
                [
                    -91.606293,
                    42.643913
                ],
                [
                    -91.607193,
                    42.639713
                ],
                [
                    -91.608093,
                    42.600113
                ],
                [
                    -91.607994,
                    42.597713
                ],
                [
                    -91.608299,
                    42.592411
                ],
                [
                    -91.608795,
                    42.571011
                ],
                [
                    -91.608994,
                    42.531513
                ],
                [
                    -91.608398,
                    42.476414
                ],
                [
                    -91.608498,
                    42.469112
                ],
                [
                    -91.5979,
                    42.469112
                ],
                [
                    -91.597397,
                    42.465611
                ],
                [
                    -91.597397,
                    42.43531
                ],
                [
                    -91.597595,
                    42.427513
                ],
                [
                    -91.5979,
                    42.375713
                ],
                [
                    -91.597,
                    42.318314
                ],
                [
                    -91.596893,
                    42.296211
                ]
            ]
        ]
    },
    "properties": {
        "@id": "https://api.weather.gov/zones/forecast/IAZ040",
        "@type": "wx:Zone",
        "id": "IAZ040",
        "type": "public",
        "name": "Buchanan",
        "effectiveDate": "2026-04-16T18:00:00+00:00",
        "expirationDate": "2200-01-01T00:00:00+00:00",
        "state": "IA",
        "forecastOffice": "https://api.weather.gov/offices/DVN",
        "gridIdentifier": "DVN",
        "awipsLocationIdentifier": "DVN",
        "cwa": [
            "DVN"
        ],
        "forecastOffices": [
            "https://api.weather.gov/offices/DVN"
        ],
        "timeZone": [
            "America/Chicago"
        ],
        "observationStations": [
            "https://api.weather.gov/stations/KALO",
            "https://api.weather.gov/stations/KCID",
            "https://api.weather.gov/stations/KIIB",
            "https://api.weather.gov/stations/KMXO",
            "https://api.weather.gov/stations/KOLZ",
            "https://api.weather.gov/stations/KVTI"
        ],
        "radarStation": "ARX"
    }
}