{
    "@context": {
        "@version": "1.1"
    },
    "id": "https://api.weather.gov/zones/forecast/ILZ001",
    "type": "Feature",
    "geometry": {
        "type": "Polygon",
        "coordinates": [
            [
                [
                    -90.426399,
                    42.507111
                ],
                [
                    -90.390594,
                    42.506912
                ],
                [
                    -90.375694,
                    42.507111
                ],
                [
                    -90.362694,
                    42.507011
                ],
                [
                    -90.308594,
                    42.507412
                ],
                [
                    -90.298096,
                    42.507614
                ],
                [
                    -90.272896,
                    42.507511
                ],
                [
                    -90.268196,
                    42.507713
                ],
                [
                    -90.265297,
                    42.507412
                ],
                [
                    -90.252693,
                    42.507412
                ],
                [
                    -90.250298,
                    42.50761
                ],
                [
                    -90.2435,
                    42.507713
                ],
                [
                    -90.217499,
                    42.507912
                ],
                [
                    -90.2061,
                    42.507713
                ],
                [
                    -90.1931,
                    42.508011
                ],
                [
                    -90.164398,
                    42.508312
                ],
                [
                    -90.101097,
                    42.507912
                ],
                [
                    -90.073494,
                    42.508312
                ],
                [
                    -90.031799,
                    42.507713
                ],
                [
                    -90.008194,
                    42.506912
                ],
                [
                    -89.998497,
                    42.506912
                ],
                [
                    -89.954697,
                    42.505611
                ],
                [
                    -89.937294,
                    42.505711
                ],
                [
                    -89.926498,
                    42.505314
                ],
                [
                    -89.926598,
                    42.499111
                ],
                [
                    -89.926094,
                    42.471714
                ],
                [
                    -89.924393,
                    42.415211
                ],
                [
                    -89.923698,
                    42.382412
                ],
                [
                    -89.923698,
                    42.376011
                ],
                [
                    -89.923996,
                    42.371513
                ],
                [
                    -89.923996,
                    42.365311
                ],
                [
                    -89.922096,
                    42.317711
                ],
                [
                    -89.9217,
                    42.313011
                ],
                [
                    -89.9207,
                    42.290112
                ],
                [
                    -89.920593,
                    42.284412
                ],
                [
                    -89.920898,
                    42.279213
                ],
                [
                    -89.920494,
                    42.264812
                ],
                [
                    -89.920395,
                    42.244614
                ],
                [
                    -89.920197,
                    42.236012
                ],
                [
                    -89.919495,
                    42.219913
                ],
                [
                    -89.919395,
                    42.212513
                ],
                [
                    -89.919693,
                    42.196312
                ],
                [
                    -89.946999,
                    42.196312
                ],
                [
                    -89.992996,
                    42.196613
                ],
                [
                    -90.001198,
                    42.196911
                ],
                [
                    -90.0168,
                    42.197014
                ],
                [
                    -90.029297,
                    42.196911
                ],
                [
                    -90.050095,
                    42.197113
                ],
                [
                    -90.058998,
                    42.196911
                ],
                [
                    -90.085495,
                    42.196812
                ],
                [
                    -90.107796,
                    42.197113
                ],
                [
                    -90.209099,
                    42.195812
                ],
                [
                    -90.220993,
                    42.195412
                ],
                [
                    -90.280594,
                    42.194611
                ],
                [
                    -90.310394,
                    42.193813
                ],
                [
                    -90.314499,
                    42.193211
                ],
                [
                    -90.317398,
                    42.19371
                ],
                [
                    -90.328293,
                    42.201012
                ],
                [
                    -90.332199,
                    42.202213
                ],
                [
                    -90.338196,
                    42.203312
                ],
                [
                    -90.349197,
                    42.204311
                ],
                [
                    -90.356995,
                    42.205414
                ],
                [
                    -90.365097,
                    42.210514
                ],
                [
                    -90.370895,
                    42.213112
                ],
                [
                    -90.374893,
                    42.214714
                ],
                [
                    -90.377693,
                    42.216511
                ],
                [
                    -90.386795,
                    42.223011
                ],
                [
                    -90.392097,
                    42.226414
                ],
                [
                    -90.394798,
                    42.229313
                ],
                [
                    -90.395897,
                    42.233112
                ],
                [
                    -90.400696,
                    42.239311
                ],
                [
                    -90.407997,
                    42.245712
                ],
                [
                    -90.4114,
                    42.248413
                ],
                [
                    -90.416298,
                    42.251713
                ],
                [
                    -90.4188,
                    42.253914
                ],
                [
                    -90.420197,
                    42.255814
                ],
                [
                    -90.422394,
                    42.260612
                ],
                [
                    -90.422997,
                    42.263714
                ],
                [
                    -90.4245,
                    42.267212
                ],
                [
                    -90.428696,
                    42.274513
                ],
                [
                    -90.430893,
                    42.279114
                ],
                [
                    -90.431,
                    42.282413
                ],
                [
                    -90.430496,
                    42.284412
                ],
                [
                    -90.428696,
                    42.287212
                ],
                [
                    -90.426895,
                    42.29071
                ],
                [
                    -90.424698,
                    42.293411
                ],
                [
                    -90.423393,
                    42.296612
                ],
                [
                    -90.421898,
                    42.301712
                ],
                [
                    -90.419296,
                    42.308311
                ],
                [
                    -90.420593,
                    42.312714
                ],
                [
                    -90.420998,
                    42.316013
                ],
                [
                    -90.419495,
                    42.318211
                ],
                [
                    -90.416893,
                    42.320313
                ],
                [
                    -90.416199,
                    42.323914
                ],
                [
                    -90.418694,
                    42.328114
                ],
                [
                    -90.422096,
                    42.330914
                ],
                [
                    -90.4254,
                    42.332611
                ],
                [
                    -90.429893,
                    42.336311
                ],
                [
                    -90.4403,
                    42.349712
                ],
                [
                    -90.441895,
                    42.352711
                ],
                [
                    -90.443893,
                    42.355213
                ],
                [
                    -90.445694,
                    42.356712
                ],
                [
                    -90.451698,
                    42.358913
                ],
                [
                    -90.455399,
                    42.36161
                ],
                [
                    -90.458794,
                    42.364513
                ],
                [
                    -90.4618,
                    42.366711
                ],
                [
                    -90.464394,
                    42.369011
                ],
                [
                    -90.465996,
                    42.37141
                ],
                [
                    -90.467697,
                    42.374813
                ],
                [
                    -90.468994,
                    42.376713
                ],
                [
                    -90.4711,
                    42.379112
                ],
                [
                    -90.475098,
                    42.381813
                ],
                [
                    -90.4786,
                    42.384312
                ],
                [
                    -90.482193,
                    42.384712
                ],
                [
                    -90.486,
                    42.384811
                ],
                [
                    -90.4897,
                    42.38681
                ],
                [
                    -90.492996,
                    42.389511
                ],
                [
                    -90.494797,
                    42.391411
                ],
                [
                    -90.499596,
                    42.395214
                ],
                [
                    -90.502594,
                    42.396912
                ],
                [
                    -90.505898,
                    42.398411
                ],
                [
                    -90.522697,
                    42.404812
                ],
                [
                    -90.535896,
                    42.40921
                ],
                [
                    -90.542,
                    42.411411
                ],
                [
                    -90.548096,
                    42.413113
                ],
                [
                    -90.552795,
                    42.415012
                ],
                [
                    -90.555595,
                    42.416813
                ],
                [
                    -90.557899,
                    42.420612
                ],
                [
                    -90.558296,
                    42.423714
                ],
                [
                    -90.558395,
                    42.426212
                ],
                [
                    -90.559097,
                    42.429512
                ],
                [
                    -90.560493,
                    42.432911
                ],
                [
                    -90.562195,
                    42.435413
                ],
                [
                    -90.564499,
                    42.437912
                ],
                [
                    -90.567993,
                    42.440411
                ],
                [
                    -90.570099,
                    42.441513
                ],
                [
                    -90.575096,
                    42.442913
                ],
                [
                    -90.583397,
                    42.444912
                ],
                [
                    -90.590393,
                    42.447514
                ],
                [
                    -90.597496,
                    42.449512
                ],
                [
                    -90.605095,
                    42.451214
                ],
                [
                    -90.624298,
                    42.458912
                ],
                [
                    -90.640999,
                    42.468311
                ],
                [
                    -90.646698,
                    42.471912
                ],
                [
                    -90.653999,
                    42.478512
                ],
                [
                    -90.656296,
                    42.483612
                ],
                [
                    -90.656197,
                    42.490513
                ],
                [
                    -90.648598,
                    42.498112
                ],
                [
                    -90.6427,
                    42.506012
                ],
                [
                    -90.639999,
                    42.508411
                ],
                [
                    -90.625793,
                    42.508312
                ],
                [
                    -90.614594,
                    42.508011
                ],
                [
                    -90.590393,
                    42.507912
                ],
                [
                    -90.569496,
                    42.507614
                ],
                [
                    -90.544594,
                    42.507713
                ],
                [
                    -90.510498,
                    42.507511
                ],
                [
                    -90.486794,
                    42.50761
                ],
                [
                    -90.478699,
                    42.507313
                ],
                [
                    -90.475395,
                    42.507412
                ],
                [
                    -90.426399,
                    42.507111
                ]
            ]
        ]
    },
    "properties": {
        "@id": "https://api.weather.gov/zones/forecast/ILZ001",
        "@type": "wx:Zone",
        "id": "ILZ001",
        "type": "public",
        "name": "Jo Daviess",
        "effectiveDate": "2026-04-16T18:00:00+00:00",
        "expirationDate": "2200-01-01T00:00:00+00:00",
        "state": "IL",
        "forecastOffice": "https://api.weather.gov/offices/DVN",
        "gridIdentifier": "DVN",
        "awipsLocationIdentifier": "DVN",
        "cwa": [
            "DVN"
        ],
        "forecastOffices": [
            "https://api.weather.gov/offices/DVN"
        ],
        "timeZone": [
            "America/Chicago"
        ],
        "observationStations": [
            "https://api.weather.gov/stations/KDBQ",
            "https://api.weather.gov/stations/KMRJ",
            "https://api.weather.gov/stations/KMXO"
        ],
        "radarStation": "DVN"
    }
}