{
    "@context": {
        "@version": "1.1"
    },
    "id": "https://api.weather.gov/zones/forecast/GAZ015",
    "type": "Feature",
    "geometry": {
        "type": "Polygon",
        "coordinates": [
            [
                [
                    -83.857094,
                    34.72261
                ],
                [
                    -83.856697,
                    34.719212
                ],
                [
                    -83.8591,
                    34.715111
                ],
                [
                    -83.859398,
                    34.710613
                ],
                [
                    -83.858795,
                    34.706112
                ],
                [
                    -83.859894,
                    34.703011
                ],
                [
                    -83.8619,
                    34.699913
                ],
                [
                    -83.861397,
                    34.695812
                ],
                [
                    -83.863197,
                    34.692211
                ],
                [
                    -83.864494,
                    34.690613
                ],
                [
                    -83.863693,
                    34.688911
                ],
                [
                    -83.864899,
                    34.687111
                ],
                [
                    -83.868294,
                    34.685913
                ],
                [
                    -83.870697,
                    34.683712
                ],
                [
                    -83.872597,
                    34.682213
                ],
                [
                    -83.873596,
                    34.679512
                ],
                [
                    -83.873596,
                    34.676411
                ],
                [
                    -83.874596,
                    34.673714
                ],
                [
                    -83.873199,
                    34.671413
                ],
                [
                    -83.871193,
                    34.669014
                ],
                [
                    -83.870895,
                    34.665413
                ],
                [
                    -83.873299,
                    34.664711
                ],
                [
                    -83.875298,
                    34.66291
                ],
                [
                    -83.875496,
                    34.660011
                ],
                [
                    -83.872398,
                    34.657814
                ],
                [
                    -83.872398,
                    34.654911
                ],
                [
                    -83.874199,
                    34.648811
                ],
                [
                    -83.874298,
                    34.643913
                ],
                [
                    -83.872299,
                    34.640812
                ],
                [
                    -83.874496,
                    34.637012
                ],
                [
                    -83.874397,
                    34.633911
                ],
                [
                    -83.873993,
                    34.630913
                ],
                [
                    -83.876999,
                    34.628811
                ],
                [
                    -83.875298,
                    34.625313
                ],
                [
                    -83.875,
                    34.621914
                ],
                [
                    -83.873993,
                    34.618214
                ],
                [
                    -83.873497,
                    34.615612
                ],
                [
                    -83.864494,
                    34.615612
                ],
                [
                    -83.864494,
                    34.599911
                ],
                [
                    -83.864098,
                    34.584312
                ],
                [
                    -83.864395,
                    34.560513
                ],
                [
                    -83.864395,
                    34.554611
                ],
                [
                    -83.864197,
                    34.551113
                ],
                [
                    -83.857597,
                    34.550613
                ],
                [
                    -83.8536,
                    34.549511
                ],
                [
                    -83.853195,
                    34.541714
                ],
                [
                    -83.8424,
                    34.541714
                ],
                [
                    -83.842697,
                    34.532913
                ],
                [
                    -83.831795,
                    34.53231
                ],
                [
                    -83.831795,
                    34.523312
                ],
                [
                    -83.842896,
                    34.523411
                ],
                [
                    -83.8433,
                    34.51041
                ],
                [
                    -83.842796,
                    34.505512
                ],
                [
                    -83.843399,
                    34.501213
                ],
                [
                    -83.8433,
                    34.497013
                ],
                [
                    -83.874298,
                    34.477314
                ],
                [
                    -83.877899,
                    34.475513
                ],
                [
                    -83.887497,
                    34.468811
                ],
                [
                    -83.888397,
                    34.460011
                ],
                [
                    -83.906097,
                    34.459812
                ],
                [
                    -83.909996,
                    34.460712
                ],
                [
                    -83.909996,
                    34.468914
                ],
                [
                    -83.922699,
                    34.469311
                ],
                [
                    -83.930496,
                    34.469311
                ],
                [
                    -83.930397,
                    34.46051
                ],
                [
                    -83.9207,
                    34.460114
                ],
                [
                    -83.9207,
                    34.451111
                ],
                [
                    -83.930099,
                    34.451214
                ],
                [
                    -83.935097,
                    34.449013
                ],
                [
                    -83.943497,
                    34.444511
                ],
                [
                    -83.953896,
                    34.438614
                ],
                [
                    -83.972198,
                    34.429211
                ],
                [
                    -83.970894,
                    34.423111
                ],
                [
                    -83.973495,
                    34.420612
                ],
                [
                    -83.976898,
                    34.418911
                ],
                [
                    -83.980499,
                    34.418613
                ],
                [
                    -83.985695,
                    34.421413
                ],
                [
                    -84.001198,
                    34.426613
                ],
                [
                    -84.025795,
                    34.435413
                ],
                [
                    -84.091797,
                    34.459614
                ],
                [
                    -84.096298,
                    34.461712
                ],
                [
                    -84.104996,
                    34.466114
                ],
                [
                    -84.097595,
                    34.465714
                ],
                [
                    -84.098595,
                    34.469711
                ],
                [
                    -84.102997,
                    34.469913
                ],
                [
                    -84.104996,
                    34.471111
                ],
                [
                    -84.112793,
                    34.472412
                ],
                [
                    -84.190697,
                    34.538811
                ],
                [
                    -84.193398,
                    34.542011
                ],
                [
                    -84.190895,
                    34.599312
                ],
                [
                    -84.189095,
                    34.603611
                ],
                [
                    -84.182297,
                    34.612011
                ],
                [
                    -84.169701,
                    34.630211
                ],
                [
                    -84.164894,
                    34.637512
                ],
                [
                    -84.155693,
                    34.649513
                ],
                [
                    -84.151794,
                    34.651012
                ],
                [
                    -84.149696,
                    34.648514
                ],
                [
                    -84.148796,
                    34.64661
                ],
                [
                    -84.145897,
                    34.646912
                ],
                [
                    -84.142197,
                    34.648811
                ],
                [
                    -84.1381,
                    34.652813
                ],
                [
                    -84.137199,
                    34.656113
                ],
                [
                    -84.138199,
                    34.659412
                ],
                [
                    -84.135597,
                    34.661411
                ],
                [
                    -84.132393,
                    34.662014
                ],
                [
                    -84.129395,
                    34.663612
                ],
                [
                    -84.124695,
                    34.663811
                ],
                [
                    -84.118896,
                    34.660614
                ],
                [
                    -84.1166,
                    34.658512
                ],
                [
                    -84.1129,
                    34.657612
                ],
                [
                    -84.110298,
                    34.656311
                ],
                [
                    -84.106796,
                    34.656212
                ],
                [
                    -84.099495,
                    34.653511
                ],
                [
                    -84.096695,
                    34.653511
                ],
                [
                    -84.094398,
                    34.653214
                ],
                [
                    -84.091797,
                    34.653111
                ],
                [
                    -84.088699,
                    34.651814
                ],
                [
                    -84.085197,
                    34.653111
                ],
                [
                    -84.080696,
                    34.653812
                ],
                [
                    -84.0793,
                    34.656612
                ],
                [
                    -84.074997,
                    34.656811
                ],
                [
                    -84.071098,
                    34.656113
                ],
                [
                    -84.069099,
                    34.652714
                ],
                [
                    -84.066895,
                    34.649612
                ],
                [
                    -84.063095,
                    34.648911
                ],
                [
                    -84.060196,
                    34.647011
                ],
                [
                    -84.057198,
                    34.644512
                ],
                [
                    -84.053894,
                    34.643311
                ],
                [
                    -84.049599,
                    34.642513
                ],
                [
                    -84.045898,
                    34.640713
                ],
                [
                    -84.042999,
                    34.641911
                ],
                [
                    -84.039894,
                    34.641911
                ],
                [
                    -84.036697,
                    34.643612
                ],
                [
                    -84.037193,
                    34.649212
                ],
                [
                    -84.037697,
                    34.652012
                ],
                [
                    -84.033699,
                    34.652313
                ],
                [
                    -84.030701,
                    34.652813
                ],
                [
                    -84.028793,
                    34.659412
                ],
                [
                    -84.026398,
                    34.663311
                ],
                [
                    -84.026695,
                    34.666313
                ],
                [
                    -84.024399,
                    34.670113
                ],
                [
                    -84.0224,
                    34.670513
                ],
                [
                    -84.019295,
                    34.670513
                ],
                [
                    -84.016693,
                    34.672512
                ],
                [
                    -84.013794,
                    34.673111
                ],
                [
                    -84.009499,
                    34.673412
                ],
                [
                    -84.006096,
                    34.674511
                ],
                [
                    -84.001694,
                    34.677113
                ],
                [
                    -83.994797,
                    34.679111
                ],
                [
                    -83.995399,
                    34.683811
                ],
                [
                    -83.9944,
                    34.686211
                ],
                [
                    -83.9925,
                    34.688911
                ],
                [
                    -83.991295,
                    34.695412
                ],
                [
                    -83.989296,
                    34.698513
                ],
                [
                    -83.986794,
                    34.700314
                ],
                [
                    -83.987198,
                    34.703312
                ],
                [
                    -83.988495,
                    34.706814
                ],
                [
                    -83.984795,
                    34.713913
                ],
                [
                    -83.982498,
                    34.715714
                ],
                [
                    -83.976799,
                    34.717113
                ],
                [
                    -83.975098,
                    34.718613
                ],
                [
                    -83.973,
                    34.719711
                ],
                [
                    -83.972,
                    34.722713
                ],
                [
                    -83.969299,
                    34.723312
                ],
                [
                    -83.965698,
                    34.724911
                ],
                [
                    -83.963493,
                    34.727913
                ],
                [
                    -83.959694,
                    34.730011
                ],
                [
                    -83.9562,
                    34.730812
                ],
                [
                    -83.953194,
                    34.732113
                ],
                [
                    -83.950394,
                    34.735313
                ],
                [
                    -83.947197,
                    34.737911
                ],
                [
                    -83.939095,
                    34.740612
                ],
                [
                    -83.936295,
                    34.738811
                ],
                [
                    -83.933395,
                    34.737812
                ],
                [
                    -83.928696,
                    34.735611
                ],
                [
                    -83.925293,
                    34.735111
                ],
                [
                    -83.923096,
                    34.736912
                ],
                [
                    -83.921097,
                    34.737213
                ],
                [
                    -83.9189,
                    34.735313
                ],
                [
                    -83.916794,
                    34.734612
                ],
                [
                    -83.9095,
                    34.733913
                ],
                [
                    -83.906395,
                    34.731712
                ],
                [
                    -83.903099,
                    34.732014
                ],
                [
                    -83.899597,
                    34.731812
                ],
                [
                    -83.897293,
                    34.730412
                ],
                [
                    -83.895393,
                    34.727913
                ],
                [
                    -83.892097,
                    34.725914
                ],
                [
                    -83.888496,
                    34.725712
                ],
                [
                    -83.8853,
                    34.726513
                ],
                [
                    -83.8815,
                    34.725513
                ],
                [
                    -83.879196,
                    34.723812
                ],
                [
                    -83.8769,
                    34.723713
                ],
                [
                    -83.874794,
                    34.725113
                ],
                [
                    -83.8722,
                    34.726212
                ],
                [
                    -83.868996,
                    34.727112
                ],
                [
                    -83.8657,
                    34.726212
                ],
                [
                    -83.862495,
                    34.724911
                ],
                [
                    -83.859894,
                    34.723511
                ],
                [
                    -83.857094,
                    34.72261
                ]
            ]
        ]
    },
    "properties": {
        "@id": "https://api.weather.gov/zones/forecast/GAZ015",
        "@type": "wx:Zone",
        "id": "GAZ015",
        "type": "public",
        "name": "Lumpkin",
        "effectiveDate": "2026-04-16T18:00:00+00:00",
        "expirationDate": "2200-01-01T00:00:00+00:00",
        "state": "GA",
        "forecastOffice": "https://api.weather.gov/offices/FFC",
        "gridIdentifier": "FFC",
        "awipsLocationIdentifier": "FFC",
        "cwa": [
            "FFC"
        ],
        "forecastOffices": [
            "https://api.weather.gov/offices/FFC"
        ],
        "timeZone": [
            "America/New_York"
        ],
        "observationStations": [
            "https://api.weather.gov/stations/KGVL",
            "https://api.weather.gov/stations/KAVL",
            "https://api.weather.gov/stations/KCEU",
            "https://api.weather.gov/stations/KCHA",
            "https://api.weather.gov/stations/KDNN"
        ],
        "radarStation": "FFC"
    }
}