{
    "@context": {
        "@version": "1.1"
    },
    "id": "https://api.weather.gov/zones/forecast/IAZ064",
    "type": "Feature",
    "geometry": {
        "type": "Polygon",
        "coordinates": [
            [
                [
                    -91.366096,
                    41.860012
                ],
                [
                    -91.366196,
                    41.827213
                ],
                [
                    -91.365997,
                    41.823914
                ],
                [
                    -91.365898,
                    41.756813
                ],
                [
                    -91.366295,
                    41.707211
                ],
                [
                    -91.366196,
                    41.662014
                ],
                [
                    -91.366493,
                    41.641911
                ],
                [
                    -91.366295,
                    41.634712
                ],
                [
                    -91.366394,
                    41.598412
                ],
                [
                    -91.366295,
                    41.594414
                ],
                [
                    -91.3666,
                    41.569214
                ],
                [
                    -91.367897,
                    41.500011
                ],
                [
                    -91.367798,
                    41.495911
                ],
                [
                    -91.367996,
                    41.455311
                ],
                [
                    -91.3685,
                    41.423313
                ],
                [
                    -91.391594,
                    41.423611
                ],
                [
                    -91.442894,
                    41.423611
                ],
                [
                    -91.462494,
                    41.424213
                ],
                [
                    -91.4795,
                    41.42411
                ],
                [
                    -91.483894,
                    41.424511
                ],
                [
                    -91.484993,
                    41.429314
                ],
                [
                    -91.489899,
                    41.439114
                ],
                [
                    -91.491295,
                    41.441212
                ],
                [
                    -91.499596,
                    41.446114
                ],
                [
                    -91.502594,
                    41.449913
                ],
                [
                    -91.500595,
                    41.452412
                ],
                [
                    -91.498596,
                    41.453712
                ],
                [
                    -91.499496,
                    41.455811
                ],
                [
                    -91.499695,
                    41.459412
                ],
                [
                    -91.5037,
                    41.460812
                ],
                [
                    -91.506195,
                    41.462311
                ],
                [
                    -91.509094,
                    41.464413
                ],
                [
                    -91.5112,
                    41.465611
                ],
                [
                    -91.514099,
                    41.466812
                ],
                [
                    -91.515694,
                    41.46891
                ],
                [
                    -91.514397,
                    41.472111
                ],
                [
                    -91.513695,
                    41.475014
                ],
                [
                    -91.511299,
                    41.476711
                ],
                [
                    -91.508797,
                    41.47681
                ],
                [
                    -91.505898,
                    41.476311
                ],
                [
                    -91.502693,
                    41.477512
                ],
                [
                    -91.5019,
                    41.481514
                ],
                [
                    -91.502495,
                    41.484413
                ],
                [
                    -91.501999,
                    41.487114
                ],
                [
                    -91.502396,
                    41.489811
                ],
                [
                    -91.504196,
                    41.492813
                ],
                [
                    -91.508194,
                    41.493011
                ],
                [
                    -91.510796,
                    41.495411
                ],
                [
                    -91.509895,
                    41.498211
                ],
                [
                    -91.507599,
                    41.499912
                ],
                [
                    -91.508995,
                    41.502411
                ],
                [
                    -91.511894,
                    41.500713
                ],
                [
                    -91.513794,
                    41.497711
                ],
                [
                    -91.5168,
                    41.496914
                ],
                [
                    -91.519493,
                    41.498512
                ],
                [
                    -91.519493,
                    41.501911
                ],
                [
                    -91.522095,
                    41.504112
                ],
                [
                    -91.527695,
                    41.508114
                ],
                [
                    -91.525398,
                    41.510513
                ],
                [
                    -91.535896,
                    41.511013
                ],
                [
                    -91.609695,
                    41.510914
                ],
                [
                    -91.625198,
                    41.510712
                ],
                [
                    -91.641594,
                    41.510712
                ],
                [
                    -91.713799,
                    41.511211
                ],
                [
                    -91.732895,
                    41.511211
                ],
                [
                    -91.767998,
                    41.511612
                ],
                [
                    -91.829399,
                    41.511414
                ],
                [
                    -91.829094,
                    41.525913
                ],
                [
                    -91.828094,
                    41.554813
                ],
                [
                    -91.827896,
                    41.569412
                ],
                [
                    -91.8274,
                    41.583511
                ],
                [
                    -91.827095,
                    41.599213
                ],
                [
                    -91.830299,
                    41.600513
                ],
                [
                    -91.832596,
                    41.60041
                ],
                [
                    -91.833099,
                    41.602711
                ],
                [
                    -91.833099,
                    41.630314
                ],
                [
                    -91.834,
                    41.687412
                ],
                [
                    -91.833893,
                    41.715714
                ],
                [
                    -91.832298,
                    41.753914
                ],
                [
                    -91.8312,
                    41.803612
                ],
                [
                    -91.8312,
                    41.832512
                ],
                [
                    -91.831596,
                    41.858212
                ],
                [
                    -91.8312,
                    41.862011
                ],
                [
                    -91.827095,
                    41.861813
                ],
                [
                    -91.743996,
                    41.862011
                ],
                [
                    -91.695297,
                    41.861912
                ],
                [
                    -91.5979,
                    41.860611
                ],
                [
                    -91.530693,
                    41.860111
                ],
                [
                    -91.503998,
                    41.860111
                ],
                [
                    -91.493599,
                    41.859913
                ],
                [
                    -91.366096,
                    41.860012
                ]
            ]
        ]
    },
    "properties": {
        "@id": "https://api.weather.gov/zones/forecast/IAZ064",
        "@type": "wx:Zone",
        "id": "IAZ064",
        "type": "public",
        "name": "Johnson",
        "effectiveDate": "2026-04-16T18:00:00+00:00",
        "expirationDate": "2200-01-01T00:00:00+00:00",
        "state": "IA",
        "forecastOffice": "https://api.weather.gov/offices/DVN",
        "gridIdentifier": "DVN",
        "awipsLocationIdentifier": "DVN",
        "cwa": [
            "DVN"
        ],
        "forecastOffices": [
            "https://api.weather.gov/offices/DVN"
        ],
        "timeZone": [
            "America/Chicago"
        ],
        "observationStations": [
            "https://api.weather.gov/stations/KCID",
            "https://api.weather.gov/stations/KAWG",
            "https://api.weather.gov/stations/KIOW",
            "https://api.weather.gov/stations/KMUT"
        ],
        "radarStation": "DVN"
    }
}