{
    "@context": {
        "@version": "1.1"
    },
    "id": "https://api.weather.gov/zones/forecast/FLZ009",
    "type": "Feature",
    "geometry": {
        "type": "Polygon",
        "coordinates": [
            [
                [
                    -85.499054,
                    30.996517
                ],
                [
                    -85.499855,
                    30.994312
                ],
                [
                    -85.504051,
                    30.990112
                ],
                [
                    -85.506554,
                    30.988012
                ],
                [
                    -85.51355,
                    30.983711
                ],
                [
                    -85.518349,
                    30.978811
                ],
                [
                    -85.523643,
                    30.975416
                ],
                [
                    -85.526749,
                    30.975512
                ],
                [
                    -85.52935,
                    30.974012
                ],
                [
                    -85.530655,
                    30.971611
                ],
                [
                    -85.532249,
                    30.962313
                ],
                [
                    -85.532349,
                    30.958612
                ],
                [
                    -85.530853,
                    30.953712
                ],
                [
                    -85.530655,
                    30.950012
                ],
                [
                    -85.53125,
                    30.946411
                ],
                [
                    -85.531654,
                    30.941912
                ],
                [
                    -85.531052,
                    30.939411
                ],
                [
                    -85.535454,
                    30.935612
                ],
                [
                    -85.539749,
                    30.933912
                ],
                [
                    -85.54705,
                    30.932312
                ],
                [
                    -85.550751,
                    30.929111
                ],
                [
                    -85.553551,
                    30.925812
                ],
                [
                    -85.555649,
                    30.921312
                ],
                [
                    -85.556953,
                    30.918913
                ],
                [
                    -85.558151,
                    30.915913
                ],
                [
                    -85.560555,
                    30.913513
                ],
                [
                    -85.564354,
                    30.910912
                ],
                [
                    -85.565849,
                    30.908213
                ],
                [
                    -85.567955,
                    30.905312
                ],
                [
                    -85.569954,
                    30.904411
                ],
                [
                    -85.571655,
                    30.901512
                ],
                [
                    -85.57505,
                    30.899212
                ],
                [
                    -85.575951,
                    30.896912
                ],
                [
                    -85.577049,
                    30.894913
                ],
                [
                    -85.578156,
                    30.892313
                ],
                [
                    -85.580154,
                    30.888813
                ],
                [
                    -85.582649,
                    30.885511
                ],
                [
                    -85.583549,
                    30.881712
                ],
                [
                    -85.584251,
                    30.876413
                ],
                [
                    -85.585655,
                    30.873112
                ],
                [
                    -85.587051,
                    30.871311
                ],
                [
                    -85.587753,
                    30.868711
                ],
                [
                    -85.592155,
                    30.864712
                ],
                [
                    -85.59375,
                    30.861513
                ],
                [
                    -85.595856,
                    30.854813
                ],
                [
                    -85.596352,
                    30.851212
                ],
                [
                    -85.59745,
                    30.848112
                ],
                [
                    -85.598953,
                    30.845713
                ],
                [
                    -85.599754,
                    30.843412
                ],
                [
                    -85.599052,
                    30.840313
                ],
                [
                    -85.600151,
                    30.833212
                ],
                [
                    -85.599449,
                    30.829712
                ],
                [
                    -85.599297,
                    30.829718
                ],
                [
                    -85.599497,
                    30.825913
                ],
                [
                    -85.599397,
                    30.822513
                ],
                [
                    -85.598801,
                    30.819113
                ],
                [
                    -85.599397,
                    30.813913
                ],
                [
                    -85.599998,
                    30.810211
                ],
                [
                    -85.601497,
                    30.806913
                ],
                [
                    -85.602097,
                    30.804113
                ],
                [
                    -85.602497,
                    30.800913
                ],
                [
                    -85.603197,
                    30.797913
                ],
                [
                    -85.604297,
                    30.795313
                ],
                [
                    -85.606197,
                    30.793413
                ],
                [
                    -85.610199,
                    30.788412
                ],
                [
                    -85.615197,
                    30.780613
                ],
                [
                    -85.615898,
                    30.777712
                ],
                [
                    -85.617599,
                    30.775013
                ],
                [
                    -85.620499,
                    30.771511
                ],
                [
                    -85.620499,
                    30.764812
                ],
                [
                    -85.619698,
                    30.762213
                ],
                [
                    -85.621201,
                    30.757013
                ],
                [
                    -85.620598,
                    30.754911
                ],
                [
                    -85.619097,
                    30.752613
                ],
                [
                    -85.619297,
                    30.746713
                ],
                [
                    -85.618897,
                    30.743813
                ],
                [
                    -85.633195,
                    30.744413
                ],
                [
                    -85.663895,
                    30.744613
                ],
                [
                    -85.691995,
                    30.745013
                ],
                [
                    -85.719095,
                    30.745813
                ],
                [
                    -85.728996,
                    30.746313
                ],
                [
                    -85.735395,
                    30.746413
                ],
                [
                    -85.735794,
                    30.749811
                ],
                [
                    -85.735395,
                    30.753313
                ],
                [
                    -85.735095,
                    30.774012
                ],
                [
                    -85.738295,
                    30.775413
                ],
                [
                    -85.751895,
                    30.775713
                ],
                [
                    -85.751895,
                    30.789713
                ],
                [
                    -85.756195,
                    30.789913
                ],
                [
                    -85.814395,
                    30.790713
                ],
                [
                    -85.817697,
                    30.790713
                ],
                [
                    -85.820797,
                    30.790513
                ],
                [
                    -85.817101,
                    30.783812
                ],
                [
                    -85.819,
                    30.780212
                ],
                [
                    -85.8228,
                    30.779013
                ],
                [
                    -85.824797,
                    30.777813
                ],
                [
                    -85.827197,
                    30.776013
                ],
                [
                    -85.829097,
                    30.772113
                ],
                [
                    -85.830299,
                    30.768713
                ],
                [
                    -85.830498,
                    30.766413
                ],
                [
                    -85.829897,
                    30.764112
                ],
                [
                    -85.828697,
                    30.761612
                ],
                [
                    -85.831597,
                    30.760213
                ],
                [
                    -85.831398,
                    30.757011
                ],
                [
                    -85.828194,
                    30.752811
                ],
                [
                    -85.830894,
                    30.751713
                ],
                [
                    -85.832794,
                    30.749912
                ],
                [
                    -85.830994,
                    30.748512
                ],
                [
                    -85.827896,
                    30.747011
                ],
                [
                    -85.825294,
                    30.743612
                ],
                [
                    -85.829094,
                    30.741512
                ],
                [
                    -85.8265,
                    30.739012
                ],
                [
                    -85.8237,
                    30.738811
                ],
                [
                    -85.8237,
                    30.736012
                ],
                [
                    -85.827599,
                    30.731712
                ],
                [
                    -85.828094,
                    30.729212
                ],
                [
                    -85.825996,
                    30.726612
                ],
                [
                    -85.829193,
                    30.724512
                ],
                [
                    -85.833,
                    30.723812
                ],
                [
                    -85.834198,
                    30.720912
                ],
                [
                    -85.837494,
                    30.718311
                ],
                [
                    -85.839096,
                    30.715313
                ],
                [
                    -85.837097,
                    30.713112
                ],
                [
                    -85.835801,
                    30.711213
                ],
                [
                    -85.839395,
                    30.711413
                ],
                [
                    -85.842797,
                    30.709813
                ],
                [
                    -85.844398,
                    30.707912
                ],
                [
                    -85.844795,
                    30.703313
                ],
                [
                    -85.847893,
                    30.702013
                ],
                [
                    -85.8507,
                    30.701912
                ],
                [
                    -85.8592,
                    30.703012
                ],
                [
                    -85.872398,
                    30.703312
                ],
                [
                    -85.922394,
                    30.703413
                ],
                [
                    -85.992699,
                    30.704012
                ],
                [
                    -85.999893,
                    30.704412
                ],
                [
                    -86.030197,
                    30.704512
                ],
                [
                    -86.037598,
                    30.705412
                ],
                [
                    -86.0373,
                    30.758713
                ],
                [
                    -86.037796,
                    30.789312
                ],
                [
                    -86.0373,
                    30.809313
                ],
                [
                    -86.037193,
                    30.832512
                ],
                [
                    -86.036499,
                    30.860912
                ],
                [
                    -86.036293,
                    30.879812
                ],
                [
                    -86.035698,
                    30.909813
                ],
                [
                    -86.035095,
                    30.990513
                ],
                [
                    -86.035599,
                    30.993212
                ],
                [
                    -86.024696,
                    30.993313
                ],
                [
                    -85.998596,
                    30.993011
                ],
                [
                    -85.962494,
                    30.993011
                ],
                [
                    -85.874893,
                    30.993612
                ],
                [
                    -85.870796,
                    30.993813
                ],
                [
                    -85.759995,
                    30.994713
                ],
                [
                    -85.752594,
                    30.994812
                ],
                [
                    -85.749695,
                    30.995111
                ],
                [
                    -85.741798,
                    30.995312
                ],
                [
                    -85.568497,
                    30.996212
                ],
                [
                    -85.538094,
                    30.996511
                ],
                [
                    -85.532898,
                    30.996712
                ],
                [
                    -85.514297,
                    30.996813
                ],
                [
                    -85.508499,
                    30.996813
                ],
                [
                    -85.499054,
                    30.996517
                ]
            ]
        ]
    },
    "properties": {
        "@id": "https://api.weather.gov/zones/forecast/FLZ009",
        "@type": "wx:Zone",
        "id": "FLZ009",
        "type": "public",
        "name": "Holmes",
        "effectiveDate": "2026-04-16T18:00:00+00:00",
        "expirationDate": "2200-01-01T00:00:00+00:00",
        "state": "FL",
        "forecastOffice": "https://api.weather.gov/offices/TAE",
        "gridIdentifier": "TAE",
        "awipsLocationIdentifier": "TAE",
        "cwa": [
            "TAE"
        ],
        "forecastOffices": [
            "https://api.weather.gov/offices/TAE"
        ],
        "timeZone": [
            "America/Chicago"
        ],
        "observationStations": [
            "https://api.weather.gov/stations/KMAI",
            "https://api.weather.gov/stations/K79J",
            "https://api.weather.gov/stations/KCEW",
            "https://api.weather.gov/stations/KDHN",
            "https://api.weather.gov/stations/KDTS",
            "https://api.weather.gov/stations/KECP",
            "https://api.weather.gov/stations/KGZH",
            "https://api.weather.gov/stations/KHEY",
            "https://api.weather.gov/stations/KLOR",
            "https://api.weather.gov/stations/KOZR",
            "https://api.weather.gov/stations/KPAM"
        ],
        "radarStation": "EVX"
    }
}