{
    "@context": {
        "@version": "1.1"
    },
    "id": "https://api.weather.gov/zones/forecast/MAZ018",
    "type": "Feature",
    "geometry": {
        "type": "Polygon",
        "coordinates": [
            [
                [
                    -70.8853,
                    42.15731
                ],
                [
                    -70.8834,
                    42.15361
                ],
                [
                    -70.849998,
                    42.158012
                ],
                [
                    -70.846893,
                    42.157112
                ],
                [
                    -70.844696,
                    42.153713
                ],
                [
                    -70.8424,
                    42.151512
                ],
                [
                    -70.838295,
                    42.146511
                ],
                [
                    -70.836395,
                    42.141411
                ],
                [
                    -70.834999,
                    42.139214
                ],
                [
                    -70.834099,
                    42.136013
                ],
                [
                    -70.831398,
                    42.132813
                ],
                [
                    -70.827896,
                    42.132313
                ],
                [
                    -70.824593,
                    42.132313
                ],
                [
                    -70.820099,
                    42.132813
                ],
                [
                    -70.816597,
                    42.130913
                ],
                [
                    -70.814796,
                    42.128014
                ],
                [
                    -70.812096,
                    42.126911
                ],
                [
                    -70.809395,
                    42.124714
                ],
                [
                    -70.808395,
                    42.121113
                ],
                [
                    -70.809395,
                    42.118111
                ],
                [
                    -70.807793,
                    42.115013
                ],
                [
                    -70.804199,
                    42.113113
                ],
                [
                    -70.800697,
                    42.109711
                ],
                [
                    -70.798897,
                    42.112312
                ],
                [
                    -70.790894,
                    42.107811
                ],
                [
                    -70.788895,
                    42.110912
                ],
                [
                    -70.7864,
                    42.111511
                ],
                [
                    -70.783295,
                    42.111912
                ],
                [
                    -70.782295,
                    42.115612
                ],
                [
                    -70.777496,
                    42.116512
                ],
                [
                    -70.776199,
                    42.114212
                ],
                [
                    -70.773697,
                    42.11301
                ],
                [
                    -70.766998,
                    42.113312
                ],
                [
                    -70.766396,
                    42.109913
                ],
                [
                    -70.7631,
                    42.109711
                ],
                [
                    -70.7603,
                    42.108513
                ],
                [
                    -70.761894,
                    42.103714
                ],
                [
                    -70.758698,
                    42.101212
                ],
                [
                    -70.753098,
                    42.098713
                ],
                [
                    -70.750496,
                    42.096512
                ],
                [
                    -70.760895,
                    42.078812
                ],
                [
                    -70.781197,
                    42.046513
                ],
                [
                    -70.7677,
                    42.044411
                ],
                [
                    -70.763298,
                    42.037712
                ],
                [
                    -70.759598,
                    42.034313
                ],
                [
                    -70.760994,
                    42.031811
                ],
                [
                    -70.764694,
                    42.031212
                ],
                [
                    -70.767395,
                    42.027611
                ],
                [
                    -70.770699,
                    42.022411
                ],
                [
                    -70.776794,
                    42.023113
                ],
                [
                    -70.7967,
                    42.020512
                ],
                [
                    -70.8004,
                    42.016113
                ],
                [
                    -70.799194,
                    42.013512
                ],
                [
                    -70.795799,
                    42.004013
                ],
                [
                    -70.793198,
                    41.995712
                ],
                [
                    -70.789993,
                    41.987114
                ],
                [
                    -70.786293,
                    41.978313
                ],
                [
                    -70.7789,
                    41.974113
                ],
                [
                    -70.765297,
                    41.967113
                ],
                [
                    -70.762093,
                    41.958813
                ],
                [
                    -70.756599,
                    41.942711
                ],
                [
                    -70.750694,
                    41.926613
                ],
                [
                    -70.7481,
                    41.923111
                ],
                [
                    -70.742599,
                    41.917213
                ],
                [
                    -70.740494,
                    41.915211
                ],
                [
                    -70.736298,
                    41.909412
                ],
                [
                    -70.733994,
                    41.906712
                ],
                [
                    -70.731094,
                    41.903812
                ],
                [
                    -70.721794,
                    41.892811
                ],
                [
                    -70.715797,
                    41.886112
                ],
                [
                    -70.709198,
                    41.877811
                ],
                [
                    -70.706093,
                    41.874714
                ],
                [
                    -70.702393,
                    41.870312
                ],
                [
                    -70.698898,
                    41.866512
                ],
                [
                    -70.686394,
                    41.852211
                ],
                [
                    -70.683998,
                    41.849312
                ],
                [
                    -70.681496,
                    41.845814
                ],
                [
                    -70.684196,
                    41.844513
                ],
                [
                    -70.686996,
                    41.84201
                ],
                [
                    -70.691299,
                    41.837513
                ],
                [
                    -70.693398,
                    41.836212
                ],
                [
                    -70.694595,
                    41.834312
                ],
                [
                    -70.6959,
                    41.831814
                ],
                [
                    -70.6977,
                    41.829811
                ],
                [
                    -70.700294,
                    41.829014
                ],
                [
                    -70.705399,
                    41.829311
                ],
                [
                    -70.706993,
                    41.828312
                ],
                [
                    -70.709198,
                    41.823212
                ],
                [
                    -70.710999,
                    41.821613
                ],
                [
                    -70.714294,
                    41.817413
                ],
                [
                    -70.716293,
                    41.811512
                ],
                [
                    -70.717697,
                    41.806412
                ],
                [
                    -70.7174,
                    41.80331
                ],
                [
                    -70.724899,
                    41.801113
                ],
                [
                    -70.737999,
                    41.80051
                ],
                [
                    -70.741196,
                    41.800613
                ],
                [
                    -70.749596,
                    41.807812
                ],
                [
                    -70.765793,
                    41.822113
                ],
                [
                    -70.768196,
                    41.823414
                ],
                [
                    -70.767899,
                    41.820812
                ],
                [
                    -70.763199,
                    41.81031
                ],
                [
                    -70.767296,
                    41.809414
                ],
                [
                    -70.775398,
                    41.808613
                ],
                [
                    -70.801796,
                    41.805511
                ],
                [
                    -70.868294,
                    41.797512
                ],
                [
                    -70.874596,
                    41.797012
                ],
                [
                    -70.908295,
                    41.792713
                ],
                [
                    -70.921898,
                    41.790813
                ],
                [
                    -70.961594,
                    41.786114
                ],
                [
                    -70.988495,
                    41.78371
                ],
                [
                    -71.026993,
                    41.779213
                ],
                [
                    -71.015198,
                    41.799313
                ],
                [
                    -71.036812,
                    41.815905
                ],
                [
                    -71.010796,
                    41.835812
                ],
                [
                    -71.005898,
                    41.839714
                ],
                [
                    -70.987495,
                    41.852512
                ],
                [
                    -70.982399,
                    41.855812
                ],
                [
                    -70.977798,
                    41.857914
                ],
                [
                    -70.973801,
                    41.861412
                ],
                [
                    -70.977394,
                    41.875912
                ],
                [
                    -70.9795,
                    41.88261
                ],
                [
                    -70.980995,
                    41.886414
                ],
                [
                    -70.983597,
                    41.894814
                ],
                [
                    -70.986099,
                    41.902214
                ],
                [
                    -70.987694,
                    41.906113
                ],
                [
                    -70.990898,
                    41.906013
                ],
                [
                    -70.993401,
                    41.906811
                ],
                [
                    -70.992493,
                    41.909714
                ],
                [
                    -70.992897,
                    41.913513
                ],
                [
                    -70.9935,
                    41.915813
                ],
                [
                    -70.996597,
                    41.916813
                ],
                [
                    -70.996597,
                    41.920914
                ],
                [
                    -70.996094,
                    41.925011
                ],
                [
                    -70.997093,
                    41.927513
                ],
                [
                    -70.999695,
                    41.928913
                ],
                [
                    -71.011192,
                    41.940113
                ],
                [
                    -71.020599,
                    41.945812
                ],
                [
                    -71.025093,
                    41.948811
                ],
                [
                    -71.043198,
                    41.959812
                ],
                [
                    -71.046593,
                    41.961014
                ],
                [
                    -71.048897,
                    41.962811
                ],
                [
                    -71.050194,
                    41.964211
                ],
                [
                    -71.050896,
                    41.966412
                ],
                [
                    -71.055397,
                    41.985413
                ],
                [
                    -71.054298,
                    41.98801
                ],
                [
                    -71.060493,
                    42.011112
                ],
                [
                    -71.063797,
                    42.024712
                ],
                [
                    -71.066399,
                    42.03651
                ],
                [
                    -71.070999,
                    42.055511
                ],
                [
                    -71.073898,
                    42.069012
                ],
                [
                    -71.078697,
                    42.089314
                ],
                [
                    -71.079697,
                    42.095913
                ],
                [
                    -71.075897,
                    42.097313
                ],
                [
                    -71.067696,
                    42.101212
                ],
                [
                    -71.063095,
                    42.103012
                ],
                [
                    -71.049194,
                    42.108212
                ],
                [
                    -71.022301,
                    42.118614
                ],
                [
                    -71.016197,
                    42.120712
                ],
                [
                    -71.011696,
                    42.122711
                ],
                [
                    -71.006996,
                    42.124512
                ],
                [
                    -70.999496,
                    42.128113
                ],
                [
                    -70.991493,
                    42.131111
                ],
                [
                    -70.980904,
                    42.13541
                ],
                [
                    -70.967796,
                    42.140713
                ],
                [
                    -70.960297,
                    42.143414
                ],
                [
                    -70.925095,
                    42.15731
                ],
                [
                    -70.912697,
                    42.162014
                ],
                [
                    -70.892998,
                    42.169811
                ],
                [
                    -70.890198,
                    42.171612
                ],
                [
                    -70.8853,
                    42.15731
                ]
            ]
        ]
    },
    "properties": {
        "@id": "https://api.weather.gov/zones/forecast/MAZ018",
        "@type": "wx:Zone",
        "id": "MAZ018",
        "type": "public",
        "name": "Western Plymouth",
        "effectiveDate": "2026-04-16T18:00:00+00:00",
        "expirationDate": "2200-01-01T00:00:00+00:00",
        "state": "MA",
        "forecastOffice": "https://api.weather.gov/offices/BOX",
        "gridIdentifier": "BOX",
        "awipsLocationIdentifier": "BOX",
        "cwa": [
            "BOX"
        ],
        "forecastOffices": [
            "https://api.weather.gov/offices/BOX"
        ],
        "timeZone": [
            "America/New_York"
        ],
        "observationStations": [
            "https://api.weather.gov/stations/KTAN",
            "https://api.weather.gov/stations/KEWB",
            "https://api.weather.gov/stations/KMQE",
            "https://api.weather.gov/stations/KOWD",
            "https://api.weather.gov/stations/KPYM"
        ],
        "radarStation": "BOX"
    }
}