{
    "@context": {
        "@version": "1.1"
    },
    "id": "https://api.weather.gov/zones/forecast/UTZ124",
    "type": "Feature",
    "geometry": {
        "type": "Polygon",
        "coordinates": [
            [
                [
                    -113.144966,
                    37.50238
                ],
                [
                    -113.146683,
                    37.466499
                ],
                [
                    -113.145088,
                    37.44524
                ],
                [
                    -113.09214,
                    37.445175
                ],
                [
                    -113.091805,
                    37.373165
                ],
                [
                    -113.055923,
                    37.373051
                ],
                [
                    -113.055901,
                    37.380428
                ],
                [
                    -113.047012,
                    37.380367
                ],
                [
                    -113.047081,
                    37.387711
                ],
                [
                    -113.042168,
                    37.387623
                ],
                [
                    -113.042107,
                    37.391129
                ],
                [
                    -113.037941,
                    37.391167
                ],
                [
                    -113.037956,
                    37.398891
                ],
                [
                    -113.032234,
                    37.398903
                ],
                [
                    -113.031258,
                    37.397987
                ],
                [
                    -113.029968,
                    37.397327
                ],
                [
                    -113.02961,
                    37.395493
                ],
                [
                    -113.028191,
                    37.394753
                ],
                [
                    -113.02774,
                    37.394318
                ],
                [
                    -113.025284,
                    37.393703
                ],
                [
                    -113.023285,
                    37.394085
                ],
                [
                    -113.022476,
                    37.394653
                ],
                [
                    -113.020439,
                    37.394905
                ],
                [
                    -113.019394,
                    37.3946
                ],
                [
                    -113.018837,
                    37.394699
                ],
                [
                    -113.018265,
                    37.395782
                ],
                [
                    -113.017296,
                    37.396248
                ],
                [
                    -113.016853,
                    37.396885
                ],
                [
                    -113.015625,
                    37.397057
                ],
                [
                    -113.014809,
                    37.398087
                ],
                [
                    -113.010857,
                    37.398293
                ],
                [
                    -113.006836,
                    37.397423
                ],
                [
                    -113.005241,
                    37.396542
                ],
                [
                    -113.004623,
                    37.395267
                ],
                [
                    -113.003578,
                    37.394852
                ],
                [
                    -113.000893,
                    37.394833
                ],
                [
                    -113.000854,
                    37.371429
                ],
                [
                    -112.900957,
                    37.372187
                ],
                [
                    -112.900697,
                    37.370512
                ],
                [
                    -112.901097,
                    37.313012
                ],
                [
                    -112.901397,
                    37.296412
                ],
                [
                    -112.901297,
                    37.287012
                ],
                [
                    -112.900797,
                    37.281412
                ],
                [
                    -112.900297,
                    37.278512
                ],
                [
                    -112.900245,
                    37.266717
                ],
                [
                    -112.882431,
                    37.266601
                ],
                [
                    -112.882173,
                    37.252371
                ],
                [
                    -112.864328,
                    37.252116
                ],
                [
                    -112.864537,
                    37.151423
                ],
                [
                    -112.90294,
                    37.151044
                ],
                [
                    -112.902725,
                    37.141907
                ],
                [
                    -112.97126,
                    37.142091
                ],
                [
                    -112.98083,
                    37.129292
                ],
                [
                    -112.988791,
                    37.123308
                ],
                [
                    -112.993053,
                    37.131037
                ],
                [
                    -112.998144,
                    37.139401
                ],
                [
                    -113.012941,
                    37.146301
                ],
                [
                    -113.029812,
                    37.139513
                ],
                [
                    -113.023077,
                    37.130528
                ],
                [
                    -113.031001,
                    37.123243
                ],
                [
                    -113.04229,
                    37.120448
                ],
                [
                    -113.052908,
                    37.122865
                ],
                [
                    -113.067742,
                    37.131057
                ],
                [
                    -113.083338,
                    37.137284
                ],
                [
                    -113.106222,
                    37.14273
                ],
                [
                    -113.123409,
                    37.147623
                ],
                [
                    -113.134954,
                    37.153915
                ],
                [
                    -113.148088,
                    37.158878
                ],
                [
                    -113.157146,
                    37.163263
                ],
                [
                    -113.169303,
                    37.162391
                ],
                [
                    -113.183783,
                    37.157575
                ],
                [
                    -113.198374,
                    37.156655
                ],
                [
                    -113.221138,
                    37.157531
                ],
                [
                    -113.232559,
                    37.159266
                ],
                [
                    -113.255891,
                    37.227025
                ],
                [
                    -113.27042,
                    37.275729
                ],
                [
                    -113.276953,
                    37.279991
                ],
                [
                    -113.280386,
                    37.287602
                ],
                [
                    -113.280387,
                    37.287968
                ],
                [
                    -113.279692,
                    37.294928
                ],
                [
                    -113.275764,
                    37.301584
                ],
                [
                    -113.27044,
                    37.307171
                ],
                [
                    -113.269286,
                    37.314139
                ],
                [
                    -113.268089,
                    37.320012
                ],
                [
                    -113.26513,
                    37.328478
                ],
                [
                    -113.263922,
                    37.333985
                ],
                [
                    -113.259466,
                    37.338092
                ],
                [
                    -113.255544,
                    37.344748
                ],
                [
                    -113.250249,
                    37.35143
                ],
                [
                    -113.247753,
                    37.359886
                ],
                [
                    -113.243448,
                    37.369108
                ],
                [
                    -113.229529,
                    37.380928
                ],
                [
                    -113.220062,
                    37.391344
                ],
                [
                    -113.219188,
                    37.401721
                ],
                [
                    -113.221607,
                    37.422635
                ],
                [
                    -113.217766,
                    37.438015
                ],
                [
                    -113.217911,
                    37.452194
                ],
                [
                    -113.227606,
                    37.452277
                ],
                [
                    -113.223595,
                    37.467188
                ],
                [
                    -113.217789,
                    37.467197
                ],
                [
                    -113.217819,
                    37.466621
                ],
                [
                    -113.208633,
                    37.466583
                ],
                [
                    -113.208513,
                    37.481312
                ],
                [
                    -113.199046,
                    37.481153
                ],
                [
                    -113.198883,
                    37.504345
                ],
                [
                    -113.193122,
                    37.504327
                ],
                [
                    -113.180603,
                    37.504288
                ],
                [
                    -113.180611,
                    37.502464
                ],
                [
                    -113.144966,
                    37.50238
                ]
            ]
        ]
    },
    "properties": {
        "@id": "https://api.weather.gov/zones/forecast/UTZ124",
        "@type": "wx:Zone",
        "id": "UTZ124",
        "type": "public",
        "name": "Zion National Park",
        "effectiveDate": "2026-04-16T18:00:00+00:00",
        "expirationDate": "2200-01-01T00:00:00+00:00",
        "state": "UT",
        "forecastOffice": "https://api.weather.gov/offices/SLC",
        "gridIdentifier": "SLC",
        "awipsLocationIdentifier": "SLC",
        "cwa": [
            "SLC"
        ],
        "forecastOffices": [
            "https://api.weather.gov/offices/SLC"
        ],
        "timeZone": [
            "America/Denver"
        ],
        "observationStations": [
            "https://api.weather.gov/stations/ZIOU1",
            "https://api.weather.gov/stations/ZNP"
        ],
        "radarStation": null
    }
}