{
    "@context": {
        "@version": "1.1"
    },
    "id": "https://api.weather.gov/zones/forecast/AZZ501",
    "type": "Feature",
    "geometry": {
        "type": "Polygon",
        "coordinates": [
            [
                [
                    -112.602592,
                    32.505211
                ],
                [
                    -112.580299,
                    32.505512
                ],
                [
                    -112.5784,
                    32.505211
                ],
                [
                    -112.572495,
                    32.505211
                ],
                [
                    -112.570801,
                    32.419678
                ],
                [
                    -112.672424,
                    32.420471
                ],
                [
                    -112.67218,
                    32.33313
                ],
                [
                    -112.725891,
                    32.332703
                ],
                [
                    -112.725708,
                    32.260681
                ],
                [
                    -112.725098,
                    32.2453
                ],
                [
                    -112.725403,
                    32.158081
                ],
                [
                    -112.666382,
                    32.158508
                ],
                [
                    -112.667786,
                    32.129883
                ],
                [
                    -112.668823,
                    32.1203
                ],
                [
                    -112.675781,
                    32.108887
                ],
                [
                    -112.690308,
                    32.103271
                ],
                [
                    -112.695679,
                    32.096497
                ],
                [
                    -112.695496,
                    32.08551
                ],
                [
                    -112.701416,
                    32.076294
                ],
                [
                    -112.699707,
                    32.071716
                ],
                [
                    -112.699219,
                    32.066284
                ],
                [
                    -112.695312,
                    32.058472
                ],
                [
                    -112.687195,
                    32.051331
                ],
                [
                    -112.685913,
                    32.042725
                ],
                [
                    -112.688599,
                    32.031677
                ],
                [
                    -112.6875,
                    32.02533
                ],
                [
                    -112.677612,
                    32.014526
                ],
                [
                    -112.667297,
                    32.009888
                ],
                [
                    -112.656982,
                    32.002686
                ],
                [
                    -112.656006,
                    31.996094
                ],
                [
                    -112.659607,
                    31.987671
                ],
                [
                    -112.660095,
                    31.976685
                ],
                [
                    -112.651611,
                    31.948486
                ],
                [
                    -112.648376,
                    31.944275
                ],
                [
                    -112.624023,
                    31.926697
                ],
                [
                    -112.622192,
                    31.895691
                ],
                [
                    -112.606506,
                    31.895325
                ],
                [
                    -112.605713,
                    31.866699
                ],
                [
                    -112.605713,
                    31.857483
                ],
                [
                    -112.604309,
                    31.815491
                ],
                [
                    -112.603973,
                    31.815386
                ],
                [
                    -112.604408,
                    31.814873
                ],
                [
                    -112.724693,
                    31.851713
                ],
                [
                    -112.800194,
                    31.875113
                ],
                [
                    -112.831397,
                    31.884512
                ],
                [
                    -112.867097,
                    31.895512
                ],
                [
                    -113.000897,
                    31.935312
                ],
                [
                    -113.125997,
                    31.972812
                ],
                [
                    -113.211496,
                    32.000012
                ],
                [
                    -113.217297,
                    32.002112
                ],
                [
                    -113.250694,
                    32.012413
                ],
                [
                    -113.316895,
                    32.033413
                ],
                [
                    -113.333749,
                    32.039694
                ],
                [
                    -113.333694,
                    32.072311
                ],
                [
                    -113.334,
                    32.149414
                ],
                [
                    -113.333794,
                    32.167912
                ],
                [
                    -113.334,
                    32.173214
                ],
                [
                    -113.334099,
                    32.188011
                ],
                [
                    -113.333893,
                    32.250011
                ],
                [
                    -113.334,
                    32.340611
                ],
                [
                    -113.333893,
                    32.357113
                ],
                [
                    -113.334099,
                    32.375011
                ],
                [
                    -113.333893,
                    32.400612
                ],
                [
                    -113.333794,
                    32.453911
                ],
                [
                    -113.334,
                    32.486012
                ],
                [
                    -113.333794,
                    32.495411
                ],
                [
                    -113.333893,
                    32.504913
                ],
                [
                    -113.299294,
                    32.505112
                ],
                [
                    -113.272194,
                    32.505013
                ],
                [
                    -113.2118,
                    32.505314
                ],
                [
                    -113.145552,
                    32.505211
                ],
                [
                    -113.125694,
                    32.505314
                ],
                [
                    -113.069,
                    32.505112
                ],
                [
                    -112.895393,
                    32.505413
                ],
                [
                    -112.818398,
                    32.505314
                ],
                [
                    -112.700294,
                    32.505611
                ],
                [
                    -112.602592,
                    32.505211
                ]
            ]
        ]
    },
    "properties": {
        "@id": "https://api.weather.gov/zones/forecast/AZZ501",
        "@type": "wx:Zone",
        "id": "AZZ501",
        "type": "public",
        "name": "Western Pima County Including Ajo/Organ Pipe Cactus National Monument",
        "effectiveDate": "2026-04-16T18:00:00+00:00",
        "expirationDate": "2200-01-01T00:00:00+00:00",
        "state": "AZ",
        "forecastOffice": "https://api.weather.gov/offices/TWC",
        "gridIdentifier": "TWC",
        "awipsLocationIdentifier": "TWC",
        "cwa": [
            "TWC"
        ],
        "forecastOffices": [
            "https://api.weather.gov/offices/TWC"
        ],
        "timeZone": [
            "America/Phoenix"
        ],
        "observationStations": [
            "https://api.weather.gov/stations/A1341",
            "https://api.weather.gov/stations/BRG2",
            "https://api.weather.gov/stations/DOBUL",
            "https://api.weather.gov/stations/DOEAR",
            "https://api.weather.gov/stations/E3310",
            "https://api.weather.gov/stations/OPCA3"
        ],
        "radarStation": null
    }
}