{
    "@context": {
        "@version": "1.1"
    },
    "id": "https://api.weather.gov/zones/forecast/KYZ119",
    "type": "Feature",
    "geometry": {
        "type": "Polygon",
        "coordinates": [
            [
                [
                    -82.497597,
                    37.945812
                ],
                [
                    -82.496696,
                    37.942513
                ],
                [
                    -82.489296,
                    37.938011
                ],
                [
                    -82.491394,
                    37.935814
                ],
                [
                    -82.494095,
                    37.936512
                ],
                [
                    -82.496796,
                    37.93671
                ],
                [
                    -82.499893,
                    37.93671
                ],
                [
                    -82.501694,
                    37.933811
                ],
                [
                    -82.499794,
                    37.930412
                ],
                [
                    -82.496696,
                    37.927513
                ],
                [
                    -82.489899,
                    37.927113
                ],
                [
                    -82.487396,
                    37.927212
                ],
                [
                    -82.482399,
                    37.926811
                ],
                [
                    -82.480698,
                    37.925213
                ],
                [
                    -82.483894,
                    37.922512
                ],
                [
                    -82.487595,
                    37.919014
                ],
                [
                    -82.484299,
                    37.916313
                ],
                [
                    -82.479599,
                    37.91481
                ],
                [
                    -82.476593,
                    37.913013
                ],
                [
                    -82.475098,
                    37.911114
                ],
                [
                    -82.474495,
                    37.907013
                ],
                [
                    -82.4758,
                    37.903214
                ],
                [
                    -82.4748,
                    37.900513
                ],
                [
                    -82.471497,
                    37.89941
                ],
                [
                    -82.468895,
                    37.903313
                ],
                [
                    -82.468697,
                    37.90731
                ],
                [
                    -82.468994,
                    37.910912
                ],
                [
                    -82.467697,
                    37.914013
                ],
                [
                    -82.463295,
                    37.914814
                ],
                [
                    -82.461395,
                    37.912811
                ],
                [
                    -82.459999,
                    37.909912
                ],
                [
                    -82.457397,
                    37.909111
                ],
                [
                    -82.454895,
                    37.909111
                ],
                [
                    -82.452095,
                    37.90871
                ],
                [
                    -82.449997,
                    37.90731
                ],
                [
                    -82.447693,
                    37.904613
                ],
                [
                    -82.437897,
                    37.899712
                ],
                [
                    -82.435997,
                    37.897312
                ],
                [
                    -82.434296,
                    37.894611
                ],
                [
                    -82.432693,
                    37.890713
                ],
                [
                    -82.429695,
                    37.888611
                ],
                [
                    -82.423897,
                    37.886711
                ],
                [
                    -82.421799,
                    37.885811
                ],
                [
                    -82.419998,
                    37.884212
                ],
                [
                    -82.419197,
                    37.882111
                ],
                [
                    -82.418999,
                    37.873711
                ],
                [
                    -82.417,
                    37.870113
                ],
                [
                    -82.413696,
                    37.868912
                ],
                [
                    -82.410797,
                    37.868912
                ],
                [
                    -82.408394,
                    37.866913
                ],
                [
                    -82.411697,
                    37.865211
                ],
                [
                    -82.414894,
                    37.865013
                ],
                [
                    -82.418793,
                    37.86441
                ],
                [
                    -82.422798,
                    37.863514
                ],
                [
                    -82.422897,
                    37.86021
                ],
                [
                    -82.4151,
                    37.856213
                ],
                [
                    -82.415497,
                    37.854111
                ],
                [
                    -82.416695,
                    37.852314
                ],
                [
                    -82.419197,
                    37.849113
                ],
                [
                    -82.420097,
                    37.846714
                ],
                [
                    -82.417397,
                    37.845711
                ],
                [
                    -82.412697,
                    37.845112
                ],
                [
                    -82.410995,
                    37.842411
                ],
                [
                    -82.409996,
                    37.839012
                ],
                [
                    -82.408394,
                    37.836113
                ],
                [
                    -82.405396,
                    37.833813
                ],
                [
                    -82.401199,
                    37.830914
                ],
                [
                    -82.399597,
                    37.829514
                ],
                [
                    -82.398796,
                    37.820713
                ],
                [
                    -82.4011,
                    37.815514
                ],
                [
                    -82.401794,
                    37.810814
                ],
                [
                    -82.397797,
                    37.80891
                ],
                [
                    -82.395897,
                    37.809612
                ],
                [
                    -82.391693,
                    37.814011
                ],
                [
                    -82.389694,
                    37.816711
                ],
                [
                    -82.387199,
                    37.818211
                ],
                [
                    -82.384895,
                    37.817013
                ],
                [
                    -82.383194,
                    37.814411
                ],
                [
                    -82.380096,
                    37.811611
                ],
                [
                    -82.378296,
                    37.807613
                ],
                [
                    -82.377197,
                    37.803413
                ],
                [
                    -82.3741,
                    37.802113
                ],
                [
                    -82.369995,
                    37.801712
                ],
                [
                    -82.366997,
                    37.800011
                ],
                [
                    -82.365593,
                    37.798313
                ],
                [
                    -82.364395,
                    37.796112
                ],
                [
                    -82.361794,
                    37.794613
                ],
                [
                    -82.355194,
                    37.79351
                ],
                [
                    -82.353394,
                    37.792511
                ],
                [
                    -82.350899,
                    37.789413
                ],
                [
                    -82.347397,
                    37.786911
                ],
                [
                    -82.3414,
                    37.786213
                ],
                [
                    -82.339294,
                    37.784714
                ],
                [
                    -82.338493,
                    37.779911
                ],
                [
                    -82.338898,
                    37.777313
                ],
                [
                    -82.335999,
                    37.774712
                ],
                [
                    -82.330894,
                    37.775211
                ],
                [
                    -82.325195,
                    37.776012
                ],
                [
                    -82.323395,
                    37.773712
                ],
                [
                    -82.325996,
                    37.771011
                ],
                [
                    -82.332298,
                    37.767712
                ],
                [
                    -82.333595,
                    37.765511
                ],
                [
                    -82.3312,
                    37.763111
                ],
                [
                    -82.328499,
                    37.762314
                ],
                [
                    -82.324295,
                    37.763012
                ],
                [
                    -82.318794,
                    37.76461
                ],
                [
                    -82.312294,
                    37.764511
                ],
                [
                    -82.310997,
                    37.762112
                ],
                [
                    -82.312996,
                    37.760712
                ],
                [
                    -82.316299,
                    37.760014
                ],
                [
                    -82.318497,
                    37.759113
                ],
                [
                    -82.3209,
                    37.755211
                ],
                [
                    -82.321396,
                    37.751614
                ],
                [
                    -82.324493,
                    37.750111
                ],
                [
                    -82.326698,
                    37.749413
                ],
                [
                    -82.328796,
                    37.74781
                ],
                [
                    -82.332199,
                    37.744812
                ],
                [
                    -82.334,
                    37.742012
                ],
                [
                    -82.337296,
                    37.741814
                ],
                [
                    -82.344299,
                    37.74501
                ],
                [
                    -82.346794,
                    37.741112
                ],
                [
                    -82.357597,
                    37.740612
                ],
                [
                    -82.375595,
                    37.739311
                ],
                [
                    -82.374397,
                    37.737114
                ],
                [
                    -82.376297,
                    37.735512
                ],
                [
                    -82.379799,
                    37.73521
                ],
                [
                    -82.384094,
                    37.733414
                ],
                [
                    -82.386497,
                    37.728714
                ],
                [
                    -82.390099,
                    37.728912
                ],
                [
                    -82.393394,
                    37.727314
                ],
                [
                    -82.395996,
                    37.723614
                ],
                [
                    -82.398796,
                    37.721413
                ],
                [
                    -82.400993,
                    37.720112
                ],
                [
                    -82.4049,
                    37.719212
                ],
                [
                    -82.4086,
                    37.716614
                ],
                [
                    -82.410294,
                    37.715214
                ],
                [
                    -82.412498,
                    37.713013
                ],
                [
                    -82.4105,
                    37.709412
                ],
                [
                    -82.4077,
                    37.706612
                ],
                [
                    -82.405098,
                    37.70491
                ],
                [
                    -82.403,
                    37.706814
                ],
                [
                    -82.398796,
                    37.707211
                ],
                [
                    -82.396797,
                    37.704811
                ],
                [
                    -82.394394,
                    37.705013
                ],
                [
                    -82.392494,
                    37.701313
                ],
                [
                    -82.388794,
                    37.700413
                ],
                [
                    -82.386497,
                    37.697411
                ],
                [
                    -82.387199,
                    37.692814
                ],
                [
                    -82.390198,
                    37.68951
                ],
                [
                    -82.392899,
                    37.688911
                ],
                [
                    -82.396599,
                    37.684914
                ],
                [
                    -82.396996,
                    37.682411
                ],
                [
                    -82.3993,
                    37.679913
                ],
                [
                    -82.399994,
                    37.676113
                ],
                [
                    -82.399696,
                    37.673813
                ],
                [
                    -82.402496,
                    37.67271
                ],
                [
                    -82.405296,
                    37.671211
                ],
                [
                    -82.4077,
                    37.67411
                ],
                [
                    -82.409599,
                    37.679314
                ],
                [
                    -82.411797,
                    37.679611
                ],
                [
                    -82.413597,
                    37.678112
                ],
                [
                    -82.415894,
                    37.67971
                ],
                [
                    -82.418098,
                    37.680813
                ],
                [
                    -82.420799,
                    37.678612
                ],
                [
                    -82.422798,
                    37.676212
                ],
                [
                    -82.426498,
                    37.676811
                ],
                [
                    -82.429893,
                    37.677612
                ],
                [
                    -82.433098,
                    37.67691
                ],
                [
                    -82.434898,
                    37.674412
                ],
                [
                    -82.439499,
                    37.675713
                ],
                [
                    -82.442398,
                    37.673813
                ],
                [
                    -82.443893,
                    37.671513
                ],
                [
                    -82.448296,
                    37.670914
                ],
                [
                    -82.451698,
                    37.669514
                ],
                [
                    -82.454994,
                    37.668713
                ],
                [
                    -82.457397,
                    37.669811
                ],
                [
                    -82.458496,
                    37.67271
                ],
                [
                    -82.4571,
                    37.675411
                ],
                [
                    -82.4618,
                    37.679813
                ],
                [
                    -82.464195,
                    37.680714
                ],
                [
                    -82.466393,
                    37.682812
                ],
                [
                    -82.469498,
                    37.681713
                ],
                [
                    -82.472397,
                    37.682411
                ],
                [
                    -82.475899,
                    37.682911
                ],
                [
                    -82.480797,
                    37.681614
                ],
                [
                    -82.4869,
                    37.680313
                ],
                [
                    -82.489296,
                    37.678513
                ],
                [
                    -82.493294,
                    37.680214
                ],
                [
                    -82.4963,
                    37.683514
                ],
                [
                    -82.4935,
                    37.689011
                ],
                [
                    -82.498093,
                    37.689911
                ],
                [
                    -82.505096,
                    37.687813
                ],
                [
                    -82.508194,
                    37.686211
                ],
                [
                    -82.5103,
                    37.686913
                ],
                [
                    -82.512894,
                    37.688614
                ],
                [
                    -82.514893,
                    37.691212
                ],
                [
                    -82.518898,
                    37.691513
                ],
                [
                    -82.521698,
                    37.694214
                ],
                [
                    -82.525299,
                    37.693314
                ],
                [
                    -82.527,
                    37.690113
                ],
                [
                    -82.530396,
                    37.687912
                ],
                [
                    -82.534996,
                    37.687714
                ],
                [
                    -82.536095,
                    37.690212
                ],
                [
                    -82.539993,
                    37.690014
                ],
                [
                    -82.543198,
                    37.689312
                ],
                [
                    -82.545197,
                    37.690311
                ],
                [
                    -82.547501,
                    37.689613
                ],
                [
                    -82.550896,
                    37.688911
                ],
                [
                    -82.555595,
                    37.691113
                ],
                [
                    -82.557693,
                    37.689011
                ],
                [
                    -82.561096,
                    37.687214
                ],
                [
                    -82.563797,
                    37.684311
                ],
                [
                    -82.564896,
                    37.688011
                ],
                [
                    -82.569298,
                    37.688911
                ],
                [
                    -82.573997,
                    37.688213
                ],
                [
                    -82.575798,
                    37.690613
                ],
                [
                    -82.576897,
                    37.693413
                ],
                [
                    -82.579697,
                    37.694813
                ],
                [
                    -82.582695,
                    37.694214
                ],
                [
                    -82.585999,
                    37.692013
                ],
                [
                    -82.5896,
                    37.692513
                ],
                [
                    -82.595299,
                    37.697014
                ],
                [
                    -82.597694,
                    37.69931
                ],
                [
                    -82.600494,
                    37.701313
                ],
                [
                    -82.604797,
                    37.701611
                ],
                [
                    -82.606697,
                    37.703114
                ],
                [
                    -82.610001,
                    37.702911
                ],
                [
                    -82.611595,
                    37.705112
                ],
                [
                    -82.614296,
                    37.706413
                ],
                [
                    -82.6175,
                    37.706512
                ],
                [
                    -82.621201,
                    37.705212
                ],
                [
                    -82.622795,
                    37.708313
                ],
                [
                    -82.625099,
                    37.710312
                ],
                [
                    -82.627495,
                    37.711514
                ],
                [
                    -82.629997,
                    37.713211
                ],
                [
                    -82.632599,
                    37.71611
                ],
                [
                    -82.638397,
                    37.717613
                ],
                [
                    -82.641197,
                    37.720112
                ],
                [
                    -82.638199,
                    37.721912
                ],
                [
                    -82.635895,
                    37.725014
                ],
                [
                    -82.6381,
                    37.727612
                ],
                [
                    -82.639397,
                    37.730614
                ],
                [
                    -82.644096,
                    37.733212
                ],
                [
                    -82.646599,
                    37.734913
                ],
                [
                    -82.644394,
                    37.739712
                ],
                [
                    -82.6455,
                    37.744114
                ],
                [
                    -82.648796,
                    37.748913
                ],
                [
                    -82.652695,
                    37.751213
                ],
                [
                    -82.654793,
                    37.752113
                ],
                [
                    -82.655197,
                    37.755611
                ],
                [
                    -82.657394,
                    37.759411
                ],
                [
                    -82.656799,
                    37.763012
                ],
                [
                    -82.656593,
                    37.765812
                ],
                [
                    -82.657898,
                    37.768814
                ],
                [
                    -82.656593,
                    37.773113
                ],
                [
                    -82.653198,
                    37.773514
                ],
                [
                    -82.653099,
                    37.776814
                ],
                [
                    -82.655296,
                    37.778614
                ],
                [
                    -82.661301,
                    37.780411
                ],
                [
                    -82.664894,
                    37.78651
                ],
                [
                    -82.668396,
                    37.785313
                ],
                [
                    -82.6745,
                    37.787014
                ],
                [
                    -82.672897,
                    37.792713
                ],
                [
                    -82.666595,
                    37.795414
                ],
                [
                    -82.6632,
                    37.800114
                ],
                [
                    -82.6642,
                    37.803814
                ],
                [
                    -82.664093,
                    37.806812
                ],
                [
                    -82.659996,
                    37.807812
                ],
                [
                    -82.656097,
                    37.809711
                ],
                [
                    -82.656494,
                    37.812511
                ],
                [
                    -82.651695,
                    37.816914
                ],
                [
                    -82.650597,
                    37.819611
                ],
                [
                    -82.647896,
                    37.820812
                ],
                [
                    -82.645493,
                    37.823311
                ],
                [
                    -82.647797,
                    37.824814
                ],
                [
                    -82.650398,
                    37.823914
                ],
                [
                    -82.652695,
                    37.825413
                ],
                [
                    -82.652695,
                    37.828114
                ],
                [
                    -82.649597,
                    37.828812
                ],
                [
                    -82.646194,
                    37.830212
                ],
                [
                    -82.648193,
                    37.834312
                ],
                [
                    -82.651894,
                    37.833714
                ],
                [
                    -82.6539,
                    37.834312
                ],
                [
                    -82.655098,
                    37.835911
                ],
                [
                    -82.657898,
                    37.837612
                ],
                [
                    -82.660294,
                    37.839714
                ],
                [
                    -82.6642,
                    37.840111
                ],
                [
                    -82.664795,
                    37.842312
                ],
                [
                    -82.668198,
                    37.845211
                ],
                [
                    -82.670197,
                    37.84811
                ],
                [
                    -82.670494,
                    37.851212
                ],
                [
                    -82.667595,
                    37.853714
                ],
                [
                    -82.662994,
                    37.854813
                ],
                [
                    -82.660095,
                    37.856113
                ],
                [
                    -82.658195,
                    37.858311
                ],
                [
                    -82.654198,
                    37.858711
                ],
                [
                    -82.651993,
                    37.859913
                ],
                [
                    -82.6493,
                    37.859612
                ],
                [
                    -82.645393,
                    37.862614
                ],
                [
                    -82.642296,
                    37.864212
                ],
                [
                    -82.643097,
                    37.867714
                ],
                [
                    -82.641098,
                    37.869911
                ],
                [
                    -82.638496,
                    37.870811
                ],
                [
                    -82.636299,
                    37.870411
                ],
                [
                    -82.634499,
                    37.869114
                ],
                [
                    -82.632599,
                    37.869713
                ],
                [
                    -82.629295,
                    37.871811
                ],
                [
                    -82.626999,
                    37.874413
                ],
                [
                    -82.623199,
                    37.873512
                ],
                [
                    -82.620697,
                    37.87421
                ],
                [
                    -82.619293,
                    37.876812
                ],
                [
                    -82.613197,
                    37.879311
                ],
                [
                    -82.611198,
                    37.882412
                ],
                [
                    -82.6092,
                    37.884613
                ],
                [
                    -82.608597,
                    37.887413
                ],
                [
                    -82.602898,
                    37.888512
                ],
                [
                    -82.598694,
                    37.888813
                ],
                [
                    -82.595894,
                    37.89101
                ],
                [
                    -82.595795,
                    37.894012
                ],
                [
                    -82.596794,
                    37.896912
                ],
                [
                    -82.598793,
                    37.898712
                ],
                [
                    -82.598099,
                    37.902412
                ],
                [
                    -82.598,
                    37.905014
                ],
                [
                    -82.596199,
                    37.907013
                ],
                [
                    -82.594994,
                    37.909214
                ],
                [
                    -82.596695,
                    37.911613
                ],
                [
                    -82.598999,
                    37.910812
                ],
                [
                    -82.601097,
                    37.912811
                ],
                [
                    -82.599998,
                    37.916412
                ],
                [
                    -82.601898,
                    37.920414
                ],
                [
                    -82.594398,
                    37.922012
                ],
                [
                    -82.593094,
                    37.924412
                ],
                [
                    -82.592598,
                    37.927914
                ],
                [
                    -82.5905,
                    37.930813
                ],
                [
                    -82.587692,
                    37.930611
                ],
                [
                    -82.5849,
                    37.929413
                ],
                [
                    -82.581497,
                    37.930412
                ],
                [
                    -82.581093,
                    37.934811
                ],
                [
                    -82.582298,
                    37.939613
                ],
                [
                    -82.582497,
                    37.943012
                ],
                [
                    -82.578896,
                    37.944813
                ],
                [
                    -82.578697,
                    37.947712
                ],
                [
                    -82.580696,
                    37.949512
                ],
                [
                    -82.581093,
                    37.953312
                ],
                [
                    -82.577698,
                    37.953613
                ],
                [
                    -82.574501,
                    37.953213
                ],
                [
                    -82.569695,
                    37.956112
                ],
                [
                    -82.566795,
                    37.955212
                ],
                [
                    -82.565193,
                    37.952511
                ],
                [
                    -82.562599,
                    37.954212
                ],
                [
                    -82.560997,
                    37.955811
                ],
                [
                    -82.558197,
                    37.957611
                ],
                [
                    -82.554199,
                    37.959213
                ],
                [
                    -82.551193,
                    37.957611
                ],
                [
                    -82.548698,
                    37.958714
                ],
                [
                    -82.545097,
                    37.957714
                ],
                [
                    -82.541595,
                    37.957512
                ],
                [
                    -82.538597,
                    37.960213
                ],
                [
                    -82.534698,
                    37.962711
                ],
                [
                    -82.506699,
                    37.949211
                ],
                [
                    -82.503899,
                    37.947613
                ],
                [
                    -82.500595,
                    37.946213
                ],
                [
                    -82.497597,
                    37.945812
                ]
            ]
        ]
    },
    "properties": {
        "@id": "https://api.weather.gov/zones/forecast/KYZ119",
        "@type": "wx:Zone",
        "id": "KYZ119",
        "type": "public",
        "name": "Martin",
        "effectiveDate": "2026-04-16T18:00:00+00:00",
        "expirationDate": "2200-01-01T00:00:00+00:00",
        "state": "KY",
        "forecastOffice": "https://api.weather.gov/offices/JKL",
        "gridIdentifier": "JKL",
        "awipsLocationIdentifier": "JKL",
        "cwa": [
            "JKL"
        ],
        "forecastOffices": [
            "https://api.weather.gov/offices/JKL"
        ],
        "timeZone": [
            "America/New_York"
        ],
        "observationStations": [
            "https://api.weather.gov/stations/KSJS",
            "https://api.weather.gov/stations/K6LV",
            "https://api.weather.gov/stations/K6V3",
            "https://api.weather.gov/stations/KCRW",
            "https://api.weather.gov/stations/KDWU",
            "https://api.weather.gov/stations/KHTS",
            "https://api.weather.gov/stations/KI16",
            "https://api.weather.gov/stations/KJKL",
            "https://api.weather.gov/stations/KLNP",
            "https://api.weather.gov/stations/KPBX",
            "https://api.weather.gov/stations/KSYM"
        ],
        "radarStation": "JKL"
    }
}