{
    "@context": {
        "@version": "1.1"
    },
    "id": "https://api.weather.gov/zones/forecast/HIZ028",
    "type": "Feature",
    "geometry": {
        "type": "MultiPolygon",
        "coordinates": [
            [
                [
                    [
                        -155.515901,
                        19.606692
                    ],
                    [
                        -155.513021,
                        19.605475
                    ],
                    [
                        -155.508831,
                        19.605479
                    ],
                    [
                        -155.505398,
                        19.601714
                    ],
                    [
                        -155.502838,
                        19.600785
                    ],
                    [
                        -155.50143,
                        19.60208
                    ],
                    [
                        -155.500415,
                        19.600836
                    ],
                    [
                        -155.498737,
                        19.601076
                    ],
                    [
                        -155.497221,
                        19.600716
                    ],
                    [
                        -155.495545,
                        19.601463
                    ],
                    [
                        -155.486866,
                        19.599605
                    ],
                    [
                        -155.484558,
                        19.600577
                    ],
                    [
                        -155.48187,
                        19.600284
                    ],
                    [
                        -155.477748,
                        19.598576
                    ],
                    [
                        -155.473904,
                        19.597482
                    ],
                    [
                        -155.47309,
                        19.596155
                    ],
                    [
                        -155.471777,
                        19.596338
                    ],
                    [
                        -155.461927,
                        19.593638
                    ],
                    [
                        -155.458732,
                        19.592207
                    ],
                    [
                        -155.456175,
                        19.591892
                    ],
                    [
                        -155.453678,
                        19.590317
                    ],
                    [
                        -155.454056,
                        19.589242
                    ],
                    [
                        -155.453211,
                        19.588542
                    ],
                    [
                        -155.450995,
                        19.589711
                    ],
                    [
                        -155.444336,
                        19.585876
                    ],
                    [
                        -155.442935,
                        19.584432
                    ],
                    [
                        -155.440759,
                        19.584089
                    ],
                    [
                        -155.43609,
                        19.579413
                    ],
                    [
                        -155.43012,
                        19.576525
                    ],
                    [
                        -155.425352,
                        19.573906
                    ],
                    [
                        -155.42386,
                        19.572464
                    ],
                    [
                        -155.42277,
                        19.5701
                    ],
                    [
                        -155.418068,
                        19.56534
                    ],
                    [
                        -155.41622,
                        19.564205
                    ],
                    [
                        -155.414656,
                        19.564155
                    ],
                    [
                        -155.413625,
                        19.563267
                    ],
                    [
                        -155.413521,
                        19.562169
                    ],
                    [
                        -155.411563,
                        19.560308
                    ],
                    [
                        -155.410489,
                        19.558751
                    ],
                    [
                        -155.410454,
                        19.557307
                    ],
                    [
                        -155.40845,
                        19.554723
                    ],
                    [
                        -155.406554,
                        19.554389
                    ],
                    [
                        -155.399299,
                        19.547712
                    ],
                    [
                        -155.397209,
                        19.545016
                    ],
                    [
                        -155.397847,
                        19.54274
                    ],
                    [
                        -155.396934,
                        19.539433
                    ],
                    [
                        -155.396623,
                        19.535121
                    ],
                    [
                        -155.395919,
                        19.532957
                    ],
                    [
                        -155.399808,
                        19.525274
                    ],
                    [
                        -155.401462,
                        19.522333
                    ],
                    [
                        -155.402736,
                        19.521522
                    ],
                    [
                        -155.402863,
                        19.519088
                    ],
                    [
                        -155.404139,
                        19.517691
                    ],
                    [
                        -155.404024,
                        19.516387
                    ],
                    [
                        -155.405864,
                        19.515289
                    ],
                    [
                        -155.405164,
                        19.514012
                    ],
                    [
                        -155.406639,
                        19.510522
                    ],
                    [
                        -155.40817,
                        19.511218
                    ],
                    [
                        -155.410509,
                        19.509955
                    ],
                    [
                        -155.408694,
                        19.506259
                    ],
                    [
                        -155.409803,
                        19.504129
                    ],
                    [
                        -155.413571,
                        19.499922
                    ],
                    [
                        -155.414854,
                        19.4975
                    ],
                    [
                        -155.417746,
                        19.495777
                    ],
                    [
                        -155.421531,
                        19.492446
                    ],
                    [
                        -155.426712,
                        19.488224
                    ],
                    [
                        -155.428607,
                        19.485674
                    ],
                    [
                        -155.431212,
                        19.483397
                    ],
                    [
                        -155.433111,
                        19.482406
                    ],
                    [
                        -155.433554,
                        19.480613
                    ],
                    [
                        -155.435678,
                        19.478566
                    ],
                    [
                        -155.437357,
                        19.474696
                    ],
                    [
                        -155.439726,
                        19.473352
                    ],
                    [
                        -155.442996,
                        19.468125
                    ],
                    [
                        -155.444746,
                        19.465706
                    ],
                    [
                        -155.444888,
                        19.464244
                    ],
                    [
                        -155.447332,
                        19.462535
                    ],
                    [
                        -155.448804,
                        19.462293
                    ],
                    [
                        -155.449694,
                        19.460632
                    ],
                    [
                        -155.452912,
                        19.456752
                    ],
                    [
                        -155.454098,
                        19.456342
                    ],
                    [
                        -155.456032,
                        19.453294
                    ],
                    [
                        -155.457975,
                        19.450986
                    ],
                    [
                        -155.458511,
                        19.449733
                    ],
                    [
                        -155.461147,
                        19.448182
                    ],
                    [
                        -155.461235,
                        19.446702
                    ],
                    [
                        -155.463628,
                        19.444368
                    ],
                    [
                        -155.46383,
                        19.441986
                    ],
                    [
                        -155.464149,
                        19.440314
                    ],
                    [
                        -155.471412,
                        19.430319
                    ],
                    [
                        -155.477367,
                        19.424045
                    ],
                    [
                        -155.480044,
                        19.422545
                    ],
                    [
                        -155.480571,
                        19.420487
                    ],
                    [
                        -155.485952,
                        19.414352
                    ],
                    [
                        -155.490629,
                        19.410252
                    ],
                    [
                        -155.491384,
                        19.408501
                    ],
                    [
                        -155.493198,
                        19.407668
                    ],
                    [
                        -155.501283,
                        19.397773
                    ],
                    [
                        -155.502984,
                        19.396091
                    ],
                    [
                        -155.504315,
                        19.39513
                    ],
                    [
                        -155.505201,
                        19.393431
                    ],
                    [
                        -155.506817,
                        19.392194
                    ],
                    [
                        -155.508076,
                        19.390452
                    ],
                    [
                        -155.509475,
                        19.389229
                    ],
                    [
                        -155.511937,
                        19.386359
                    ],
                    [
                        -155.513044,
                        19.384045
                    ],
                    [
                        -155.514918,
                        19.379245
                    ],
                    [
                        -155.516026,
                        19.378961
                    ],
                    [
                        -155.519162,
                        19.375814
                    ],
                    [
                        -155.520706,
                        19.37338
                    ],
                    [
                        -155.52229,
                        19.371352
                    ],
                    [
                        -155.523409,
                        19.370893
                    ],
                    [
                        -155.52412,
                        19.369108
                    ],
                    [
                        -155.526218,
                        19.366576
                    ],
                    [
                        -155.526633,
                        19.36505
                    ],
                    [
                        -155.527949,
                        19.364327
                    ],
                    [
                        -155.529719,
                        19.361747
                    ],
                    [
                        -155.530301,
                        19.360517
                    ],
                    [
                        -155.533364,
                        19.358442
                    ],
                    [
                        -155.535882,
                        19.356509
                    ],
                    [
                        -155.536824,
                        19.355131
                    ],
                    [
                        -155.538269,
                        19.354241
                    ],
                    [
                        -155.53974,
                        19.352079
                    ],
                    [
                        -155.542092,
                        19.351041
                    ],
                    [
                        -155.543493,
                        19.349127
                    ],
                    [
                        -155.545425,
                        19.34851
                    ],
                    [
                        -155.55034,
                        19.34321
                    ],
                    [
                        -155.554264,
                        19.340306
                    ],
                    [
                        -155.557501,
                        19.339021
                    ],
                    [
                        -155.558812,
                        19.338768
                    ],
                    [
                        -155.559333,
                        19.336554
                    ],
                    [
                        -155.561281,
                        19.335281
                    ],
                    [
                        -155.562825,
                        19.334884
                    ],
                    [
                        -155.570158,
                        19.329726
                    ],
                    [
                        -155.575053,
                        19.326602
                    ],
                    [
                        -155.582028,
                        19.321257
                    ],
                    [
                        -155.584008,
                        19.318908
                    ],
                    [
                        -155.584586,
                        19.317089
                    ],
                    [
                        -155.585572,
                        19.317104
                    ],
                    [
                        -155.588549,
                        19.315231
                    ],
                    [
                        -155.590251,
                        19.313919
                    ],
                    [
                        -155.596622,
                        19.312274
                    ],
                    [
                        -155.602509,
                        19.310028
                    ],
                    [
                        -155.605682,
                        19.308297
                    ],
                    [
                        -155.607982,
                        19.307933
                    ],
                    [
                        -155.610771,
                        19.30682
                    ],
                    [
                        -155.617081,
                        19.302676
                    ],
                    [
                        -155.619048,
                        19.300865
                    ],
                    [
                        -155.621177,
                        19.300617
                    ],
                    [
                        -155.622112,
                        19.299801
                    ],
                    [
                        -155.624405,
                        19.299211
                    ],
                    [
                        -155.625922,
                        19.297994
                    ],
                    [
                        -155.627732,
                        19.298112
                    ],
                    [
                        -155.635892,
                        19.295301
                    ],
                    [
                        -155.640094,
                        19.294878
                    ],
                    [
                        -155.642038,
                        19.294058
                    ],
                    [
                        -155.645584,
                        19.294336
                    ],
                    [
                        -155.647137,
                        19.293484
                    ],
                    [
                        -155.648644,
                        19.291927
                    ],
                    [
                        -155.655622,
                        19.289702
                    ],
                    [
                        -155.657782,
                        19.289236
                    ],
                    [
                        -155.661051,
                        19.287438
                    ],
                    [
                        -155.662134,
                        19.287531
                    ],
                    [
                        -155.66705,
                        19.284598
                    ],
                    [
                        -155.66966,
                        19.284724
                    ],
                    [
                        -155.671297,
                        19.284004
                    ],
                    [
                        -155.675599,
                        19.283648
                    ],
                    [
                        -155.678251,
                        19.282948
                    ],
                    [
                        -155.680851,
                        19.283179
                    ],
                    [
                        -155.68233,
                        19.281824
                    ],
                    [
                        -155.683994,
                        19.280934
                    ],
                    [
                        -155.686687,
                        19.281209
                    ],
                    [
                        -155.688158,
                        19.281858
                    ],
                    [
                        -155.690965,
                        19.281467
                    ],
                    [
                        -155.694041,
                        19.281691
                    ],
                    [
                        -155.695749,
                        19.280983
                    ],
                    [
                        -155.697667,
                        19.281664
                    ],
                    [
                        -155.701783,
                        19.28058
                    ],
                    [
                        -155.703541,
                        19.279143
                    ],
                    [
                        -155.704523,
                        19.279929
                    ],
                    [
                        -155.70838,
                        19.278306
                    ],
                    [
                        -155.710735,
                        19.279335
                    ],
                    [
                        -155.712588,
                        19.277904
                    ],
                    [
                        -155.716211,
                        19.276509
                    ],
                    [
                        -155.718209,
                        19.276358
                    ],
                    [
                        -155.721061,
                        19.281098
                    ],
                    [
                        -155.720737,
                        19.282909
                    ],
                    [
                        -155.724355,
                        19.288017
                    ],
                    [
                        -155.726365,
                        19.289326
                    ],
                    [
                        -155.72643,
                        19.291042
                    ],
                    [
                        -155.728299,
                        19.295838
                    ],
                    [
                        -155.731043,
                        19.296519
                    ],
                    [
                        -155.732047,
                        19.299944
                    ],
                    [
                        -155.731168,
                        19.30268
                    ],
                    [
                        -155.73266,
                        19.305776
                    ],
                    [
                        -155.731365,
                        19.306539
                    ],
                    [
                        -155.732527,
                        19.307939
                    ],
                    [
                        -155.732428,
                        19.309562
                    ],
                    [
                        -155.73288,
                        19.311493
                    ],
                    [
                        -155.732234,
                        19.312881
                    ],
                    [
                        -155.732423,
                        19.314575
                    ],
                    [
                        -155.733319,
                        19.316257
                    ],
                    [
                        -155.732977,
                        19.317972
                    ],
                    [
                        -155.733963,
                        19.3214
                    ],
                    [
                        -155.733444,
                        19.323026
                    ],
                    [
                        -155.732431,
                        19.323781
                    ],
                    [
                        -155.732923,
                        19.32616
                    ],
                    [
                        -155.731782,
                        19.328202
                    ],
                    [
                        -155.732052,
                        19.330044
                    ],
                    [
                        -155.731245,
                        19.33126
                    ],
                    [
                        -155.732036,
                        19.333203
                    ],
                    [
                        -155.731338,
                        19.339213
                    ],
                    [
                        -155.729998,
                        19.342267
                    ],
                    [
                        -155.731027,
                        19.344104
                    ],
                    [
                        -155.729898,
                        19.347516
                    ],
                    [
                        -155.729972,
                        19.349208
                    ],
                    [
                        -155.731109,
                        19.350696
                    ],
                    [
                        -155.73104,
                        19.352878
                    ],
                    [
                        -155.730155,
                        19.354019
                    ],
                    [
                        -155.730572,
                        19.355238
                    ],
                    [
                        -155.728401,
                        19.360234
                    ],
                    [
                        -155.726697,
                        19.365575
                    ],
                    [
                        -155.725794,
                        19.366215
                    ],
                    [
                        -155.725961,
                        19.368187
                    ],
                    [
                        -155.725089,
                        19.369443
                    ],
                    [
                        -155.72445,
                        19.372769
                    ],
                    [
                        -155.72333,
                        19.373781
                    ],
                    [
                        -155.725066,
                        19.377304
                    ],
                    [
                        -155.724401,
                        19.379529
                    ],
                    [
                        -155.725174,
                        19.381395
                    ],
                    [
                        -155.725198,
                        19.387307
                    ],
                    [
                        -155.724755,
                        19.389393
                    ],
                    [
                        -155.725316,
                        19.392111
                    ],
                    [
                        -155.723751,
                        19.394881
                    ],
                    [
                        -155.721562,
                        19.40134
                    ],
                    [
                        -155.720368,
                        19.409026
                    ],
                    [
                        -155.72038,
                        19.411427
                    ],
                    [
                        -155.719349,
                        19.412762
                    ],
                    [
                        -155.719426,
                        19.415477
                    ],
                    [
                        -155.718643,
                        19.418255
                    ],
                    [
                        -155.717709,
                        19.41878
                    ],
                    [
                        -155.717957,
                        19.420409
                    ],
                    [
                        -155.71774,
                        19.421849
                    ],
                    [
                        -155.71624,
                        19.422283
                    ],
                    [
                        -155.716396,
                        19.424803
                    ],
                    [
                        -155.715406,
                        19.426049
                    ],
                    [
                        -155.714951,
                        19.42938
                    ],
                    [
                        -155.715258,
                        19.430967
                    ],
                    [
                        -155.713373,
                        19.436211
                    ],
                    [
                        -155.712675,
                        19.439186
                    ],
                    [
                        -155.711697,
                        19.440513
                    ],
                    [
                        -155.713449,
                        19.444335
                    ],
                    [
                        -155.712826,
                        19.455155
                    ],
                    [
                        -155.712087,
                        19.458574
                    ],
                    [
                        -155.711395,
                        19.459712
                    ],
                    [
                        -155.712077,
                        19.460792
                    ],
                    [
                        -155.712501,
                        19.462099
                    ],
                    [
                        -155.711467,
                        19.464714
                    ],
                    [
                        -155.711485,
                        19.466447
                    ],
                    [
                        -155.710828,
                        19.469203
                    ],
                    [
                        -155.709766,
                        19.472158
                    ],
                    [
                        -155.709771,
                        19.474505
                    ],
                    [
                        -155.709157,
                        19.477892
                    ],
                    [
                        -155.709101,
                        19.482371
                    ],
                    [
                        -155.708624,
                        19.485251
                    ],
                    [
                        -155.707448,
                        19.486359
                    ],
                    [
                        -155.706737,
                        19.491437
                    ],
                    [
                        -155.707334,
                        19.494316
                    ],
                    [
                        -155.706484,
                        19.498235
                    ],
                    [
                        -155.706454,
                        19.502253
                    ],
                    [
                        -155.703918,
                        19.505964
                    ],
                    [
                        -155.702611,
                        19.508221
                    ],
                    [
                        -155.702897,
                        19.509607
                    ],
                    [
                        -155.698971,
                        19.516096
                    ],
                    [
                        -155.698443,
                        19.519017
                    ],
                    [
                        -155.697513,
                        19.522748
                    ],
                    [
                        -155.695006,
                        19.52532
                    ],
                    [
                        -155.69337,
                        19.532149
                    ],
                    [
                        -155.690788,
                        19.534809
                    ],
                    [
                        -155.68687,
                        19.540424
                    ],
                    [
                        -155.677877,
                        19.548562
                    ],
                    [
                        -155.675637,
                        19.550203
                    ],
                    [
                        -155.67466,
                        19.55191
                    ],
                    [
                        -155.671572,
                        19.554492
                    ],
                    [
                        -155.669947,
                        19.557402
                    ],
                    [
                        -155.667927,
                        19.559265
                    ],
                    [
                        -155.664334,
                        19.562165
                    ],
                    [
                        -155.662284,
                        19.563551
                    ],
                    [
                        -155.661652,
                        19.564586
                    ],
                    [
                        -155.660373,
                        19.564801
                    ],
                    [
                        -155.660031,
                        19.566117
                    ],
                    [
                        -155.658674,
                        19.566507
                    ],
                    [
                        -155.658055,
                        19.567535
                    ],
                    [
                        -155.656214,
                        19.569124
                    ],
                    [
                        -155.655117,
                        19.572741
                    ],
                    [
                        -155.650778,
                        19.576219
                    ],
                    [
                        -155.649597,
                        19.575992
                    ],
                    [
                        -155.64697,
                        19.5803
                    ],
                    [
                        -155.644416,
                        19.582025
                    ],
                    [
                        -155.643762,
                        19.583089
                    ],
                    [
                        -155.639588,
                        19.584722
                    ],
                    [
                        -155.637316,
                        19.586256
                    ],
                    [
                        -155.632514,
                        19.587415
                    ],
                    [
                        -155.630897,
                        19.589025
                    ],
                    [
                        -155.626362,
                        19.591002
                    ],
                    [
                        -155.623102,
                        19.592078
                    ],
                    [
                        -155.6198,
                        19.592096
                    ],
                    [
                        -155.614479,
                        19.594592
                    ],
                    [
                        -155.612632,
                        19.594788
                    ],
                    [
                        -155.608095,
                        19.597219
                    ],
                    [
                        -155.6051,
                        19.598107
                    ],
                    [
                        -155.604197,
                        19.5989
                    ],
                    [
                        -155.602788,
                        19.598095
                    ],
                    [
                        -155.601436,
                        19.598756
                    ],
                    [
                        -155.597849,
                        19.598718
                    ],
                    [
                        -155.596432,
                        19.598333
                    ],
                    [
                        -155.594221,
                        19.599191
                    ],
                    [
                        -155.589596,
                        19.600452
                    ],
                    [
                        -155.584264,
                        19.59874
                    ],
                    [
                        -155.581615,
                        19.599592
                    ],
                    [
                        -155.576908,
                        19.600163
                    ],
                    [
                        -155.575886,
                        19.60109
                    ],
                    [
                        -155.574343,
                        19.601245
                    ],
                    [
                        -155.569145,
                        19.603855
                    ],
                    [
                        -155.566312,
                        19.603709
                    ],
                    [
                        -155.563738,
                        19.604485
                    ],
                    [
                        -155.561992,
                        19.604366
                    ],
                    [
                        -155.560965,
                        19.603393
                    ],
                    [
                        -155.559927,
                        19.602974
                    ],
                    [
                        -155.558255,
                        19.603773
                    ],
                    [
                        -155.555985,
                        19.603098
                    ],
                    [
                        -155.554449,
                        19.603794
                    ],
                    [
                        -155.553116,
                        19.603768
                    ],
                    [
                        -155.55054,
                        19.605513
                    ],
                    [
                        -155.548056,
                        19.605887
                    ],
                    [
                        -155.546196,
                        19.6052
                    ],
                    [
                        -155.542352,
                        19.605437
                    ],
                    [
                        -155.539877,
                        19.605173
                    ],
                    [
                        -155.538564,
                        19.604433
                    ],
                    [
                        -155.537121,
                        19.605153
                    ],
                    [
                        -155.535258,
                        19.604688
                    ],
                    [
                        -155.534148,
                        19.606095
                    ],
                    [
                        -155.531876,
                        19.605496
                    ],
                    [
                        -155.529351,
                        19.6065
                    ],
                    [
                        -155.525913,
                        19.606674
                    ],
                    [
                        -155.522532,
                        19.606012
                    ],
                    [
                        -155.519627,
                        19.606882
                    ],
                    [
                        -155.515901,
                        19.606692
                    ]
                ]
            ],
            [
                [
                    [
                        -155.478398,
                        19.896398
                    ],
                    [
                        -155.4773,
                        19.895852
                    ],
                    [
                        -155.475794,
                        19.895858
                    ],
                    [
                        -155.471748,
                        19.894829
                    ],
                    [
                        -155.467811,
                        19.894069
                    ],
                    [
                        -155.46456,
                        19.894069
                    ],
                    [
                        -155.463206,
                        19.894669
                    ],
                    [
                        -155.461363,
                        19.894526
                    ],
                    [
                        -155.455223,
                        19.893289
                    ],
                    [
                        -155.454,
                        19.892162
                    ],
                    [
                        -155.451643,
                        19.893032
                    ],
                    [
                        -155.450726,
                        19.892058
                    ],
                    [
                        -155.450461,
                        19.89319
                    ],
                    [
                        -155.449296,
                        19.893362
                    ],
                    [
                        -155.446608,
                        19.892949
                    ],
                    [
                        -155.445425,
                        19.893078
                    ],
                    [
                        -155.442118,
                        19.891664
                    ],
                    [
                        -155.441343,
                        19.891472
                    ],
                    [
                        -155.439784,
                        19.890548
                    ],
                    [
                        -155.438735,
                        19.890434
                    ],
                    [
                        -155.435866,
                        19.889692
                    ],
                    [
                        -155.434065,
                        19.889588
                    ],
                    [
                        -155.433006,
                        19.889021
                    ],
                    [
                        -155.432483,
                        19.889432
                    ],
                    [
                        -155.429667,
                        19.889636
                    ],
                    [
                        -155.428541,
                        19.889913
                    ],
                    [
                        -155.427224,
                        19.88986
                    ],
                    [
                        -155.423894,
                        19.891867
                    ],
                    [
                        -155.422686,
                        19.892019
                    ],
                    [
                        -155.418783,
                        19.893606
                    ],
                    [
                        -155.417859,
                        19.893524
                    ],
                    [
                        -155.416641,
                        19.893705
                    ],
                    [
                        -155.416311,
                        19.893945
                    ],
                    [
                        -155.414205,
                        19.89429
                    ],
                    [
                        -155.412399,
                        19.894209
                    ],
                    [
                        -155.411369,
                        19.8944
                    ],
                    [
                        -155.410045,
                        19.894399
                    ],
                    [
                        -155.409351,
                        19.894152
                    ],
                    [
                        -155.408767,
                        19.894285
                    ],
                    [
                        -155.407925,
                        19.893943
                    ],
                    [
                        -155.407591,
                        19.893576
                    ],
                    [
                        -155.405531,
                        19.893101
                    ],
                    [
                        -155.404135,
                        19.89246
                    ],
                    [
                        -155.401469,
                        19.892203
                    ],
                    [
                        -155.400567,
                        19.892653
                    ],
                    [
                        -155.39861,
                        19.89209
                    ],
                    [
                        -155.396166,
                        19.89196
                    ],
                    [
                        -155.394082,
                        19.891349
                    ],
                    [
                        -155.392586,
                        19.890169
                    ],
                    [
                        -155.390373,
                        19.889397
                    ],
                    [
                        -155.388752,
                        19.889355
                    ],
                    [
                        -155.387254,
                        19.888995
                    ],
                    [
                        -155.386023,
                        19.887712
                    ],
                    [
                        -155.384505,
                        19.887356
                    ],
                    [
                        -155.38271,
                        19.886304
                    ],
                    [
                        -155.379209,
                        19.886479
                    ],
                    [
                        -155.37833,
                        19.885421
                    ],
                    [
                        -155.378767,
                        19.883607
                    ],
                    [
                        -155.376211,
                        19.880758
                    ],
                    [
                        -155.375239,
                        19.878934
                    ],
                    [
                        -155.374617,
                        19.875977
                    ],
                    [
                        -155.372822,
                        19.872117
                    ],
                    [
                        -155.371894,
                        19.871517
                    ],
                    [
                        -155.370153,
                        19.868381
                    ],
                    [
                        -155.367711,
                        19.866602
                    ],
                    [
                        -155.366663,
                        19.865432
                    ],
                    [
                        -155.366337,
                        19.864227
                    ],
                    [
                        -155.364993,
                        19.863059
                    ],
                    [
                        -155.365241,
                        19.862217
                    ],
                    [
                        -155.364741,
                        19.860897
                    ],
                    [
                        -155.363944,
                        19.860454
                    ],
                    [
                        -155.364124,
                        19.858135
                    ],
                    [
                        -155.36319,
                        19.857009
                    ],
                    [
                        -155.363526,
                        19.854673
                    ],
                    [
                        -155.362824,
                        19.852424
                    ],
                    [
                        -155.363422,
                        19.848251
                    ],
                    [
                        -155.365919,
                        19.845738
                    ],
                    [
                        -155.366448,
                        19.84414
                    ],
                    [
                        -155.366262,
                        19.841281
                    ],
                    [
                        -155.366955,
                        19.839696
                    ],
                    [
                        -155.365545,
                        19.838446
                    ],
                    [
                        -155.364958,
                        19.83688
                    ],
                    [
                        -155.364223,
                        19.836132
                    ],
                    [
                        -155.364805,
                        19.835321
                    ],
                    [
                        -155.363653,
                        19.833171
                    ],
                    [
                        -155.363593,
                        19.832355
                    ],
                    [
                        -155.364818,
                        19.831171
                    ],
                    [
                        -155.365064,
                        19.829124
                    ],
                    [
                        -155.363922,
                        19.827915
                    ],
                    [
                        -155.36612,
                        19.825926
                    ],
                    [
                        -155.3666,
                        19.824711
                    ],
                    [
                        -155.366087,
                        19.823028
                    ],
                    [
                        -155.366047,
                        19.821704
                    ],
                    [
                        -155.366595,
                        19.820586
                    ],
                    [
                        -155.366337,
                        19.817036
                    ],
                    [
                        -155.364978,
                        19.81613
                    ],
                    [
                        -155.364656,
                        19.814115
                    ],
                    [
                        -155.366216,
                        19.812883
                    ],
                    [
                        -155.36666,
                        19.811798
                    ],
                    [
                        -155.367539,
                        19.810494
                    ],
                    [
                        -155.366055,
                        19.809607
                    ],
                    [
                        -155.365718,
                        19.808082
                    ],
                    [
                        -155.364928,
                        19.806398
                    ],
                    [
                        -155.365364,
                        19.804075
                    ],
                    [
                        -155.366373,
                        19.803216
                    ],
                    [
                        -155.367377,
                        19.801072
                    ],
                    [
                        -155.368453,
                        19.800554
                    ],
                    [
                        -155.368973,
                        19.799496
                    ],
                    [
                        -155.370368,
                        19.799324
                    ],
                    [
                        -155.372264,
                        19.796956
                    ],
                    [
                        -155.371984,
                        19.794865
                    ],
                    [
                        -155.371994,
                        19.793462
                    ],
                    [
                        -155.373552,
                        19.792143
                    ],
                    [
                        -155.374572,
                        19.792136
                    ],
                    [
                        -155.375848,
                        19.789156
                    ],
                    [
                        -155.377182,
                        19.788745
                    ],
                    [
                        -155.378174,
                        19.78769
                    ],
                    [
                        -155.377993,
                        19.786325
                    ],
                    [
                        -155.379432,
                        19.784098
                    ],
                    [
                        -155.380239,
                        19.783573
                    ],
                    [
                        -155.381062,
                        19.782597
                    ],
                    [
                        -155.38129,
                        19.780924
                    ],
                    [
                        -155.382015,
                        19.779083
                    ],
                    [
                        -155.383193,
                        19.777678
                    ],
                    [
                        -155.383005,
                        19.77675
                    ],
                    [
                        -155.383827,
                        19.776067
                    ],
                    [
                        -155.384274,
                        19.774
                    ],
                    [
                        -155.385409,
                        19.773247
                    ],
                    [
                        -155.387296,
                        19.773498
                    ],
                    [
                        -155.388354,
                        19.772639
                    ],
                    [
                        -155.389882,
                        19.77191
                    ],
                    [
                        -155.390568,
                        19.771077
                    ],
                    [
                        -155.389226,
                        19.769408
                    ],
                    [
                        -155.390078,
                        19.768178
                    ],
                    [
                        -155.391893,
                        19.770212
                    ],
                    [
                        -155.394502,
                        19.766988
                    ],
                    [
                        -155.39424,
                        19.765376
                    ],
                    [
                        -155.395204,
                        19.764129
                    ],
                    [
                        -155.39742,
                        19.756129
                    ],
                    [
                        -155.397342,
                        19.754703
                    ],
                    [
                        -155.397657,
                        19.75317
                    ],
                    [
                        -155.398502,
                        19.752181
                    ],
                    [
                        -155.404301,
                        19.747606
                    ],
                    [
                        -155.406795,
                        19.741971
                    ],
                    [
                        -155.406874,
                        19.740362
                    ],
                    [
                        -155.407895,
                        19.740145
                    ],
                    [
                        -155.408893,
                        19.738855
                    ],
                    [
                        -155.410389,
                        19.739105
                    ],
                    [
                        -155.412335,
                        19.737029
                    ],
                    [
                        -155.413545,
                        19.736725
                    ],
                    [
                        -155.414971,
                        19.736992
                    ],
                    [
                        -155.416793,
                        19.737043
                    ],
                    [
                        -155.418393,
                        19.736595
                    ],
                    [
                        -155.423031,
                        19.736477
                    ],
                    [
                        -155.426298,
                        19.737312
                    ],
                    [
                        -155.42736,
                        19.736853
                    ],
                    [
                        -155.428411,
                        19.736899
                    ],
                    [
                        -155.430238,
                        19.735975
                    ],
                    [
                        -155.432403,
                        19.736277
                    ],
                    [
                        -155.433898,
                        19.734272
                    ],
                    [
                        -155.437864,
                        19.732847
                    ],
                    [
                        -155.439492,
                        19.73273
                    ],
                    [
                        -155.440788,
                        19.73295
                    ],
                    [
                        -155.443008,
                        19.733761
                    ],
                    [
                        -155.444501,
                        19.733102
                    ],
                    [
                        -155.445167,
                        19.731882
                    ],
                    [
                        -155.44665,
                        19.730758
                    ],
                    [
                        -155.449621,
                        19.731005
                    ],
                    [
                        -155.451511,
                        19.730865
                    ],
                    [
                        -155.454616,
                        19.731903
                    ],
                    [
                        -155.455422,
                        19.733917
                    ],
                    [
                        -155.461747,
                        19.738092
                    ],
                    [
                        -155.463078,
                        19.737739
                    ],
                    [
                        -155.464423,
                        19.737694
                    ],
                    [
                        -155.465896,
                        19.739586
                    ],
                    [
                        -155.467609,
                        19.739689
                    ],
                    [
                        -155.469385,
                        19.740862
                    ],
                    [
                        -155.472422,
                        19.741855
                    ],
                    [
                        -155.473727,
                        19.742947
                    ],
                    [
                        -155.474972,
                        19.742937
                    ],
                    [
                        -155.476279,
                        19.744706
                    ],
                    [
                        -155.477923,
                        19.7455
                    ],
                    [
                        -155.480302,
                        19.747312
                    ],
                    [
                        -155.482579,
                        19.748063
                    ],
                    [
                        -155.484623,
                        19.750004
                    ],
                    [
                        -155.485601,
                        19.74932
                    ],
                    [
                        -155.486857,
                        19.749352
                    ],
                    [
                        -155.488169,
                        19.749593
                    ],
                    [
                        -155.489265,
                        19.750492
                    ],
                    [
                        -155.490323,
                        19.755696
                    ],
                    [
                        -155.493201,
                        19.756376
                    ],
                    [
                        -155.493944,
                        19.757145
                    ],
                    [
                        -155.494865,
                        19.757171
                    ],
                    [
                        -155.498644,
                        19.758742
                    ],
                    [
                        -155.504608,
                        19.760625
                    ],
                    [
                        -155.506354,
                        19.760431
                    ],
                    [
                        -155.507264,
                        19.761748
                    ],
                    [
                        -155.509961,
                        19.762989
                    ],
                    [
                        -155.511323,
                        19.763043
                    ],
                    [
                        -155.51385,
                        19.764375
                    ],
                    [
                        -155.518526,
                        19.768294
                    ],
                    [
                        -155.520818,
                        19.769105
                    ],
                    [
                        -155.522637,
                        19.770306
                    ],
                    [
                        -155.523981,
                        19.771473
                    ],
                    [
                        -155.530161,
                        19.775408
                    ],
                    [
                        -155.532379,
                        19.777476
                    ],
                    [
                        -155.533041,
                        19.776959
                    ],
                    [
                        -155.537739,
                        19.778663
                    ],
                    [
                        -155.543626,
                        19.781237
                    ],
                    [
                        -155.548916,
                        19.78431
                    ],
                    [
                        -155.552037,
                        19.789046
                    ],
                    [
                        -155.554309,
                        19.791139
                    ],
                    [
                        -155.556034,
                        19.792101
                    ],
                    [
                        -155.557879,
                        19.791963
                    ],
                    [
                        -155.560059,
                        19.792896
                    ],
                    [
                        -155.562951,
                        19.791408
                    ],
                    [
                        -155.564574,
                        19.791311
                    ],
                    [
                        -155.566135,
                        19.790474
                    ],
                    [
                        -155.568819,
                        19.790272
                    ],
                    [
                        -155.568424,
                        19.792949
                    ],
                    [
                        -155.566989,
                        19.794261
                    ],
                    [
                        -155.565694,
                        19.796709
                    ],
                    [
                        -155.566595,
                        19.797502
                    ],
                    [
                        -155.56666,
                        19.79893
                    ],
                    [
                        -155.565953,
                        19.799692
                    ],
                    [
                        -155.56679,
                        19.800757
                    ],
                    [
                        -155.56877,
                        19.800816
                    ],
                    [
                        -155.570313,
                        19.802664
                    ],
                    [
                        -155.570972,
                        19.804475
                    ],
                    [
                        -155.570923,
                        19.806452
                    ],
                    [
                        -155.570363,
                        19.80748
                    ],
                    [
                        -155.573527,
                        19.811795
                    ],
                    [
                        -155.574041,
                        19.813023
                    ],
                    [
                        -155.575083,
                        19.813742
                    ],
                    [
                        -155.576724,
                        19.817948
                    ],
                    [
                        -155.576635,
                        19.819741
                    ],
                    [
                        -155.57726,
                        19.821462
                    ],
                    [
                        -155.577702,
                        19.825006
                    ],
                    [
                        -155.578227,
                        19.827247
                    ],
                    [
                        -155.577614,
                        19.828627
                    ],
                    [
                        -155.577636,
                        19.829663
                    ],
                    [
                        -155.576409,
                        19.831861
                    ],
                    [
                        -155.574626,
                        19.833249
                    ],
                    [
                        -155.57473,
                        19.834444
                    ],
                    [
                        -155.572453,
                        19.837368
                    ],
                    [
                        -155.572583,
                        19.838315
                    ],
                    [
                        -155.570657,
                        19.8413
                    ],
                    [
                        -155.570467,
                        19.843547
                    ],
                    [
                        -155.568911,
                        19.845502
                    ],
                    [
                        -155.56621,
                        19.847418
                    ],
                    [
                        -155.564494,
                        19.848214
                    ],
                    [
                        -155.562885,
                        19.849669
                    ],
                    [
                        -155.562022,
                        19.849923
                    ],
                    [
                        -155.561829,
                        19.850378
                    ],
                    [
                        -155.560906,
                        19.850986
                    ],
                    [
                        -155.560411,
                        19.851851
                    ],
                    [
                        -155.55962,
                        19.852092
                    ],
                    [
                        -155.558458,
                        19.853228
                    ],
                    [
                        -155.556255,
                        19.854355
                    ],
                    [
                        -155.555833,
                        19.855021
                    ],
                    [
                        -155.554397,
                        19.856467
                    ],
                    [
                        -155.553093,
                        19.856784
                    ],
                    [
                        -155.552244,
                        19.857237
                    ],
                    [
                        -155.551329,
                        19.857993
                    ],
                    [
                        -155.550526,
                        19.858323
                    ],
                    [
                        -155.549695,
                        19.859093
                    ],
                    [
                        -155.54871,
                        19.859551
                    ],
                    [
                        -155.546609,
                        19.859369
                    ],
                    [
                        -155.546312,
                        19.859873
                    ],
                    [
                        -155.544753,
                        19.860132
                    ],
                    [
                        -155.543207,
                        19.860708
                    ],
                    [
                        -155.541736,
                        19.861804
                    ],
                    [
                        -155.540633,
                        19.862224
                    ],
                    [
                        -155.540332,
                        19.862925
                    ],
                    [
                        -155.539103,
                        19.863723
                    ],
                    [
                        -155.538164,
                        19.863816
                    ],
                    [
                        -155.536957,
                        19.864377
                    ],
                    [
                        -155.536088,
                        19.865104
                    ],
                    [
                        -155.534033,
                        19.86571
                    ],
                    [
                        -155.532997,
                        19.865628
                    ],
                    [
                        -155.531404,
                        19.86624
                    ],
                    [
                        -155.530252,
                        19.865893
                    ],
                    [
                        -155.529364,
                        19.866284
                    ],
                    [
                        -155.528966,
                        19.866905
                    ],
                    [
                        -155.527678,
                        19.86711
                    ],
                    [
                        -155.527151,
                        19.86705
                    ],
                    [
                        -155.523598,
                        19.870274
                    ],
                    [
                        -155.523376,
                        19.87068
                    ],
                    [
                        -155.522679,
                        19.871027
                    ],
                    [
                        -155.522331,
                        19.871513
                    ],
                    [
                        -155.522334,
                        19.871733
                    ],
                    [
                        -155.522717,
                        19.871827
                    ],
                    [
                        -155.52324,
                        19.872526
                    ],
                    [
                        -155.524079,
                        19.872969
                    ],
                    [
                        -155.524539,
                        19.87352
                    ],
                    [
                        -155.524645,
                        19.874424
                    ],
                    [
                        -155.524323,
                        19.87495
                    ],
                    [
                        -155.52366,
                        19.87514
                    ],
                    [
                        -155.522613,
                        19.875039
                    ],
                    [
                        -155.522045,
                        19.874815
                    ],
                    [
                        -155.521221,
                        19.87407
                    ],
                    [
                        -155.519116,
                        19.874333
                    ],
                    [
                        -155.518433,
                        19.875656
                    ],
                    [
                        -155.517729,
                        19.875932
                    ],
                    [
                        -155.515596,
                        19.877681
                    ],
                    [
                        -155.513471,
                        19.878696
                    ],
                    [
                        -155.512676,
                        19.879695
                    ],
                    [
                        -155.512111,
                        19.879822
                    ],
                    [
                        -155.510965,
                        19.880486
                    ],
                    [
                        -155.509915,
                        19.881386
                    ],
                    [
                        -155.50951,
                        19.881528
                    ],
                    [
                        -155.507484,
                        19.883688
                    ],
                    [
                        -155.506293,
                        19.884134
                    ],
                    [
                        -155.505338,
                        19.884169
                    ],
                    [
                        -155.502769,
                        19.885398
                    ],
                    [
                        -155.501642,
                        19.886866
                    ],
                    [
                        -155.500909,
                        19.887433
                    ],
                    [
                        -155.500244,
                        19.887607
                    ],
                    [
                        -155.498747,
                        19.888911
                    ],
                    [
                        -155.498193,
                        19.888994
                    ],
                    [
                        -155.496742,
                        19.890144
                    ],
                    [
                        -155.495542,
                        19.89043
                    ],
                    [
                        -155.494077,
                        19.891277
                    ],
                    [
                        -155.492238,
                        19.891877
                    ],
                    [
                        -155.491958,
                        19.892136
                    ],
                    [
                        -155.49024,
                        19.892487
                    ],
                    [
                        -155.488731,
                        19.893247
                    ],
                    [
                        -155.488317,
                        19.893631
                    ],
                    [
                        -155.487479,
                        19.893787
                    ],
                    [
                        -155.485562,
                        19.895223
                    ],
                    [
                        -155.484288,
                        19.895725
                    ],
                    [
                        -155.483559,
                        19.896219
                    ],
                    [
                        -155.481317,
                        19.896496
                    ],
                    [
                        -155.478398,
                        19.896398
                    ]
                ]
            ]
        ]
    },
    "properties": {
        "@id": "https://api.weather.gov/zones/forecast/HIZ028",
        "@type": "wx:Zone",
        "id": "HIZ028",
        "type": "public",
        "name": "Big Island Summit",
        "effectiveDate": "2026-04-16T18:00:00+00:00",
        "expirationDate": "2200-01-01T00:00:00+00:00",
        "state": "HI",
        "forecastOffice": "https://api.weather.gov/offices/HFO",
        "gridIdentifier": "HFO",
        "awipsLocationIdentifier": "HFO",
        "cwa": [
            "HFO"
        ],
        "forecastOffices": [
            "https://api.weather.gov/offices/HFO"
        ],
        "timeZone": [
            "Pacific/Honolulu"
        ],
        "observationStations": [
            "https://api.weather.gov/stations/PHKO",
            "https://api.weather.gov/stations/PHSF"
        ],
        "radarStation": null
    }
}