{
    "@context": {
        "@version": "1.1"
    },
    "id": "https://api.weather.gov/zones/forecast/MSZ084",
    "type": "Feature",
    "geometry": {
        "type": "Polygon",
        "coordinates": [
            [
                [
                    -88.884521,
                    30.676697
                ],
                [
                    -88.884094,
                    30.577881
                ],
                [
                    -88.883911,
                    30.572693
                ],
                [
                    -88.883911,
                    30.552673
                ],
                [
                    -88.883423,
                    30.493896
                ],
                [
                    -89.341309,
                    30.418863
                ],
                [
                    -89.341309,
                    30.437683
                ],
                [
                    -89.341492,
                    30.443115
                ],
                [
                    -89.341797,
                    30.486877
                ],
                [
                    -89.341614,
                    30.500916
                ],
                [
                    -89.341492,
                    30.581116
                ],
                [
                    -89.341309,
                    30.590271
                ],
                [
                    -89.341309,
                    30.625671
                ],
                [
                    -89.341492,
                    30.631897
                ],
                [
                    -89.341492,
                    30.643311
                ],
                [
                    -89.341309,
                    30.647705
                ],
                [
                    -89.27301,
                    30.647522
                ],
                [
                    -89.263,
                    30.647278
                ],
                [
                    -89.250793,
                    30.647278
                ],
                [
                    -89.241272,
                    30.647705
                ],
                [
                    -89.240112,
                    30.654114
                ],
                [
                    -89.23999,
                    30.676086
                ],
                [
                    -89.233276,
                    30.677124
                ],
                [
                    -89.138794,
                    30.677124
                ],
                [
                    -89.132812,
                    30.67688
                ],
                [
                    -89.116089,
                    30.67688
                ],
                [
                    -89.109375,
                    30.677124
                ],
                [
                    -88.985413,
                    30.677124
                ],
                [
                    -88.980896,
                    30.677307
                ],
                [
                    -88.888977,
                    30.677307
                ],
                [
                    -88.884521,
                    30.676697
                ]
            ]
        ]
    },
    "properties": {
        "@id": "https://api.weather.gov/zones/forecast/MSZ084",
        "@type": "wx:Zone",
        "id": "MSZ084",
        "type": "public",
        "name": "Northern Harrison",
        "effectiveDate": "2026-04-16T18:00:00+00:00",
        "expirationDate": "2200-01-01T00:00:00+00:00",
        "state": "MS",
        "forecastOffice": "https://api.weather.gov/offices/LIX",
        "gridIdentifier": "LIX",
        "awipsLocationIdentifier": "LIX",
        "cwa": [
            "LIX"
        ],
        "forecastOffices": [
            "https://api.weather.gov/offices/LIX"
        ],
        "timeZone": [
            "America/Chicago"
        ],
        "observationStations": [
            "https://api.weather.gov/stations/KGPT",
            "https://api.weather.gov/stations/KBIX"
        ],
        "radarStation": "HDC"
    }
}