{
    "@context": {
        "@version": "1.1"
    },
    "id": "https://api.weather.gov/zones/forecast/UTZ126",
    "type": "Feature",
    "geometry": {
        "type": "MultiPolygon",
        "coordinates": [
            [
                [
                    [
                        -111.823929,
                        38.569252
                    ],
                    [
                        -111.821369,
                        38.542445
                    ],
                    [
                        -111.839182,
                        38.530305
                    ],
                    [
                        -111.851664,
                        38.502134
                    ],
                    [
                        -111.857109,
                        38.488891
                    ],
                    [
                        -111.862747,
                        38.474467
                    ],
                    [
                        -111.868549,
                        38.452488
                    ],
                    [
                        -111.874389,
                        38.433846
                    ],
                    [
                        -111.886274,
                        38.414204
                    ],
                    [
                        -111.894601,
                        38.401265
                    ],
                    [
                        -111.901148,
                        38.391677
                    ],
                    [
                        -111.905757,
                        38.372566
                    ],
                    [
                        -111.921318,
                        38.357661
                    ],
                    [
                        -111.929632,
                        38.34472
                    ],
                    [
                        -111.929169,
                        38.308479
                    ],
                    [
                        -111.941034,
                        38.281088
                    ],
                    [
                        -111.947995,
                        38.258141
                    ],
                    [
                        -111.952223,
                        38.2345
                    ],
                    [
                        -111.960027,
                        38.207253
                    ],
                    [
                        -111.97518,
                        38.187814
                    ],
                    [
                        -111.977622,
                        38.167048
                    ],
                    [
                        -111.981893,
                        38.147698
                    ],
                    [
                        -111.980738,
                        38.129108
                    ],
                    [
                        -111.975944,
                        38.109118
                    ],
                    [
                        -111.970257,
                        38.08985
                    ],
                    [
                        -111.981207,
                        38.088562
                    ],
                    [
                        -111.989789,
                        38.093543
                    ],
                    [
                        -111.997724,
                        38.107248
                    ],
                    [
                        -112.009248,
                        38.114162
                    ],
                    [
                        -112.015807,
                        38.138804
                    ],
                    [
                        -112.030344,
                        38.16912
                    ],
                    [
                        -112.022898,
                        38.186139
                    ],
                    [
                        -112.020416,
                        38.202449
                    ],
                    [
                        -112.024849,
                        38.210073
                    ],
                    [
                        -112.02804,
                        38.22071
                    ],
                    [
                        -112.021262,
                        38.229026
                    ],
                    [
                        -112.012616,
                        38.228865
                    ],
                    [
                        -112.009248,
                        38.242338
                    ],
                    [
                        -112.007475,
                        38.264853
                    ],
                    [
                        -112.008538,
                        38.277795
                    ],
                    [
                        -112.006853,
                        38.290761
                    ],
                    [
                        -111.99737,
                        38.294637
                    ],
                    [
                        -111.979641,
                        38.298006
                    ],
                    [
                        -111.971663,
                        38.31272
                    ],
                    [
                        -111.958367,
                        38.340022
                    ],
                    [
                        -111.950389,
                        38.361828
                    ],
                    [
                        -111.960262,
                        38.380099
                    ],
                    [
                        -111.94918,
                        38.404174
                    ],
                    [
                        -111.943974,
                        38.423291
                    ],
                    [
                        -111.93928,
                        38.435251
                    ],
                    [
                        -111.93037,
                        38.449629
                    ],
                    [
                        -111.925702,
                        38.463972
                    ],
                    [
                        -111.921699,
                        38.479795
                    ],
                    [
                        -111.901712,
                        38.496069
                    ],
                    [
                        -111.90114,
                        38.502212
                    ],
                    [
                        -111.899599,
                        38.516823
                    ],
                    [
                        -111.884085,
                        38.527766
                    ],
                    [
                        -111.87398,
                        38.542126
                    ],
                    [
                        -111.871143,
                        38.558791
                    ],
                    [
                        -111.881726,
                        38.577414
                    ],
                    [
                        -111.874029,
                        38.592082
                    ],
                    [
                        -111.85573,
                        38.570588
                    ],
                    [
                        -111.851082,
                        38.568119
                    ],
                    [
                        -111.848976,
                        38.581408
                    ],
                    [
                        -111.853043,
                        38.606896
                    ],
                    [
                        -111.853261,
                        38.624905
                    ],
                    [
                        -111.840859,
                        38.641832
                    ],
                    [
                        -111.840402,
                        38.650537
                    ],
                    [
                        -111.847919,
                        38.667253
                    ],
                    [
                        -111.838161,
                        38.673607
                    ],
                    [
                        -111.822844,
                        38.672926
                    ],
                    [
                        -111.815696,
                        38.649667
                    ],
                    [
                        -111.820234,
                        38.635143
                    ],
                    [
                        -111.816186,
                        38.615526
                    ],
                    [
                        -111.812523,
                        38.609728
                    ],
                    [
                        -111.813104,
                        38.592881
                    ],
                    [
                        -111.822267,
                        38.588128
                    ],
                    [
                        -111.823929,
                        38.569252
                    ]
                ]
            ],
            [
                [
                    [
                        -112.220364,
                        38.493962
                    ],
                    [
                        -112.211635,
                        38.489046
                    ],
                    [
                        -112.205786,
                        38.49304
                    ],
                    [
                        -112.192567,
                        38.491745
                    ],
                    [
                        -112.184733,
                        38.485744
                    ],
                    [
                        -112.172857,
                        38.482264
                    ],
                    [
                        -112.170284,
                        38.473229
                    ],
                    [
                        -112.165309,
                        38.465649
                    ],
                    [
                        -112.164957,
                        38.443716
                    ],
                    [
                        -112.159954,
                        38.434228
                    ],
                    [
                        -112.153157,
                        38.426188
                    ],
                    [
                        -112.1316,
                        38.404462
                    ],
                    [
                        -112.121743,
                        38.394066
                    ],
                    [
                        -112.11437,
                        38.38746
                    ],
                    [
                        -112.110583,
                        38.377481
                    ],
                    [
                        -112.100674,
                        38.363268
                    ],
                    [
                        -112.10876,
                        38.33744
                    ],
                    [
                        -112.107908,
                        38.321234
                    ],
                    [
                        -112.110752,
                        38.309285
                    ],
                    [
                        -112.116082,
                        38.301604
                    ],
                    [
                        -112.126397,
                        38.305522
                    ],
                    [
                        -112.139731,
                        38.31132
                    ],
                    [
                        -112.152485,
                        38.3219
                    ],
                    [
                        -112.161037,
                        38.336973
                    ],
                    [
                        -112.171907,
                        38.341611
                    ],
                    [
                        -112.180893,
                        38.337408
                    ],
                    [
                        -112.18669,
                        38.322335
                    ],
                    [
                        -112.191038,
                        38.31016
                    ],
                    [
                        -112.192053,
                        38.294652
                    ],
                    [
                        -112.184516,
                        38.282912
                    ],
                    [
                        -112.179588,
                        38.271752
                    ],
                    [
                        -112.172052,
                        38.259577
                    ],
                    [
                        -112.166109,
                        38.248852
                    ],
                    [
                        -112.159327,
                        38.243004
                    ],
                    [
                        -112.171904,
                        38.218921
                    ],
                    [
                        -112.173526,
                        38.206982
                    ],
                    [
                        -112.179996,
                        38.195949
                    ],
                    [
                        -112.188346,
                        38.189188
                    ],
                    [
                        -112.195323,
                        38.172426
                    ],
                    [
                        -112.206437,
                        38.150375
                    ],
                    [
                        -112.220722,
                        38.137828
                    ],
                    [
                        -112.232016,
                        38.127218
                    ],
                    [
                        -112.240877,
                        38.11568
                    ],
                    [
                        -112.269094,
                        38.106794
                    ],
                    [
                        -112.281741,
                        38.105226
                    ],
                    [
                        -112.290631,
                        38.110966
                    ],
                    [
                        -112.289904,
                        38.123259
                    ],
                    [
                        -112.284656,
                        38.133808
                    ],
                    [
                        -112.290181,
                        38.138993
                    ],
                    [
                        -112.298625,
                        38.138423
                    ],
                    [
                        -112.315822,
                        38.132977
                    ],
                    [
                        -112.32469,
                        38.142502
                    ],
                    [
                        -112.32924,
                        38.153121
                    ],
                    [
                        -112.336564,
                        38.15733
                    ],
                    [
                        -112.33718,
                        38.166265
                    ],
                    [
                        -112.326938,
                        38.176038
                    ],
                    [
                        -112.31945,
                        38.187926
                    ],
                    [
                        -112.313855,
                        38.204441
                    ],
                    [
                        -112.307301,
                        38.218105
                    ],
                    [
                        -112.302921,
                        38.226738
                    ],
                    [
                        -112.298528,
                        38.234655
                    ],
                    [
                        -112.295507,
                        38.243273
                    ],
                    [
                        -112.288882,
                        38.25336
                    ],
                    [
                        -112.286791,
                        38.263398
                    ],
                    [
                        -112.274552,
                        38.263889
                    ],
                    [
                        -112.264598,
                        38.265427
                    ],
                    [
                        -112.251622,
                        38.271172
                    ],
                    [
                        -112.241331,
                        38.280738
                    ],
                    [
                        -112.235244,
                        38.292913
                    ],
                    [
                        -112.231186,
                        38.305957
                    ],
                    [
                        -112.226838,
                        38.319146
                    ],
                    [
                        -112.228722,
                        38.332191
                    ],
                    [
                        -112.23307,
                        38.344655
                    ],
                    [
                        -112.240462,
                        38.353496
                    ],
                    [
                        -112.260123,
                        38.373847
                    ],
                    [
                        -112.271623,
                        38.384802
                    ],
                    [
                        -112.281479,
                        38.396397
                    ],
                    [
                        -112.288436,
                        38.402485
                    ],
                    [
                        -112.294983,
                        38.410473
                    ],
                    [
                        -112.299091,
                        38.418843
                    ],
                    [
                        -112.295122,
                        38.425683
                    ],
                    [
                        -112.288405,
                        38.431479
                    ],
                    [
                        -112.266829,
                        38.438794
                    ],
                    [
                        -112.253471,
                        38.445473
                    ],
                    [
                        -112.244886,
                        38.463952
                    ],
                    [
                        -112.241134,
                        38.473857
                    ],
                    [
                        -112.246329,
                        38.481092
                    ],
                    [
                        -112.247442,
                        38.489348
                    ],
                    [
                        -112.258202,
                        38.496583
                    ],
                    [
                        -112.261634,
                        38.50085
                    ],
                    [
                        -112.263025,
                        38.506508
                    ],
                    [
                        -112.264139,
                        38.511899
                    ],
                    [
                        -112.225918,
                        38.512069
                    ],
                    [
                        -112.220364,
                        38.493962
                    ]
                ]
            ],
            [
                [
                    [
                        -112.44929,
                        37.616201
                    ],
                    [
                        -112.463813,
                        37.606834
                    ],
                    [
                        -112.471428,
                        37.61227
                    ],
                    [
                        -112.464684,
                        37.634936
                    ],
                    [
                        -112.440213,
                        37.644521
                    ],
                    [
                        -112.438615,
                        37.667831
                    ],
                    [
                        -112.408534,
                        37.69046
                    ],
                    [
                        -112.383005,
                        37.731306
                    ],
                    [
                        -112.381303,
                        37.750481
                    ],
                    [
                        -112.395195,
                        37.772358
                    ],
                    [
                        -112.399992,
                        37.786164
                    ],
                    [
                        -112.406364,
                        37.799482
                    ],
                    [
                        -112.42591,
                        37.801155
                    ],
                    [
                        -112.439206,
                        37.806696
                    ],
                    [
                        -112.450009,
                        37.818607
                    ],
                    [
                        -112.453334,
                        37.842983
                    ],
                    [
                        -112.457489,
                        37.865144
                    ],
                    [
                        -112.465799,
                        37.88398
                    ],
                    [
                        -112.447239,
                        37.91639
                    ],
                    [
                        -112.441145,
                        37.936058
                    ],
                    [
                        -112.426464,
                        37.960157
                    ],
                    [
                        -112.413999,
                        37.982041
                    ],
                    [
                        -112.396824,
                        38.005309
                    ],
                    [
                        -112.371627,
                        38.018763
                    ],
                    [
                        -112.358043,
                        38.01639
                    ],
                    [
                        -112.34198,
                        37.992149
                    ],
                    [
                        -112.345701,
                        37.964923
                    ],
                    [
                        -112.332282,
                        37.931626
                    ],
                    [
                        -112.328958,
                        37.880933
                    ],
                    [
                        -112.341018,
                        37.816478
                    ],
                    [
                        -112.343085,
                        37.799493
                    ],
                    [
                        -112.332836,
                        37.790075
                    ],
                    [
                        -112.335599,
                        37.758279
                    ],
                    [
                        -112.340661,
                        37.734694
                    ],
                    [
                        -112.357351,
                        37.7019
                    ],
                    [
                        -112.384186,
                        37.665976
                    ],
                    [
                        -112.410588,
                        37.638276
                    ],
                    [
                        -112.44929,
                        37.616201
                    ]
                ]
            ]
        ]
    },
    "properties": {
        "@id": "https://api.weather.gov/zones/forecast/UTZ126",
        "@type": "wx:Zone",
        "id": "UTZ126",
        "type": "public",
        "name": "Upper Sevier River Valleys",
        "effectiveDate": "2026-04-16T18:00:00+00:00",
        "expirationDate": "2200-01-01T00:00:00+00:00",
        "state": "UT",
        "forecastOffice": "https://api.weather.gov/offices/SLC",
        "gridIdentifier": "SLC",
        "awipsLocationIdentifier": "SLC",
        "cwa": [
            "SLC"
        ],
        "forecastOffices": [
            "https://api.weather.gov/offices/SLC"
        ],
        "timeZone": [
            "America/Denver"
        ],
        "observationStations": [
            "https://api.weather.gov/stations/KU55"
        ],
        "radarStation": null
    }
}