{
    "@context": {
        "@version": "1.1"
    },
    "id": "https://api.weather.gov/zones/forecast/AZZ001",
    "type": "Feature",
    "geometry": {
        "type": "Polygon",
        "coordinates": [
            [
                [
                    -112.546494,
                    37.000813
                ],
                [
                    -112.5401,
                    36.999714
                ],
                [
                    -112.540199,
                    36.997414
                ],
                [
                    -112.543495,
                    36.995613
                ],
                [
                    -112.543694,
                    36.99221
                ],
                [
                    -112.542801,
                    36.987713
                ],
                [
                    -112.542999,
                    36.984314
                ],
                [
                    -112.541298,
                    36.982212
                ],
                [
                    -112.539696,
                    36.981213
                ],
                [
                    -112.538597,
                    36.978512
                ],
                [
                    -112.536194,
                    36.976112
                ],
                [
                    -112.534096,
                    36.971512
                ],
                [
                    -112.531097,
                    36.966511
                ],
                [
                    -112.530594,
                    36.962612
                ],
                [
                    -112.530899,
                    36.959614
                ],
                [
                    -112.531998,
                    36.956413
                ],
                [
                    -112.529793,
                    36.953312
                ],
                [
                    -112.530396,
                    36.950611
                ],
                [
                    -112.533195,
                    36.948013
                ],
                [
                    -112.535995,
                    36.946114
                ],
                [
                    -112.5383,
                    36.943913
                ],
                [
                    -112.541199,
                    36.942314
                ],
                [
                    -112.542793,
                    36.94091
                ],
                [
                    -112.544296,
                    36.93951
                ],
                [
                    -112.545593,
                    36.937111
                ],
                [
                    -112.544693,
                    36.934113
                ],
                [
                    -112.545395,
                    36.931614
                ],
                [
                    -112.544998,
                    36.928013
                ],
                [
                    -112.548096,
                    36.92741
                ],
                [
                    -112.547295,
                    36.923813
                ],
                [
                    -112.5467,
                    36.922211
                ],
                [
                    -112.546394,
                    36.91991
                ],
                [
                    -112.547394,
                    36.917912
                ],
                [
                    -112.5485,
                    36.913811
                ],
                [
                    -112.551796,
                    36.913311
                ],
                [
                    -112.553696,
                    36.907913
                ],
                [
                    -112.556396,
                    36.906212
                ],
                [
                    -112.563194,
                    36.900414
                ],
                [
                    -112.567101,
                    36.897511
                ],
                [
                    -112.571495,
                    36.892212
                ],
                [
                    -112.5709,
                    36.889511
                ],
                [
                    -112.572296,
                    36.887611
                ],
                [
                    -112.574097,
                    36.886013
                ],
                [
                    -112.572495,
                    36.883213
                ],
                [
                    -112.573097,
                    36.879112
                ],
                [
                    -112.575394,
                    36.87561
                ],
                [
                    -112.574196,
                    36.873314
                ],
                [
                    -112.575798,
                    36.870213
                ],
                [
                    -112.578194,
                    36.867813
                ],
                [
                    -112.575798,
                    36.865112
                ],
                [
                    -112.578598,
                    36.864513
                ],
                [
                    -112.580795,
                    36.862411
                ],
                [
                    -112.584297,
                    36.860512
                ],
                [
                    -112.586395,
                    36.857513
                ],
                [
                    -112.585999,
                    36.854412
                ],
                [
                    -112.587494,
                    36.850712
                ],
                [
                    -112.585297,
                    36.848011
                ],
                [
                    -112.588799,
                    36.845013
                ],
                [
                    -112.589096,
                    36.842712
                ],
                [
                    -112.592499,
                    36.840111
                ],
                [
                    -112.592995,
                    36.837212
                ],
                [
                    -112.594101,
                    36.833714
                ],
                [
                    -112.599197,
                    36.832512
                ],
                [
                    -112.597496,
                    36.829514
                ],
                [
                    -112.597198,
                    36.825512
                ],
                [
                    -112.600395,
                    36.823013
                ],
                [
                    -112.599899,
                    36.820011
                ],
                [
                    -112.600899,
                    36.817711
                ],
                [
                    -112.599594,
                    36.815613
                ],
                [
                    -112.599594,
                    36.811012
                ],
                [
                    -112.597595,
                    36.80891
                ],
                [
                    -112.600899,
                    36.807312
                ],
                [
                    -112.603096,
                    36.808514
                ],
                [
                    -112.606194,
                    36.807312
                ],
                [
                    -112.603996,
                    36.805111
                ],
                [
                    -112.6054,
                    36.802513
                ],
                [
                    -112.604294,
                    36.799911
                ],
                [
                    -112.607895,
                    36.800911
                ],
                [
                    -112.6101,
                    36.801712
                ],
                [
                    -112.6092,
                    36.798111
                ],
                [
                    -112.613998,
                    36.797611
                ],
                [
                    -112.612297,
                    36.794514
                ],
                [
                    -112.613998,
                    36.791313
                ],
                [
                    -112.6138,
                    36.787312
                ],
                [
                    -112.616699,
                    36.785011
                ],
                [
                    -112.6194,
                    36.782612
                ],
                [
                    -112.617699,
                    36.77861
                ],
                [
                    -112.6157,
                    36.774712
                ],
                [
                    -112.616699,
                    36.772213
                ],
                [
                    -112.619797,
                    36.769611
                ],
                [
                    -112.620499,
                    36.766911
                ],
                [
                    -112.620399,
                    36.763912
                ],
                [
                    -112.617294,
                    36.763214
                ],
                [
                    -112.615997,
                    36.761711
                ],
                [
                    -112.615097,
                    36.757813
                ],
                [
                    -112.610893,
                    36.756512
                ],
                [
                    -112.612,
                    36.752411
                ],
                [
                    -112.613495,
                    36.754211
                ],
                [
                    -112.615898,
                    36.755112
                ],
                [
                    -112.6166,
                    36.752712
                ],
                [
                    -112.615097,
                    36.749714
                ],
                [
                    -112.613396,
                    36.745712
                ],
                [
                    -112.612801,
                    36.742611
                ],
                [
                    -112.615898,
                    36.744312
                ],
                [
                    -112.617599,
                    36.741211
                ],
                [
                    -112.614899,
                    36.740913
                ],
                [
                    -112.613396,
                    36.737511
                ],
                [
                    -112.616592,
                    36.736912
                ],
                [
                    -112.619194,
                    36.738712
                ],
                [
                    -112.621696,
                    36.737911
                ],
                [
                    -112.621796,
                    36.735313
                ],
                [
                    -112.619797,
                    36.734512
                ],
                [
                    -112.616798,
                    36.734112
                ],
                [
                    -112.6175,
                    36.730412
                ],
                [
                    -112.620598,
                    36.729012
                ],
                [
                    -112.622498,
                    36.723713
                ],
                [
                    -112.6203,
                    36.721512
                ],
                [
                    -112.6231,
                    36.720112
                ],
                [
                    -112.623993,
                    36.717411
                ],
                [
                    -112.627396,
                    36.716312
                ],
                [
                    -112.626595,
                    36.713612
                ],
                [
                    -112.624199,
                    36.710613
                ],
                [
                    -112.625694,
                    36.707912
                ],
                [
                    -112.630096,
                    36.705711
                ],
                [
                    -112.628296,
                    36.702412
                ],
                [
                    -112.627594,
                    36.700211
                ],
                [
                    -112.628799,
                    36.697411
                ],
                [
                    -112.630096,
                    36.695812
                ],
                [
                    -112.6297,
                    36.692913
                ],
                [
                    -112.630295,
                    36.689613
                ],
                [
                    -112.6325,
                    36.688614
                ],
                [
                    -112.634399,
                    36.687012
                ],
                [
                    -112.6353,
                    36.684311
                ],
                [
                    -112.633698,
                    36.681812
                ],
                [
                    -112.633293,
                    36.679211
                ],
                [
                    -112.636497,
                    36.677212
                ],
                [
                    -112.638397,
                    36.674412
                ],
                [
                    -112.636597,
                    36.672413
                ],
                [
                    -112.636093,
                    36.668613
                ],
                [
                    -112.634796,
                    36.665913
                ],
                [
                    -112.633896,
                    36.663513
                ],
                [
                    -112.632599,
                    36.657711
                ],
                [
                    -112.630096,
                    36.656212
                ],
                [
                    -112.627998,
                    36.65451
                ],
                [
                    -112.630394,
                    36.652111
                ],
                [
                    -112.6297,
                    36.649612
                ],
                [
                    -112.626595,
                    36.647614
                ],
                [
                    -112.628899,
                    36.644211
                ],
                [
                    -112.628197,
                    36.638813
                ],
                [
                    -112.627594,
                    36.636513
                ],
                [
                    -112.625298,
                    36.634514
                ],
                [
                    -112.6269,
                    36.630913
                ],
                [
                    -112.625999,
                    36.628311
                ],
                [
                    -112.622795,
                    36.626713
                ],
                [
                    -112.622795,
                    36.625011
                ],
                [
                    -112.623695,
                    36.622013
                ],
                [
                    -112.622993,
                    36.618813
                ],
                [
                    -112.622597,
                    36.615311
                ],
                [
                    -112.618896,
                    36.614311
                ],
                [
                    -112.619095,
                    36.611012
                ],
                [
                    -112.621895,
                    36.607212
                ],
                [
                    -112.620193,
                    36.602512
                ],
                [
                    -112.623299,
                    36.600113
                ],
                [
                    -112.621193,
                    36.595814
                ],
                [
                    -112.623596,
                    36.594913
                ],
                [
                    -112.626099,
                    36.593212
                ],
                [
                    -112.623596,
                    36.591713
                ],
                [
                    -112.6278,
                    36.590012
                ],
                [
                    -112.627701,
                    36.585812
                ],
                [
                    -112.626801,
                    36.584011
                ],
                [
                    -112.626396,
                    36.581814
                ],
                [
                    -112.629494,
                    36.581413
                ],
                [
                    -112.628197,
                    36.578213
                ],
                [
                    -112.630196,
                    36.576611
                ],
                [
                    -112.634796,
                    36.576313
                ],
                [
                    -112.6325,
                    36.574612
                ],
                [
                    -112.632401,
                    36.571514
                ],
                [
                    -112.635994,
                    36.570114
                ],
                [
                    -112.638596,
                    36.570812
                ],
                [
                    -112.643593,
                    36.571114
                ],
                [
                    -112.641693,
                    36.568813
                ],
                [
                    -112.641998,
                    36.566212
                ],
                [
                    -112.646194,
                    36.56451
                ],
                [
                    -112.648193,
                    36.563011
                ],
                [
                    -112.649895,
                    36.559414
                ],
                [
                    -112.653496,
                    36.558311
                ],
                [
                    -112.654694,
                    36.555611
                ],
                [
                    -112.656197,
                    36.553612
                ],
                [
                    -112.651794,
                    36.552612
                ],
                [
                    -112.650192,
                    36.550613
                ],
                [
                    -112.651993,
                    36.548111
                ],
                [
                    -112.652695,
                    36.545311
                ],
                [
                    -112.654694,
                    36.543613
                ],
                [
                    -112.659294,
                    36.543411
                ],
                [
                    -112.659599,
                    36.538513
                ],
                [
                    -112.656197,
                    36.537312
                ],
                [
                    -112.6586,
                    36.534912
                ],
                [
                    -112.659393,
                    36.531811
                ],
                [
                    -112.658394,
                    36.529114
                ],
                [
                    -112.655396,
                    36.528812
                ],
                [
                    -112.653595,
                    36.529011
                ],
                [
                    -112.654297,
                    36.526112
                ],
                [
                    -112.655296,
                    36.520611
                ],
                [
                    -112.653099,
                    36.519112
                ],
                [
                    -112.655701,
                    36.515114
                ],
                [
                    -112.652199,
                    36.510212
                ],
                [
                    -112.646797,
                    36.510113
                ],
                [
                    -112.644897,
                    36.507813
                ],
                [
                    -112.645195,
                    36.505112
                ],
                [
                    -112.647499,
                    36.503712
                ],
                [
                    -112.644394,
                    36.502411
                ],
                [
                    -112.641693,
                    36.501812
                ],
                [
                    -112.641396,
                    36.498611
                ],
                [
                    -112.640099,
                    36.495811
                ],
                [
                    -112.637497,
                    36.494614
                ],
                [
                    -112.635895,
                    36.492111
                ],
                [
                    -112.639496,
                    36.489811
                ],
                [
                    -112.638695,
                    36.487812
                ],
                [
                    -112.636093,
                    36.485611
                ],
                [
                    -112.633194,
                    36.485012
                ],
                [
                    -112.629997,
                    36.486511
                ],
                [
                    -112.627899,
                    36.48661
                ],
                [
                    -112.625694,
                    36.484913
                ],
                [
                    -112.6222,
                    36.484711
                ],
                [
                    -112.6222,
                    36.482014
                ],
                [
                    -112.624695,
                    36.481411
                ],
                [
                    -112.624893,
                    36.477512
                ],
                [
                    -112.622894,
                    36.474712
                ],
                [
                    -112.630096,
                    36.470013
                ],
                [
                    -112.629097,
                    36.466614
                ],
                [
                    -112.630096,
                    36.464012
                ],
                [
                    -112.632599,
                    36.462414
                ],
                [
                    -112.634598,
                    36.46331
                ],
                [
                    -112.637993,
                    36.462112
                ],
                [
                    -112.640694,
                    36.460911
                ],
                [
                    -112.643196,
                    36.460411
                ],
                [
                    -112.644394,
                    36.457012
                ],
                [
                    -112.6418,
                    36.456112
                ],
                [
                    -112.642097,
                    36.452911
                ],
                [
                    -112.641396,
                    36.449913
                ],
                [
                    -112.642998,
                    36.446812
                ],
                [
                    -112.641495,
                    36.444813
                ],
                [
                    -112.640099,
                    36.443314
                ],
                [
                    -112.6371,
                    36.44371
                ],
                [
                    -112.639496,
                    36.439411
                ],
                [
                    -112.642593,
                    36.439613
                ],
                [
                    -112.644501,
                    36.441113
                ],
                [
                    -112.645798,
                    36.439011
                ],
                [
                    -112.642799,
                    36.437214
                ],
                [
                    -112.6437,
                    36.434513
                ],
                [
                    -112.639793,
                    36.433514
                ],
                [
                    -112.640999,
                    36.431213
                ],
                [
                    -112.637894,
                    36.425613
                ],
                [
                    -112.634895,
                    36.42691
                ],
                [
                    -112.631096,
                    36.428013
                ],
                [
                    -112.628494,
                    36.42691
                ],
                [
                    -112.629593,
                    36.423714
                ],
                [
                    -112.627792,
                    36.421112
                ],
                [
                    -112.627594,
                    36.418114
                ],
                [
                    -112.626099,
                    36.415913
                ],
                [
                    -112.6241,
                    36.41431
                ],
                [
                    -112.624596,
                    36.411213
                ],
                [
                    -112.6241,
                    36.409214
                ],
                [
                    -112.624794,
                    36.406811
                ],
                [
                    -112.627495,
                    36.404911
                ],
                [
                    -112.6306,
                    36.401314
                ],
                [
                    -112.629898,
                    36.397812
                ],
                [
                    -112.631897,
                    36.394913
                ],
                [
                    -112.629799,
                    36.392212
                ],
                [
                    -112.6325,
                    36.391113
                ],
                [
                    -112.638596,
                    36.389214
                ],
                [
                    -112.642494,
                    36.387112
                ],
                [
                    -112.645393,
                    36.385113
                ],
                [
                    -112.647697,
                    36.382511
                ],
                [
                    -112.648895,
                    36.379711
                ],
                [
                    -112.649498,
                    36.376911
                ],
                [
                    -112.650093,
                    36.370911
                ],
                [
                    -112.650993,
                    36.366314
                ],
                [
                    -112.652695,
                    36.362614
                ],
                [
                    -112.656296,
                    36.357513
                ],
                [
                    -112.659996,
                    36.353912
                ],
                [
                    -112.667793,
                    36.347111
                ],
                [
                    -112.671494,
                    36.345013
                ],
                [
                    -112.675995,
                    36.343014
                ],
                [
                    -112.681496,
                    36.341911
                ],
                [
                    -112.685997,
                    36.345112
                ],
                [
                    -112.688698,
                    36.353111
                ],
                [
                    -112.6922,
                    36.355011
                ],
                [
                    -112.695,
                    36.355312
                ],
                [
                    -112.698097,
                    36.355412
                ],
                [
                    -112.705399,
                    36.352913
                ],
                [
                    -112.707695,
                    36.351711
                ],
                [
                    -112.710899,
                    36.350311
                ],
                [
                    -112.714394,
                    36.349113
                ],
                [
                    -112.721695,
                    36.347313
                ],
                [
                    -112.724495,
                    36.345612
                ],
                [
                    -112.726196,
                    36.343014
                ],
                [
                    -112.726196,
                    36.339611
                ],
                [
                    -112.724899,
                    36.335514
                ],
                [
                    -112.723595,
                    36.332714
                ],
                [
                    -112.721695,
                    36.329613
                ],
                [
                    -112.720695,
                    36.327614
                ],
                [
                    -112.7201,
                    36.324612
                ],
                [
                    -112.721695,
                    36.321312
                ],
                [
                    -112.724594,
                    36.318813
                ],
                [
                    -112.727997,
                    36.318012
                ],
                [
                    -112.730896,
                    36.317814
                ],
                [
                    -112.734894,
                    36.318512
                ],
                [
                    -112.738495,
                    36.319813
                ],
                [
                    -112.741394,
                    36.321312
                ],
                [
                    -112.744194,
                    36.323013
                ],
                [
                    -112.748596,
                    36.325111
                ],
                [
                    -112.752998,
                    36.325314
                ],
                [
                    -112.755196,
                    36.324612
                ],
                [
                    -112.7575,
                    36.322914
                ],
                [
                    -112.758698,
                    36.320713
                ],
                [
                    -112.760498,
                    36.31311
                ],
                [
                    -112.761696,
                    36.310013
                ],
                [
                    -112.763695,
                    36.307911
                ],
                [
                    -112.766197,
                    36.305714
                ],
                [
                    -112.769699,
                    36.303711
                ],
                [
                    -112.774994,
                    36.302914
                ],
                [
                    -112.7827,
                    36.303013
                ],
                [
                    -112.785393,
                    36.302414
                ],
                [
                    -112.787895,
                    36.300213
                ],
                [
                    -112.7892,
                    36.296513
                ],
                [
                    -112.7892,
                    36.289913
                ],
                [
                    -112.790596,
                    36.286613
                ],
                [
                    -112.793098,
                    36.284714
                ],
                [
                    -112.797295,
                    36.283813
                ],
                [
                    -112.800995,
                    36.284714
                ],
                [
                    -112.805099,
                    36.286312
                ],
                [
                    -112.809494,
                    36.287712
                ],
                [
                    -112.813995,
                    36.288612
                ],
                [
                    -112.819397,
                    36.288712
                ],
                [
                    -112.823395,
                    36.28841
                ],
                [
                    -112.827293,
                    36.287712
                ],
                [
                    -112.830299,
                    36.286411
                ],
                [
                    -112.833099,
                    36.284111
                ],
                [
                    -112.835396,
                    36.281311
                ],
                [
                    -112.8386,
                    36.278214
                ],
                [
                    -112.842995,
                    36.276711
                ],
                [
                    -112.845993,
                    36.276913
                ],
                [
                    -112.852699,
                    36.278713
                ],
                [
                    -112.8638,
                    36.282013
                ],
                [
                    -112.865898,
                    36.282413
                ],
                [
                    -112.868698,
                    36.28231
                ],
                [
                    -112.871994,
                    36.281113
                ],
                [
                    -112.877998,
                    36.276814
                ],
                [
                    -112.879799,
                    36.272812
                ],
                [
                    -112.881599,
                    36.266811
                ],
                [
                    -112.884293,
                    36.263813
                ],
                [
                    -112.890694,
                    36.259113
                ],
                [
                    -112.899399,
                    36.254414
                ],
                [
                    -112.9039,
                    36.254013
                ],
                [
                    -112.909096,
                    36.255611
                ],
                [
                    -112.913994,
                    36.257713
                ],
                [
                    -112.9198,
                    36.258312
                ],
                [
                    -112.924393,
                    36.257011
                ],
                [
                    -112.927597,
                    36.253014
                ],
                [
                    -112.928398,
                    36.250011
                ],
                [
                    -112.929695,
                    36.246811
                ],
                [
                    -112.931793,
                    36.244511
                ],
                [
                    -112.935295,
                    36.242813
                ],
                [
                    -112.938995,
                    36.241611
                ],
                [
                    -112.948494,
                    36.239811
                ],
                [
                    -112.9524,
                    36.239311
                ],
                [
                    -112.957695,
                    36.237812
                ],
                [
                    -112.961998,
                    36.235912
                ],
                [
                    -112.973495,
                    36.23381
                ],
                [
                    -112.9758,
                    36.233013
                ],
                [
                    -112.978699,
                    36.232311
                ],
                [
                    -112.982292,
                    36.231712
                ],
                [
                    -112.988594,
                    36.23241
                ],
                [
                    -112.992996,
                    36.233711
                ],
                [
                    -112.996399,
                    36.235111
                ],
                [
                    -113.0056,
                    36.238411
                ],
                [
                    -113.008995,
                    36.239014
                ],
                [
                    -113.012093,
                    36.238712
                ],
                [
                    -113.014999,
                    36.237713
                ],
                [
                    -113.017998,
                    36.237011
                ],
                [
                    -113.020599,
                    36.235912
                ],
                [
                    -113.023193,
                    36.234211
                ],
                [
                    -113.026794,
                    36.232613
                ],
                [
                    -113.030495,
                    36.231213
                ],
                [
                    -113.0336,
                    36.22961
                ],
                [
                    -113.035995,
                    36.228313
                ],
                [
                    -113.038696,
                    36.226212
                ],
                [
                    -113.041298,
                    36.223911
                ],
                [
                    -113.043694,
                    36.22121
                ],
                [
                    -113.045998,
                    36.218513
                ],
                [
                    -113.047699,
                    36.215714
                ],
                [
                    -113.050995,
                    36.211514
                ],
                [
                    -113.053795,
                    36.208912
                ],
                [
                    -113.057999,
                    36.207714
                ],
                [
                    -113.062294,
                    36.207211
                ],
                [
                    -113.069695,
                    36.204311
                ],
                [
                    -113.074593,
                    36.201611
                ],
                [
                    -113.077698,
                    36.199413
                ],
                [
                    -113.083397,
                    36.197514
                ],
                [
                    -113.088394,
                    36.195011
                ],
                [
                    -113.095299,
                    36.19371
                ],
                [
                    -113.100494,
                    36.190811
                ],
                [
                    -113.102394,
                    36.189312
                ],
                [
                    -113.104599,
                    36.188313
                ],
                [
                    -113.114098,
                    36.183212
                ],
                [
                    -113.115997,
                    36.181313
                ],
                [
                    -113.119698,
                    36.175613
                ],
                [
                    -113.122299,
                    36.173012
                ],
                [
                    -113.125298,
                    36.170811
                ],
                [
                    -113.129196,
                    36.169113
                ],
                [
                    -113.1362,
                    36.166611
                ],
                [
                    -113.139297,
                    36.167213
                ],
                [
                    -113.142799,
                    36.171211
                ],
                [
                    -113.145996,
                    36.173012
                ],
                [
                    -113.149193,
                    36.173714
                ],
                [
                    -113.1558,
                    36.174412
                ],
                [
                    -113.159798,
                    36.17321
                ],
                [
                    -113.163994,
                    36.171013
                ],
                [
                    -113.166893,
                    36.167213
                ],
                [
                    -113.169296,
                    36.164814
                ],
                [
                    -113.1726,
                    36.162712
                ],
                [
                    -113.176697,
                    36.160511
                ],
                [
                    -113.180496,
                    36.158813
                ],
                [
                    -113.187599,
                    36.156914
                ],
                [
                    -113.196793,
                    36.152912
                ],
                [
                    -113.199196,
                    36.151413
                ],
                [
                    -113.2015,
                    36.148312
                ],
                [
                    -113.200699,
                    36.145611
                ],
                [
                    -113.201195,
                    36.143513
                ],
                [
                    -113.2033,
                    36.140114
                ],
                [
                    -113.204399,
                    36.137012
                ],
                [
                    -113.205299,
                    36.133213
                ],
                [
                    -113.204498,
                    36.129913
                ],
                [
                    -113.203995,
                    36.12701
                ],
                [
                    -113.201897,
                    36.12141
                ],
                [
                    -113.201996,
                    36.11861
                ],
                [
                    -113.2043,
                    36.116112
                ],
                [
                    -113.208099,
                    36.11301
                ],
                [
                    -113.2136,
                    36.109711
                ],
                [
                    -113.215897,
                    36.107212
                ],
                [
                    -113.216896,
                    36.104511
                ],
                [
                    -113.2183,
                    36.102314
                ],
                [
                    -113.218498,
                    36.100311
                ],
                [
                    -113.219498,
                    36.098511
                ],
                [
                    -113.222397,
                    36.095013
                ],
                [
                    -113.224297,
                    36.091511
                ],
                [
                    -113.227097,
                    36.090511
                ],
                [
                    -113.231094,
                    36.089512
                ],
                [
                    -113.236198,
                    36.090214
                ],
                [
                    -113.238693,
                    36.091011
                ],
                [
                    -113.243393,
                    36.093113
                ],
                [
                    -113.246696,
                    36.093212
                ],
                [
                    -113.250198,
                    36.091614
                ],
                [
                    -113.2528,
                    36.090214
                ],
                [
                    -113.256699,
                    36.088814
                ],
                [
                    -113.2621,
                    36.09111
                ],
                [
                    -113.266098,
                    36.091713
                ],
                [
                    -113.268295,
                    36.092312
                ],
                [
                    -113.274796,
                    36.096111
                ],
                [
                    -113.2771,
                    36.097012
                ],
                [
                    -113.280296,
                    36.097313
                ],
                [
                    -113.287796,
                    36.097313
                ],
                [
                    -113.293098,
                    36.096512
                ],
                [
                    -113.297195,
                    36.095711
                ],
                [
                    -113.300598,
                    36.095711
                ],
                [
                    -113.309494,
                    36.099812
                ],
                [
                    -113.3134,
                    36.100014
                ],
                [
                    -113.32,
                    36.096813
                ],
                [
                    -113.322296,
                    36.093113
                ],
                [
                    -113.323799,
                    36.089611
                ],
                [
                    -113.326195,
                    36.080612
                ],
                [
                    -113.326599,
                    36.077812
                ],
                [
                    -113.327499,
                    36.075211
                ],
                [
                    -113.3311,
                    36.068211
                ],
                [
                    -113.334496,
                    36.065811
                ],
                [
                    -113.336632,
                    36.064682
                ],
                [
                    -113.387306,
                    36.064682
                ],
                [
                    -113.414322,
                    35.989029
                ],
                [
                    -113.694969,
                    36.030918
                ],
                [
                    -113.744949,
                    36.039032
                ],
                [
                    -113.776398,
                    36.410507
                ],
                [
                    -114.045799,
                    36.415413
                ],
                [
                    -114.045799,
                    36.443012
                ],
                [
                    -114.045998,
                    36.461613
                ],
                [
                    -114.046593,
                    36.474712
                ],
                [
                    -114.048401,
                    36.499611
                ],
                [
                    -114.048897,
                    36.519112
                ],
                [
                    -114.048698,
                    36.534111
                ],
                [
                    -114.0495,
                    36.608612
                ],
                [
                    -114.049698,
                    36.621113
                ],
                [
                    -114.050194,
                    36.625011
                ],
                [
                    -114.050598,
                    36.655514
                ],
                [
                    -114.050697,
                    36.74781
                ],
                [
                    -114.050301,
                    36.750511
                ],
                [
                    -114.050598,
                    36.843079
                ],
                [
                    -114.0504,
                    36.875011
                ],
                [
                    -114.050491,
                    36.895325
                ],
                [
                    -114.049995,
                    36.957813
                ],
                [
                    -114.050301,
                    37.000313
                ],
                [
                    -114.020699,
                    37.000511
                ],
                [
                    -113.965897,
                    37.000011
                ],
                [
                    -113.897147,
                    37.000011
                ],
                [
                    -113.733388,
                    37.000011
                ],
                [
                    -113.3008,
                    37.000011
                ],
                [
                    -113.004997,
                    37.000011
                ],
                [
                    -112.988396,
                    37.000214
                ],
                [
                    -112.9534,
                    37.000214
                ],
                [
                    -112.8843,
                    37.000511
                ],
                [
                    -112.625793,
                    37.00061
                ],
                [
                    -112.546494,
                    37.000813
                ]
            ]
        ]
    },
    "properties": {
        "@id": "https://api.weather.gov/zones/forecast/AZZ001",
        "@type": "wx:Zone",
        "id": "AZZ001",
        "type": "public",
        "name": "Northwest Plateau",
        "effectiveDate": "2026-04-16T18:00:00+00:00",
        "expirationDate": "2200-01-01T00:00:00+00:00",
        "state": "AZ",
        "forecastOffice": "https://api.weather.gov/offices/VEF",
        "gridIdentifier": "VEF",
        "awipsLocationIdentifier": "VEF",
        "cwa": [
            "VEF"
        ],
        "forecastOffices": [
            "https://api.weather.gov/offices/VEF"
        ],
        "timeZone": [
            "America/Phoenix"
        ],
        "observationStations": [
            "https://api.weather.gov/stations/KCDC",
            "https://api.weather.gov/stations/KFLG",
            "https://api.weather.gov/stations/KKNB",
            "https://api.weather.gov/stations/KSGU",
            "https://api.weather.gov/stations/QBRA3",
            "https://api.weather.gov/stations/QHUA3",
            "https://api.weather.gov/stations/QMLA3",
            "https://api.weather.gov/stations/QOKA3",
            "https://api.weather.gov/stations/QYJA3"
        ],
        "radarStation": null
    }
}