{
    "@context": {
        "@version": "1.1"
    },
    "id": "https://api.weather.gov/zones/forecast/IAZ052",
    "type": "Feature",
    "geometry": {
        "type": "Polygon",
        "coordinates": [
            [
                [
                    -91.596893,
                    42.296211
                ],
                [
                    -91.479195,
                    42.295914
                ],
                [
                    -91.461197,
                    42.296112
                ],
                [
                    -91.402298,
                    42.296211
                ],
                [
                    -91.383194,
                    42.296413
                ],
                [
                    -91.363098,
                    42.296211
                ],
                [
                    -91.363899,
                    42.182911
                ],
                [
                    -91.364799,
                    42.125011
                ],
                [
                    -91.364594,
                    42.121914
                ],
                [
                    -91.364594,
                    42.034412
                ],
                [
                    -91.364998,
                    42.008614
                ],
                [
                    -91.364998,
                    42.000011
                ],
                [
                    -91.365295,
                    41.994614
                ],
                [
                    -91.365799,
                    41.962811
                ],
                [
                    -91.365799,
                    41.947212
                ],
                [
                    -91.366196,
                    41.878811
                ],
                [
                    -91.366096,
                    41.860012
                ],
                [
                    -91.493599,
                    41.859913
                ],
                [
                    -91.503998,
                    41.860111
                ],
                [
                    -91.530693,
                    41.860111
                ],
                [
                    -91.5979,
                    41.860611
                ],
                [
                    -91.695297,
                    41.861912
                ],
                [
                    -91.743996,
                    41.862011
                ],
                [
                    -91.827095,
                    41.861813
                ],
                [
                    -91.8312,
                    41.862011
                ],
                [
                    -91.831596,
                    41.865112
                ],
                [
                    -91.831795,
                    41.872612
                ],
                [
                    -91.831596,
                    41.879112
                ],
                [
                    -91.831993,
                    41.902214
                ],
                [
                    -91.832596,
                    41.927212
                ],
                [
                    -91.833099,
                    41.937511
                ],
                [
                    -91.835297,
                    42.036911
                ],
                [
                    -91.834694,
                    42.06591
                ],
                [
                    -91.834595,
                    42.080612
                ],
                [
                    -91.834297,
                    42.083412
                ],
                [
                    -91.833893,
                    42.085312
                ],
                [
                    -91.834396,
                    42.118713
                ],
                [
                    -91.834297,
                    42.135513
                ],
                [
                    -91.833893,
                    42.15731
                ],
                [
                    -91.832497,
                    42.203613
                ],
                [
                    -91.832298,
                    42.22261
                ],
                [
                    -91.832497,
                    42.224712
                ],
                [
                    -91.831596,
                    42.268814
                ],
                [
                    -91.831497,
                    42.28421
                ],
                [
                    -91.830994,
                    42.298912
                ],
                [
                    -91.777496,
                    42.297512
                ],
                [
                    -91.773499,
                    42.297611
                ],
                [
                    -91.708199,
                    42.29631
                ],
                [
                    -91.684998,
                    42.296413
                ],
                [
                    -91.596893,
                    42.296211
                ]
            ]
        ]
    },
    "properties": {
        "@id": "https://api.weather.gov/zones/forecast/IAZ052",
        "@type": "wx:Zone",
        "id": "IAZ052",
        "type": "public",
        "name": "Linn",
        "effectiveDate": "2026-04-16T18:00:00+00:00",
        "expirationDate": "2200-01-01T00:00:00+00:00",
        "state": "IA",
        "forecastOffice": "https://api.weather.gov/offices/DVN",
        "gridIdentifier": "DVN",
        "awipsLocationIdentifier": "DVN",
        "cwa": [
            "DVN"
        ],
        "forecastOffices": [
            "https://api.weather.gov/offices/DVN"
        ],
        "timeZone": [
            "America/Chicago"
        ],
        "observationStations": [
            "https://api.weather.gov/stations/KCID",
            "https://api.weather.gov/stations/KIIB",
            "https://api.weather.gov/stations/KIOW",
            "https://api.weather.gov/stations/KMXO",
            "https://api.weather.gov/stations/KVTI"
        ],
        "radarStation": "DVN"
    }
}