{
    "@context": {
        "@version": "1.1"
    },
    "id": "https://api.weather.gov/zones/forecast/MSZ088",
    "type": "Feature",
    "geometry": {
        "type": "MultiPolygon",
        "coordinates": [
            [
                [
                    [
                        -88.621277,
                        30.359131
                    ],
                    [
                        -88.624207,
                        30.358521
                    ],
                    [
                        -88.623108,
                        30.363708
                    ],
                    [
                        -88.619324,
                        30.364502
                    ],
                    [
                        -88.614624,
                        30.366089
                    ],
                    [
                        -88.616882,
                        30.361877
                    ],
                    [
                        -88.621277,
                        30.359131
                    ]
                ]
            ],
            [
                [
                    [
                        -88.822327,
                        30.365295
                    ],
                    [
                        -88.819885,
                        30.362122
                    ],
                    [
                        -88.824097,
                        30.363098
                    ],
                    [
                        -88.828796,
                        30.364929
                    ],
                    [
                        -88.848877,
                        30.373901
                    ],
                    [
                        -88.8526,
                        30.375671
                    ],
                    [
                        -88.854614,
                        30.378113
                    ],
                    [
                        -88.851318,
                        30.378906
                    ],
                    [
                        -88.848389,
                        30.378113
                    ],
                    [
                        -88.841919,
                        30.375488
                    ],
                    [
                        -88.836487,
                        30.374084
                    ],
                    [
                        -88.832886,
                        30.372681
                    ],
                    [
                        -88.829407,
                        30.371094
                    ],
                    [
                        -88.825317,
                        30.368286
                    ],
                    [
                        -88.822327,
                        30.365295
                    ]
                ]
            ],
            [
                [
                    [
                        -88.403809,
                        30.544312
                    ],
                    [
                        -88.403625,
                        30.535278
                    ],
                    [
                        -88.401917,
                        30.5047
                    ],
                    [
                        -88.401489,
                        30.500305
                    ],
                    [
                        -88.400385,
                        30.472595
                    ],
                    [
                        -88.396484,
                        30.397522
                    ],
                    [
                        -88.398682,
                        30.393921
                    ],
                    [
                        -88.399719,
                        30.391235
                    ],
                    [
                        -88.397705,
                        30.389099
                    ],
                    [
                        -88.393677,
                        30.386719
                    ],
                    [
                        -88.398804,
                        30.388489
                    ],
                    [
                        -88.396912,
                        30.385071
                    ],
                    [
                        -88.396912,
                        30.38208
                    ],
                    [
                        -88.400818,
                        30.384521
                    ],
                    [
                        -88.404419,
                        30.387085
                    ],
                    [
                        -88.408997,
                        30.385925
                    ],
                    [
                        -88.412415,
                        30.381287
                    ],
                    [
                        -88.412088,
                        30.379979
                    ],
                    [
                        -88.411194,
                        30.378906
                    ],
                    [
                        -88.410698,
                        30.375614
                    ],
                    [
                        -88.406677,
                        30.374878
                    ],
                    [
                        -88.403625,
                        30.373474
                    ],
                    [
                        -88.402849,
                        30.371844
                    ],
                    [
                        -88.401698,
                        30.370292
                    ],
                    [
                        -88.39679,
                        30.366089
                    ],
                    [
                        -88.397583,
                        30.363281
                    ],
                    [
                        -88.398193,
                        30.35968
                    ],
                    [
                        -88.397743,
                        30.358223
                    ],
                    [
                        -88.395966,
                        30.354448
                    ],
                    [
                        -88.394975,
                        30.353316
                    ],
                    [
                        -88.39383,
                        30.349941
                    ],
                    [
                        -88.394035,
                        30.3498
                    ],
                    [
                        -88.393982,
                        30.34967
                    ],
                    [
                        -88.394585,
                        30.349421
                    ],
                    [
                        -88.399295,
                        30.34608
                    ],
                    [
                        -88.400208,
                        30.345093
                    ],
                    [
                        -88.400467,
                        30.345285
                    ],
                    [
                        -88.401917,
                        30.344299
                    ],
                    [
                        -88.403809,
                        30.347717
                    ],
                    [
                        -88.401917,
                        30.349915
                    ],
                    [
                        -88.406311,
                        30.350281
                    ],
                    [
                        -88.410095,
                        30.351929
                    ],
                    [
                        -88.411011,
                        30.35553
                    ],
                    [
                        -88.412109,
                        30.358276
                    ],
                    [
                        -88.421204,
                        30.357727
                    ],
                    [
                        -88.423828,
                        30.35553
                    ],
                    [
                        -88.426819,
                        30.35553
                    ],
                    [
                        -88.429504,
                        30.357483
                    ],
                    [
                        -88.431885,
                        30.360901
                    ],
                    [
                        -88.434509,
                        30.358276
                    ],
                    [
                        -88.437683,
                        30.358521
                    ],
                    [
                        -88.440796,
                        30.356873
                    ],
                    [
                        -88.444911,
                        30.357469
                    ],
                    [
                        -88.448975,
                        30.355286
                    ],
                    [
                        -88.446411,
                        30.34729
                    ],
                    [
                        -88.445923,
                        30.344299
                    ],
                    [
                        -88.446411,
                        30.339294
                    ],
                    [
                        -88.449707,
                        30.334106
                    ],
                    [
                        -88.451599,
                        30.331726
                    ],
                    [
                        -88.454529,
                        30.329529
                    ],
                    [
                        -88.458679,
                        30.327271
                    ],
                    [
                        -88.461609,
                        30.326477
                    ],
                    [
                        -88.464417,
                        30.32489
                    ],
                    [
                        -88.466797,
                        30.32312
                    ],
                    [
                        -88.471924,
                        30.320129
                    ],
                    [
                        -88.475281,
                        30.319275
                    ],
                    [
                        -88.479919,
                        30.318481
                    ],
                    [
                        -88.485596,
                        30.318909
                    ],
                    [
                        -88.48938,
                        30.318909
                    ],
                    [
                        -88.495422,
                        30.319519
                    ],
                    [
                        -88.504822,
                        30.321716
                    ],
                    [
                        -88.506409,
                        30.327881
                    ],
                    [
                        -88.509094,
                        30.328918
                    ],
                    [
                        -88.510986,
                        30.331299
                    ],
                    [
                        -88.508911,
                        30.341309
                    ],
                    [
                        -88.507202,
                        30.346497
                    ],
                    [
                        -88.510925,
                        30.344116
                    ],
                    [
                        -88.514587,
                        30.33429
                    ],
                    [
                        -88.517212,
                        30.336487
                    ],
                    [
                        -88.522522,
                        30.340088
                    ],
                    [
                        -88.536194,
                        30.343323
                    ],
                    [
                        -88.544312,
                        30.343689
                    ],
                    [
                        -88.552185,
                        30.343323
                    ],
                    [
                        -88.561829,
                        30.343506
                    ],
                    [
                        -88.564575,
                        30.344727
                    ],
                    [
                        -88.56781,
                        30.344482
                    ],
                    [
                        -88.571289,
                        30.344727
                    ],
                    [
                        -88.575195,
                        30.345703
                    ],
                    [
                        -88.578186,
                        30.346924
                    ],
                    [
                        -88.580994,
                        30.350098
                    ],
                    [
                        -88.583313,
                        30.35553
                    ],
                    [
                        -88.585815,
                        30.358887
                    ],
                    [
                        -88.582703,
                        30.361694
                    ],
                    [
                        -88.582397,
                        30.36853
                    ],
                    [
                        -88.585999,
                        30.371277
                    ],
                    [
                        -88.589294,
                        30.371887
                    ],
                    [
                        -88.594299,
                        30.373291
                    ],
                    [
                        -88.596802,
                        30.370911
                    ],
                    [
                        -88.597229,
                        30.367126
                    ],
                    [
                        -88.595215,
                        30.361511
                    ],
                    [
                        -88.594177,
                        30.357727
                    ],
                    [
                        -88.598511,
                        30.358704
                    ],
                    [
                        -88.601318,
                        30.355896
                    ],
                    [
                        -88.6026,
                        30.361328
                    ],
                    [
                        -88.599487,
                        30.364685
                    ],
                    [
                        -88.601013,
                        30.36908
                    ],
                    [
                        -88.602112,
                        30.373108
                    ],
                    [
                        -88.608276,
                        30.372681
                    ],
                    [
                        -88.609009,
                        30.36853
                    ],
                    [
                        -88.605713,
                        30.360718
                    ],
                    [
                        -88.605591,
                        30.355713
                    ],
                    [
                        -88.610901,
                        30.355286
                    ],
                    [
                        -88.611023,
                        30.359131
                    ],
                    [
                        -88.610901,
                        30.363708
                    ],
                    [
                        -88.612183,
                        30.368103
                    ],
                    [
                        -88.611511,
                        30.373108
                    ],
                    [
                        -88.61731,
                        30.372681
                    ],
                    [
                        -88.62323,
                        30.36908
                    ],
                    [
                        -88.626526,
                        30.367676
                    ],
                    [
                        -88.629822,
                        30.366516
                    ],
                    [
                        -88.638,
                        30.359497
                    ],
                    [
                        -88.645081,
                        30.359924
                    ],
                    [
                        -88.656494,
                        30.360107
                    ],
                    [
                        -88.666016,
                        30.361084
                    ],
                    [
                        -88.669678,
                        30.35968
                    ],
                    [
                        -88.672791,
                        30.358887
                    ],
                    [
                        -88.678711,
                        30.356079
                    ],
                    [
                        -88.686096,
                        30.351501
                    ],
                    [
                        -88.688782,
                        30.349487
                    ],
                    [
                        -88.691895,
                        30.347473
                    ],
                    [
                        -88.699219,
                        30.344116
                    ],
                    [
                        -88.706299,
                        30.342712
                    ],
                    [
                        -88.709778,
                        30.343323
                    ],
                    [
                        -88.717285,
                        30.343323
                    ],
                    [
                        -88.72168,
                        30.343689
                    ],
                    [
                        -88.725586,
                        30.343506
                    ],
                    [
                        -88.731995,
                        30.344299
                    ],
                    [
                        -88.743713,
                        30.347717
                    ],
                    [
                        -88.746582,
                        30.349915
                    ],
                    [
                        -88.75,
                        30.349915
                    ],
                    [
                        -88.757385,
                        30.354492
                    ],
                    [
                        -88.764709,
                        30.360718
                    ],
                    [
                        -88.772705,
                        30.366089
                    ],
                    [
                        -88.775513,
                        30.367676
                    ],
                    [
                        -88.781494,
                        30.370483
                    ],
                    [
                        -88.788513,
                        30.373291
                    ],
                    [
                        -88.793213,
                        30.375916
                    ],
                    [
                        -88.798706,
                        30.378479
                    ],
                    [
                        -88.805725,
                        30.38208
                    ],
                    [
                        -88.809021,
                        30.385071
                    ],
                    [
                        -88.803894,
                        30.385681
                    ],
                    [
                        -88.797913,
                        30.384094
                    ],
                    [
                        -88.794312,
                        30.383728
                    ],
                    [
                        -88.791016,
                        30.384277
                    ],
                    [
                        -88.783508,
                        30.382507
                    ],
                    [
                        -88.781128,
                        30.3797
                    ],
                    [
                        -88.776184,
                        30.3797
                    ],
                    [
                        -88.771912,
                        30.382324
                    ],
                    [
                        -88.774719,
                        30.384521
                    ],
                    [
                        -88.78009,
                        30.383118
                    ],
                    [
                        -88.78418,
                        30.386108
                    ],
                    [
                        -88.788696,
                        30.386719
                    ],
                    [
                        -88.7901,
                        30.389282
                    ],
                    [
                        -88.794678,
                        30.392517
                    ],
                    [
                        -88.799683,
                        30.392273
                    ],
                    [
                        -88.80481,
                        30.392517
                    ],
                    [
                        -88.810181,
                        30.394714
                    ],
                    [
                        -88.824097,
                        30.40271
                    ],
                    [
                        -88.827698,
                        30.404114
                    ],
                    [
                        -88.841797,
                        30.410706
                    ],
                    [
                        -88.844482,
                        30.418518
                    ],
                    [
                        -88.853027,
                        30.423279
                    ],
                    [
                        -88.851501,
                        30.426331
                    ],
                    [
                        -88.847717,
                        30.424683
                    ],
                    [
                        -88.84198,
                        30.423523
                    ],
                    [
                        -88.838806,
                        30.419128
                    ],
                    [
                        -88.834717,
                        30.420288
                    ],
                    [
                        -88.831116,
                        30.420898
                    ],
                    [
                        -88.833191,
                        30.423279
                    ],
                    [
                        -88.837891,
                        30.423706
                    ],
                    [
                        -88.84021,
                        30.426514
                    ],
                    [
                        -88.844116,
                        30.42749
                    ],
                    [
                        -88.846802,
                        30.429077
                    ],
                    [
                        -88.850098,
                        30.432129
                    ],
                    [
                        -88.857178,
                        30.430298
                    ],
                    [
                        -88.860413,
                        30.429871
                    ],
                    [
                        -88.866699,
                        30.426697
                    ],
                    [
                        -88.869812,
                        30.424683
                    ],
                    [
                        -88.873413,
                        30.425903
                    ],
                    [
                        -88.87738,
                        30.423096
                    ],
                    [
                        -88.882019,
                        30.42511
                    ],
                    [
                        -88.88205,
                        30.425297
                    ],
                    [
                        -88.883179,
                        30.431885
                    ],
                    [
                        -88.883423,
                        30.443726
                    ],
                    [
                        -88.883301,
                        30.460876
                    ],
                    [
                        -88.883423,
                        30.464905
                    ],
                    [
                        -88.883423,
                        30.493896
                    ],
                    [
                        -88.694132,
                        30.548331
                    ],
                    [
                        -88.403809,
                        30.544312
                    ]
                ]
            ]
        ]
    },
    "properties": {
        "@id": "https://api.weather.gov/zones/forecast/MSZ088",
        "@type": "wx:Zone",
        "id": "MSZ088",
        "type": "public",
        "name": "Southern Jackson",
        "effectiveDate": "2026-04-16T18:00:00+00:00",
        "expirationDate": "2200-01-01T00:00:00+00:00",
        "state": "MS",
        "forecastOffice": "https://api.weather.gov/offices/LIX",
        "gridIdentifier": "LIX",
        "awipsLocationIdentifier": "LIX",
        "cwa": [
            "LIX"
        ],
        "forecastOffices": [
            "https://api.weather.gov/offices/LIX"
        ],
        "timeZone": [
            "America/Chicago"
        ],
        "observationStations": [
            "https://api.weather.gov/stations/KBIX",
            "https://api.weather.gov/stations/KGPT"
        ],
        "radarStation": "HDC"
    }
}