{
"type": "FeatureCollection",
"name": "al092021_2021082618_forecastradii",
"features": [
{ "type": "Feature", "properties": { "RADII": 34.0, "STORMID": "al092021", "BASIN": "al", "STORMNUM": 9.0, "ADVNUM": "1A", "VALIDTIME": "2021082618", "SYNOPTIME": "2021082612", "TIMEZONE": "UTC", "TAU": 0.0, "NE": 0.0, "SE": 0.0, "SW": 0.0, "NW": 0.0 }, "geometry": { "type": "Polygon", "coordinates": [ [ [ -80.3908, 19.1982 ], [ -80.4092, 19.1982 ], [ -80.4277, 19.1979 ], [ -80.4461, 19.1973 ], [ -80.4645, 19.1963 ], [ -80.4829, 19.1951 ], [ -80.5013, 19.1936 ], [ -80.5197, 19.1918 ], [ -80.538, 19.1896 ], [ -80.5562, 19.1872 ], [ -80.5744, 19.1844 ], [ -80.5926, 19.1814 ], [ -80.6107, 19.1781 ], [ -80.6287, 19.1744 ], [ -80.6467, 19.1705 ], [ -80.6646, 19.1662 ], [ -80.6824, 19.1617 ], [ -80.7001, 19.1569 ], [ -80.7178, 19.1518 ], [ -80.7353, 19.1463 ], [ -80.7527, 19.1406 ], [ -80.77, 19.1346 ], [ -80.7872, 19.1284 ], [ -80.8043, 19.1218 ], [ -80.8213, 19.115 ], [ -80.8381, 19.1078 ], [ -80.8548, 19.1004 ], [ -80.8713, 19.0928 ], [ -80.8877, 19.0848 ], [ -80.904, 19.0766 ], [ -80.9201, 19.0681 ], [ -80.936, 19.0593 ], [ -80.9518, 19.0503 ], [ -80.9674, 19.041 ], [ -80.9828, 19.0315 ], [ -80.998, 19.0217 ], [ -81.0131, 19.0117 ], [ -81.028, 19.0014 ], [ -81.0426, 18.9909 ], [ -81.0571, 18.9801 ], [ -81.0714, 18.9691 ], [ -81.0855, 18.9578 ], [ -81.0993, 18.9463 ], [ -81.113, 18.9346 ], [ -81.1264, 18.9227 ], [ -81.1396, 18.9105 ], [ -81.1525, 18.8982 ], [ -81.1653, 18.8856 ], [ -81.1778, 18.8728 ], [ -81.19, 18.8598 ], [ -81.202, 18.8466 ], [ -81.2138, 18.8332 ], [ -81.2253, 18.8196 ], [ -81.2366, 18.8058 ], [ -81.2476, 18.7919 ], [ -81.2583, 18.7777 ], [ -81.2688, 18.7634 ], [ -81.279, 18.7489 ], [ -81.289, 18.7343 ], [ -81.2987, 18.7195 ], [ -81.308, 18.7045 ], [ -81.3172, 18.6894 ], [ -81.326, 18.6741 ], [ -81.3345, 18.6586 ], [ -81.3428, 18.6431 ], [ -81.3508, 18.6274 ], [ -81.3585, 18.6116 ], [ -81.3659, 18.5956 ], [ -81.3729, 18.5795 ], [ -81.3797, 18.5633 ], [ -81.3862, 18.5471 ], [ -81.3924, 18.5306 ], [ -81.3983, 18.5141 ], [ -81.4039, 18.4975 ], [ -81.4092, 18.4809 ], [ -81.4141, 18.4641 ], [ -81.4188, 18.4472 ], [ -81.4231, 18.4303 ], [ -81.4271, 18.4133 ], [ -81.4309, 18.3963 ], [ -81.4343, 18.3791 ], [ -81.4373, 18.362 ], [ -81.4401, 18.3447 ], [ -81.4426, 18.3275 ], [ -81.4447, 18.3102 ], [ -81.4465, 18.2928 ], [ -81.448, 18.2755 ], [ -81.4492, 18.2581 ], [ -81.45, 18.2407 ], [ -81.4506, 18.2233 ], [ -81.4508, 18.2059 ], [ -80.4, 18.2 ], [ -80.4, 18.2 ], [ -80.4, 18.2 ], [ -80.4, 18.2 ], [ -80.4, 18.2 ], [ -80.4, 18.2 ], [ -80.4, 18.2 ], [ -80.4, 18.2 ], [ -80.4, 18.2 ], [ -80.4, 18.2 ], [ -80.4, 18.2 ], [ -80.4, 18.2 ], [ -80.4, 18.2 ], [ -80.4, 18.2 ], [ -80.4, 18.2 ], [ -80.4, 18.2 ], [ -80.4, 18.2 ], [ -80.4, 18.2 ], [ -80.4, 18.2 ], [ -80.4, 18.2 ], [ -80.4, 18.2 ], [ -80.4, 18.2 ], [ -80.4, 18.2 ], [ -80.4, 18.2 ], [ -80.4, 18.2 ], [ -80.4, 18.2 ], [ -80.4, 18.2 ], [ -80.4, 18.2 ], [ -80.4, 18.2 ], [ -80.4, 18.2 ], [ -80.4, 18.2 ], [ -80.4, 18.2 ], [ -80.4, 18.2 ], [ -80.4, 18.2 ], [ -80.4, 18.2 ], [ -80.4, 18.2 ], [ -80.4, 18.2 ], [ -80.4, 18.2 ], [ -80.4, 18.2 ], [ -80.4, 18.2 ], [ -80.4, 18.2 ], [ -80.4, 18.2 ], [ -80.4, 18.2 ], [ -80.4, 18.2 ], [ -80.4, 18.2 ], [ -80.4, 18.2 ], [ -80.4, 18.2 ], [ -80.4, 18.2 ], [ -80.4, 18.2 ], [ -80.4, 18.2 ], [ -80.4, 18.2 ], [ -80.4, 18.2 ], [ -80.4, 18.2 ], [ -80.4, 18.2 ], [ -80.4, 18.2 ], [ -80.4, 18.2 ], [ -80.4, 18.2 ], [ -80.4, 18.2 ], [ -80.4, 18.2 ], [ -80.4, 18.2 ], [ -80.4, 18.2 ], [ -80.4, 18.2 ], [ -80.4, 18.2 ], [ -80.4, 18.2 ], [ -80.4, 18.2 ], [ -80.4, 18.2 ], [ -80.4, 18.2 ], [ -80.4, 18.2 ], [ -80.4, 18.2 ], [ -80.4, 18.2 ], [ -80.4, 18.2 ], [ -80.4, 18.2 ], [ -80.4, 18.2 ], [ -80.4, 18.2 ], [ -80.4, 18.2 ], [ -80.4, 18.2 ], [ -80.4, 18.2 ], [ -80.4, 18.2 ], [ -80.4, 18.2 ], [ -80.4, 18.2 ], [ -80.4, 18.2 ], [ -80.4, 18.2 ], [ -80.4, 18.2 ], [ -80.4, 18.2 ], [ -80.4, 18.2 ], [ -80.4, 18.2 ], [ -80.4, 18.2 ], [ -80.4, 18.2 ], [ -80.4, 18.2 ], [ -80.4, 18.2 ], [ -80.3939, 17.5345 ], [ -80.3817, 17.5348 ], [ -80.3696, 17.5352 ], [ -80.3574, 17.5358 ], [ -80.3452, 17.5366 ], [ -80.3331, 17.5376 ], [ -80.321, 17.5388 ], [ -80.3089, 17.5402 ], [ -80.2968, 17.5418 ], [ -80.2848, 17.5436 ], [ -80.2728, 17.5456 ], [ -80.2609, 17.5478 ], [ -80.2489, 17.5502 ], [ -80.2371, 17.5528 ], [ -80.2253, 17.5556 ], [ -80.2135, 17.5586 ], [ -80.2018, 17.5618 ], [ -80.1901, 17.5652 ], [ -80.1785, 17.5688 ], [ -80.167, 17.5726 ], [ -80.1555, 17.5765 ], [ -80.1442, 17.5807 ], [ -80.1329, 17.585 ], [ -80.1216, 17.5895 ], [ -80.1105, 17.5942 ], [ -80.0994, 17.5991 ], [ -80.0885, 17.6042 ], [ -80.0776, 17.6094 ], [ -80.0668, 17.6149 ], [ -80.0562, 17.6205 ], [ -80.0456, 17.6263 ], [ -80.0352, 17.6322 ], [ -80.0248, 17.6384 ], [ -80.0146, 17.6447 ], [ -80.0045, 17.6512 ], [ -79.9945, 17.6578 ], [ -79.9846, 17.6646 ], [ -79.9748, 17.6716 ], [ -79.9652, 17.6787 ], [ -79.9557, 17.686 ], [ -79.9464, 17.6934 ], [ -79.9371, 17.701 ], [ -79.9281, 17.7088 ], [ -79.9191, 17.7167 ], [ -79.9103, 17.7247 ], [ -79.9017, 17.7329 ], [ -79.8932, 17.7413 ], [ -79.8848, 17.7497 ], [ -79.8767, 17.7583 ], [ -79.8686, 17.7671 ], [ -79.8608, 17.776 ], [ -79.8531, 17.785 ], [ -79.8455, 17.7941 ], [ -79.8382, 17.8033 ], [ -79.831, 17.8127 ], [ -79.8239, 17.8222 ], [ -79.8171, 17.8318 ], [ -79.8104, 17.8415 ], [ -79.8039, 17.8514 ], [ -79.7976, 17.8613 ], [ -79.7914, 17.8713 ], [ -79.7855, 17.8815 ], [ -79.7797, 17.8917 ], [ -79.7741, 17.9021 ], [ -79.7688, 17.9125 ], [ -79.7636, 17.923 ], [ -79.7586, 17.9336 ], [ -79.7538, 17.9443 ], [ -79.7491, 17.955 ], [ -79.7447, 17.9658 ], [ -79.7405, 17.9767 ], [ -79.7365, 17.9877 ], [ -79.7327, 17.9987 ], [ -79.7291, 18.0098 ], [ -79.7256, 18.021 ], [ -79.7224, 18.0322 ], [ -79.7194, 18.0435 ], [ -79.7167, 18.0548 ], [ -79.7141, 18.0661 ], [ -79.7117, 18.0775 ], [ -79.7095, 18.0889 ], [ -79.7076, 18.1004 ], [ -79.7058, 18.1119 ], [ -79.7043, 18.1234 ], [ -79.703, 18.135 ], [ -79.7019, 18.1465 ], [ -79.701, 18.1581 ], [ -79.7003, 18.1697 ], [ -79.6998, 18.1813 ], [ -79.6995, 18.1929 ], [ -79.3492, 18.2059 ], [ -79.3494, 18.2233 ], [ -79.35, 18.2407 ], [ -79.3508, 18.2581 ], [ -79.352, 18.2755 ], [ -79.3535, 18.2928 ], [ -79.3553, 18.3102 ], [ -79.3574, 18.3275 ], [ -79.3599, 18.3447 ], [ -79.3627, 18.362 ], [ -79.3657, 18.3791 ], [ -79.3691, 18.3963 ], [ -79.3729, 18.4133 ], [ -79.3769, 18.4303 ], [ -79.3812, 18.4472 ], [ -79.3859, 18.4641 ], [ -79.3909, 18.4809 ], [ -79.3961, 18.4976 ], [ -79.4017, 18.5142 ], [ -79.4076, 18.5307 ], [ -79.4138, 18.5471 ], [ -79.4203, 18.5634 ], [ -79.4271, 18.5795 ], [ -79.4342, 18.5956 ], [ -79.4416, 18.6116 ], [ -79.4492, 18.6274 ], [ -79.4572, 18.6431 ], [ -79.4655, 18.6587 ], [ -79.474, 18.6741 ], [ -79.4828, 18.6894 ], [ -79.492, 18.7045 ], [ -79.5014, 18.7195 ], [ -79.511, 18.7343 ], [ -79.521, 18.7489 ], [ -79.5312, 18.7634 ], [ -79.5417, 18.7777 ], [ -79.5524, 18.7919 ], [ -79.5634, 18.8059 ], [ -79.5747, 18.8196 ], [ -79.5862, 18.8332 ], [ -79.598, 18.8466 ], [ -79.61, 18.8598 ], [ -79.6222, 18.8728 ], [ -79.6347, 18.8856 ], [ -79.6475, 18.8982 ], [ -79.6604, 18.9105 ], [ -79.6736, 18.9227 ], [ -79.6871, 18.9346 ], [ -79.7007, 18.9463 ], [ -79.7146, 18.9578 ], [ -79.7286, 18.9691 ], [ -79.7429, 18.9801 ], [ -79.7574, 18.9909 ], [ -79.772, 19.0014 ], [ -79.7869, 19.0117 ], [ -79.802, 19.0217 ], [ -79.8172, 19.0315 ], [ -79.8326, 19.041 ], [ -79.8482, 19.0503 ], [ -79.864, 19.0593 ], [ -79.8799, 19.0681 ], [ -79.896, 19.0766 ], [ -79.9123, 19.0848 ], [ -79.9287, 19.0928 ], [ -79.9452, 19.1004 ], [ -79.9619, 19.1078 ], [ -79.9788, 19.115 ], [ -79.9957, 19.1218 ], [ -80.0128, 19.1284 ], [ -80.03, 19.1346 ], [ -80.0473, 19.1406 ], [ -80.0647, 19.1463 ], [ -80.0823, 19.1518 ], [ -80.0999, 19.1569 ], [ -80.1176, 19.1617 ], [ -80.1354, 19.1662 ], [ -80.1533, 19.1705 ], [ -80.1713, 19.1744 ], [ -80.1893, 19.1781 ], [ -80.2074, 19.1814 ], [ -80.2256, 19.1844 ], [ -80.2438, 19.1872 ], [ -80.2621, 19.1896 ], [ -80.2804, 19.1918 ], [ -80.2987, 19.1936 ], [ -80.3171, 19.1951 ], [ -80.3355, 19.1963 ], [ -80.3539, 19.1973 ], [ -80.3723, 19.1979 ], [ -80.3908, 19.1982 ] ] ] } },
{ "type": "Feature", "properties": { "RADII": 34.0, "STORMID": "al092021", "BASIN": "al", "STORMNUM": 9.0, "ADVNUM": "1A", "VALIDTIME": "2021082703", "SYNOPTIME": "2021082612", "TIMEZONE": "UTC", "TAU": 12.0, "NE": 60.0, "SE": 40.0, "SW": 0.0, "NW": 60.0 }, "geometry": { "type": "Polygon", "coordinates": [ [ [ -81.9875, 21.6309 ], [ -82.0094, 21.2982 ], [ -82.0281, 21.2979 ], [ -82.0467, 21.2973 ], [ -82.0654, 21.2963 ], [ -82.0841, 21.2951 ], [ -82.1027, 21.2936 ], [ -82.1213, 21.2918 ], [ -82.1398, 21.2896 ], [ -82.1583, 21.2872 ], [ -82.1768, 21.2844 ], [ -82.1952, 21.2814 ], [ -82.2136, 21.278 ], [ -82.2318, 21.2744 ], [ -82.2501, 21.2705 ], [ -82.2682, 21.2662 ], [ -82.2862, 21.2617 ], [ -82.3042, 21.2568 ], [ -82.3221, 21.2517 ], [ -82.3398, 21.2463 ], [ -82.3575, 21.2406 ], [ -82.375, 21.2346 ], [ -82.3925, 21.2283 ], [ -82.4098, 21.2217 ], [ -82.427, 21.2149 ], [ -82.444, 21.2078 ], [ -82.4609, 21.2004 ], [ -82.4777, 21.1927 ], [ -82.4943, 21.1847 ], [ -82.5108, 21.1765 ], [ -82.5271, 21.168 ], [ -82.5432, 21.1592 ], [ -82.5592, 21.1502 ], [ -82.575, 21.1409 ], [ -82.5907, 21.1314 ], [ -82.6061, 21.1216 ], [ -82.6214, 21.1116 ], [ -82.6364, 21.1013 ], [ -82.6513, 21.0907 ], [ -82.666, 21.0799 ], [ -82.6804, 21.0689 ], [ -82.6947, 21.0577 ], [ -82.7087, 21.0462 ], [ -82.7225, 21.0345 ], [ -82.7361, 21.0225 ], [ -82.7495, 21.0104 ], [ -82.7626, 20.998 ], [ -82.7755, 20.9854 ], [ -82.7882, 20.9726 ], [ -82.8006, 20.9596 ], [ -82.8128, 20.9464 ], [ -82.8247, 20.933 ], [ -82.8363, 20.9194 ], [ -82.8477, 20.9056 ], [ -82.8589, 20.8917 ], [ -82.8698, 20.8775 ], [ -82.8804, 20.8632 ], [ -82.8907, 20.8487 ], [ -82.9008, 20.834 ], [ -82.9106, 20.8192 ], [ -82.9201, 20.8042 ], [ -82.9293, 20.7891 ], [ -82.9382, 20.7738 ], [ -82.9469, 20.7584 ], [ -82.9553, 20.7428 ], [ -82.9633, 20.7271 ], [ -82.9711, 20.7113 ], [ -82.9786, 20.6953 ], [ -82.9857, 20.6792 ], [ -82.9926, 20.663 ], [ -82.9992, 20.6467 ], [ -83.0054, 20.6303 ], [ -83.0114, 20.6138 ], [ -83.017, 20.5972 ], [ -83.0224, 20.5805 ], [ -83.0274, 20.5638 ], [ -83.0321, 20.5469 ], [ -83.0365, 20.53 ], [ -83.0405, 20.513 ], [ -83.0443, 20.4959 ], [ -83.0477, 20.4788 ], [ -83.0508, 20.4616 ], [ -83.0536, 20.4444 ], [ -83.0561, 20.4271 ], [ -83.0582, 20.4098 ], [ -83.0601, 20.3925 ], [ -83.0616, 20.3751 ], [ -83.0627, 20.3577 ], [ -83.0636, 20.3403 ], [ -83.0641, 20.3229 ], [ -83.0643, 20.3055 ], [ -82.3548, 20.2967 ], [ -82.3546, 20.2909 ], [ -82.3544, 20.2851 ], [ -82.3541, 20.2793 ], [ -82.3536, 20.2735 ], [ -82.3531, 20.2678 ], [ -82.3524, 20.262 ], [ -82.3516, 20.2562 ], [ -82.3508, 20.2505 ], [ -82.3498, 20.2447 ], [ -82.3487, 20.239 ], [ -82.3475, 20.2333 ], [ -82.3462, 20.2276 ], [ -82.3448, 20.222 ], [ -82.3433, 20.2164 ], [ -82.3417, 20.2107 ], [ -82.34, 20.2052 ], [ -82.3381, 20.1996 ], [ -82.3362, 20.1941 ], [ -82.3342, 20.1886 ], [ -82.3321, 20.1832 ], [ -82.3298, 20.1777 ], [ -82.3275, 20.1724 ], [ -82.3251, 20.167 ], [ -82.3225, 20.1617 ], [ -82.3199, 20.1565 ], [ -82.3172, 20.1512 ], [ -82.3144, 20.1461 ], [ -82.3115, 20.141 ], [ -82.3085, 20.1359 ], [ -82.3054, 20.1309 ], [ -82.3022, 20.1259 ], [ -82.2989, 20.121 ], [ -82.2955, 20.1161 ], [ -82.292, 20.1113 ], [ -82.2885, 20.1065 ], [ -82.2848, 20.1018 ], [ -82.2811, 20.0972 ], [ -82.2773, 20.0926 ], [ -82.2734, 20.0881 ], [ -82.2694, 20.0837 ], [ -82.2653, 20.0793 ], [ -82.2612, 20.075 ], [ -82.257, 20.0708 ], [ -82.2527, 20.0666 ], [ -82.2483, 20.0625 ], [ -82.2438, 20.0585 ], [ -82.2393, 20.0545 ], [ -82.2347, 20.0506 ], [ -82.23, 20.0468 ], [ -82.2253, 20.0431 ], [ -82.2205, 20.0395 ], [ -82.2156, 20.0359 ], [ -82.2107, 20.0324 ], [ -82.2057, 20.029 ], [ -82.2006, 20.0257 ], [ -82.1955, 20.0224 ], [ -82.1903, 20.0193 ], [ -82.185, 20.0162 ], [ -82.1797, 20.0132 ], [ -82.1744, 20.0103 ], [ -82.169, 20.0075 ], [ -82.1635, 20.0048 ], [ -82.158, 20.0022 ], [ -82.1524, 19.9996 ], [ -82.1468, 19.9972 ], [ -82.1412, 19.9948 ], [ -82.1355, 19.9925 ], [ -82.1298, 19.9904 ], [ -82.124, 19.9883 ], [ -82.1182, 19.9863 ], [ -82.1124, 19.9844 ], [ -82.1065, 19.9826 ], [ -82.1006, 19.9809 ], [ -82.0946, 19.9793 ], [ -82.0886, 19.9778 ], [ -82.0826, 19.9764 ], [ -82.0766, 19.9751 ], [ -82.0706, 19.9739 ], [ -82.0645, 19.9728 ], [ -82.0584, 19.9718 ], [ -82.0523, 19.9709 ], [ -82.0462, 19.9701 ], [ -82.0401, 19.9694 ], [ -82.0339, 19.9688 ], [ -82.0278, 19.9683 ], [ -82.0216, 19.9679 ], [ -82.0154, 19.9676 ], [ -82.0093, 19.9674 ], [ -82.0031, 19.9673 ], [ -81.9923, 19.4682 ], [ -81.9769, 19.4684 ], [ -81.9615, 19.4689 ], [ -81.9461, 19.4697 ], [ -81.9308, 19.4707 ], [ -81.9154, 19.472 ], [ -81.9001, 19.4735 ], [ -81.8848, 19.4752 ], [ -81.8696, 19.4772 ], [ -81.8544, 19.4795 ], [ -81.8392, 19.482 ], [ -81.8241, 19.4848 ], [ -81.809, 19.4878 ], [ -81.794, 19.491 ], [ -81.7791, 19.4945 ], [ -81.7642, 19.4983 ], [ -81.7494, 19.5022 ], [ -81.7346, 19.5065 ], [ -81.72, 19.5109 ], [ -81.7054, 19.5156 ], [ -81.6909, 19.5206 ], [ -81.6765, 19.5257 ], [ -81.6622, 19.5312 ], [ -81.648, 19.5368 ], [ -81.634, 19.5427 ], [ -81.62, 19.5488 ], [ -81.6061, 19.5551 ], [ -81.5924, 19.5617 ], [ -81.5788, 19.5685 ], [ -81.5653, 19.5755 ], [ -81.5519, 19.5827 ], [ -81.5387, 19.5901 ], [ -81.5256, 19.5978 ], [ -81.5126, 19.6057 ], [ -81.4998, 19.6138 ], [ -81.4872, 19.622 ], [ -81.4747, 19.6305 ], [ -81.4623, 19.6392 ], [ -81.4502, 19.6481 ], [ -81.4382, 19.6572 ], [ -81.4263, 19.6665 ], [ -81.4146, 19.676 ], [ -81.4031, 19.6857 ], [ -81.3918, 19.6956 ], [ -81.3807, 19.7056 ], [ -81.3698, 19.7158 ], [ -81.359, 19.7262 ], [ -81.3484, 19.7368 ], [ -81.3381, 19.7476 ], [ -81.3279, 19.7585 ], [ -81.3179, 19.7696 ], [ -81.3082, 19.7808 ], [ -81.2986, 19.7922 ], [ -81.2893, 19.8038 ], [ -81.2802, 19.8155 ], [ -81.2713, 19.8273 ], [ -81.2626, 19.8393 ], [ -81.2541, 19.8515 ], [ -81.2459, 19.8638 ], [ -81.2379, 19.8762 ], [ -81.2301, 19.8887 ], [ -81.2225, 19.9014 ], [ -81.2152, 19.9142 ], [ -81.2081, 19.9271 ], [ -81.2013, 19.9401 ], [ -81.1947, 19.9532 ], [ -81.1884, 19.9664 ], [ -81.1823, 19.9798 ], [ -81.1764, 19.9932 ], [ -81.1708, 20.0067 ], [ -81.1654, 20.0204 ], [ -81.1603, 20.0341 ], [ -81.1555, 20.0478 ], [ -81.1509, 20.0617 ], [ -81.1466, 20.0756 ], [ -81.1425, 20.0896 ], [ -81.1387, 20.1037 ], [ -81.1351, 20.1178 ], [ -81.1318, 20.132 ], [ -81.1288, 20.1463 ], [ -81.126, 20.1605 ], [ -81.1235, 20.1749 ], [ -81.1213, 20.1892 ], [ -81.1193, 20.2036 ], [ -81.1176, 20.2181 ], [ -81.1162, 20.2325 ], [ -81.115, 20.247 ], [ -81.1141, 20.2615 ], [ -81.1135, 20.276 ], [ -81.1132, 20.2905 ], [ -80.5809, 20.3059 ], [ -80.5811, 20.3291 ], [ -80.5818, 20.3523 ], [ -80.5828, 20.3755 ], [ -80.5844, 20.3987 ], [ -80.5863, 20.4219 ], [ -80.5887, 20.445 ], [ -80.5915, 20.4681 ], [ -80.5947, 20.4911 ], [ -80.5984, 20.5141 ], [ -80.6025, 20.537 ], [ -80.607, 20.5598 ], [ -80.612, 20.5826 ], [ -80.6174, 20.6053 ], [ -80.6232, 20.6278 ], [ -80.6294, 20.6503 ], [ -80.636, 20.6727 ], [ -80.6431, 20.695 ], [ -80.6506, 20.7171 ], [ -80.6585, 20.7392 ], [ -80.6668, 20.761 ], [ -80.6755, 20.7828 ], [ -80.6846, 20.8044 ], [ -80.6941, 20.8259 ], [ -80.704, 20.8471 ], [ -80.7144, 20.8683 ], [ -80.7251, 20.8892 ], [ -80.7362, 20.91 ], [ -80.7477, 20.9306 ], [ -80.7596, 20.951 ], [ -80.7719, 20.9712 ], [ -80.7845, 20.9912 ], [ -80.7976, 21.011 ], [ -80.811, 21.0306 ], [ -80.8247, 21.0499 ], [ -80.8389, 21.069 ], [ -80.8533, 21.0879 ], [ -80.8682, 21.1066 ], [ -80.8834, 21.125 ], [ -80.8989, 21.1431 ], [ -80.9148, 21.161 ], [ -80.931, 21.1786 ], [ -80.9476, 21.196 ], [ -80.9644, 21.2131 ], [ -80.9816, 21.2299 ], [ -80.9991, 21.2464 ], [ -81.017, 21.2627 ], [ -81.0351, 21.2786 ], [ -81.0535, 21.2943 ], [ -81.0722, 21.3096 ], [ -81.0912, 21.3246 ], [ -81.1105, 21.3393 ], [ -81.1301, 21.3537 ], [ -81.1499, 21.3678 ], [ -81.17, 21.3816 ], [ -81.1904, 21.395 ], [ -81.211, 21.4081 ], [ -81.2319, 21.4208 ], [ -81.253, 21.4332 ], [ -81.2743, 21.4453 ], [ -81.2959, 21.457 ], [ -81.3176, 21.4683 ], [ -81.3396, 21.4793 ], [ -81.3618, 21.4899 ], [ -81.3842, 21.5002 ], [ -81.4068, 21.5101 ], [ -81.4296, 21.5196 ], [ -81.4525, 21.5288 ], [ -81.4756, 21.5376 ], [ -81.4989, 21.5459 ], [ -81.5224, 21.554 ], [ -81.5459, 21.5616 ], [ -81.5697, 21.5688 ], [ -81.5935, 21.5757 ], [ -81.6175, 21.5821 ], [ -81.6417, 21.5882 ], [ -81.6659, 21.5939 ], [ -81.6902, 21.5991 ], [ -81.7146, 21.604 ], [ -81.7391, 21.6085 ], [ -81.7637, 21.6125 ], [ -81.7884, 21.6162 ], [ -81.8131, 21.6195 ], [ -81.8379, 21.6223 ], [ -81.8628, 21.6248 ], [ -81.8877, 21.6268 ], [ -81.9126, 21.6285 ], [ -81.9376, 21.6297 ], [ -81.9625, 21.6305 ], [ -81.9875, 21.6309 ] ] ] } },
{ "type": "Feature", "properties": { "RADII": 34.0, "STORMID": "al092021", "BASIN": "al", "STORMNUM": 9.0, "ADVNUM": "1A", "VALIDTIME": "2021082715", "SYNOPTIME": "2021082612", "TIMEZONE": "UTC", "TAU": 24.0, "NE": 80.0, "SE": 50.0, "SW": 20.0, "NW": 60.0 }, "geometry": { "type": "Polygon", "coordinates": [ [ [ -83.8857, 23.9973 ], [ -83.9111, 23.6645 ], [ -83.9333, 23.6642 ], [ -83.9555, 23.6635 ], [ -83.9776, 23.6624 ], [ -83.9998, 23.661 ], [ -84.0219, 23.6592 ], [ -84.0439, 23.657 ], [ -84.066, 23.6545 ], [ -84.0879, 23.6517 ], [ -84.1098, 23.6485 ], [ -84.1317, 23.6449 ], [ -84.1535, 23.641 ], [ -84.1751, 23.6367 ], [ -84.1967, 23.6321 ], [ -84.2183, 23.6272 ], [ -84.2397, 23.6219 ], [ -84.261, 23.6162 ], [ -84.2822, 23.6102 ], [ -84.3033, 23.6039 ], [ -84.3242, 23.5972 ], [ -84.345, 23.5902 ], [ -84.3657, 23.5829 ], [ -84.3862, 23.5752 ], [ -84.4066, 23.5672 ], [ -84.4268, 23.5589 ], [ -84.4469, 23.5502 ], [ -84.4668, 23.5412 ], [ -84.4865, 23.5319 ], [ -84.506, 23.5223 ], [ -84.5254, 23.5124 ], [ -84.5445, 23.5021 ], [ -84.5635, 23.4916 ], [ -84.5822, 23.4808 ], [ -84.6007, 23.4696 ], [ -84.619, 23.4582 ], [ -84.6371, 23.4464 ], [ -84.655, 23.4344 ], [ -84.6726, 23.4221 ], [ -84.69, 23.4095 ], [ -84.7071, 23.3966 ], [ -84.724, 23.3834 ], [ -84.7406, 23.37 ], [ -84.757, 23.3563 ], [ -84.7731, 23.3424 ], [ -84.7889, 23.3282 ], [ -84.8045, 23.3137 ], [ -84.8197, 23.299 ], [ -84.8347, 23.2841 ], [ -84.8494, 23.2689 ], [ -84.8638, 23.2535 ], [ -84.8779, 23.2378 ], [ -84.8918, 23.2219 ], [ -84.9053, 23.2058 ], [ -84.9184, 23.1895 ], [ -84.9313, 23.173 ], [ -84.9439, 23.1562 ], [ -84.9561, 23.1393 ], [ -84.968, 23.1222 ], [ -84.9796, 23.1049 ], [ -84.9908, 23.0874 ], [ -85.0017, 23.0697 ], [ -85.0123, 23.0519 ], [ -85.0225, 23.0338 ], [ -85.0324, 23.0157 ], [ -85.0419, 22.9973 ], [ -85.0511, 22.9788 ], [ -85.0599, 22.9602 ], [ -85.0684, 22.9414 ], [ -85.0765, 22.9225 ], [ -85.0842, 22.9035 ], [ -85.0916, 22.8843 ], [ -85.0986, 22.8651 ], [ -85.1052, 22.8457 ], [ -85.1115, 22.8262 ], [ -85.1174, 22.8066 ], [ -85.123, 22.787 ], [ -85.1281, 22.7672 ], [ -85.1329, 22.7474 ], [ -85.1373, 22.7274 ], [ -85.1413, 22.7075 ], [ -85.145, 22.6874 ], [ -85.1482, 22.6673 ], [ -85.1511, 22.6472 ], [ -85.1536, 22.627 ], [ -85.1557, 22.6067 ], [ -85.1575, 22.5865 ], [ -85.1588, 22.5662 ], [ -85.1598, 22.5459 ], [ -85.1604, 22.5256 ], [ -85.1606, 22.5053 ], [ -84.6203, 22.4926 ], [ -84.62, 22.481 ], [ -84.6195, 22.4694 ], [ -84.6188, 22.4578 ], [ -84.6178, 22.4462 ], [ -84.6167, 22.4346 ], [ -84.6153, 22.4231 ], [ -84.6137, 22.4116 ], [ -84.6119, 22.4001 ], [ -84.6099, 22.3886 ], [ -84.6076, 22.3772 ], [ -84.6052, 22.3658 ], [ -84.6025, 22.3544 ], [ -84.5996, 22.3431 ], [ -84.5965, 22.3319 ], [ -84.5932, 22.3207 ], [ -84.5897, 22.3095 ], [ -84.586, 22.2984 ], [ -84.5821, 22.2874 ], [ -84.5779, 22.2764 ], [ -84.5736, 22.2655 ], [ -84.569, 22.2547 ], [ -84.5643, 22.244 ], [ -84.5593, 22.2333 ], [ -84.5542, 22.2227 ], [ -84.5488, 22.2122 ], [ -84.5433, 22.2018 ], [ -84.5375, 22.1915 ], [ -84.5316, 22.1812 ], [ -84.5255, 22.1711 ], [ -84.5191, 22.1611 ], [ -84.5126, 22.1511 ], [ -84.506, 22.1413 ], [ -84.4991, 22.1316 ], [ -84.492, 22.122 ], [ -84.4848, 22.1125 ], [ -84.4774, 22.1031 ], [ -84.4698, 22.0939 ], [ -84.4621, 22.0848 ], [ -84.4541, 22.0758 ], [ -84.446, 22.0669 ], [ -84.4378, 22.0582 ], [ -84.4294, 22.0495 ], [ -84.4208, 22.0411 ], [ -84.412, 22.0328 ], [ -84.4032, 22.0246 ], [ -84.3941, 22.0165 ], [ -84.3849, 22.0086 ], [ -84.3756, 22.0009 ], [ -84.3661, 21.9933 ], [ -84.3565, 21.9859 ], [ -84.3467, 21.9786 ], [ -84.3368, 21.9715 ], [ -84.3268, 21.9645 ], [ -84.3167, 21.9577 ], [ -84.3064, 21.9511 ], [ -84.296, 21.9446 ], [ -84.2855, 21.9383 ], [ -84.2748, 21.9322 ], [ -84.2641, 21.9262 ], [ -84.2532, 21.9204 ], [ -84.2423, 21.9148 ], [ -84.2312, 21.9094 ], [ -84.22, 21.9041 ], [ -84.2088, 21.8991 ], [ -84.1974, 21.8942 ], [ -84.186, 21.8895 ], [ -84.1744, 21.8849 ], [ -84.1628, 21.8806 ], [ -84.1511, 21.8765 ], [ -84.1394, 21.8725 ], [ -84.1275, 21.8688 ], [ -84.1156, 21.8652 ], [ -84.1037, 21.8618 ], [ -84.0916, 21.8586 ], [ -84.0795, 21.8556 ], [ -84.0674, 21.8528 ], [ -84.0552, 21.8502 ], [ -84.0429, 21.8478 ], [ -84.0307, 21.8456 ], [ -84.0183, 21.8436 ], [ -84.006, 21.8418 ], [ -83.9936, 21.8402 ], [ -83.9812, 21.8388 ], [ -83.9687, 21.8376 ], [ -83.9563, 21.8366 ], [ -83.9438, 21.8358 ], [ -83.9313, 21.8352 ], [ -83.9188, 21.8348 ], [ -83.9063, 21.8346 ], [ -83.8906, 21.5018 ], [ -83.8719, 21.5021 ], [ -83.8532, 21.5027 ], [ -83.8345, 21.5036 ], [ -83.8158, 21.5048 ], [ -83.7972, 21.5063 ], [ -83.7786, 21.5082 ], [ -83.76, 21.5103 ], [ -83.7414, 21.5127 ], [ -83.7229, 21.5154 ], [ -83.7045, 21.5184 ], [ -83.6861, 21.5217 ], [ -83.6678, 21.5253 ], [ -83.6495, 21.5292 ], [ -83.6313, 21.5334 ], [ -83.6132, 21.5378 ], [ -83.5952, 21.5426 ], [ -83.5773, 21.5477 ], [ -83.5595, 21.553 ], [ -83.5417, 21.5587 ], [ -83.5241, 21.5646 ], [ -83.5066, 21.5708 ], [ -83.4892, 21.5773 ], [ -83.472, 21.584 ], [ -83.4548, 21.5911 ], [ -83.4378, 21.5984 ], [ -83.421, 21.606 ], [ -83.4042, 21.6138 ], [ -83.3877, 21.6219 ], [ -83.3712, 21.6303 ], [ -83.355, 21.639 ], [ -83.3389, 21.6479 ], [ -83.323, 21.6571 ], [ -83.3072, 21.6665 ], [ -83.2916, 21.6762 ], [ -83.2762, 21.6861 ], [ -83.261, 21.6963 ], [ -83.246, 21.7068 ], [ -83.2311, 21.7174 ], [ -83.2165, 21.7283 ], [ -83.2021, 21.7395 ], [ -83.1879, 21.7508 ], [ -83.1739, 21.7624 ], [ -83.1601, 21.7742 ], [ -83.1465, 21.7863 ], [ -83.1332, 21.7985 ], [ -83.1201, 21.811 ], [ -83.1072, 21.8237 ], [ -83.0946, 21.8366 ], [ -83.0822, 21.8497 ], [ -83.0701, 21.8629 ], [ -83.0582, 21.8764 ], [ -83.0465, 21.8901 ], [ -83.0352, 21.9039 ], [ -83.024, 21.918 ], [ -83.0132, 21.9322 ], [ -83.0026, 21.9466 ], [ -82.9923, 21.9611 ], [ -82.9822, 21.9758 ], [ -82.9724, 21.9907 ], [ -82.9629, 22.0058 ], [ -82.9537, 22.0209 ], [ -82.9448, 22.0363 ], [ -82.9362, 22.0517 ], [ -82.9278, 22.0674 ], [ -82.9198, 22.0831 ], [ -82.912, 22.099 ], [ -82.9045, 22.115 ], [ -82.8974, 22.1311 ], [ -82.8905, 22.1473 ], [ -82.884, 22.1636 ], [ -82.8777, 22.18 ], [ -82.8718, 22.1966 ], [ -82.8662, 22.2132 ], [ -82.8609, 22.2299 ], [ -82.8559, 22.2467 ], [ -82.8512, 22.2636 ], [ -82.8468, 22.2805 ], [ -82.8428, 22.2975 ], [ -82.8391, 22.3146 ], [ -82.8357, 22.3318 ], [ -82.8326, 22.3489 ], [ -82.8298, 22.3662 ], [ -82.8274, 22.3835 ], [ -82.8253, 22.4008 ], [ -82.8235, 22.4181 ], [ -82.8221, 22.4355 ], [ -82.8209, 22.4529 ], [ -82.8201, 22.4703 ], [ -82.8197, 22.4877 ], [ -82.2793, 22.505 ], [ -82.2795, 22.5311 ], [ -82.2802, 22.5572 ], [ -82.2813, 22.5833 ], [ -82.283, 22.6094 ], [ -82.2852, 22.6355 ], [ -82.2878, 22.6615 ], [ -82.291, 22.6874 ], [ -82.2946, 22.7134 ], [ -82.2987, 22.7392 ], [ -82.3034, 22.765 ], [ -82.3085, 22.7907 ], [ -82.3141, 22.8163 ], [ -82.3202, 22.8418 ], [ -82.3267, 22.8672 ], [ -82.3338, 22.8926 ], [ -82.3413, 22.9177 ], [ -82.3493, 22.9428 ], [ -82.3578, 22.9677 ], [ -82.3668, 22.9925 ], [ -82.3762, 23.0172 ], [ -82.3861, 23.0417 ], [ -82.3965, 23.066 ], [ -82.4073, 23.0902 ], [ -82.4186, 23.1141 ], [ -82.4303, 23.1379 ], [ -82.4425, 23.1615 ], [ -82.4552, 23.1849 ], [ -82.4683, 23.2081 ], [ -82.4818, 23.2311 ], [ -82.4958, 23.2538 ], [ -82.5102, 23.2764 ], [ -82.5251, 23.2986 ], [ -82.5404, 23.3207 ], [ -82.5561, 23.3425 ], [ -82.5722, 23.364 ], [ -82.5887, 23.3853 ], [ -82.6056, 23.4063 ], [ -82.623, 23.427 ], [ -82.6407, 23.4475 ], [ -82.6588, 23.4676 ], [ -82.6773, 23.4875 ], [ -82.6962, 23.5071 ], [ -82.7155, 23.5263 ], [ -82.7351, 23.5453 ], [ -82.7551, 23.5639 ], [ -82.7755, 23.5822 ], [ -82.7962, 23.6002 ], [ -82.8172, 23.6178 ], [ -82.8386, 23.6351 ], [ -82.8603, 23.652 ], [ -82.8824, 23.6686 ], [ -82.9047, 23.6848 ], [ -82.9274, 23.7007 ], [ -82.9504, 23.7162 ], [ -82.9736, 23.7313 ], [ -82.9972, 23.7461 ], [ -83.0211, 23.7604 ], [ -83.0452, 23.7744 ], [ -83.0696, 23.788 ], [ -83.0942, 23.8012 ], [ -83.1191, 23.814 ], [ -83.1443, 23.8264 ], [ -83.1697, 23.8383 ], [ -83.1953, 23.8499 ], [ -83.2211, 23.8611 ], [ -83.2472, 23.8718 ], [ -83.2734, 23.8821 ], [ -83.2999, 23.892 ], [ -83.3265, 23.9015 ], [ -83.3533, 23.9105 ], [ -83.3803, 23.9191 ], [ -83.4075, 23.9273 ], [ -83.4348, 23.935 ], [ -83.4622, 23.9423 ], [ -83.4898, 23.9491 ], [ -83.5176, 23.9555 ], [ -83.5454, 23.9614 ], [ -83.5734, 23.9669 ], [ -83.6014, 23.972 ], [ -83.6296, 23.9766 ], [ -83.6578, 23.9807 ], [ -83.6861, 23.9844 ], [ -83.7145, 23.9876 ], [ -83.7429, 23.9904 ], [ -83.7714, 23.9927 ], [ -83.8, 23.9945 ], [ -83.8285, 23.9959 ], [ -83.8571, 23.9968 ], [ -83.8857, 23.9973 ] ] ] } },
{ "type": "Feature", "properties": { "RADII": 34.0, "STORMID": "al092021", "BASIN": "al", "STORMNUM": 9.0, "ADVNUM": "1A", "VALIDTIME": "2021082803", "SYNOPTIME": "2021082612", "TIMEZONE": "UTC", "TAU": 36.0, "NE": 90.0, "SE": 60.0, "SW": 40.0, "NW": 70.0 }, "geometry": { "type": "Polygon", "coordinates": [ [ [ -83.8953, 22.9991 ], [ -83.9, 22.5 ], [ -83.9, 22.5 ], [ -83.9, 22.5 ], [ -83.9, 22.5 ], [ -83.9, 22.5 ], [ -83.9, 22.5 ], [ -83.9, 22.5 ], [ -83.9, 22.5 ], [ -83.9, 22.5 ], [ -83.9, 22.5 ], [ -83.9, 22.5 ], [ -83.9, 22.5 ], [ -83.9, 22.5 ], [ -83.9, 22.5 ], [ -83.9, 22.5 ], [ -83.9, 22.5 ], [ -83.9, 22.5 ], [ -83.9, 22.5 ], [ -83.9, 22.5 ], [ -83.9, 22.5 ], [ -83.9, 22.5 ], [ -83.9, 22.5 ], [ -83.9, 22.5 ], [ -83.9, 22.5 ], [ -83.9, 22.5 ], [ -83.9, 22.5 ], [ -83.9, 22.5 ], [ -83.9, 22.5 ], [ -83.9, 22.5 ], [ -83.9, 22.5 ], [ -83.9, 22.5 ], [ -83.9, 22.5 ], [ -83.9, 22.5 ], [ -83.9, 22.5 ], [ -83.9, 22.5 ], [ -83.9, 22.5 ], [ -83.9, 22.5 ], [ -83.9, 22.5 ], [ -83.9, 22.5 ], [ -83.9, 22.5 ], [ -83.9, 22.5 ], [ -83.9, 22.5 ], [ -83.9, 22.5 ], [ -83.9, 22.5 ], [ -83.9, 22.5 ], [ -83.9, 22.5 ], [ -83.9, 22.5 ], [ -83.9, 22.5 ], [ -83.9, 22.5 ], [ -83.9, 22.5 ], [ -83.9, 22.5 ], [ -83.9, 22.5 ], [ -83.9, 22.5 ], [ -83.9, 22.5 ], [ -83.9, 22.5 ], [ -83.9, 22.5 ], [ -83.9, 22.5 ], [ -83.9, 22.5 ], [ -83.9, 22.5 ], [ -83.9, 22.5 ], [ -83.9, 22.5 ], [ -83.9, 22.5 ], [ -83.9, 22.5 ], [ -83.9, 22.5 ], [ -83.9, 22.5 ], [ -83.9, 22.5 ], [ -83.9, 22.5 ], [ -83.9, 22.5 ], [ -83.9, 22.5 ], [ -83.9, 22.5 ], [ -83.9, 22.5 ], [ -83.9, 22.5 ], [ -83.9, 22.5 ], [ -83.9, 22.5 ], [ -83.9, 22.5 ], [ -83.9, 22.5 ], [ -83.9, 22.5 ], [ -83.9, 22.5 ], [ -83.9, 22.5 ], [ -83.9, 22.5 ], [ -83.9, 22.5 ], [ -83.9, 22.5 ], [ -83.9, 22.5 ], [ -83.9, 22.5 ], [ -83.9, 22.5 ], [ -83.9, 22.5 ], [ -83.9, 22.5 ], [ -83.9, 22.5 ], [ -83.9, 22.5 ], [ -83.9, 22.5 ], [ -83.9, 22.5 ], [ -83.9, 22.5 ], [ -83.9, 22.5 ], [ -83.9, 22.5 ], [ -83.9, 22.5 ], [ -83.9, 22.5 ], [ -83.9, 22.5 ], [ -83.9, 22.5 ], [ -83.9, 22.5 ], [ -83.9, 22.5 ], [ -83.9, 22.5 ], [ -83.9, 22.5 ], [ -83.9, 22.5 ], [ -83.9, 22.5 ], [ -83.9, 22.5 ], [ -83.9, 22.5 ], [ -83.9, 22.5 ], [ -83.9, 22.5 ], [ -83.9, 22.5 ], [ -83.9, 22.5 ], [ -83.9, 22.5 ], [ -83.9, 22.5 ], [ -83.9, 22.5 ], [ -83.9, 22.5 ], [ -83.9, 22.5 ], [ -83.9, 22.5 ], [ -83.9, 22.5 ], [ -83.9, 22.5 ], [ -83.9, 22.5 ], [ -83.9, 22.5 ], [ -83.9, 22.5 ], [ -83.9, 22.5 ], [ -83.9, 22.5 ], [ -83.9, 22.5 ], [ -83.9, 22.5 ], [ -83.9, 22.5 ], [ -83.9, 22.5 ], [ -83.9, 22.5 ], [ -83.9, 22.5 ], [ -83.9, 22.5 ], [ -83.9, 22.5 ], [ -83.9, 22.5 ], [ -83.9, 22.5 ], [ -83.9, 22.5 ], [ -83.9, 22.5 ], [ -83.9, 22.5 ], [ -83.9, 22.5 ], [ -83.9, 22.5 ], [ -83.9, 22.5 ], [ -83.9, 22.5 ], [ -83.9, 22.5 ], [ -83.9, 22.5 ], [ -83.9, 22.5 ], [ -83.9, 22.5 ], [ -83.9, 22.5 ], [ -83.9, 22.5 ], [ -83.9, 22.5 ], [ -83.9, 22.5 ], [ -83.9, 22.5 ], [ -83.9, 22.5 ], [ -83.9, 22.5 ], [ -83.9, 22.5 ], [ -83.9, 22.5 ], [ -83.9, 22.5 ], [ -83.9, 22.5 ], [ -83.9, 22.5 ], [ -83.9, 22.5 ], [ -83.9, 22.5 ], [ -83.9, 22.5 ], [ -83.9, 22.5 ], [ -83.9, 22.5 ], [ -83.9, 22.5 ], [ -83.9, 22.5 ], [ -83.9, 22.5 ], [ -83.9, 22.5 ], [ -83.9, 22.5 ], [ -83.9, 22.5 ], [ -83.9, 22.5 ], [ -83.9, 22.5 ], [ -83.9, 22.5 ], [ -83.9, 22.5 ], [ -83.9, 22.5 ], [ -83.9, 22.5 ], [ -83.9, 22.5 ], [ -83.9, 22.5 ], [ -83.9, 22.5 ], [ -83.9, 22.5 ], [ -83.9, 22.5 ], [ -83.9, 22.5 ], [ -83.9, 22.5 ], [ -83.9, 22.5 ], [ -83.9, 22.5 ], [ -83.9, 22.5 ], [ -83.9, 22.5 ], [ -83.9, 22.5 ], [ -83.9, 22.5 ], [ -83.9, 22.5 ], [ -83.9, 22.5 ], [ -83.9, 22.5 ], [ -83.9, 22.5 ], [ -83.9, 22.5 ], [ -83.9, 22.5 ], [ -83.9, 22.5 ], [ -83.9, 22.5 ], [ -83.9, 22.5 ], [ -83.9, 22.5 ], [ -83.9, 22.5 ], [ -83.9, 22.5 ], [ -83.9, 22.5 ], [ -83.9, 22.5 ], [ -83.9, 22.5 ], [ -83.9, 22.5 ], [ -83.9, 22.5 ], [ -83.9, 22.5 ], [ -83.9, 22.5 ], [ -83.9, 22.5 ], [ -83.9, 22.5 ], [ -83.9, 22.5 ], [ -83.9, 22.5 ], [ -83.9, 22.5 ], [ -83.9, 22.5 ], [ -83.9, 22.5 ], [ -83.9, 22.5 ], [ -83.9, 22.5 ], [ -83.9, 22.5 ], [ -83.9, 22.5 ], [ -83.9, 22.5 ], [ -83.9, 22.5 ], [ -83.9, 22.5 ], [ -83.9, 22.5 ], [ -83.9, 22.5 ], [ -83.9, 22.5 ], [ -83.9, 22.5 ], [ -83.9, 22.5 ], [ -83.9, 22.5 ], [ -83.9, 22.5 ], [ -83.9, 22.5 ], [ -83.9, 22.5 ], [ -83.9, 22.5 ], [ -83.9, 22.5 ], [ -83.9, 22.5 ], [ -83.9, 22.5 ], [ -83.9, 22.5 ], [ -83.9, 22.5 ], [ -83.9, 22.5 ], [ -83.9, 22.5 ], [ -83.9, 22.5 ], [ -83.9, 22.5 ], [ -83.9, 22.5 ], [ -83.9, 22.5 ], [ -83.9, 22.5 ], [ -83.9, 22.5 ], [ -83.9, 22.5 ], [ -83.9, 22.5 ], [ -83.9, 22.5 ], [ -83.9, 22.5 ], [ -83.9, 22.5 ], [ -83.9, 22.5 ], [ -83.9, 22.5 ], [ -83.9, 22.5 ], [ -83.9, 22.5 ], [ -83.9, 22.5 ], [ -83.9, 22.5 ], [ -83.9, 22.5 ], [ -83.9, 22.5 ], [ -83.9, 22.5 ], [ -83.9, 22.5 ], [ -83.9, 22.5 ], [ -83.9, 22.5 ], [ -83.9, 22.5 ], [ -83.9, 22.5 ], [ -83.9, 22.5 ], [ -83.9, 22.5 ], [ -83.9, 22.5 ], [ -83.9, 22.5 ], [ -83.9, 22.5 ], [ -83.9, 22.5 ], [ -83.9, 22.5 ], [ -83.9, 22.5 ], [ -83.9, 22.5 ], [ -83.3598, 22.5035 ], [ -83.3599, 22.5122 ], [ -83.3602, 22.5209 ], [ -83.3607, 22.5296 ], [ -83.3613, 22.5383 ], [ -83.3621, 22.5469 ], [ -83.363, 22.5556 ], [ -83.3642, 22.5643 ], [ -83.3654, 22.5729 ], [ -83.3669, 22.5815 ], [ -83.3685, 22.5901 ], [ -83.3702, 22.5986 ], [ -83.3722, 22.6072 ], [ -83.3743, 22.6157 ], [ -83.3765, 22.6241 ], [ -83.3789, 22.6325 ], [ -83.3815, 22.6409 ], [ -83.3842, 22.6493 ], [ -83.3871, 22.6576 ], [ -83.3902, 22.6658 ], [ -83.3933, 22.674 ], [ -83.3967, 22.6821 ], [ -83.4002, 22.6902 ], [ -83.4039, 22.6983 ], [ -83.4077, 22.7062 ], [ -83.4116, 22.7141 ], [ -83.4158, 22.722 ], [ -83.42, 22.7298 ], [ -83.4244, 22.7375 ], [ -83.429, 22.7451 ], [ -83.4337, 22.7526 ], [ -83.4385, 22.7601 ], [ -83.4435, 22.7675 ], [ -83.4486, 22.7748 ], [ -83.4539, 22.7821 ], [ -83.4593, 22.7892 ], [ -83.4648, 22.7963 ], [ -83.4705, 22.8033 ], [ -83.4763, 22.8101 ], [ -83.4822, 22.8169 ], [ -83.4882, 22.8236 ], [ -83.4944, 22.8302 ], [ -83.5007, 22.8367 ], [ -83.5072, 22.8431 ], [ -83.5137, 22.8494 ], [ -83.5204, 22.8555 ], [ -83.5272, 22.8616 ], [ -83.5341, 22.8676 ], [ -83.5411, 22.8734 ], [ -83.5482, 22.8791 ], [ -83.5554, 22.8848 ], [ -83.5628, 22.8903 ], [ -83.5702, 22.8956 ], [ -83.5777, 22.9009 ], [ -83.5854, 22.906 ], [ -83.5931, 22.911 ], [ -83.6009, 22.9159 ], [ -83.6088, 22.9207 ], [ -83.6169, 22.9253 ], [ -83.625, 22.9298 ], [ -83.6331, 22.9342 ], [ -83.6414, 22.9384 ], [ -83.6497, 22.9425 ], [ -83.6582, 22.9465 ], [ -83.6667, 22.9503 ], [ -83.6752, 22.954 ], [ -83.6839, 22.9576 ], [ -83.6926, 22.961 ], [ -83.7013, 22.9643 ], [ -83.7102, 22.9674 ], [ -83.7191, 22.9704 ], [ -83.728, 22.9732 ], [ -83.737, 22.9759 ], [ -83.746, 22.9785 ], [ -83.7551, 22.9809 ], [ -83.7643, 22.9832 ], [ -83.7734, 22.9853 ], [ -83.7827, 22.9872 ], [ -83.7919, 22.989 ], [ -83.8012, 22.9907 ], [ -83.8105, 22.9922 ], [ -83.8199, 22.9936 ], [ -83.8292, 22.9948 ], [ -83.8386, 22.9959 ], [ -83.848, 22.9968 ], [ -83.8575, 22.9976 ], [ -83.8669, 22.9982 ], [ -83.8764, 22.9986 ], [ -83.8858, 22.9989 ], [ -83.8953, 22.9991 ] ] ] } },
{ "type": "Feature", "properties": { "RADII": 50.0, "STORMID": "al092021", "BASIN": "al", "STORMNUM": 9.0, "ADVNUM": "1A", "VALIDTIME": "2021082803", "SYNOPTIME": "2021082612", "TIMEZONE": "UTC", "TAU": 36.0, "NE": 30.0, "SE": 0.0, "SW": 0.0, "NW": 0.0 }, "geometry": { "type": "Polygon", "coordinates": [ [ [ -85.9822, 26.23 ], [ -86.0145, 25.8973 ], [ -86.0436, 25.8968 ], [ -86.0726, 25.8959 ], [ -86.1016, 25.8945 ], [ -86.1306, 25.8927 ], [ -86.1595, 25.8903 ], [ -86.1884, 25.8876 ], [ -86.2172, 25.8844 ], [ -86.246, 25.8807 ], [ -86.2747, 25.8765 ], [ -86.3032, 25.8719 ], [ -86.3317, 25.8669 ], [ -86.3601, 25.8614 ], [ -86.3884, 25.8555 ], [ -86.4165, 25.8491 ], [ -86.4446, 25.8422 ], [ -86.4725, 25.8349 ], [ -86.5002, 25.8272 ], [ -86.5278, 25.819 ], [ -86.5552, 25.8104 ], [ -86.5824, 25.8014 ], [ -86.6094, 25.7919 ], [ -86.6363, 25.782 ], [ -86.6629, 25.7717 ], [ -86.6894, 25.7609 ], [ -86.7156, 25.7498 ], [ -86.7416, 25.7382 ], [ -86.7674, 25.7262 ], [ -86.7929, 25.7138 ], [ -86.8182, 25.701 ], [ -86.8432, 25.6878 ], [ -86.868, 25.6742 ], [ -86.8925, 25.6602 ], [ -86.9167, 25.6458 ], [ -86.9406, 25.6311 ], [ -86.9642, 25.6159 ], [ -86.9875, 25.6004 ], [ -87.0106, 25.5845 ], [ -87.0332, 25.5683 ], [ -87.0556, 25.5517 ], [ -87.0776, 25.5347 ], [ -87.0994, 25.5174 ], [ -87.1207, 25.4998 ], [ -87.1417, 25.4818 ], [ -87.1624, 25.4635 ], [ -87.1826, 25.4449 ], [ -87.2026, 25.4259 ], [ -87.2221, 25.4066 ], [ -87.2413, 25.3871 ], [ -87.26, 25.3672 ], [ -87.2784, 25.347 ], [ -87.2964, 25.3266 ], [ -87.314, 25.3058 ], [ -87.3311, 25.2848 ], [ -87.3479, 25.2635 ], [ -87.3642, 25.242 ], [ -87.3801, 25.2201 ], [ -87.3956, 25.1981 ], [ -87.4107, 25.1758 ], [ -87.4253, 25.1533 ], [ -87.4395, 25.1305 ], [ -87.4532, 25.1075 ], [ -87.4664, 25.0843 ], [ -87.4793, 25.0609 ], [ -87.4916, 25.0373 ], [ -87.5035, 25.0135 ], [ -87.515, 24.9895 ], [ -87.5259, 24.9653 ], [ -87.5364, 24.941 ], [ -87.5465, 24.9165 ], [ -87.556, 24.8918 ], [ -87.5651, 24.867 ], [ -87.5737, 24.8421 ], [ -87.5818, 24.817 ], [ -87.5894, 24.7918 ], [ -87.5965, 24.7665 ], [ -87.6031, 24.7411 ], [ -87.6093, 24.7156 ], [ -87.6149, 24.6899 ], [ -87.6201, 24.6642 ], [ -87.6247, 24.6384 ], [ -87.6289, 24.6126 ], [ -87.6326, 24.5867 ], [ -87.6357, 24.5607 ], [ -87.6384, 24.5347 ], [ -87.6406, 24.5086 ], [ -87.6422, 24.4825 ], [ -87.6434, 24.4564 ], [ -87.6441, 24.4303 ], [ -87.6442, 24.4042 ], [ -87.096, 24.3873 ], [ -87.0955, 24.3699 ], [ -87.0947, 24.3525 ], [ -87.0935, 24.3351 ], [ -87.092, 24.3178 ], [ -87.0902, 24.3004 ], [ -87.0881, 24.2831 ], [ -87.0856, 24.2658 ], [ -87.0828, 24.2486 ], [ -87.0797, 24.2314 ], [ -87.0762, 24.2143 ], [ -87.0724, 24.1972 ], [ -87.0683, 24.1802 ], [ -87.0639, 24.1633 ], [ -87.0591, 24.1464 ], [ -87.054, 24.1296 ], [ -87.0486, 24.1129 ], [ -87.0429, 24.0963 ], [ -87.0369, 24.0797 ], [ -87.0305, 24.0633 ], [ -87.0239, 24.047 ], [ -87.0169, 24.0308 ], [ -87.0096, 24.0147 ], [ -87.0021, 23.9987 ], [ -86.9942, 23.9828 ], [ -86.986, 23.9671 ], [ -86.9775, 23.9515 ], [ -86.9687, 23.936 ], [ -86.9597, 23.9207 ], [ -86.9503, 23.9055 ], [ -86.9407, 23.8905 ], [ -86.9308, 23.8756 ], [ -86.9206, 23.8609 ], [ -86.9101, 23.8463 ], [ -86.8993, 23.832 ], [ -86.8883, 23.8177 ], [ -86.877, 23.8037 ], [ -86.8655, 23.7899 ], [ -86.8537, 23.7762 ], [ -86.8416, 23.7627 ], [ -86.8293, 23.7495 ], [ -86.8167, 23.7364 ], [ -86.8039, 23.7235 ], [ -86.7908, 23.7108 ], [ -86.7775, 23.6984 ], [ -86.764, 23.6861 ], [ -86.7503, 23.6741 ], [ -86.7363, 23.6623 ], [ -86.7221, 23.6507 ], [ -86.7077, 23.6393 ], [ -86.693, 23.6282 ], [ -86.6782, 23.6173 ], [ -86.6632, 23.6066 ], [ -86.6479, 23.5962 ], [ -86.6325, 23.586 ], [ -86.6169, 23.5761 ], [ -86.6011, 23.5664 ], [ -86.5851, 23.557 ], [ -86.5689, 23.5478 ], [ -86.5526, 23.5389 ], [ -86.5361, 23.5303 ], [ -86.5195, 23.5219 ], [ -86.5026, 23.5137 ], [ -86.4857, 23.5059 ], [ -86.4686, 23.4983 ], [ -86.4513, 23.491 ], [ -86.434, 23.484 ], [ -86.4165, 23.4772 ], [ -86.3988, 23.4707 ], [ -86.3811, 23.4645 ], [ -86.3632, 23.4586 ], [ -86.3453, 23.453 ], [ -86.3272, 23.4476 ], [ -86.309, 23.4426 ], [ -86.2907, 23.4378 ], [ -86.2724, 23.4333 ], [ -86.254, 23.4292 ], [ -86.2355, 23.4253 ], [ -86.2169, 23.4217 ], [ -86.1982, 23.4184 ], [ -86.1795, 23.4154 ], [ -86.1608, 23.4127 ], [ -86.142, 23.4103 ], [ -86.1231, 23.4082 ], [ -86.1042, 23.4063 ], [ -86.0853, 23.4048 ], [ -86.0664, 23.4036 ], [ -86.0474, 23.4027 ], [ -86.0285, 23.4021 ], [ -86.0095, 23.4018 ], [ -85.9874, 23.0691 ], [ -85.9621, 23.0695 ], [ -85.9369, 23.0703 ], [ -85.9117, 23.0715 ], [ -85.8865, 23.0731 ], [ -85.8614, 23.0751 ], [ -85.8362, 23.0775 ], [ -85.8112, 23.0803 ], [ -85.7862, 23.0835 ], [ -85.7612, 23.0871 ], [ -85.7364, 23.0911 ], [ -85.7116, 23.0955 ], [ -85.6869, 23.1003 ], [ -85.6622, 23.1055 ], [ -85.6377, 23.111 ], [ -85.6133, 23.117 ], [ -85.589, 23.1233 ], [ -85.5648, 23.13 ], [ -85.5408, 23.1371 ], [ -85.5169, 23.1446 ], [ -85.4931, 23.1525 ], [ -85.4695, 23.1607 ], [ -85.446, 23.1694 ], [ -85.4227, 23.1784 ], [ -85.3996, 23.1877 ], [ -85.3767, 23.1974 ], [ -85.3539, 23.2075 ], [ -85.3313, 23.218 ], [ -85.309, 23.2288 ], [ -85.2868, 23.2399 ], [ -85.2648, 23.2515 ], [ -85.2431, 23.2633 ], [ -85.2216, 23.2755 ], [ -85.2003, 23.2881 ], [ -85.1792, 23.3009 ], [ -85.1584, 23.3141 ], [ -85.1379, 23.3277 ], [ -85.1176, 23.3415 ], [ -85.0976, 23.3557 ], [ -85.0778, 23.3702 ], [ -85.0583, 23.385 ], [ -85.0391, 23.4002 ], [ -85.0202, 23.4156 ], [ -85.0015, 23.4313 ], [ -84.9832, 23.4473 ], [ -84.9652, 23.4636 ], [ -84.9474, 23.4802 ], [ -84.93, 23.4971 ], [ -84.9129, 23.5142 ], [ -84.8962, 23.5316 ], [ -84.8797, 23.5493 ], [ -84.8636, 23.5672 ], [ -84.8479, 23.5854 ], [ -84.8324, 23.6039 ], [ -84.8174, 23.6225 ], [ -84.8027, 23.6415 ], [ -84.7883, 23.6606 ], [ -84.7743, 23.68 ], [ -84.7607, 23.6996 ], [ -84.7474, 23.7194 ], [ -84.7345, 23.7394 ], [ -84.722, 23.7596 ], [ -84.7099, 23.78 ], [ -84.6982, 23.8006 ], [ -84.6868, 23.8214 ], [ -84.6759, 23.8423 ], [ -84.6653, 23.8635 ], [ -84.6552, 23.8847 ], [ -84.6455, 23.9062 ], [ -84.6361, 23.9278 ], [ -84.6272, 23.9496 ], [ -84.6187, 23.9714 ], [ -84.6106, 23.9935 ], [ -84.6029, 24.0156 ], [ -84.5957, 24.0379 ], [ -84.5888, 24.0602 ], [ -84.5824, 24.0827 ], [ -84.5764, 24.1053 ], [ -84.5709, 24.128 ], [ -84.5658, 24.1507 ], [ -84.5611, 24.1735 ], [ -84.5569, 24.1964 ], [ -84.5531, 24.2194 ], [ -84.5497, 24.2424 ], [ -84.5468, 24.2655 ], [ -84.5443, 24.2886 ], [ -84.5422, 24.3118 ], [ -84.5406, 24.335 ], [ -84.5395, 24.3582 ], [ -84.5388, 24.3814 ], [ -83.9904, 24.4027 ], [ -83.9905, 24.4346 ], [ -83.9912, 24.4666 ], [ -83.9926, 24.4985 ], [ -83.9945, 24.5304 ], [ -83.9971, 24.5622 ], [ -84.0002, 24.594 ], [ -84.004, 24.6258 ], [ -84.0084, 24.6575 ], [ -84.0134, 24.6891 ], [ -84.019, 24.7206 ], [ -84.0252, 24.752 ], [ -84.032, 24.7834 ], [ -84.0395, 24.8146 ], [ -84.0475, 24.8457 ], [ -84.0561, 24.8766 ], [ -84.0653, 24.9074 ], [ -84.0751, 24.9381 ], [ -84.0856, 24.9686 ], [ -84.0966, 24.999 ], [ -84.1082, 25.0291 ], [ -84.1203, 25.0591 ], [ -84.1331, 25.0889 ], [ -84.1464, 25.1184 ], [ -84.1603, 25.1478 ], [ -84.1748, 25.1769 ], [ -84.1899, 25.2058 ], [ -84.2055, 25.2344 ], [ -84.2216, 25.2628 ], [ -84.2384, 25.2909 ], [ -84.2556, 25.3188 ], [ -84.2735, 25.3464 ], [ -84.2918, 25.3737 ], [ -84.3107, 25.4007 ], [ -84.3301, 25.4274 ], [ -84.35, 25.4537 ], [ -84.3705, 25.4798 ], [ -84.3914, 25.5055 ], [ -84.4129, 25.5309 ], [ -84.4348, 25.556 ], [ -84.4573, 25.5807 ], [ -84.4802, 25.605 ], [ -84.5036, 25.629 ], [ -84.5275, 25.6526 ], [ -84.5518, 25.6758 ], [ -84.5766, 25.6986 ], [ -84.6018, 25.721 ], [ -84.6275, 25.743 ], [ -84.6536, 25.7646 ], [ -84.6802, 25.7858 ], [ -84.7071, 25.8066 ], [ -84.7345, 25.8269 ], [ -84.7622, 25.8468 ], [ -84.7904, 25.8663 ], [ -84.8189, 25.8853 ], [ -84.8478, 25.9038 ], [ -84.8771, 25.9219 ], [ -84.9067, 25.9395 ], [ -84.9366, 25.9566 ], [ -84.9669, 25.9733 ], [ -84.9976, 25.9895 ], [ -85.0285, 26.0052 ], [ -85.0598, 26.0204 ], [ -85.0913, 26.0351 ], [ -85.1232, 26.0492 ], [ -85.1553, 26.0629 ], [ -85.1877, 26.0761 ], [ -85.2203, 26.0887 ], [ -85.2532, 26.1009 ], [ -85.2864, 26.1125 ], [ -85.3197, 26.1236 ], [ -85.3533, 26.1341 ], [ -85.3871, 26.1441 ], [ -85.421, 26.1536 ], [ -85.4552, 26.1625 ], [ -85.4895, 26.1709 ], [ -85.524, 26.1787 ], [ -85.5587, 26.186 ], [ -85.5935, 26.1928 ], [ -85.6284, 26.199 ], [ -85.6634, 26.2046 ], [ -85.6986, 26.2097 ], [ -85.7338, 26.2142 ], [ -85.7691, 26.2181 ], [ -85.8045, 26.2215 ], [ -85.84, 26.2243 ], [ -85.8755, 26.2266 ], [ -85.911, 26.2283 ], [ -85.9466, 26.2294 ], [ -85.9822, 26.23 ] ] ] } },
{ "type": "Feature", "properties": { "RADII": 34.0, "STORMID": "al092021", "BASIN": "al", "STORMNUM": 9.0, "ADVNUM": "1A", "VALIDTIME": "2021082815", "SYNOPTIME": "2021082612", "TIMEZONE": "UTC", "TAU": 48.0, "NE": 110.0, "SE": 80.0, "SW": 60.0, "NW": 90.0 }, "geometry": { "type": "Polygon", "coordinates": [ [ [ -85.9936, 25.0655 ], [ -86.0064, 25.0655 ], [ -86.0192, 25.0652 ], [ -86.0321, 25.0648 ], [ -86.0449, 25.0642 ], [ -86.0576, 25.0634 ], [ -86.0704, 25.0624 ], [ -86.0832, 25.0612 ], [ -86.0959, 25.0598 ], [ -86.1086, 25.0581 ], [ -86.1212, 25.0563 ], [ -86.1339, 25.0543 ], [ -86.1465, 25.052 ], [ -86.159, 25.0496 ], [ -86.1715, 25.047 ], [ -86.1839, 25.0442 ], [ -86.1963, 25.0411 ], [ -86.2086, 25.0379 ], [ -86.2209, 25.0345 ], [ -86.2331, 25.0309 ], [ -86.2452, 25.0271 ], [ -86.2572, 25.0231 ], [ -86.2692, 25.0189 ], [ -86.281, 25.0146 ], [ -86.2928, 25.01 ], [ -86.3045, 25.0053 ], [ -86.3161, 25.0003 ], [ -86.3276, 24.9952 ], [ -86.339, 24.9899 ], [ -86.3503, 24.9844 ], [ -86.3615, 24.9788 ], [ -86.3726, 24.9729 ], [ -86.3836, 24.9669 ], [ -86.3944, 24.9607 ], [ -86.4051, 24.9544 ], [ -86.4157, 24.9479 ], [ -86.4262, 24.9412 ], [ -86.4365, 24.9343 ], [ -86.4467, 24.9273 ], [ -86.4568, 24.9201 ], [ -86.4667, 24.9128 ], [ -86.4765, 24.9053 ], [ -86.4861, 24.8976 ], [ -86.4956, 24.8898 ], [ -86.505, 24.8819 ], [ -86.5141, 24.8738 ], [ -86.5231, 24.8655 ], [ -86.532, 24.8572 ], [ -86.5407, 24.8486 ], [ -86.5492, 24.84 ], [ -86.5576, 24.8312 ], [ -86.5658, 24.8222 ], [ -86.5738, 24.8132 ], [ -86.5816, 24.804 ], [ -86.5893, 24.7947 ], [ -86.5967, 24.7853 ], [ -86.604, 24.7757 ], [ -86.6111, 24.7661 ], [ -86.6181, 24.7563 ], [ -86.6248, 24.7464 ], [ -86.6313, 24.7364 ], [ -86.6377, 24.7264 ], [ -86.6438, 24.7162 ], [ -86.6498, 24.7059 ], [ -86.6555, 24.6955 ], [ -86.6611, 24.6851 ], [ -86.6664, 24.6745 ], [ -86.6716, 24.6639 ], [ -86.6765, 24.6532 ], [ -86.6812, 24.6424 ], [ -86.6857, 24.6315 ], [ -86.69, 24.6206 ], [ -86.6941, 24.6096 ], [ -86.698, 24.5985 ], [ -86.7017, 24.5874 ], [ -86.7052, 24.5762 ], [ -86.7084, 24.565 ], [ -86.7114, 24.5537 ], [ -86.7142, 24.5424 ], [ -86.7168, 24.531 ], [ -86.7192, 24.5196 ], [ -86.7214, 24.5081 ], [ -86.7233, 24.4966 ], [ -86.725, 24.4851 ], [ -86.7265, 24.4736 ], [ -86.7278, 24.462 ], [ -86.7288, 24.4505 ], [ -86.7296, 24.4389 ], [ -86.7302, 24.4273 ], [ -86.7306, 24.4157 ], [ -86.7308, 24.4041 ], [ -86.548, 24.3947 ], [ -86.5478, 24.386 ], [ -86.5474, 24.3772 ], [ -86.5469, 24.3685 ], [ -86.5462, 24.3599 ], [ -86.5453, 24.3512 ], [ -86.5443, 24.3425 ], [ -86.5431, 24.3339 ], [ -86.5417, 24.3253 ], [ -86.5402, 24.3167 ], [ -86.5385, 24.3081 ], [ -86.5366, 24.2995 ], [ -86.5346, 24.291 ], [ -86.5324, 24.2826 ], [ -86.5301, 24.2741 ], [ -86.5276, 24.2657 ], [ -86.5249, 24.2573 ], [ -86.5221, 24.249 ], [ -86.5191, 24.2407 ], [ -86.5159, 24.2325 ], [ -86.5126, 24.2243 ], [ -86.5092, 24.2162 ], [ -86.5056, 24.2082 ], [ -86.5018, 24.2002 ], [ -86.4979, 24.1922 ], [ -86.4938, 24.1843 ], [ -86.4896, 24.1765 ], [ -86.4853, 24.1688 ], [ -86.4807, 24.1611 ], [ -86.4761, 24.1535 ], [ -86.4713, 24.146 ], [ -86.4663, 24.1385 ], [ -86.4613, 24.1311 ], [ -86.456, 24.1238 ], [ -86.4507, 24.1166 ], [ -86.4452, 24.1095 ], [ -86.4395, 24.1025 ], [ -86.4338, 24.0955 ], [ -86.4279, 24.0887 ], [ -86.4218, 24.0819 ], [ -86.4157, 24.0753 ], [ -86.4094, 24.0687 ], [ -86.403, 24.0623 ], [ -86.3965, 24.0559 ], [ -86.3898, 24.0497 ], [ -86.3831, 24.0435 ], [ -86.3762, 24.0375 ], [ -86.3692, 24.0316 ], [ -86.3621, 24.0258 ], [ -86.3549, 24.0201 ], [ -86.3476, 24.0145 ], [ -86.3401, 24.009 ], [ -86.3326, 24.0037 ], [ -86.325, 23.9984 ], [ -86.3172, 23.9933 ], [ -86.3094, 23.9884 ], [ -86.3015, 23.9835 ], [ -86.2935, 23.9788 ], [ -86.2854, 23.9742 ], [ -86.2772, 23.9697 ], [ -86.269, 23.9654 ], [ -86.2606, 23.9612 ], [ -86.2522, 23.9571 ], [ -86.2437, 23.9531 ], [ -86.2351, 23.9493 ], [ -86.2265, 23.9457 ], [ -86.2178, 23.9421 ], [ -86.209, 23.9387 ], [ -86.2001, 23.9355 ], [ -86.1912, 23.9324 ], [ -86.1823, 23.9294 ], [ -86.1733, 23.9266 ], [ -86.1642, 23.9239 ], [ -86.1551, 23.9214 ], [ -86.1459, 23.919 ], [ -86.1367, 23.9167 ], [ -86.1275, 23.9146 ], [ -86.1182, 23.9127 ], [ -86.1088, 23.9109 ], [ -86.0995, 23.9092 ], [ -86.0901, 23.9077 ], [ -86.0807, 23.9064 ], [ -86.0713, 23.9051 ], [ -86.0618, 23.9041 ], [ -86.0523, 23.9032 ], [ -86.0428, 23.9024 ], [ -86.0333, 23.9018 ], [ -86.0238, 23.9014 ], [ -86.0143, 23.9011 ], [ -86.0048, 23.9009 ], [ -85.9937, 23.7346 ], [ -85.981, 23.7348 ], [ -85.9683, 23.7352 ], [ -85.9556, 23.7358 ], [ -85.943, 23.7366 ], [ -85.9303, 23.7376 ], [ -85.9177, 23.7388 ], [ -85.9051, 23.7402 ], [ -85.8925, 23.7418 ], [ -85.88, 23.7436 ], [ -85.8675, 23.7456 ], [ -85.8551, 23.7478 ], [ -85.8426, 23.7502 ], [ -85.8303, 23.7528 ], [ -85.818, 23.7556 ], [ -85.8057, 23.7586 ], [ -85.7935, 23.7618 ], [ -85.7814, 23.7652 ], [ -85.7693, 23.7687 ], [ -85.7573, 23.7725 ], [ -85.7453, 23.7765 ], [ -85.7335, 23.7806 ], [ -85.7217, 23.7849 ], [ -85.71, 23.7894 ], [ -85.6984, 23.7941 ], [ -85.6869, 23.799 ], [ -85.6755, 23.8041 ], [ -85.6641, 23.8093 ], [ -85.6529, 23.8148 ], [ -85.6418, 23.8204 ], [ -85.6308, 23.8262 ], [ -85.6199, 23.8321 ], [ -85.6091, 23.8382 ], [ -85.5984, 23.8445 ], [ -85.5879, 23.851 ], [ -85.5775, 23.8576 ], [ -85.5672, 23.8644 ], [ -85.557, 23.8714 ], [ -85.547, 23.8785 ], [ -85.5371, 23.8858 ], [ -85.5273, 23.8932 ], [ -85.5177, 23.9008 ], [ -85.5082, 23.9086 ], [ -85.4989, 23.9165 ], [ -85.4897, 23.9245 ], [ -85.4807, 23.9327 ], [ -85.4718, 23.941 ], [ -85.4631, 23.9495 ], [ -85.4546, 23.9581 ], [ -85.4462, 23.9668 ], [ -85.438, 23.9757 ], [ -85.43, 23.9847 ], [ -85.4221, 23.9938 ], [ -85.4144, 24.003 ], [ -85.4069, 24.0124 ], [ -85.3996, 24.0219 ], [ -85.3924, 24.0315 ], [ -85.3854, 24.0412 ], [ -85.3786, 24.051 ], [ -85.3721, 24.061 ], [ -85.3656, 24.071 ], [ -85.3594, 24.0811 ], [ -85.3534, 24.0914 ], [ -85.3476, 24.1017 ], [ -85.3419, 24.1121 ], [ -85.3365, 24.1226 ], [ -85.3313, 24.1332 ], [ -85.3262, 24.1438 ], [ -85.3214, 24.1546 ], [ -85.3168, 24.1654 ], [ -85.3124, 24.1763 ], [ -85.3082, 24.1873 ], [ -85.3042, 24.1983 ], [ -85.3004, 24.2094 ], [ -85.2968, 24.2205 ], [ -85.2935, 24.2317 ], [ -85.2903, 24.243 ], [ -85.2874, 24.2543 ], [ -85.2847, 24.2656 ], [ -85.2822, 24.277 ], [ -85.2799, 24.2885 ], [ -85.2779, 24.2999 ], [ -85.276, 24.3114 ], [ -85.2744, 24.3229 ], [ -85.273, 24.3345 ], [ -85.2718, 24.3461 ], [ -85.2709, 24.3576 ], [ -85.2701, 24.3692 ], [ -85.2696, 24.3808 ], [ -85.2693, 24.3924 ], [ -85.2693, 24.4041 ], [ -85.2694, 24.4157 ], [ -85.2698, 24.4273 ], [ -85.2704, 24.4389 ], [ -85.2712, 24.4505 ], [ -85.2723, 24.462 ], [ -85.2735, 24.4736 ], [ -85.275, 24.4851 ], [ -85.2767, 24.4966 ], [ -85.2787, 24.5081 ], [ -85.2808, 24.5196 ], [ -85.2832, 24.531 ], [ -85.2858, 24.5424 ], [ -85.2886, 24.5537 ], [ -85.2916, 24.565 ], [ -85.2949, 24.5762 ], [ -85.2983, 24.5874 ], [ -85.302, 24.5985 ], [ -85.3059, 24.6096 ], [ -85.31, 24.6206 ], [ -85.3143, 24.6315 ], [ -85.3188, 24.6424 ], [ -85.3235, 24.6532 ], [ -85.3285, 24.6639 ], [ -85.3336, 24.6745 ], [ -85.3389, 24.6851 ], [ -85.3445, 24.6955 ], [ -85.3503, 24.7059 ], [ -85.3562, 24.7162 ], [ -85.3623, 24.7264 ], [ -85.3687, 24.7364 ], [ -85.3752, 24.7464 ], [ -85.382, 24.7563 ], [ -85.3889, 24.7661 ], [ -85.396, 24.7757 ], [ -85.4033, 24.7853 ], [ -85.4107, 24.7947 ], [ -85.4184, 24.804 ], [ -85.4262, 24.8132 ], [ -85.4342, 24.8222 ], [ -85.4424, 24.8312 ], [ -85.4508, 24.84 ], [ -85.4593, 24.8486 ], [ -85.468, 24.8572 ], [ -85.4769, 24.8655 ], [ -85.4859, 24.8738 ], [ -85.4951, 24.8819 ], [ -85.5044, 24.8898 ], [ -85.5139, 24.8976 ], [ -85.5235, 24.9053 ], [ -85.5333, 24.9128 ], [ -85.5432, 24.9201 ], [ -85.5533, 24.9273 ], [ -85.5635, 24.9343 ], [ -85.5738, 24.9412 ], [ -85.5843, 24.9479 ], [ -85.5949, 24.9544 ], [ -85.6056, 24.9607 ], [ -85.6165, 24.9669 ], [ -85.6274, 24.9729 ], [ -85.6385, 24.9788 ], [ -85.6497, 24.9844 ], [ -85.661, 24.9899 ], [ -85.6724, 24.9952 ], [ -85.6839, 25.0003 ], [ -85.6955, 25.0053 ], [ -85.7072, 25.01 ], [ -85.719, 25.0146 ], [ -85.7309, 25.0189 ], [ -85.7428, 25.0231 ], [ -85.7549, 25.0271 ], [ -85.767, 25.0309 ], [ -85.7792, 25.0345 ], [ -85.7914, 25.0379 ], [ -85.8037, 25.0411 ], [ -85.8161, 25.0442 ], [ -85.8285, 25.047 ], [ -85.841, 25.0496 ], [ -85.8536, 25.052 ], [ -85.8661, 25.0543 ], [ -85.8788, 25.0563 ], [ -85.8914, 25.0581 ], [ -85.9041, 25.0598 ], [ -85.9168, 25.0612 ], [ -85.9296, 25.0624 ], [ -85.9424, 25.0634 ], [ -85.9552, 25.0642 ], [ -85.968, 25.0648 ], [ -85.9808, 25.0652 ], [ -85.9936, 25.0655 ] ] ] } },
{ "type": "Feature", "properties": { "RADII": 50.0, "STORMID": "al092021", "BASIN": "al", "STORMNUM": 9.0, "ADVNUM": "1A", "VALIDTIME": "2021082815", "SYNOPTIME": "2021082612", "TIMEZONE": "UTC", "TAU": 48.0, "NE": 40.0, "SE": 40.0, "SW": 30.0, "NW": 40.0 }, "geometry": { "type": "Polygon", "coordinates": [ [ [ -85.9968, 24.7327 ], [ -86.0032, 24.7327 ], [ -86.0096, 24.7326 ], [ -86.016, 24.7324 ], [ -86.0224, 24.7321 ], [ -86.0287, 24.7317 ], [ -86.0351, 24.7312 ], [ -86.0415, 24.7306 ], [ -86.0478, 24.7299 ], [ -86.0542, 24.7291 ], [ -86.0605, 24.7282 ], [ -86.0668, 24.7272 ], [ -86.073, 24.726 ], [ -86.0793, 24.7248 ], [ -86.0855, 24.7235 ], [ -86.0917, 24.7221 ], [ -86.0979, 24.7206 ], [ -86.104, 24.719 ], [ -86.1102, 24.7173 ], [ -86.1162, 24.7155 ], [ -86.1223, 24.7136 ], [ -86.1283, 24.7116 ], [ -86.1342, 24.7095 ], [ -86.1402, 24.7073 ], [ -86.1461, 24.7051 ], [ -86.1519, 24.7027 ], [ -86.1577, 24.7002 ], [ -86.1634, 24.6977 ], [ -86.1691, 24.6951 ], [ -86.1748, 24.6923 ], [ -86.1803, 24.6895 ], [ -86.1859, 24.6866 ], [ -86.1913, 24.6836 ], [ -86.1968, 24.6805 ], [ -86.2021, 24.6773 ], [ -86.2074, 24.6741 ], [ -86.2126, 24.6707 ], [ -86.2178, 24.6673 ], [ -86.2229, 24.6638 ], [ -86.2279, 24.6602 ], [ -86.2329, 24.6566 ], [ -86.2378, 24.6528 ], [ -86.2426, 24.649 ], [ -86.2473, 24.6451 ], [ -86.252, 24.6412 ], [ -86.2566, 24.6371 ], [ -86.2611, 24.633 ], [ -86.2655, 24.6288 ], [ -86.2699, 24.6246 ], [ -86.2741, 24.6202 ], [ -86.2783, 24.6158 ], [ -86.2824, 24.6114 ], [ -86.2864, 24.6069 ], [ -86.2903, 24.6023 ], [ -86.2942, 24.5976 ], [ -86.2979, 24.5929 ], [ -86.3016, 24.5882 ], [ -86.3051, 24.5833 ], [ -86.3086, 24.5785 ], [ -86.312, 24.5735 ], [ -86.3152, 24.5686 ], [ -86.3184, 24.5635 ], [ -86.3215, 24.5584 ], [ -86.3245, 24.5533 ], [ -86.3274, 24.5481 ], [ -86.3302, 24.5429 ], [ -86.3328, 24.5376 ], [ -86.3354, 24.5323 ], [ -86.3379, 24.527 ], [ -86.3403, 24.5216 ], [ -86.3426, 24.5161 ], [ -86.3447, 24.5107 ], [ -86.3468, 24.5052 ], [ -86.3487, 24.4997 ], [ -86.3506, 24.4941 ], [ -86.3523, 24.4885 ], [ -86.354, 24.4829 ], [ -86.3555, 24.4773 ], [ -86.3569, 24.4716 ], [ -86.3582, 24.4659 ], [ -86.3594, 24.4602 ], [ -86.3605, 24.4545 ], [ -86.3615, 24.4488 ], [ -86.3624, 24.443 ], [ -86.3631, 24.4372 ], [ -86.3638, 24.4315 ], [ -86.3643, 24.4257 ], [ -86.3648, 24.4199 ], [ -86.3651, 24.4141 ], [ -86.3653, 24.4083 ], [ -86.3654, 24.4025 ], [ -86.0, 24.4 ], [ -86.0, 24.4 ], [ -86.0, 24.4 ], [ -86.0, 24.4 ], [ -86.0, 24.4 ], [ -86.0, 24.4 ], [ -86.0, 24.4 ], [ -86.0, 24.4 ], [ -86.0, 24.4 ], [ -86.0, 24.4 ], [ -86.0, 24.4 ], [ -86.0, 24.4 ], [ -86.0, 24.4 ], [ -86.0, 24.4 ], [ -86.0, 24.4 ], [ -86.0, 24.4 ], [ -86.0, 24.4 ], [ -86.0, 24.4 ], [ -86.0, 24.4 ], [ -86.0, 24.4 ], [ -86.0, 24.4 ], [ -86.0, 24.4 ], [ -86.0, 24.4 ], [ -86.0, 24.4 ], [ -86.0, 24.4 ], [ -86.0, 24.4 ], [ -86.0, 24.4 ], [ -86.0, 24.4 ], [ -86.0, 24.4 ], [ -86.0, 24.4 ], [ -86.0, 24.4 ], [ -86.0, 24.4 ], [ -86.0, 24.4 ], [ -86.0, 24.4 ], [ -86.0, 24.4 ], [ -86.0, 24.4 ], [ -86.0, 24.4 ], [ -86.0, 24.4 ], [ -86.0, 24.4 ], [ -86.0, 24.4 ], [ -86.0, 24.4 ], [ -86.0, 24.4 ], [ -86.0, 24.4 ], [ -86.0, 24.4 ], [ -86.0, 24.4 ], [ -86.0, 24.4 ], [ -86.0, 24.4 ], [ -86.0, 24.4 ], [ -86.0, 24.4 ], [ -86.0, 24.4 ], [ -86.0, 24.4 ], [ -86.0, 24.4 ], [ -86.0, 24.4 ], [ -86.0, 24.4 ], [ -86.0, 24.4 ], [ -86.0, 24.4 ], [ -86.0, 24.4 ], [ -86.0, 24.4 ], [ -86.0, 24.4 ], [ -86.0, 24.4 ], [ -86.0, 24.4 ], [ -86.0, 24.4 ], [ -86.0, 24.4 ], [ -86.0, 24.4 ], [ -86.0, 24.4 ], [ -86.0, 24.4 ], [ -86.0, 24.4 ], [ -86.0, 24.4 ], [ -86.0, 24.4 ], [ -86.0, 24.4 ], [ -86.0, 24.4 ], [ -86.0, 24.4 ], [ -86.0, 24.4 ], [ -86.0, 24.4 ], [ -86.0, 24.4 ], [ -86.0, 24.4 ], [ -86.0, 24.4 ], [ -86.0, 24.4 ], [ -86.0, 24.4 ], [ -86.0, 24.4 ], [ -86.0, 24.4 ], [ -86.0, 24.4 ], [ -86.0, 24.4 ], [ -86.0, 24.4 ], [ -86.0, 24.4 ], [ -86.0, 24.4 ], [ -86.0, 24.4 ], [ -86.0, 24.4 ], [ -86.0, 24.4 ], [ -86.0, 24.4 ], [ -85.9968, 24.0673 ], [ -85.9905, 24.0674 ], [ -85.9841, 24.0676 ], [ -85.9778, 24.0679 ], [ -85.9714, 24.0683 ], [ -85.9651, 24.0688 ], [ -85.9588, 24.0694 ], [ -85.9524, 24.0701 ], [ -85.9461, 24.0709 ], [ -85.9399, 24.0718 ], [ -85.9336, 24.0728 ], [ -85.9273, 24.0739 ], [ -85.9211, 24.0751 ], [ -85.9149, 24.0764 ], [ -85.9088, 24.0778 ], [ -85.9026, 24.0793 ], [ -85.8965, 24.0809 ], [ -85.8904, 24.0826 ], [ -85.8844, 24.0844 ], [ -85.8783, 24.0863 ], [ -85.8724, 24.0883 ], [ -85.8664, 24.0904 ], [ -85.8605, 24.0925 ], [ -85.8547, 24.0948 ], [ -85.8488, 24.0971 ], [ -85.8431, 24.0996 ], [ -85.8374, 24.1021 ], [ -85.8317, 24.1048 ], [ -85.8261, 24.1075 ], [ -85.8205, 24.1103 ], [ -85.815, 24.1132 ], [ -85.8095, 24.1162 ], [ -85.8041, 24.1192 ], [ -85.7988, 24.1224 ], [ -85.7935, 24.1256 ], [ -85.7883, 24.129 ], [ -85.7831, 24.1324 ], [ -85.778, 24.1359 ], [ -85.773, 24.1394 ], [ -85.7681, 24.1431 ], [ -85.7632, 24.1468 ], [ -85.7584, 24.1506 ], [ -85.7536, 24.1545 ], [ -85.749, 24.1584 ], [ -85.7444, 24.1625 ], [ -85.7399, 24.1666 ], [ -85.7355, 24.1707 ], [ -85.7311, 24.175 ], [ -85.7268, 24.1793 ], [ -85.7226, 24.1837 ], [ -85.7185, 24.1881 ], [ -85.7145, 24.1926 ], [ -85.7106, 24.1972 ], [ -85.7068, 24.2018 ], [ -85.703, 24.2065 ], [ -85.6993, 24.2112 ], [ -85.6958, 24.216 ], [ -85.6923, 24.2209 ], [ -85.6889, 24.2258 ], [ -85.6856, 24.2308 ], [ -85.6824, 24.2358 ], [ -85.6793, 24.2409 ], [ -85.6763, 24.246 ], [ -85.6734, 24.2512 ], [ -85.6706, 24.2564 ], [ -85.6679, 24.2617 ], [ -85.6653, 24.267 ], [ -85.6628, 24.2723 ], [ -85.6604, 24.2777 ], [ -85.6581, 24.2831 ], [ -85.6559, 24.2885 ], [ -85.6538, 24.294 ], [ -85.6518, 24.2995 ], [ -85.6499, 24.3051 ], [ -85.6482, 24.3107 ], [ -85.6465, 24.3163 ], [ -85.6449, 24.3219 ], [ -85.6435, 24.3276 ], [ -85.6422, 24.3332 ], [ -85.6409, 24.3389 ], [ -85.6398, 24.3447 ], [ -85.6388, 24.3504 ], [ -85.6379, 24.3561 ], [ -85.6371, 24.3619 ], [ -85.6364, 24.3677 ], [ -85.6358, 24.3735 ], [ -85.6354, 24.3793 ], [ -85.635, 24.3851 ], [ -85.6348, 24.3909 ], [ -85.6347, 24.3967 ], [ -85.6346, 24.4025 ], [ -85.6347, 24.4083 ], [ -85.6349, 24.4141 ], [ -85.6353, 24.4199 ], [ -85.6357, 24.4257 ], [ -85.6362, 24.4315 ], [ -85.6369, 24.4372 ], [ -85.6376, 24.443 ], [ -85.6385, 24.4488 ], [ -85.6395, 24.4545 ], [ -85.6406, 24.4602 ], [ -85.6418, 24.4659 ], [ -85.6431, 24.4716 ], [ -85.6445, 24.4773 ], [ -85.646, 24.4829 ], [ -85.6477, 24.4885 ], [ -85.6494, 24.4941 ], [ -85.6513, 24.4997 ], [ -85.6532, 24.5052 ], [ -85.6553, 24.5107 ], [ -85.6575, 24.5161 ], [ -85.6597, 24.5216 ], [ -85.6621, 24.527 ], [ -85.6646, 24.5323 ], [ -85.6672, 24.5376 ], [ -85.6699, 24.5429 ], [ -85.6726, 24.5481 ], [ -85.6755, 24.5533 ], [ -85.6785, 24.5584 ], [ -85.6816, 24.5635 ], [ -85.6848, 24.5686 ], [ -85.688, 24.5735 ], [ -85.6914, 24.5785 ], [ -85.6949, 24.5833 ], [ -85.6984, 24.5882 ], [ -85.7021, 24.5929 ], [ -85.7058, 24.5976 ], [ -85.7097, 24.6023 ], [ -85.7136, 24.6069 ], [ -85.7176, 24.6114 ], [ -85.7217, 24.6158 ], [ -85.7259, 24.6202 ], [ -85.7301, 24.6246 ], [ -85.7345, 24.6288 ], [ -85.7389, 24.633 ], [ -85.7434, 24.6371 ], [ -85.748, 24.6412 ], [ -85.7527, 24.6451 ], [ -85.7574, 24.649 ], [ -85.7622, 24.6528 ], [ -85.7671, 24.6566 ], [ -85.7721, 24.6602 ], [ -85.7771, 24.6638 ], [ -85.7822, 24.6673 ], [ -85.7874, 24.6707 ], [ -85.7926, 24.6741 ], [ -85.7979, 24.6773 ], [ -85.8033, 24.6805 ], [ -85.8087, 24.6836 ], [ -85.8141, 24.6866 ], [ -85.8197, 24.6895 ], [ -85.8253, 24.6923 ], [ -85.8309, 24.6951 ], [ -85.8366, 24.6977 ], [ -85.8423, 24.7002 ], [ -85.8481, 24.7027 ], [ -85.854, 24.7051 ], [ -85.8598, 24.7073 ], [ -85.8658, 24.7095 ], [ -85.8717, 24.7116 ], [ -85.8777, 24.7136 ], [ -85.8838, 24.7155 ], [ -85.8899, 24.7173 ], [ -85.896, 24.719 ], [ -85.9021, 24.7206 ], [ -85.9083, 24.7221 ], [ -85.9145, 24.7235 ], [ -85.9207, 24.7248 ], [ -85.927, 24.726 ], [ -85.9333, 24.7272 ], [ -85.9395, 24.7282 ], [ -85.9459, 24.7291 ], [ -85.9522, 24.7299 ], [ -85.9585, 24.7306 ], [ -85.9649, 24.7312 ], [ -85.9713, 24.7317 ], [ -85.9776, 24.7321 ], [ -85.984, 24.7324 ], [ -85.9904, 24.7326 ], [ -85.9968, 24.7327 ] ] ] } },
{ "type": "Feature", "properties": { "RADII": 64.0, "STORMID": "al092021", "BASIN": "al", "STORMNUM": 9.0, "ADVNUM": "1A", "VALIDTIME": "2021082815", "SYNOPTIME": "2021082612", "TIMEZONE": "UTC", "TAU": 48.0, "NE": 20.0, "SE": 20.0, "SW": 0.0, "NW": 20.0 }, "geometry": { "type": "Polygon", "coordinates": [ [ [ -88.0786, 28.2627 ], [ -88.1181, 27.93 ], [ -88.1542, 27.9294 ], [ -88.1903, 27.9283 ], [ -88.2264, 27.9266 ], [ -88.2625, 27.9243 ], [ -88.2985, 27.9215 ], [ -88.3344, 27.9181 ], [ -88.3703, 27.9142 ], [ -88.4061, 27.9096 ], [ -88.4417, 27.9046 ], [ -88.4773, 27.8989 ], [ -88.5128, 27.8927 ], [ -88.5481, 27.886 ], [ -88.5832, 27.8787 ], [ -88.6183, 27.8708 ], [ -88.6531, 27.8624 ], [ -88.6878, 27.8535 ], [ -88.7223, 27.844 ], [ -88.7566, 27.834 ], [ -88.7906, 27.8234 ], [ -88.8245, 27.8123 ], [ -88.8581, 27.8007 ], [ -88.8915, 27.7886 ], [ -88.9247, 27.7759 ], [ -88.9575, 27.7627 ], [ -88.9901, 27.749 ], [ -89.0225, 27.7348 ], [ -89.0545, 27.7201 ], [ -89.0862, 27.7049 ], [ -89.1176, 27.6892 ], [ -89.1487, 27.673 ], [ -89.1794, 27.6563 ], [ -89.2098, 27.6392 ], [ -89.2399, 27.6216 ], [ -89.2696, 27.6035 ], [ -89.2989, 27.5849 ], [ -89.3279, 27.5659 ], [ -89.3564, 27.5464 ], [ -89.3846, 27.5265 ], [ -89.4123, 27.5062 ], [ -89.4397, 27.4854 ], [ -89.4666, 27.4642 ], [ -89.493, 27.4425 ], [ -89.5191, 27.4205 ], [ -89.5447, 27.3981 ], [ -89.5698, 27.3752 ], [ -89.5945, 27.352 ], [ -89.6187, 27.3284 ], [ -89.6424, 27.3044 ], [ -89.6657, 27.28 ], [ -89.6884, 27.2553 ], [ -89.7107, 27.2303 ], [ -89.7324, 27.2048 ], [ -89.7537, 27.1791 ], [ -89.7744, 27.153 ], [ -89.7946, 27.1266 ], [ -89.8142, 27.0999 ], [ -89.8334, 27.0729 ], [ -89.852, 27.0456 ], [ -89.87, 27.018 ], [ -89.8875, 26.9901 ], [ -89.9044, 26.962 ], [ -89.9208, 26.9336 ], [ -89.9366, 26.9049 ], [ -89.9518, 26.876 ], [ -89.9665, 26.8469 ], [ -89.9806, 26.8175 ], [ -89.994, 26.7879 ], [ -90.007, 26.7582 ], [ -90.0193, 26.7282 ], [ -90.031, 26.698 ], [ -90.0421, 26.6677 ], [ -90.0527, 26.6371 ], [ -90.0626, 26.6065 ], [ -90.0719, 26.5756 ], [ -90.0806, 26.5447 ], [ -90.0887, 26.5136 ], [ -90.0962, 26.4823 ], [ -90.1031, 26.451 ], [ -90.1093, 26.4196 ], [ -90.115, 26.388 ], [ -90.12, 26.3564 ], [ -90.1244, 26.3247 ], [ -90.1282, 26.293 ], [ -90.1314, 26.2612 ], [ -90.1339, 26.2293 ], [ -90.1359, 26.1974 ], [ -90.1372, 26.1655 ], [ -90.1378, 26.1336 ], [ -90.1379, 26.1016 ], [ -89.2114, 26.087 ], [ -89.2109, 26.0696 ], [ -89.2101, 26.0522 ], [ -89.2089, 26.0348 ], [ -89.2074, 26.0175 ], [ -89.2055, 26.0001 ], [ -89.2033, 25.9828 ], [ -89.2008, 25.9655 ], [ -89.198, 25.9483 ], [ -89.1948, 25.9311 ], [ -89.1912, 25.914 ], [ -89.1874, 25.8969 ], [ -89.1832, 25.8799 ], [ -89.1787, 25.863 ], [ -89.1739, 25.8461 ], [ -89.1687, 25.8293 ], [ -89.1632, 25.8126 ], [ -89.1574, 25.796 ], [ -89.1513, 25.7795 ], [ -89.1448, 25.763 ], [ -89.1381, 25.7467 ], [ -89.131, 25.7305 ], [ -89.1236, 25.7144 ], [ -89.1159, 25.6984 ], [ -89.1079, 25.6825 ], [ -89.0996, 25.6668 ], [ -89.091, 25.6512 ], [ -89.0821, 25.6358 ], [ -89.0729, 25.6204 ], [ -89.0634, 25.6053 ], [ -89.0536, 25.5902 ], [ -89.0436, 25.5754 ], [ -89.0332, 25.5607 ], [ -89.0226, 25.5461 ], [ -89.0117, 25.5317 ], [ -89.0005, 25.5175 ], [ -88.989, 25.5035 ], [ -88.9773, 25.4897 ], [ -88.9653, 25.476 ], [ -88.9531, 25.4626 ], [ -88.9406, 25.4493 ], [ -88.9279, 25.4362 ], [ -88.9149, 25.4233 ], [ -88.9016, 25.4107 ], [ -88.8881, 25.3982 ], [ -88.8744, 25.386 ], [ -88.8605, 25.3739 ], [ -88.8463, 25.3621 ], [ -88.8319, 25.3505 ], [ -88.8173, 25.3392 ], [ -88.8025, 25.3281 ], [ -88.7874, 25.3172 ], [ -88.7722, 25.3065 ], [ -88.7567, 25.2961 ], [ -88.7411, 25.2859 ], [ -88.7252, 25.276 ], [ -88.7092, 25.2663 ], [ -88.693, 25.2569 ], [ -88.6766, 25.2477 ], [ -88.6601, 25.2388 ], [ -88.6434, 25.2302 ], [ -88.6265, 25.2218 ], [ -88.6095, 25.2137 ], [ -88.5923, 25.2058 ], [ -88.5749, 25.1982 ], [ -88.5574, 25.1909 ], [ -88.5398, 25.1839 ], [ -88.5221, 25.1772 ], [ -88.5042, 25.1707 ], [ -88.4862, 25.1645 ], [ -88.4681, 25.1586 ], [ -88.4499, 25.1529 ], [ -88.4316, 25.1476 ], [ -88.4132, 25.1426 ], [ -88.3947, 25.1378 ], [ -88.3761, 25.1333 ], [ -88.3574, 25.1291 ], [ -88.3386, 25.1252 ], [ -88.3198, 25.1217 ], [ -88.3009, 25.1184 ], [ -88.2819, 25.1154 ], [ -88.2629, 25.1127 ], [ -88.2439, 25.1103 ], [ -88.2248, 25.1081 ], [ -88.2057, 25.1063 ], [ -88.1865, 25.1048 ], [ -88.1673, 25.1036 ], [ -88.1481, 25.1027 ], [ -88.1289, 25.1021 ], [ -88.1096, 25.1018 ], [ -88.0825, 24.27 ], [ -88.0475, 24.2706 ], [ -88.0125, 24.2717 ], [ -87.9775, 24.2733 ], [ -87.9425, 24.2755 ], [ -87.9076, 24.2782 ], [ -87.8728, 24.2815 ], [ -87.838, 24.2854 ], [ -87.8033, 24.2897 ], [ -87.7687, 24.2947 ], [ -87.7341, 24.3001 ], [ -87.6997, 24.3061 ], [ -87.6654, 24.3127 ], [ -87.6313, 24.3198 ], [ -87.5972, 24.3274 ], [ -87.5633, 24.3355 ], [ -87.5296, 24.3442 ], [ -87.496, 24.3534 ], [ -87.4626, 24.3631 ], [ -87.4294, 24.3734 ], [ -87.3964, 24.3841 ], [ -87.3636, 24.3954 ], [ -87.331, 24.4072 ], [ -87.2987, 24.4195 ], [ -87.2666, 24.4323 ], [ -87.2347, 24.4457 ], [ -87.203, 24.4595 ], [ -87.1717, 24.4738 ], [ -87.1406, 24.4886 ], [ -87.1098, 24.5038 ], [ -87.0792, 24.5196 ], [ -87.049, 24.5358 ], [ -87.0191, 24.5525 ], [ -86.9895, 24.5697 ], [ -86.9602, 24.5873 ], [ -86.9313, 24.6054 ], [ -86.9027, 24.624 ], [ -86.8744, 24.643 ], [ -86.8465, 24.6624 ], [ -86.819, 24.6823 ], [ -86.7919, 24.7025 ], [ -86.7651, 24.7233 ], [ -86.7387, 24.7444 ], [ -86.7128, 24.7659 ], [ -86.6872, 24.7879 ], [ -86.6621, 24.8102 ], [ -86.6374, 24.8329 ], [ -86.6131, 24.856 ], [ -86.5892, 24.8795 ], [ -86.5658, 24.9034 ], [ -86.5429, 24.9276 ], [ -86.5204, 24.9522 ], [ -86.4984, 24.9771 ], [ -86.4768, 25.0024 ], [ -86.4558, 25.028 ], [ -86.4352, 25.0539 ], [ -86.4151, 25.0802 ], [ -86.3955, 25.1067 ], [ -86.3765, 25.1336 ], [ -86.3579, 25.1607 ], [ -86.3399, 25.1882 ], [ -86.3223, 25.2159 ], [ -86.3053, 25.2439 ], [ -86.2889, 25.2722 ], [ -86.273, 25.3007 ], [ -86.2576, 25.3294 ], [ -86.2428, 25.3584 ], [ -86.2285, 25.3876 ], [ -86.2148, 25.4171 ], [ -86.2016, 25.4467 ], [ -86.1891, 25.4766 ], [ -86.1771, 25.5066 ], [ -86.1656, 25.5368 ], [ -86.1548, 25.5672 ], [ -86.1445, 25.5978 ], [ -86.1349, 25.6285 ], [ -86.1258, 25.6594 ], [ -86.1173, 25.6904 ], [ -86.1094, 25.7215 ], [ -86.1021, 25.7528 ], [ -86.0954, 25.7841 ], [ -86.0893, 25.8156 ], [ -86.0838, 25.8471 ], [ -86.079, 25.8788 ], [ -86.0747, 25.9105 ], [ -86.0711, 25.9422 ], [ -86.068, 25.9741 ], [ -86.0656, 26.0059 ], [ -86.0638, 26.0378 ], [ -86.0627, 26.0697 ], [ -85.6916, 26.0989 ], [ -85.6916, 26.1366 ], [ -85.6922, 26.1743 ], [ -85.6937, 26.2121 ], [ -85.6958, 26.2498 ], [ -85.6987, 26.2874 ], [ -85.7023, 26.325 ], [ -85.7067, 26.3625 ], [ -85.7118, 26.4 ], [ -85.7176, 26.4374 ], [ -85.7242, 26.4747 ], [ -85.7315, 26.5118 ], [ -85.7395, 26.5489 ], [ -85.7482, 26.5858 ], [ -85.7577, 26.6226 ], [ -85.7679, 26.6592 ], [ -85.7788, 26.6957 ], [ -85.7904, 26.7319 ], [ -85.8027, 26.768 ], [ -85.8158, 26.8039 ], [ -85.8295, 26.8396 ], [ -85.844, 26.8751 ], [ -85.8592, 26.9103 ], [ -85.875, 26.9453 ], [ -85.8916, 26.98 ], [ -85.9088, 27.0145 ], [ -85.9267, 27.0487 ], [ -85.9453, 27.0826 ], [ -85.9646, 27.1162 ], [ -85.9845, 27.1495 ], [ -86.0051, 27.1825 ], [ -86.0264, 27.2152 ], [ -86.0483, 27.2475 ], [ -86.0708, 27.2795 ], [ -86.094, 27.3111 ], [ -86.1179, 27.3423 ], [ -86.1423, 27.3732 ], [ -86.1674, 27.4037 ], [ -86.193, 27.4338 ], [ -86.2193, 27.4635 ], [ -86.2461, 27.4927 ], [ -86.2736, 27.5216 ], [ -86.3016, 27.55 ], [ -86.3302, 27.5779 ], [ -86.3594, 27.6054 ], [ -86.3891, 27.6325 ], [ -86.4193, 27.6591 ], [ -86.4501, 27.6852 ], [ -86.4814, 27.7108 ], [ -86.5132, 27.7359 ], [ -86.5455, 27.7605 ], [ -86.5784, 27.7846 ], [ -86.6117, 27.8082 ], [ -86.6454, 27.8312 ], [ -86.6797, 27.8538 ], [ -86.7144, 27.8758 ], [ -86.7495, 27.8972 ], [ -86.7851, 27.9181 ], [ -86.8211, 27.9384 ], [ -86.8575, 27.9582 ], [ -86.8943, 27.9774 ], [ -86.9314, 27.996 ], [ -86.969, 28.014 ], [ -87.0069, 28.0314 ], [ -87.0452, 28.0483 ], [ -87.0838, 28.0645 ], [ -87.1227, 28.0801 ], [ -87.162, 28.0951 ], [ -87.2015, 28.1095 ], [ -87.2414, 28.1233 ], [ -87.2815, 28.1364 ], [ -87.3218, 28.1489 ], [ -87.3625, 28.1608 ], [ -87.4033, 28.1721 ], [ -87.4444, 28.1826 ], [ -87.4857, 28.1926 ], [ -87.5272, 28.2019 ], [ -87.5689, 28.2106 ], [ -87.6108, 28.2185 ], [ -87.6528, 28.2259 ], [ -87.6949, 28.2326 ], [ -87.7372, 28.2386 ], [ -87.7796, 28.2439 ], [ -87.8221, 28.2486 ], [ -87.8647, 28.2526 ], [ -87.9074, 28.256 ], [ -87.9501, 28.2587 ], [ -87.9929, 28.2607 ], [ -88.0357, 28.262 ], [ -88.0786, 28.2627 ] ] ] } },
{ "type": "Feature", "properties": { "RADII": 34.0, "STORMID": "al092021", "BASIN": "al", "STORMNUM": 9.0, "ADVNUM": "1A", "VALIDTIME": "2021082903", "SYNOPTIME": "2021082612", "TIMEZONE": "UTC", "TAU": 60.0, "NE": 130.0, "SE": 110.0, "SW": 60.0, "NW": 110.0 }, "geometry": { "type": "Polygon", "coordinates": [ [ [ -88.0919, 26.9318 ], [ -88.1082, 26.9318 ], [ -88.1244, 26.9316 ], [ -88.1407, 26.931 ], [ -88.157, 26.9303 ], [ -88.1732, 26.9293 ], [ -88.1894, 26.928 ], [ -88.2056, 26.9265 ], [ -88.2218, 26.9247 ], [ -88.2379, 26.9226 ], [ -88.254, 26.9204 ], [ -88.27, 26.9178 ], [ -88.286, 26.915 ], [ -88.3019, 26.912 ], [ -88.3178, 26.9087 ], [ -88.3336, 26.9052 ], [ -88.3493, 26.9014 ], [ -88.3649, 26.8973 ], [ -88.3805, 26.8931 ], [ -88.3959, 26.8886 ], [ -88.4113, 26.8838 ], [ -88.4266, 26.8788 ], [ -88.4418, 26.8736 ], [ -88.4569, 26.8681 ], [ -88.4718, 26.8624 ], [ -88.4867, 26.8564 ], [ -88.5014, 26.8503 ], [ -88.516, 26.8438 ], [ -88.5305, 26.8372 ], [ -88.5448, 26.8304 ], [ -88.559, 26.8233 ], [ -88.5731, 26.816 ], [ -88.587, 26.8084 ], [ -88.6007, 26.8007 ], [ -88.6143, 26.7927 ], [ -88.6278, 26.7846 ], [ -88.6411, 26.7762 ], [ -88.6542, 26.7676 ], [ -88.6671, 26.7588 ], [ -88.6799, 26.7498 ], [ -88.6925, 26.7407 ], [ -88.7049, 26.7313 ], [ -88.7171, 26.7217 ], [ -88.7291, 26.7119 ], [ -88.741, 26.702 ], [ -88.7526, 26.6918 ], [ -88.764, 26.6815 ], [ -88.7752, 26.671 ], [ -88.7863, 26.6604 ], [ -88.7971, 26.6495 ], [ -88.8077, 26.6385 ], [ -88.818, 26.6273 ], [ -88.8282, 26.616 ], [ -88.8381, 26.6045 ], [ -88.8478, 26.5929 ], [ -88.8573, 26.5811 ], [ -88.8665, 26.5691 ], [ -88.8755, 26.557 ], [ -88.8842, 26.5448 ], [ -88.8928, 26.5325 ], [ -88.901, 26.52 ], [ -88.9091, 26.5074 ], [ -88.9168, 26.4946 ], [ -88.9244, 26.4818 ], [ -88.9316, 26.4688 ], [ -88.9386, 26.4557 ], [ -88.9454, 26.4425 ], [ -88.9519, 26.4292 ], [ -88.9581, 26.4158 ], [ -88.9641, 26.4023 ], [ -88.9698, 26.3887 ], [ -88.9752, 26.375 ], [ -88.9804, 26.3613 ], [ -88.9853, 26.3474 ], [ -88.99, 26.3335 ], [ -88.9943, 26.3195 ], [ -88.9984, 26.3055 ], [ -89.0022, 26.2914 ], [ -89.0057, 26.2772 ], [ -89.009, 26.263 ], [ -89.012, 26.2487 ], [ -89.0147, 26.2344 ], [ -89.0171, 26.2201 ], [ -89.0192, 26.2057 ], [ -89.0211, 26.1912 ], [ -89.0227, 26.1768 ], [ -89.0239, 26.1623 ], [ -89.025, 26.1478 ], [ -89.0257, 26.1333 ], [ -89.0261, 26.1188 ], [ -89.0263, 26.1043 ], [ -88.6557, 26.0946 ], [ -88.6555, 26.0859 ], [ -88.6552, 26.0772 ], [ -88.6546, 26.0685 ], [ -88.6539, 26.0598 ], [ -88.653, 26.0511 ], [ -88.6519, 26.0424 ], [ -88.6507, 26.0338 ], [ -88.6493, 26.0252 ], [ -88.6478, 26.0166 ], [ -88.646, 26.008 ], [ -88.6442, 25.9995 ], [ -88.6421, 25.991 ], [ -88.6399, 25.9825 ], [ -88.6375, 25.974 ], [ -88.635, 25.9656 ], [ -88.6323, 25.9573 ], [ -88.6294, 25.9489 ], [ -88.6264, 25.9407 ], [ -88.6232, 25.9325 ], [ -88.6198, 25.9243 ], [ -88.6163, 25.9162 ], [ -88.6126, 25.9081 ], [ -88.6088, 25.9001 ], [ -88.6049, 25.8921 ], [ -88.6007, 25.8843 ], [ -88.5964, 25.8764 ], [ -88.592, 25.8687 ], [ -88.5874, 25.861 ], [ -88.5827, 25.8534 ], [ -88.5778, 25.8459 ], [ -88.5728, 25.8384 ], [ -88.5677, 25.8311 ], [ -88.5624, 25.8238 ], [ -88.5569, 25.8166 ], [ -88.5514, 25.8095 ], [ -88.5456, 25.8024 ], [ -88.5398, 25.7955 ], [ -88.5338, 25.7886 ], [ -88.5277, 25.7819 ], [ -88.5215, 25.7752 ], [ -88.5151, 25.7687 ], [ -88.5086, 25.7622 ], [ -88.502, 25.7559 ], [ -88.4952, 25.7496 ], [ -88.4884, 25.7435 ], [ -88.4814, 25.7375 ], [ -88.4743, 25.7315 ], [ -88.4671, 25.7257 ], [ -88.4598, 25.72 ], [ -88.4524, 25.7144 ], [ -88.4448, 25.709 ], [ -88.4372, 25.7036 ], [ -88.4295, 25.6984 ], [ -88.4216, 25.6933 ], [ -88.4137, 25.6883 ], [ -88.4057, 25.6835 ], [ -88.3976, 25.6788 ], [ -88.3894, 25.6742 ], [ -88.3811, 25.6697 ], [ -88.3727, 25.6653 ], [ -88.3642, 25.6611 ], [ -88.3557, 25.6571 ], [ -88.3471, 25.6531 ], [ -88.3384, 25.6493 ], [ -88.3296, 25.6456 ], [ -88.3208, 25.6421 ], [ -88.3119, 25.6387 ], [ -88.3029, 25.6355 ], [ -88.2939, 25.6324 ], [ -88.2848, 25.6294 ], [ -88.2757, 25.6266 ], [ -88.2665, 25.6239 ], [ -88.2572, 25.6214 ], [ -88.2479, 25.619 ], [ -88.2386, 25.6167 ], [ -88.2292, 25.6146 ], [ -88.2198, 25.6127 ], [ -88.2103, 25.6109 ], [ -88.2009, 25.6092 ], [ -88.1914, 25.6077 ], [ -88.1818, 25.6064 ], [ -88.1722, 25.6051 ], [ -88.1627, 25.6041 ], [ -88.153, 25.6032 ], [ -88.1434, 25.6024 ], [ -88.1338, 25.6018 ], [ -88.1241, 25.6014 ], [ -88.1145, 25.6011 ], [ -88.1048, 25.6009 ], [ -88.092, 25.2682 ], [ -88.0759, 25.2684 ], [ -88.0599, 25.2689 ], [ -88.0438, 25.2697 ], [ -88.0278, 25.2707 ], [ -88.0118, 25.272 ], [ -87.9959, 25.2735 ], [ -87.9799, 25.2752 ], [ -87.964, 25.2772 ], [ -87.9482, 25.2795 ], [ -87.9324, 25.282 ], [ -87.9166, 25.2847 ], [ -87.9009, 25.2877 ], [ -87.8852, 25.291 ], [ -87.8697, 25.2945 ], [ -87.8541, 25.2982 ], [ -87.8387, 25.3022 ], [ -87.8233, 25.3064 ], [ -87.808, 25.3108 ], [ -87.7928, 25.3155 ], [ -87.7777, 25.3205 ], [ -87.7627, 25.3256 ], [ -87.7478, 25.331 ], [ -87.733, 25.3367 ], [ -87.7183, 25.3426 ], [ -87.7037, 25.3486 ], [ -87.6893, 25.355 ], [ -87.6749, 25.3615 ], [ -87.6607, 25.3683 ], [ -87.6467, 25.3753 ], [ -87.6327, 25.3825 ], [ -87.6189, 25.3899 ], [ -87.6052, 25.3976 ], [ -87.5917, 25.4054 ], [ -87.5784, 25.4135 ], [ -87.5652, 25.4218 ], [ -87.5521, 25.4303 ], [ -87.5392, 25.439 ], [ -87.5265, 25.4479 ], [ -87.514, 25.4569 ], [ -87.5016, 25.4662 ], [ -87.4894, 25.4757 ], [ -87.4774, 25.4854 ], [ -87.4656, 25.4952 ], [ -87.454, 25.5053 ], [ -87.4426, 25.5155 ], [ -87.4313, 25.5259 ], [ -87.4203, 25.5364 ], [ -87.4095, 25.5472 ], [ -87.3989, 25.5581 ], [ -87.3885, 25.5691 ], [ -87.3783, 25.5804 ], [ -87.3683, 25.5918 ], [ -87.3585, 25.6033 ], [ -87.349, 25.615 ], [ -87.3397, 25.6268 ], [ -87.3306, 25.6388 ], [ -87.3217, 25.651 ], [ -87.3131, 25.6632 ], [ -87.3047, 25.6756 ], [ -87.2966, 25.6882 ], [ -87.2887, 25.7008 ], [ -87.2811, 25.7136 ], [ -87.2736, 25.7265 ], [ -87.2665, 25.7395 ], [ -87.2596, 25.7526 ], [ -87.2529, 25.7658 ], [ -87.2465, 25.7792 ], [ -87.2404, 25.7926 ], [ -87.2345, 25.8061 ], [ -87.2289, 25.8197 ], [ -87.2236, 25.8334 ], [ -87.2185, 25.8472 ], [ -87.2136, 25.861 ], [ -87.2091, 25.875 ], [ -87.2048, 25.889 ], [ -87.2008, 25.903 ], [ -87.1971, 25.9171 ], [ -87.1936, 25.9313 ], [ -87.1904, 25.9456 ], [ -87.1875, 25.9598 ], [ -87.1849, 25.9742 ], [ -87.1825, 25.9885 ], [ -87.1804, 26.0029 ], [ -87.1786, 26.0173 ], [ -87.1771, 26.0318 ], [ -87.1758, 26.0463 ], [ -87.1749, 26.0608 ], [ -87.1742, 26.0753 ], [ -87.1738, 26.0898 ], [ -87.1737, 26.1043 ], [ -87.1739, 26.1188 ], [ -87.1743, 26.1333 ], [ -87.175, 26.1478 ], [ -87.1761, 26.1623 ], [ -87.1774, 26.1768 ], [ -87.1789, 26.1912 ], [ -87.1808, 26.2057 ], [ -87.1829, 26.2201 ], [ -87.1853, 26.2344 ], [ -87.188, 26.2487 ], [ -87.191, 26.263 ], [ -87.1943, 26.2772 ], [ -87.1978, 26.2914 ], [ -87.2016, 26.3055 ], [ -87.2057, 26.3195 ], [ -87.2101, 26.3335 ], [ -87.2147, 26.3474 ], [ -87.2196, 26.3613 ], [ -87.2248, 26.375 ], [ -87.2302, 26.3887 ], [ -87.2359, 26.4023 ], [ -87.2419, 26.4158 ], [ -87.2481, 26.4292 ], [ -87.2546, 26.4425 ], [ -87.2614, 26.4557 ], [ -87.2684, 26.4688 ], [ -87.2757, 26.4818 ], [ -87.2832, 26.4946 ], [ -87.291, 26.5074 ], [ -87.299, 26.52 ], [ -87.3073, 26.5325 ], [ -87.3158, 26.5448 ], [ -87.3245, 26.5571 ], [ -87.3335, 26.5691 ], [ -87.3428, 26.5811 ], [ -87.3522, 26.5929 ], [ -87.3619, 26.6045 ], [ -87.3718, 26.616 ], [ -87.382, 26.6273 ], [ -87.3924, 26.6385 ], [ -87.4029, 26.6495 ], [ -87.4137, 26.6604 ], [ -87.4248, 26.671 ], [ -87.436, 26.6815 ], [ -87.4474, 26.6918 ], [ -87.4591, 26.702 ], [ -87.4709, 26.7119 ], [ -87.4829, 26.7217 ], [ -87.4951, 26.7313 ], [ -87.5075, 26.7407 ], [ -87.5201, 26.7498 ], [ -87.5329, 26.7588 ], [ -87.5458, 26.7676 ], [ -87.5589, 26.7762 ], [ -87.5722, 26.7846 ], [ -87.5857, 26.7927 ], [ -87.5993, 26.8007 ], [ -87.613, 26.8084 ], [ -87.627, 26.816 ], [ -87.641, 26.8233 ], [ -87.6552, 26.8304 ], [ -87.6695, 26.8372 ], [ -87.684, 26.8438 ], [ -87.6986, 26.8503 ], [ -87.7133, 26.8564 ], [ -87.7282, 26.8624 ], [ -87.7432, 26.8681 ], [ -87.7582, 26.8736 ], [ -87.7734, 26.8788 ], [ -87.7887, 26.8838 ], [ -87.8041, 26.8886 ], [ -87.8195, 26.8931 ], [ -87.8351, 26.8973 ], [ -87.8507, 26.9014 ], [ -87.8665, 26.9052 ], [ -87.8822, 26.9087 ], [ -87.8981, 26.912 ], [ -87.914, 26.915 ], [ -87.93, 26.9178 ], [ -87.946, 26.9204 ], [ -87.9621, 26.9226 ], [ -87.9782, 26.9247 ], [ -87.9944, 26.9265 ], [ -88.0106, 26.928 ], [ -88.0268, 26.9293 ], [ -88.043, 26.9303 ], [ -88.0593, 26.931 ], [ -88.0756, 26.9316 ], [ -88.0919, 26.9318 ] ] ] } },
{ "type": "Feature", "properties": { "RADII": 50.0, "STORMID": "al092021", "BASIN": "al", "STORMNUM": 9.0, "ADVNUM": "1A", "VALIDTIME": "2021082903", "SYNOPTIME": "2021082612", "TIMEZONE": "UTC", "TAU": 60.0, "NE": 50.0, "SE": 50.0, "SW": 30.0, "NW": 50.0 }, "geometry": { "type": "Polygon", "coordinates": [ [ [ -89.9765, 30.0291 ], [ -90.0201, 29.6964 ], [ -90.0602, 29.6957 ], [ -90.1003, 29.6945 ], [ -90.1403, 29.6926 ], [ -90.1803, 29.6902 ], [ -90.2202, 29.6871 ], [ -90.2601, 29.6833 ], [ -90.2999, 29.679 ], [ -90.3396, 29.6741 ], [ -90.3792, 29.6685 ], [ -90.4186, 29.6624 ], [ -90.4579, 29.6556 ], [ -90.4971, 29.6482 ], [ -90.5361, 29.6402 ], [ -90.575, 29.6316 ], [ -90.6136, 29.6225 ], [ -90.6521, 29.6127 ], [ -90.6904, 29.6023 ], [ -90.7284, 29.5913 ], [ -90.7662, 29.5798 ], [ -90.8037, 29.5677 ], [ -90.841, 29.555 ], [ -90.878, 29.5417 ], [ -90.9148, 29.5278 ], [ -90.9512, 29.5134 ], [ -90.9874, 29.4984 ], [ -91.0232, 29.4829 ], [ -91.0587, 29.4668 ], [ -91.0938, 29.4502 ], [ -91.1286, 29.433 ], [ -91.1631, 29.4153 ], [ -91.1972, 29.3971 ], [ -91.2309, 29.3783 ], [ -91.2641, 29.359 ], [ -91.297, 29.3392 ], [ -91.3295, 29.319 ], [ -91.3616, 29.2982 ], [ -91.3932, 29.2769 ], [ -91.4244, 29.2551 ], [ -91.4551, 29.2329 ], [ -91.4854, 29.2101 ], [ -91.5152, 29.187 ], [ -91.5445, 29.1633 ], [ -91.5733, 29.1392 ], [ -91.6016, 29.1147 ], [ -91.6294, 29.0898 ], [ -91.6567, 29.0644 ], [ -91.6835, 29.0386 ], [ -91.7097, 29.0123 ], [ -91.7354, 28.9857 ], [ -91.7606, 28.9587 ], [ -91.7852, 28.9313 ], [ -91.8092, 28.9036 ], [ -91.8326, 28.8754 ], [ -91.8555, 28.8469 ], [ -91.8778, 28.8181 ], [ -91.8996, 28.7889 ], [ -91.9207, 28.7594 ], [ -91.9412, 28.7296 ], [ -91.9611, 28.6994 ], [ -91.9804, 28.669 ], [ -91.9991, 28.6382 ], [ -92.0171, 28.6072 ], [ -92.0345, 28.5759 ], [ -92.0513, 28.5443 ], [ -92.0675, 28.5125 ], [ -92.083, 28.4805 ], [ -92.0978, 28.4482 ], [ -92.112, 28.4156 ], [ -92.1256, 28.3829 ], [ -92.1385, 28.35 ], [ -92.1507, 28.3168 ], [ -92.1622, 28.2835 ], [ -92.1731, 28.25 ], [ -92.1834, 28.2164 ], [ -92.1929, 28.1826 ], [ -92.2018, 28.1486 ], [ -92.21, 28.1145 ], [ -92.2175, 28.0803 ], [ -92.2243, 28.046 ], [ -92.2304, 28.0116 ], [ -92.2359, 27.9771 ], [ -92.2407, 27.9425 ], [ -92.2448, 27.9079 ], [ -92.2482, 27.8732 ], [ -92.2509, 27.8384 ], [ -92.2529, 27.8036 ], [ -92.2543, 27.7688 ], [ -92.2549, 27.734 ], [ -92.2549, 27.6992 ], [ -91.3151, 27.6836 ], [ -91.3145, 27.6633 ], [ -91.3134, 27.643 ], [ -91.312, 27.6227 ], [ -91.3101, 27.6025 ], [ -91.3079, 27.5822 ], [ -91.3053, 27.562 ], [ -91.3022, 27.5419 ], [ -91.2988, 27.5218 ], [ -91.295, 27.5018 ], [ -91.2908, 27.4818 ], [ -91.2862, 27.4619 ], [ -91.2812, 27.442 ], [ -91.2758, 27.4223 ], [ -91.27, 27.4026 ], [ -91.2639, 27.383 ], [ -91.2573, 27.3636 ], [ -91.2504, 27.3442 ], [ -91.2431, 27.3249 ], [ -91.2355, 27.3058 ], [ -91.2274, 27.2867 ], [ -91.219, 27.2678 ], [ -91.2103, 27.2491 ], [ -91.2011, 27.2304 ], [ -91.1916, 27.212 ], [ -91.1818, 27.1936 ], [ -91.1716, 27.1754 ], [ -91.161, 27.1574 ], [ -91.1501, 27.1396 ], [ -91.1388, 27.1219 ], [ -91.1272, 27.1044 ], [ -91.1153, 27.087 ], [ -91.103, 27.0699 ], [ -91.0904, 27.053 ], [ -91.0775, 27.0362 ], [ -91.0643, 27.0197 ], [ -91.0507, 27.0033 ], [ -91.0368, 26.9872 ], [ -91.0226, 26.9713 ], [ -91.0081, 26.9556 ], [ -90.9933, 26.9401 ], [ -90.9782, 26.9249 ], [ -90.9629, 26.9099 ], [ -90.9472, 26.8951 ], [ -90.9312, 26.8806 ], [ -90.915, 26.8664 ], [ -90.8985, 26.8523 ], [ -90.8817, 26.8386 ], [ -90.8647, 26.8251 ], [ -90.8474, 26.8119 ], [ -90.8299, 26.7989 ], [ -90.8121, 26.7862 ], [ -90.7941, 26.7738 ], [ -90.7758, 26.7617 ], [ -90.7573, 26.7498 ], [ -90.7386, 26.7383 ], [ -90.7196, 26.727 ], [ -90.7005, 26.716 ], [ -90.6811, 26.7054 ], [ -90.6616, 26.695 ], [ -90.6418, 26.6849 ], [ -90.6219, 26.6752 ], [ -90.6017, 26.6657 ], [ -90.5814, 26.6566 ], [ -90.5609, 26.6477 ], [ -90.5403, 26.6392 ], [ -90.5195, 26.631 ], [ -90.4985, 26.6232 ], [ -90.4774, 26.6156 ], [ -90.4561, 26.6084 ], [ -90.4347, 26.6015 ], [ -90.4132, 26.595 ], [ -90.3916, 26.5888 ], [ -90.3698, 26.5829 ], [ -90.348, 26.5773 ], [ -90.326, 26.5721 ], [ -90.3039, 26.5673 ], [ -90.2818, 26.5627 ], [ -90.2596, 26.5586 ], [ -90.2372, 26.5547 ], [ -90.2149, 26.5512 ], [ -90.1924, 26.5481 ], [ -90.1699, 26.5453 ], [ -90.1474, 26.5428 ], [ -90.1248, 26.5407 ], [ -90.1021, 26.539 ], [ -90.0795, 26.5376 ], [ -90.0568, 26.5365 ], [ -90.0341, 26.5358 ], [ -90.0114, 26.5355 ], [ -89.9791, 25.5373 ], [ -89.9373, 25.5379 ], [ -89.8955, 25.5392 ], [ -89.8537, 25.5412 ], [ -89.812, 25.5437 ], [ -89.7703, 25.547 ], [ -89.7287, 25.5508 ], [ -89.6872, 25.5554 ], [ -89.6457, 25.5605 ], [ -89.6044, 25.5663 ], [ -89.5632, 25.5727 ], [ -89.5221, 25.5798 ], [ -89.4811, 25.5875 ], [ -89.4403, 25.5958 ], [ -89.3996, 25.6048 ], [ -89.3592, 25.6144 ], [ -89.3189, 25.6246 ], [ -89.2788, 25.6354 ], [ -89.2389, 25.6469 ], [ -89.1992, 25.659 ], [ -89.1598, 25.6716 ], [ -89.1206, 25.6849 ], [ -89.0817, 25.6988 ], [ -89.043, 25.7133 ], [ -89.0046, 25.7284 ], [ -88.9665, 25.7441 ], [ -88.9287, 25.7603 ], [ -88.8912, 25.7772 ], [ -88.854, 25.7946 ], [ -88.8171, 25.8126 ], [ -88.7806, 25.8312 ], [ -88.7445, 25.8503 ], [ -88.7087, 25.87 ], [ -88.6733, 25.8902 ], [ -88.6383, 25.911 ], [ -88.6036, 25.9323 ], [ -88.5694, 25.9541 ], [ -88.5356, 25.9765 ], [ -88.5022, 25.9994 ], [ -88.4693, 26.0228 ], [ -88.4368, 26.0467 ], [ -88.4047, 26.0711 ], [ -88.3731, 26.0959 ], [ -88.342, 26.1213 ], [ -88.3114, 26.1472 ], [ -88.2813, 26.1735 ], [ -88.2517, 26.2003 ], [ -88.2225, 26.2275 ], [ -88.194, 26.2552 ], [ -88.1659, 26.2833 ], [ -88.1384, 26.3119 ], [ -88.1114, 26.3409 ], [ -88.085, 26.3702 ], [ -88.0591, 26.4 ], [ -88.0338, 26.4302 ], [ -88.0091, 26.4608 ], [ -87.9849, 26.4917 ], [ -87.9614, 26.523 ], [ -87.9385, 26.5547 ], [ -87.9162, 26.5867 ], [ -87.8944, 26.6191 ], [ -87.8734, 26.6518 ], [ -87.8529, 26.6848 ], [ -87.8331, 26.7181 ], [ -87.8139, 26.7518 ], [ -87.7954, 26.7857 ], [ -87.7775, 26.8199 ], [ -87.7603, 26.8543 ], [ -87.7437, 26.8891 ], [ -87.7278, 26.9241 ], [ -87.7126, 26.9593 ], [ -87.6981, 26.9947 ], [ -87.6843, 27.0304 ], [ -87.6711, 27.0663 ], [ -87.6587, 27.1024 ], [ -87.6469, 27.1386 ], [ -87.6359, 27.1751 ], [ -87.6256, 27.2117 ], [ -87.616, 27.2484 ], [ -87.6071, 27.2853 ], [ -87.5989, 27.3223 ], [ -87.5914, 27.3595 ], [ -87.5847, 27.3968 ], [ -87.5787, 27.4341 ], [ -87.5734, 27.4716 ], [ -87.5689, 27.5091 ], [ -87.5651, 27.5467 ], [ -87.562, 27.5843 ], [ -87.5597, 27.622 ], [ -87.5581, 27.6597 ], [ -87.3694, 27.6955 ], [ -87.3692, 27.7361 ], [ -87.3698, 27.7767 ], [ -87.3712, 27.8174 ], [ -87.3735, 27.858 ], [ -87.3765, 27.8985 ], [ -87.3803, 27.939 ], [ -87.3849, 27.9794 ], [ -87.3904, 28.0198 ], [ -87.3966, 28.0601 ], [ -87.4036, 28.1002 ], [ -87.4115, 28.1403 ], [ -87.4201, 28.1802 ], [ -87.4295, 28.22 ], [ -87.4398, 28.2596 ], [ -87.4508, 28.2991 ], [ -87.4625, 28.3384 ], [ -87.4751, 28.3775 ], [ -87.4885, 28.4164 ], [ -87.5026, 28.4551 ], [ -87.5176, 28.4935 ], [ -87.5333, 28.5318 ], [ -87.5497, 28.5697 ], [ -87.5669, 28.6075 ], [ -87.5849, 28.6449 ], [ -87.6037, 28.6821 ], [ -87.6231, 28.7189 ], [ -87.6434, 28.7555 ], [ -87.6643, 28.7918 ], [ -87.6861, 28.8277 ], [ -87.7085, 28.8632 ], [ -87.7316, 28.8985 ], [ -87.7555, 28.9333 ], [ -87.7801, 28.9678 ], [ -87.8053, 29.0019 ], [ -87.8313, 29.0356 ], [ -87.8579, 29.0689 ], [ -87.8853, 29.1018 ], [ -87.9133, 29.1343 ], [ -87.9419, 29.1663 ], [ -87.9712, 29.1979 ], [ -88.0012, 29.229 ], [ -88.0318, 29.2596 ], [ -88.063, 29.2898 ], [ -88.0948, 29.3195 ], [ -88.1273, 29.3487 ], [ -88.1603, 29.3773 ], [ -88.1939, 29.4055 ], [ -88.2281, 29.4331 ], [ -88.2629, 29.4602 ], [ -88.2982, 29.4868 ], [ -88.3341, 29.5128 ], [ -88.3705, 29.5383 ], [ -88.4074, 29.5632 ], [ -88.4449, 29.5875 ], [ -88.4828, 29.6112 ], [ -88.5212, 29.6344 ], [ -88.5601, 29.6569 ], [ -88.5995, 29.6789 ], [ -88.6393, 29.7002 ], [ -88.6796, 29.7209 ], [ -88.7203, 29.741 ], [ -88.7614, 29.7605 ], [ -88.8029, 29.7793 ], [ -88.8447, 29.7975 ], [ -88.887, 29.815 ], [ -88.9296, 29.8319 ], [ -88.9726, 29.8481 ], [ -89.0159, 29.8636 ], [ -89.0595, 29.8785 ], [ -89.1034, 29.8927 ], [ -89.1476, 29.9062 ], [ -89.1921, 29.919 ], [ -89.2369, 29.9312 ], [ -89.2819, 29.9426 ], [ -89.3271, 29.9533 ], [ -89.3726, 29.9634 ], [ -89.4182, 29.9727 ], [ -89.4641, 29.9814 ], [ -89.5101, 29.9893 ], [ -89.5563, 29.9965 ], [ -89.6026, 30.003 ], [ -89.649, 30.0088 ], [ -89.6956, 30.0139 ], [ -89.7423, 30.0182 ], [ -89.789, 30.0218 ], [ -89.8358, 30.0247 ], [ -89.8827, 30.0269 ], [ -89.9296, 30.0284 ], [ -89.9765, 30.0291 ] ] ] } },
{ "type": "Feature", "properties": { "RADII": 34.0, "STORMID": "al092021", "BASIN": "al", "STORMNUM": 9.0, "ADVNUM": "1A", "VALIDTIME": "2021082915", "SYNOPTIME": "2021082612", "TIMEZONE": "UTC", "TAU": 72.0, "NE": 140.0, "SE": 130.0, "SW": 70.0, "NW": 120.0 }, "geometry": { "type": "Polygon", "coordinates": [ [ [ -89.9917, 28.5318 ], [ -90.0083, 28.5318 ], [ -90.0248, 28.5316 ], [ -90.0413, 28.531 ], [ -90.0578, 28.5303 ], [ -90.0743, 28.5293 ], [ -90.0908, 28.528 ], [ -90.1072, 28.5265 ], [ -90.1236, 28.5247 ], [ -90.1399, 28.5226 ], [ -90.1563, 28.5204 ], [ -90.1725, 28.5178 ], [ -90.1887, 28.515 ], [ -90.2049, 28.512 ], [ -90.221, 28.5087 ], [ -90.237, 28.5051 ], [ -90.253, 28.5014 ], [ -90.2688, 28.4973 ], [ -90.2846, 28.4931 ], [ -90.3003, 28.4885 ], [ -90.3159, 28.4838 ], [ -90.3314, 28.4788 ], [ -90.3468, 28.4735 ], [ -90.3621, 28.4681 ], [ -90.3773, 28.4623 ], [ -90.3924, 28.4564 ], [ -90.4073, 28.4502 ], [ -90.4221, 28.4438 ], [ -90.4368, 28.4372 ], [ -90.4514, 28.4303 ], [ -90.4658, 28.4232 ], [ -90.48, 28.4159 ], [ -90.4941, 28.4084 ], [ -90.5081, 28.4006 ], [ -90.5219, 28.3927 ], [ -90.5355, 28.3845 ], [ -90.549, 28.3761 ], [ -90.5623, 28.3675 ], [ -90.5755, 28.3588 ], [ -90.5884, 28.3498 ], [ -90.6012, 28.3406 ], [ -90.6138, 28.3312 ], [ -90.6262, 28.3216 ], [ -90.6383, 28.3118 ], [ -90.6503, 28.3019 ], [ -90.6621, 28.2917 ], [ -90.6737, 28.2814 ], [ -90.6851, 28.2709 ], [ -90.6963, 28.2602 ], [ -90.7073, 28.2494 ], [ -90.718, 28.2384 ], [ -90.7285, 28.2272 ], [ -90.7388, 28.2159 ], [ -90.7489, 28.2044 ], [ -90.7587, 28.1927 ], [ -90.7683, 28.1809 ], [ -90.7777, 28.169 ], [ -90.7868, 28.1569 ], [ -90.7957, 28.1447 ], [ -90.8043, 28.1323 ], [ -90.8127, 28.1198 ], [ -90.8208, 28.1072 ], [ -90.8287, 28.0945 ], [ -90.8363, 28.0816 ], [ -90.8437, 28.0686 ], [ -90.8508, 28.0555 ], [ -90.8576, 28.0423 ], [ -90.8642, 28.029 ], [ -90.8705, 28.0156 ], [ -90.8766, 28.0021 ], [ -90.8824, 27.9885 ], [ -90.8879, 27.9748 ], [ -90.8931, 27.9611 ], [ -90.8981, 27.9472 ], [ -90.9028, 27.9333 ], [ -90.9072, 27.9193 ], [ -90.9113, 27.9053 ], [ -90.9152, 27.8912 ], [ -90.9188, 27.877 ], [ -90.9221, 27.8628 ], [ -90.9251, 27.8485 ], [ -90.9278, 27.8342 ], [ -90.9302, 27.8198 ], [ -90.9324, 27.8055 ], [ -90.9343, 27.791 ], [ -90.9359, 27.7766 ], [ -90.9372, 27.7621 ], [ -90.9382, 27.7476 ], [ -90.9389, 27.7331 ], [ -90.9394, 27.7186 ], [ -90.9395, 27.7041 ], [ -90.5637, 27.6945 ], [ -90.5635, 27.6858 ], [ -90.5631, 27.6771 ], [ -90.5625, 27.6684 ], [ -90.5618, 27.6597 ], [ -90.5609, 27.651 ], [ -90.5598, 27.6424 ], [ -90.5586, 27.6337 ], [ -90.5571, 27.6251 ], [ -90.5556, 27.6165 ], [ -90.5538, 27.6079 ], [ -90.5519, 27.5994 ], [ -90.5498, 27.5909 ], [ -90.5476, 27.5824 ], [ -90.5451, 27.574 ], [ -90.5425, 27.5656 ], [ -90.5398, 27.5572 ], [ -90.5369, 27.5489 ], [ -90.5338, 27.5406 ], [ -90.5306, 27.5324 ], [ -90.5272, 27.5242 ], [ -90.5236, 27.5161 ], [ -90.5199, 27.508 ], [ -90.516, 27.5 ], [ -90.512, 27.4921 ], [ -90.5078, 27.4842 ], [ -90.5035, 27.4764 ], [ -90.499, 27.4686 ], [ -90.4943, 27.461 ], [ -90.4895, 27.4534 ], [ -90.4846, 27.4458 ], [ -90.4795, 27.4384 ], [ -90.4743, 27.431 ], [ -90.4689, 27.4237 ], [ -90.4634, 27.4165 ], [ -90.4577, 27.4094 ], [ -90.4519, 27.4024 ], [ -90.446, 27.3954 ], [ -90.4399, 27.3886 ], [ -90.4337, 27.3819 ], [ -90.4274, 27.3752 ], [ -90.4209, 27.3686 ], [ -90.4143, 27.3622 ], [ -90.4076, 27.3558 ], [ -90.4008, 27.3496 ], [ -90.3938, 27.3435 ], [ -90.3868, 27.3374 ], [ -90.3796, 27.3315 ], [ -90.3723, 27.3257 ], [ -90.3648, 27.32 ], [ -90.3573, 27.3144 ], [ -90.3497, 27.309 ], [ -90.3419, 27.3036 ], [ -90.3341, 27.2984 ], [ -90.3261, 27.2933 ], [ -90.3181, 27.2883 ], [ -90.31, 27.2835 ], [ -90.3017, 27.2787 ], [ -90.2934, 27.2741 ], [ -90.285, 27.2697 ], [ -90.2765, 27.2653 ], [ -90.2679, 27.2611 ], [ -90.2593, 27.257 ], [ -90.2505, 27.2531 ], [ -90.2417, 27.2493 ], [ -90.2328, 27.2456 ], [ -90.2239, 27.2421 ], [ -90.2148, 27.2387 ], [ -90.2057, 27.2355 ], [ -90.1966, 27.2324 ], [ -90.1874, 27.2294 ], [ -90.1781, 27.2266 ], [ -90.1688, 27.2239 ], [ -90.1594, 27.2214 ], [ -90.15, 27.219 ], [ -90.1405, 27.2167 ], [ -90.131, 27.2146 ], [ -90.1215, 27.2127 ], [ -90.1119, 27.2109 ], [ -90.1023, 27.2092 ], [ -90.0926, 27.2077 ], [ -90.083, 27.2064 ], [ -90.0733, 27.2051 ], [ -90.0635, 27.2041 ], [ -90.0538, 27.2032 ], [ -90.044, 27.2024 ], [ -90.0343, 27.2018 ], [ -90.0245, 27.2014 ], [ -90.0147, 27.2011 ], [ -90.0049, 27.2009 ], [ -89.9919, 26.8682 ], [ -89.9756, 26.8684 ], [ -89.9593, 26.8689 ], [ -89.9431, 26.8697 ], [ -89.9268, 26.8707 ], [ -89.9106, 26.872 ], [ -89.8944, 26.8735 ], [ -89.8783, 26.8752 ], [ -89.8622, 26.8772 ], [ -89.8461, 26.8795 ], [ -89.8301, 26.882 ], [ -89.8141, 26.8847 ], [ -89.7981, 26.8877 ], [ -89.7823, 26.891 ], [ -89.7665, 26.8945 ], [ -89.7507, 26.8982 ], [ -89.7351, 26.9022 ], [ -89.7195, 26.9064 ], [ -89.704, 26.9108 ], [ -89.6886, 26.9155 ], [ -89.6733, 26.9205 ], [ -89.6581, 26.9256 ], [ -89.643, 26.931 ], [ -89.628, 26.9367 ], [ -89.6131, 26.9425 ], [ -89.5983, 26.9486 ], [ -89.5836, 26.9549 ], [ -89.5691, 26.9615 ], [ -89.5547, 26.9683 ], [ -89.5404, 26.9752 ], [ -89.5263, 26.9825 ], [ -89.5123, 26.9899 ], [ -89.4984, 26.9975 ], [ -89.4847, 27.0054 ], [ -89.4712, 27.0135 ], [ -89.4578, 27.0217 ], [ -89.4445, 27.0302 ], [ -89.4315, 27.0389 ], [ -89.4186, 27.0478 ], [ -89.4059, 27.0569 ], [ -89.3933, 27.0661 ], [ -89.381, 27.0756 ], [ -89.3688, 27.0853 ], [ -89.3568, 27.0951 ], [ -89.345, 27.1052 ], [ -89.3334, 27.1154 ], [ -89.322, 27.1257 ], [ -89.3109, 27.1363 ], [ -89.2999, 27.147 ], [ -89.2891, 27.1579 ], [ -89.2785, 27.169 ], [ -89.2682, 27.1802 ], [ -89.2581, 27.1916 ], [ -89.2482, 27.2032 ], [ -89.2385, 27.2149 ], [ -89.229, 27.2267 ], [ -89.2198, 27.2387 ], [ -89.2108, 27.2508 ], [ -89.2021, 27.2631 ], [ -89.1936, 27.2755 ], [ -89.1853, 27.288 ], [ -89.1773, 27.3007 ], [ -89.1696, 27.3134 ], [ -89.162, 27.3263 ], [ -89.1548, 27.3393 ], [ -89.1478, 27.3524 ], [ -89.141, 27.3657 ], [ -89.1345, 27.379 ], [ -89.1283, 27.3924 ], [ -89.1223, 27.4059 ], [ -89.1166, 27.4195 ], [ -89.1112, 27.4332 ], [ -89.106, 27.447 ], [ -89.1011, 27.4608 ], [ -89.0965, 27.4748 ], [ -89.0922, 27.4888 ], [ -89.0881, 27.5028 ], [ -89.0843, 27.5169 ], [ -89.0808, 27.5311 ], [ -89.0775, 27.5454 ], [ -89.0745, 27.5596 ], [ -89.0719, 27.574 ], [ -89.0695, 27.5883 ], [ -89.0674, 27.6027 ], [ -89.0655, 27.6171 ], [ -89.064, 27.6316 ], [ -89.0627, 27.6461 ], [ -89.0617, 27.6606 ], [ -89.061, 27.6751 ], [ -89.0606, 27.6896 ], [ -89.0605, 27.7041 ], [ -89.0606, 27.7186 ], [ -89.0611, 27.7331 ], [ -89.0618, 27.7476 ], [ -89.0628, 27.7621 ], [ -89.0641, 27.7766 ], [ -89.0657, 27.791 ], [ -89.0676, 27.8055 ], [ -89.0698, 27.8198 ], [ -89.0722, 27.8342 ], [ -89.075, 27.8485 ], [ -89.078, 27.8628 ], [ -89.0813, 27.877 ], [ -89.0848, 27.8912 ], [ -89.0887, 27.9053 ], [ -89.0928, 27.9193 ], [ -89.0972, 27.9333 ], [ -89.1019, 27.9472 ], [ -89.1069, 27.9611 ], [ -89.1121, 27.9748 ], [ -89.1176, 27.9885 ], [ -89.1234, 28.0021 ], [ -89.1295, 28.0156 ], [ -89.1358, 28.029 ], [ -89.1424, 28.0423 ], [ -89.1492, 28.0555 ], [ -89.1563, 28.0686 ], [ -89.1637, 28.0816 ], [ -89.1713, 28.0945 ], [ -89.1792, 28.1072 ], [ -89.1873, 28.1198 ], [ -89.1957, 28.1323 ], [ -89.2044, 28.1447 ], [ -89.2132, 28.1569 ], [ -89.2224, 28.169 ], [ -89.2317, 28.1809 ], [ -89.2413, 28.1927 ], [ -89.2512, 28.2044 ], [ -89.2612, 28.2159 ], [ -89.2715, 28.2272 ], [ -89.282, 28.2384 ], [ -89.2928, 28.2494 ], [ -89.3037, 28.2602 ], [ -89.3149, 28.2709 ], [ -89.3263, 28.2814 ], [ -89.3379, 28.2917 ], [ -89.3497, 28.3019 ], [ -89.3617, 28.3118 ], [ -89.3739, 28.3216 ], [ -89.3863, 28.3312 ], [ -89.3988, 28.3406 ], [ -89.4116, 28.3498 ], [ -89.4246, 28.3588 ], [ -89.4377, 28.3675 ], [ -89.451, 28.3761 ], [ -89.4645, 28.3845 ], [ -89.4781, 28.3927 ], [ -89.4919, 28.4006 ], [ -89.5059, 28.4084 ], [ -89.52, 28.4159 ], [ -89.5343, 28.4232 ], [ -89.5487, 28.4303 ], [ -89.5632, 28.4372 ], [ -89.5779, 28.4438 ], [ -89.5927, 28.4502 ], [ -89.6077, 28.4564 ], [ -89.6227, 28.4623 ], [ -89.6379, 28.4681 ], [ -89.6532, 28.4735 ], [ -89.6686, 28.4788 ], [ -89.6841, 28.4838 ], [ -89.6997, 28.4885 ], [ -89.7154, 28.4931 ], [ -89.7312, 28.4973 ], [ -89.7471, 28.5014 ], [ -89.763, 28.5051 ], [ -89.779, 28.5087 ], [ -89.7951, 28.512 ], [ -89.8113, 28.515 ], [ -89.8275, 28.5178 ], [ -89.8438, 28.5204 ], [ -89.8601, 28.5226 ], [ -89.8764, 28.5247 ], [ -89.8928, 28.5265 ], [ -89.9093, 28.528 ], [ -89.9257, 28.5293 ], [ -89.9422, 28.5303 ], [ -89.9587, 28.531 ], [ -89.9752, 28.5316 ], [ -89.9917, 28.5318 ] ] ] } }
]
}
