{
"type": "FeatureCollection",
"name": "al092021_2021082806_initialradii",
"features": [
{ "type": "Feature", "properties": { "RADII": 34.0, "STORMID": "al092021", "BASIN": "al", "STORMNUM": 9.0, "ADVNUM": "7A", "VALIDTIME": "2021082806", "SYNOPTIME": "2021082800", "TIMEZONE": "UTC", "TAU": 0.0, "NE": 100.0, "SE": 60.0, "SW": 40.0, "NW": 70.0 }, "geometry": { "type": "Polygon", "coordinates": [ [ [ -84.6857, 24.9154 ], [ -84.7129, 24.9099 ], [ -84.7398, 24.9039 ], [ -84.7666, 24.8975 ], [ -84.7931, 24.8907 ], [ -84.8193, 24.8835 ], [ -84.8453, 24.8758 ], [ -84.8711, 24.8678 ], [ -84.8965, 24.8594 ], [ -84.9217, 24.8505 ], [ -84.9466, 24.8413 ], [ -84.9713, 24.8317 ], [ -84.9956, 24.8217 ], [ -85.0196, 24.8114 ], [ -85.0434, 24.8007 ], [ -85.0667, 24.7897 ], [ -85.0898, 24.7782 ], [ -85.1126, 24.7665 ], [ -85.135, 24.7544 ], [ -85.157, 24.742 ], [ -85.1788, 24.7293 ], [ -85.2001, 24.7163 ], [ -85.2212, 24.7029 ], [ -85.2418, 24.6893 ], [ -85.2621, 24.6754 ], [ -85.282, 24.6612 ], [ -85.3015, 24.6467 ], [ -85.3207, 24.6319 ], [ -85.3395, 24.6169 ], [ -85.3579, 24.6017 ], [ -85.3758, 24.5862 ], [ -85.3934, 24.5704 ], [ -85.4106, 24.5544 ], [ -85.4274, 24.5382 ], [ -85.4438, 24.5218 ], [ -85.4598, 24.5052 ], [ -85.4753, 24.4884 ], [ -85.4905, 24.4714 ], [ -85.5052, 24.4543 ], [ -85.5195, 24.4369 ], [ -85.5334, 24.4194 ], [ -85.5469, 24.4017 ], [ -85.5599, 24.3839 ], [ -85.5726, 24.3659 ], [ -85.5847, 24.3479 ], [ -85.5965, 24.3296 ], [ -85.6079, 24.3113 ], [ -85.6188, 24.2929 ], [ -85.6292, 24.2743 ], [ -85.6393, 24.2557 ], [ -85.6489, 24.237 ], [ -85.6581, 24.2182 ], [ -85.6669, 24.1993 ], [ -85.6752, 24.1804 ], [ -85.6831, 24.1614 ], [ -85.6906, 24.1424 ], [ -85.6976, 24.1234 ], [ -85.7042, 24.1043 ], [ -85.7104, 24.0852 ], [ -85.7162, 24.066 ], [ -85.7215, 24.0469 ], [ -85.7265, 24.0278 ], [ -85.731, 24.0087 ], [ -85.7351, 23.9896 ], [ -85.7387, 23.9705 ], [ -85.742, 23.9515 ], [ -85.7449, 23.9325 ], [ -85.7473, 23.9135 ], [ -85.7494, 23.8946 ], [ -85.751, 23.8757 ], [ -85.7523, 23.857 ], [ -85.7531, 23.8383 ], [ -85.7536, 23.8196 ], [ -85.7537, 23.8011 ], [ -85.7534, 23.7827 ], [ -85.7527, 23.7643 ], [ -85.7516, 23.7461 ], [ -85.7502, 23.728 ], [ -85.7484, 23.71 ], [ -85.7462, 23.6921 ], [ -85.7437, 23.6743 ], [ -85.7409, 23.6567 ], [ -85.7376, 23.6393 ], [ -85.734, 23.622 ], [ -85.7301, 23.6048 ], [ -85.7259, 23.5878 ], [ -85.7213, 23.571 ], [ -85.7164, 23.5543 ], [ -85.7112, 23.5379 ], [ -85.7057, 23.5216 ], [ -85.6998, 23.5055 ], [ -85.6937, 23.4895 ], [ -85.6872, 23.4738 ], [ -85.6805, 23.4583 ], [ -85.6734, 23.443 ], [ -85.6661, 23.4279 ], [ -85.6586, 23.413 ], [ -85.6507, 23.3984 ], [ -85.6426, 23.3839 ], [ -85.6342, 23.3697 ], [ -85.6256, 23.3557 ], [ -85.6168, 23.342 ], [ -85.6077, 23.3285 ], [ -85.5983, 23.3152 ], [ -85.5888, 23.3022 ], [ -85.579, 23.2894 ], [ -85.569, 23.2769 ], [ -85.5589, 23.2646 ], [ -85.5484, 23.2526 ], [ -85.5379, 23.2408 ], [ -85.5271, 23.2294 ], [ -85.5162, 23.2181 ], [ -85.5051, 23.2072 ], [ -85.4938, 23.1965 ], [ -85.4823, 23.1861 ], [ -85.4708, 23.1759 ], [ -85.459, 23.166 ], [ -85.4472, 23.1564 ], [ -85.4352, 23.1471 ], [ -85.423, 23.1381 ], [ -85.4108, 23.1293 ], [ -85.3985, 23.1208 ], [ -85.386, 23.1126 ], [ -85.3735, 23.1047 ], [ -85.3608, 23.097 ], [ -85.3481, 23.0897 ], [ -85.3353, 23.0826 ], [ -85.3225, 23.0758 ], [ -85.3095, 23.0693 ], [ -85.2965, 23.0631 ], [ -85.2835, 23.0572 ], [ -85.2704, 23.0515 ], [ -85.2577, 23.0458 ], [ -85.2457, 23.0396 ], [ -85.2345, 23.0328 ], [ -85.2239, 23.0256 ], [ -85.2139, 23.0178 ], [ -85.2047, 23.0095 ], [ -85.196, 23.0006 ], [ -85.1879, 22.991 ], [ -85.1803, 22.9808 ], [ -85.173, 22.9704 ], [ -85.1653, 22.96 ], [ -85.1574, 22.9497 ], [ -85.1493, 22.9395 ], [ -85.1409, 22.9293 ], [ -85.1323, 22.9193 ], [ -85.1234, 22.9094 ], [ -85.1143, 22.8996 ], [ -85.1049, 22.8899 ], [ -85.0953, 22.8803 ], [ -85.0855, 22.8709 ], [ -85.0754, 22.8615 ], [ -85.0651, 22.8524 ], [ -85.0545, 22.8433 ], [ -85.0438, 22.8344 ], [ -85.0327, 22.8256 ], [ -85.0215, 22.817 ], [ -85.0101, 22.8086 ], [ -84.9984, 22.8003 ], [ -84.9865, 22.7921 ], [ -84.9744, 22.7842 ], [ -84.962, 22.7764 ], [ -84.9495, 22.7688 ], [ -84.9367, 22.7613 ], [ -84.9238, 22.7541 ], [ -84.9106, 22.7471 ], [ -84.8973, 22.7402 ], [ -84.8837, 22.7336 ], [ -84.87, 22.7271 ], [ -84.8561, 22.7209 ], [ -84.842, 22.7149 ], [ -84.8277, 22.7091 ], [ -84.8132, 22.7035 ], [ -84.7986, 22.6981 ], [ -84.7838, 22.693 ], [ -84.7688, 22.6881 ], [ -84.7537, 22.6834 ], [ -84.7384, 22.679 ], [ -84.723, 22.6748 ], [ -84.7074, 22.6709 ], [ -84.6917, 22.6672 ], [ -84.6758, 22.6637 ], [ -84.6598, 22.6606 ], [ -84.6437, 22.6577 ], [ -84.6275, 22.655 ], [ -84.6111, 22.6526 ], [ -84.5947, 22.6505 ], [ -84.5781, 22.6486 ], [ -84.5614, 22.6471 ], [ -84.5447, 22.6458 ], [ -84.5278, 22.6448 ], [ -84.5109, 22.644 ], [ -84.4939, 22.6436 ], [ -84.4768, 22.6434 ], [ -84.4596, 22.6435 ], [ -84.4424, 22.644 ], [ -84.4251, 22.6447 ], [ -84.4077, 22.6457 ], [ -84.3904, 22.647 ], [ -84.373, 22.6486 ], [ -84.3555, 22.6505 ], [ -84.338, 22.6527 ], [ -84.3205, 22.6552 ], [ -84.303, 22.658 ], [ -84.2855, 22.6611 ], [ -84.268, 22.6645 ], [ -84.2504, 22.6683 ], [ -84.2329, 22.6723 ], [ -84.2154, 22.6767 ], [ -84.198, 22.6813 ], [ -84.1805, 22.6863 ], [ -84.1631, 22.6916 ], [ -84.1457, 22.6972 ], [ -84.1284, 22.7031 ], [ -84.1112, 22.7093 ], [ -84.094, 22.7158 ], [ -84.0768, 22.7226 ], [ -84.0598, 22.7298 ], [ -84.0428, 22.7373 ], [ -84.0259, 22.745 ], [ -84.0091, 22.7531 ], [ -83.9922, 22.7614 ], [ -83.9752, 22.7696 ], [ -83.9579, 22.778 ], [ -83.9403, 22.7863 ], [ -83.9226, 22.7947 ], [ -83.9046, 22.8032 ], [ -83.8864, 22.8118 ], [ -83.868, 22.8204 ], [ -83.8493, 22.8291 ], [ -83.8305, 22.8381 ], [ -83.8118, 22.8475 ], [ -83.7932, 22.8573 ], [ -83.7747, 22.8675 ], [ -83.7563, 22.878 ], [ -83.738, 22.889 ], [ -83.7199, 22.9004 ], [ -83.7019, 22.9121 ], [ -83.684, 22.9243 ], [ -83.6663, 22.9369 ], [ -83.6488, 22.9498 ], [ -83.6314, 22.9631 ], [ -83.6143, 22.9769 ], [ -83.5973, 22.991 ], [ -83.5805, 23.0055 ], [ -83.564, 23.0203 ], [ -83.5476, 23.0356 ], [ -83.5315, 23.0512 ], [ -83.5157, 23.0672 ], [ -83.5001, 23.0836 ], [ -83.4847, 23.1004 ], [ -83.4696, 23.1175 ], [ -83.4548, 23.1349 ], [ -83.4403, 23.1528 ], [ -83.4261, 23.1709 ], [ -83.4122, 23.1895 ], [ -83.3986, 23.2083 ], [ -83.3853, 23.2275 ], [ -83.3724, 23.2471 ], [ -83.3598, 23.267 ], [ -83.3475, 23.2872 ], [ -83.3356, 23.3077 ], [ -83.3241, 23.3285 ], [ -83.3129, 23.3496 ], [ -83.3022, 23.3711 ], [ -83.2918, 23.3928 ], [ -83.2818, 23.4149 ], [ -83.2723, 23.4372 ], [ -83.2631, 23.4598 ], [ -83.2544, 23.4826 ], [ -83.2461, 23.5057 ], [ -83.2383, 23.5291 ], [ -83.2308, 23.5528 ], [ -83.2239, 23.5767 ], [ -83.2174, 23.6008 ], [ -83.2114, 23.6251 ], [ -83.2058, 23.6497 ], [ -83.2008, 23.6745 ], [ -83.1962, 23.6994 ], [ -83.1921, 23.7246 ], [ -83.1885, 23.75 ], [ -83.1855, 23.7755 ], [ -83.1829, 23.8012 ], [ -83.1809, 23.8271 ], [ -83.1794, 23.8532 ], [ -83.1784, 23.8793 ], [ -83.1779, 23.9057 ], [ -83.1781, 23.9321 ], [ -83.1787, 23.9587 ], [ -83.1799, 23.9853 ], [ -83.1817, 24.0121 ], [ -83.184, 24.039 ], [ -83.1869, 24.0659 ], [ -83.1903, 24.0929 ], [ -83.1944, 24.1199 ], [ -83.199, 24.1471 ], [ -83.2041, 24.1742 ], [ -83.2099, 24.2014 ], [ -83.2163, 24.2286 ], [ -83.2232, 24.2558 ], [ -83.2307, 24.283 ], [ -83.2389, 24.3102 ], [ -83.2476, 24.3373 ], [ -83.2569, 24.3645 ], [ -83.2668, 24.3916 ], [ -83.2774, 24.4186 ], [ -83.2885, 24.4455 ], [ -83.3002, 24.4724 ], [ -83.3126, 24.4992 ], [ -83.3255, 24.5259 ], [ -83.3391, 24.5525 ], [ -83.3538, 24.5785 ], [ -83.3702, 24.6032 ], [ -83.3882, 24.6268 ], [ -83.4079, 24.6491 ], [ -83.4292, 24.67 ], [ -83.4519, 24.6897 ], [ -83.4762, 24.7079 ], [ -83.5019, 24.7247 ], [ -83.5289, 24.74 ], [ -83.5568, 24.7543 ], [ -83.5848, 24.7681 ], [ -83.613, 24.7814 ], [ -83.6414, 24.7942 ], [ -83.67, 24.8064 ], [ -83.6987, 24.8182 ], [ -83.7275, 24.8294 ], [ -83.7565, 24.8401 ], [ -83.7856, 24.8503 ], [ -83.8147, 24.86 ], [ -83.844, 24.8691 ], [ -83.8734, 24.8777 ], [ -83.9028, 24.8859 ], [ -83.9323, 24.8935 ], [ -83.9619, 24.9005 ], [ -83.9915, 24.9071 ], [ -84.0211, 24.9132 ], [ -84.0507, 24.9187 ], [ -84.0804, 24.9237 ], [ -84.11, 24.9283 ], [ -84.1396, 24.9323 ], [ -84.1692, 24.9358 ], [ -84.1988, 24.9388 ], [ -84.2283, 24.9413 ], [ -84.2577, 24.9433 ], [ -84.2871, 24.9447 ], [ -84.3164, 24.9458 ], [ -84.3456, 24.9463 ], [ -84.3747, 24.9463 ], [ -84.4037, 24.9458 ], [ -84.4326, 24.9449 ], [ -84.4614, 24.9435 ], [ -84.49, 24.9416 ], [ -84.5185, 24.9392 ], [ -84.5468, 24.9364 ], [ -84.5749, 24.9331 ], [ -84.6029, 24.9293 ], [ -84.6307, 24.9251 ], [ -84.6583, 24.9205 ], [ -84.6857, 24.9154 ] ] ] } },
{ "type": "Feature", "properties": { "RADII": 50.0, "STORMID": "al092021", "BASIN": "al", "STORMNUM": 9.0, "ADVNUM": "7A", "VALIDTIME": "2021082806", "SYNOPTIME": "2021082800", "TIMEZONE": "UTC", "TAU": 0.0, "NE": 50.0, "SE": 30.0, "SW": 0.0, "NW": 30.0 }, "geometry": { "type": "Polygon", "coordinates": [ [ [ -84.6932, 24.1666 ], [ -84.7059, 24.1629 ], [ -84.7185, 24.159 ], [ -84.7309, 24.155 ], [ -84.7431, 24.1507 ], [ -84.7553, 24.1462 ], [ -84.7672, 24.1415 ], [ -84.779, 24.1367 ], [ -84.7907, 24.1317 ], [ -84.8021, 24.1265 ], [ -84.8134, 24.1211 ], [ -84.8245, 24.1156 ], [ -84.8355, 24.1099 ], [ -84.8462, 24.104 ], [ -84.8568, 24.098 ], [ -84.8672, 24.0918 ], [ -84.8774, 24.0855 ], [ -84.8874, 24.079 ], [ -84.8972, 24.0724 ], [ -84.9068, 24.0656 ], [ -84.9163, 24.0588 ], [ -84.9255, 24.0518 ], [ -84.9345, 24.0446 ], [ -84.9433, 24.0374 ], [ -84.9519, 24.03 ], [ -84.9603, 24.0226 ], [ -84.9685, 24.015 ], [ -84.9765, 24.0073 ], [ -84.9843, 23.9995 ], [ -84.9918, 23.9917 ], [ -84.9992, 23.9837 ], [ -85.0063, 23.9757 ], [ -85.0132, 23.9676 ], [ -85.0199, 23.9594 ], [ -85.0264, 23.9511 ], [ -85.0326, 23.9428 ], [ -85.0387, 23.9344 ], [ -85.0445, 23.9259 ], [ -85.0501, 23.9174 ], [ -85.0555, 23.9089 ], [ -85.0607, 23.9003 ], [ -85.0656, 23.8916 ], [ -85.0703, 23.8829 ], [ -85.0745, 23.874 ], [ -85.0784, 23.8649 ], [ -85.0819, 23.8557 ], [ -85.085, 23.8463 ], [ -85.0876, 23.8368 ], [ -85.0899, 23.8272 ], [ -85.0918, 23.8175 ], [ -85.0932, 23.8076 ], [ -85.0943, 23.7978 ], [ -85.0952, 23.788 ], [ -85.0958, 23.7782 ], [ -85.0962, 23.7686 ], [ -85.0963, 23.759 ], [ -85.0962, 23.7495 ], [ -85.0958, 23.7401 ], [ -85.0952, 23.7307 ], [ -85.0944, 23.7215 ], [ -85.0933, 23.7123 ], [ -85.092, 23.7033 ], [ -85.0905, 23.6944 ], [ -85.0887, 23.6856 ], [ -85.0868, 23.6768 ], [ -85.0846, 23.6683 ], [ -85.0822, 23.6598 ], [ -85.0797, 23.6515 ], [ -85.0769, 23.6432 ], [ -85.0739, 23.6352 ], [ -85.0708, 23.6272 ], [ -85.0674, 23.6195 ], [ -85.0639, 23.6118 ], [ -85.0602, 23.6043 ], [ -85.0563, 23.597 ], [ -85.0523, 23.5898 ], [ -85.048, 23.5828 ], [ -85.0437, 23.5759 ], [ -85.0392, 23.5692 ], [ -85.0345, 23.5627 ], [ -85.0297, 23.5563 ], [ -85.0247, 23.5501 ], [ -85.0197, 23.5441 ], [ -85.0145, 23.5383 ], [ -85.0091, 23.5326 ], [ -85.0037, 23.5272 ], [ -84.9981, 23.5219 ], [ -84.9924, 23.5168 ], [ -84.9867, 23.5119 ], [ -84.9808, 23.5071 ], [ -84.9749, 23.5026 ], [ -84.9688, 23.4983 ], [ -84.9627, 23.4941 ], [ -84.9565, 23.4902 ], [ -84.9503, 23.4864 ], [ -84.9439, 23.4828 ], [ -84.9376, 23.4795 ], [ -84.9311, 23.4763 ], [ -84.9247, 23.4734 ], [ -84.9181, 23.4706 ], [ -84.9116, 23.468 ], [ -84.905, 23.4657 ], [ -84.8984, 23.4635 ], [ -84.8918, 23.4615 ], [ -84.8852, 23.4598 ], [ -84.8785, 23.4582 ], [ -84.8719, 23.4569 ], [ -84.8652, 23.4557 ], [ -84.8586, 23.4547 ], [ -84.852, 23.454 ], [ -84.8454, 23.4534 ], [ -84.8388, 23.453 ], [ -84.8323, 23.4528 ], [ -84.8258, 23.4528 ], [ -84.8194, 23.4531 ], [ -84.813, 23.4534 ], [ -84.8066, 23.454 ], [ -84.8003, 23.4548 ], [ -84.7941, 23.4558 ], [ -84.7879, 23.4569 ], [ -84.7818, 23.4583 ], [ -84.7758, 23.4598 ], [ -84.7699, 23.4615 ], [ -84.7641, 23.4633 ], [ -84.7583, 23.4654 ], [ -84.7527, 23.4676 ], [ -84.7471, 23.47 ], [ -84.7417, 23.4725 ], [ -84.7364, 23.4752 ], [ -84.7312, 23.4781 ], [ -84.7261, 23.4811 ], [ -84.7211, 23.4843 ], [ -84.7168, 23.4872 ], [ -84.7135, 23.4893 ], [ -84.7112, 23.4907 ], [ -84.7099, 23.4912 ], [ -84.7096, 23.4909 ], [ -84.7102, 23.4897 ], [ -84.7116, 23.4876 ], [ -84.714, 23.4846 ], [ -84.7171, 23.4806 ], [ -84.7206, 23.4761 ], [ -84.7239, 23.4714 ], [ -84.727, 23.4666 ], [ -84.73, 23.4618 ], [ -84.7327, 23.4568 ], [ -84.7353, 23.4517 ], [ -84.7378, 23.4465 ], [ -84.74, 23.4412 ], [ -84.742, 23.4359 ], [ -84.7438, 23.4305 ], [ -84.7455, 23.4249 ], [ -84.7469, 23.4194 ], [ -84.7482, 23.4137 ], [ -84.7492, 23.408 ], [ -84.75, 23.4022 ], [ -84.7507, 23.3964 ], [ -84.7511, 23.3905 ], [ -84.7513, 23.3846 ], [ -84.7513, 23.3786 ], [ -84.7511, 23.3726 ], [ -84.7507, 23.3666 ], [ -84.7501, 23.3606 ], [ -84.7492, 23.3545 ], [ -84.7482, 23.3484 ], [ -84.7469, 23.3423 ], [ -84.7454, 23.3362 ], [ -84.7437, 23.3302 ], [ -84.7418, 23.3241 ], [ -84.7396, 23.318 ], [ -84.7372, 23.312 ], [ -84.7347, 23.3059 ], [ -84.7318, 23.2999 ], [ -84.7288, 23.2939 ], [ -84.7256, 23.288 ], [ -84.7221, 23.2821 ], [ -84.7185, 23.2763 ], [ -84.7146, 23.2705 ], [ -84.7105, 23.2647 ], [ -84.7062, 23.2591 ], [ -84.7017, 23.2535 ], [ -84.6969, 23.2479 ], [ -84.692, 23.2425 ], [ -84.6868, 23.2371 ], [ -84.6815, 23.2318 ], [ -84.6759, 23.2267 ], [ -84.6701, 23.2216 ], [ -84.6642, 23.2166 ], [ -84.658, 23.2117 ], [ -84.6516, 23.207 ], [ -84.6451, 23.2023 ], [ -84.6384, 23.1978 ], [ -84.6314, 23.1934 ], [ -84.6243, 23.1891 ], [ -84.617, 23.185 ], [ -84.6095, 23.181 ], [ -84.6019, 23.1772 ], [ -84.5941, 23.1735 ], [ -84.5861, 23.1699 ], [ -84.5779, 23.1665 ], [ -84.5696, 23.1633 ], [ -84.5611, 23.1603 ], [ -84.5525, 23.1574 ], [ -84.5437, 23.1547 ], [ -84.5348, 23.1522 ], [ -84.5257, 23.1498 ], [ -84.5165, 23.1476 ], [ -84.5072, 23.1457 ], [ -84.4977, 23.1439 ], [ -84.4881, 23.1423 ], [ -84.4784, 23.1409 ], [ -84.4685, 23.1398 ], [ -84.4586, 23.1388 ], [ -84.4486, 23.138 ], [ -84.4384, 23.1375 ], [ -84.4281, 23.1372 ], [ -84.4178, 23.137 ], [ -84.4074, 23.1372 ], [ -84.3969, 23.1375 ], [ -84.3863, 23.1381 ], [ -84.3756, 23.1389 ], [ -84.3649, 23.1399 ], [ -84.3542, 23.1412 ], [ -84.3437, 23.1429 ], [ -84.3332, 23.145 ], [ -84.3229, 23.1475 ], [ -84.3127, 23.1503 ], [ -84.3026, 23.1535 ], [ -84.2928, 23.157 ], [ -84.2831, 23.1609 ], [ -84.2736, 23.1651 ], [ -84.2642, 23.1697 ], [ -84.2548, 23.1744 ], [ -84.2455, 23.1793 ], [ -84.2363, 23.1844 ], [ -84.2271, 23.1897 ], [ -84.2179, 23.1952 ], [ -84.2089, 23.201 ], [ -84.1999, 23.2069 ], [ -84.1909, 23.213 ], [ -84.1821, 23.2193 ], [ -84.1733, 23.2258 ], [ -84.1647, 23.2325 ], [ -84.1561, 23.2394 ], [ -84.1476, 23.2465 ], [ -84.1392, 23.2537 ], [ -84.131, 23.2612 ], [ -84.1228, 23.2689 ], [ -84.1148, 23.2767 ], [ -84.1069, 23.2847 ], [ -84.0991, 23.2929 ], [ -84.0915, 23.3014 ], [ -84.0839, 23.3099 ], [ -84.0766, 23.3187 ], [ -84.0693, 23.3276 ], [ -84.0623, 23.3368 ], [ -84.0553, 23.346 ], [ -84.0486, 23.3555 ], [ -84.042, 23.3651 ], [ -84.0356, 23.3749 ], [ -84.0293, 23.3849 ], [ -84.0232, 23.395 ], [ -84.0173, 23.4053 ], [ -84.0116, 23.4158 ], [ -84.0061, 23.4264 ], [ -84.0007, 23.4371 ], [ -83.9956, 23.448 ], [ -83.9907, 23.459 ], [ -83.986, 23.4702 ], [ -83.9814, 23.4815 ], [ -83.9772, 23.493 ], [ -83.9731, 23.5046 ], [ -83.9692, 23.5163 ], [ -83.9656, 23.5281 ], [ -83.9622, 23.5401 ], [ -83.959, 23.5521 ], [ -83.956, 23.5643 ], [ -83.9533, 23.5766 ], [ -83.9509, 23.589 ], [ -83.9487, 23.6015 ], [ -83.9467, 23.6141 ], [ -83.945, 23.6268 ], [ -83.9435, 23.6396 ], [ -83.9423, 23.6525 ], [ -83.9414, 23.6654 ], [ -83.9407, 23.6784 ], [ -83.9403, 23.6915 ], [ -83.9402, 23.7047 ], [ -83.9403, 23.7179 ], [ -83.9407, 23.7312 ], [ -83.9414, 23.7445 ], [ -83.9423, 23.7579 ], [ -83.9436, 23.7713 ], [ -83.9451, 23.7848 ], [ -83.9469, 23.7983 ], [ -83.949, 23.8118 ], [ -83.9514, 23.8253 ], [ -83.954, 23.8389 ], [ -83.957, 23.8525 ], [ -83.9602, 23.8661 ], [ -83.9638, 23.8797 ], [ -83.9676, 23.8932 ], [ -83.9717, 23.9068 ], [ -83.9762, 23.9204 ], [ -83.9809, 23.9339 ], [ -83.9859, 23.9474 ], [ -83.9912, 23.9609 ], [ -83.9968, 23.9744 ], [ -84.0028, 23.9878 ], [ -84.009, 24.0012 ], [ -84.0155, 24.0145 ], [ -84.0223, 24.0278 ], [ -84.0298, 24.0407 ], [ -84.0381, 24.0529 ], [ -84.0473, 24.0645 ], [ -84.0575, 24.0753 ], [ -84.0684, 24.0854 ], [ -84.0802, 24.0947 ], [ -84.0928, 24.1033 ], [ -84.1061, 24.111 ], [ -84.1202, 24.1179 ], [ -84.1346, 24.1242 ], [ -84.1492, 24.1303 ], [ -84.1638, 24.1361 ], [ -84.1784, 24.1416 ], [ -84.1931, 24.1469 ], [ -84.2079, 24.1519 ], [ -84.2226, 24.1566 ], [ -84.2374, 24.161 ], [ -84.2523, 24.1652 ], [ -84.2671, 24.169 ], [ -84.282, 24.1727 ], [ -84.2968, 24.176 ], [ -84.3117, 24.1791 ], [ -84.3266, 24.1819 ], [ -84.3414, 24.1844 ], [ -84.3562, 24.1867 ], [ -84.371, 24.1887 ], [ -84.3858, 24.1905 ], [ -84.4006, 24.192 ], [ -84.4153, 24.1932 ], [ -84.4299, 24.1942 ], [ -84.4445, 24.1949 ], [ -84.4591, 24.1954 ], [ -84.4736, 24.1956 ], [ -84.488, 24.1955 ], [ -84.5024, 24.1952 ], [ -84.5167, 24.1947 ], [ -84.5309, 24.1939 ], [ -84.545, 24.1929 ], [ -84.559, 24.1917 ], [ -84.5729, 24.1902 ], [ -84.5867, 24.1884 ], [ -84.6005, 24.1865 ], [ -84.6141, 24.1843 ], [ -84.6276, 24.1819 ], [ -84.6409, 24.1793 ], [ -84.6542, 24.1764 ], [ -84.6673, 24.1734 ], [ -84.6803, 24.1701 ], [ -84.6932, 24.1666 ] ] ] } },
{ "type": "Feature", "properties": { "RADII": 64.0, "STORMID": "al092021", "BASIN": "al", "STORMNUM": 9.0, "ADVNUM": "7A", "VALIDTIME": "2021082806", "SYNOPTIME": "2021082800", "TIMEZONE": "UTC", "TAU": 0.0, "NE": 20.0, "SE": 0.0, "SW": 0.0, "NW": 0.0 }, "geometry": { "type": "Polygon", "coordinates": [ [ [ -84.6979, 23.668 ], [ -84.7011, 23.6644 ], [ -84.7041, 23.6606 ], [ -84.707, 23.6568 ], [ -84.7098, 23.653 ], [ -84.7124, 23.6492 ], [ -84.7148, 23.6453 ], [ -84.7171, 23.6413 ], [ -84.7193, 23.6374 ], [ -84.7213, 23.6334 ], [ -84.7232, 23.6294 ], [ -84.7249, 23.6254 ], [ -84.7265, 23.6213 ], [ -84.7279, 23.6173 ], [ -84.7292, 23.6132 ], [ -84.7303, 23.6092 ], [ -84.7313, 23.6051 ], [ -84.7322, 23.601 ], [ -84.7329, 23.597 ], [ -84.7335, 23.593 ], [ -84.7339, 23.5889 ], [ -84.7342, 23.5849 ], [ -84.7343, 23.5809 ], [ -84.7343, 23.5769 ], [ -84.7341, 23.573 ], [ -84.7338, 23.5691 ], [ -84.7334, 23.5652 ], [ -84.7329, 23.5613 ], [ -84.7321, 23.5575 ], [ -84.7313, 23.5538 ], [ -84.7303, 23.55 ], [ -84.7292, 23.5464 ], [ -84.728, 23.5427 ], [ -84.7267, 23.5392 ], [ -84.7252, 23.5357 ], [ -84.7236, 23.5322 ], [ -84.7219, 23.5288 ], [ -84.72, 23.5255 ], [ -84.718, 23.5222 ], [ -84.7159, 23.5191 ], [ -84.7137, 23.516 ], [ -84.7114, 23.5129 ], [ -84.7091, 23.5101 ], [ -84.7071, 23.5077 ], [ -84.7053, 23.5056 ], [ -84.7037, 23.5038 ], [ -84.7024, 23.5024 ], [ -84.7014, 23.5014 ], [ -84.7006, 23.5006 ], [ -84.7002, 23.5001 ], [ -84.7, 23.5 ], [ -84.7, 23.5 ], [ -84.7, 23.5 ], [ -84.7, 23.5 ], [ -84.7, 23.5 ], [ -84.7, 23.5 ], [ -84.7, 23.5 ], [ -84.7, 23.5 ], [ -84.7, 23.5 ], [ -84.7, 23.5 ], [ -84.7, 23.5 ], [ -84.7, 23.5 ], [ -84.7, 23.5 ], [ -84.7, 23.5 ], [ -84.7, 23.5 ], [ -84.7, 23.5 ], [ -84.7, 23.5 ], [ -84.7, 23.5 ], [ -84.7, 23.5 ], [ -84.7, 23.5 ], [ -84.7, 23.5 ], [ -84.7, 23.5 ], [ -84.7, 23.5 ], [ -84.7, 23.5 ], [ -84.7, 23.5 ], [ -84.7, 23.5 ], [ -84.7, 23.5 ], [ -84.7, 23.5 ], [ -84.7, 23.5 ], [ -84.7, 23.5 ], [ -84.7, 23.5 ], [ -84.7, 23.5 ], [ -84.7, 23.5 ], [ -84.7, 23.5 ], [ -84.7, 23.5 ], [ -84.7, 23.5 ], [ -84.7, 23.5 ], [ -84.7, 23.5 ], [ -84.7, 23.5 ], [ -84.7, 23.5 ], [ -84.7, 23.5 ], [ -84.7, 23.5 ], [ -84.7, 23.5 ], [ -84.7, 23.5 ], [ -84.7, 23.5 ], [ -84.7, 23.5 ], [ -84.7, 23.5 ], [ -84.7, 23.5 ], [ -84.7, 23.5 ], [ -84.7, 23.5 ], [ -84.7, 23.5 ], [ -84.7, 23.5 ], [ -84.7, 23.5 ], [ -84.7, 23.5 ], [ -84.7, 23.5 ], [ -84.7, 23.5 ], [ -84.7, 23.5 ], [ -84.7, 23.5 ], [ -84.7, 23.5 ], [ -84.7, 23.5 ], [ -84.7, 23.5 ], [ -84.7, 23.5 ], [ -84.7, 23.5 ], [ -84.7, 23.5 ], [ -84.7, 23.5 ], [ -84.7, 23.5 ], [ -84.7, 23.5 ], [ -84.7, 23.5 ], [ -84.7, 23.5 ], [ -84.7, 23.5 ], [ -84.7, 23.5 ], [ -84.7, 23.5 ], [ -84.7, 23.5 ], [ -84.7, 23.5 ], [ -84.7, 23.5 ], [ -84.7, 23.5 ], [ -84.7, 23.5 ], [ -84.7, 23.5 ], [ -84.7, 23.5 ], [ -84.7, 23.5 ], [ -84.7, 23.5 ], [ -84.7, 23.5 ], [ -84.7, 23.5 ], [ -84.7, 23.5 ], [ -84.7, 23.5 ], [ -84.7, 23.5 ], [ -84.7, 23.5 ], [ -84.7, 23.5 ], [ -84.7, 23.5 ], [ -84.7, 23.5 ], [ -84.7, 23.5 ], [ -84.7, 23.5 ], [ -84.7, 23.5 ], [ -84.7, 23.5 ], [ -84.7, 23.5 ], [ -84.7, 23.5 ], [ -84.7, 23.5 ], [ -84.7, 23.5 ], [ -84.7, 23.5 ], [ -84.7, 23.5 ], [ -84.7, 23.5 ], [ -84.7, 23.5 ], [ -84.7, 23.5 ], [ -84.7, 23.5 ], [ -84.7, 23.5 ], [ -84.7, 23.5 ], [ -84.7, 23.5 ], [ -84.7, 23.5 ], [ -84.7, 23.5 ], [ -84.7, 23.5 ], [ -84.7, 23.5 ], [ -84.7, 23.5 ], [ -84.7, 23.5 ], [ -84.7, 23.5 ], [ -84.7, 23.5 ], [ -84.7, 23.5 ], [ -84.7, 23.5 ], [ -84.7, 23.5 ], [ -84.7, 23.5 ], [ -84.7, 23.5 ], [ -84.7, 23.5 ], [ -84.7, 23.5 ], [ -84.7, 23.5 ], [ -84.7, 23.5 ], [ -84.7, 23.5 ], [ -84.7, 23.5 ], [ -84.7, 23.5 ], [ -84.7, 23.5 ], [ -84.7, 23.5 ], [ -84.7, 23.5 ], [ -84.7, 23.5 ], [ -84.7, 23.5 ], [ -84.7, 23.5 ], [ -84.7, 23.5 ], [ -84.7, 23.5 ], [ -84.7, 23.5 ], [ -84.7, 23.5 ], [ -84.7, 23.5 ], [ -84.7, 23.5 ], [ -84.7, 23.5 ], [ -84.7, 23.5 ], [ -84.7, 23.5 ], [ -84.7, 23.5 ], [ -84.7, 23.5 ], [ -84.7, 23.5 ], [ -84.7, 23.5 ], [ -84.7, 23.5 ], [ -84.7, 23.5 ], [ -84.7, 23.5 ], [ -84.7, 23.5 ], [ -84.7, 23.5 ], [ -84.7, 23.5 ], [ -84.7, 23.5 ], [ -84.7, 23.5 ], [ -84.7, 23.5 ], [ -84.7, 23.5 ], [ -84.7, 23.5 ], [ -84.7, 23.5 ], [ -84.7, 23.5 ], [ -84.7, 23.5 ], [ -84.7, 23.5 ], [ -84.7, 23.5 ], [ -84.7, 23.5 ], [ -84.7, 23.5 ], [ -84.7, 23.5 ], [ -84.7, 23.5 ], [ -84.7, 23.5 ], [ -84.7, 23.5 ], [ -84.7, 23.5 ], [ -84.7, 23.5 ], [ -84.7, 23.5 ], [ -84.7, 23.5 ], [ -84.6999, 23.4999 ], [ -84.6994, 23.4994 ], [ -84.6985, 23.4987 ], [ -84.6974, 23.4978 ], [ -84.6958, 23.4966 ], [ -84.6939, 23.4951 ], [ -84.6917, 23.4935 ], [ -84.689, 23.4916 ], [ -84.6859, 23.4895 ], [ -84.6826, 23.4874 ], [ -84.6792, 23.4854 ], [ -84.6758, 23.4835 ], [ -84.6722, 23.4817 ], [ -84.6686, 23.48 ], [ -84.6649, 23.4784 ], [ -84.6611, 23.4769 ], [ -84.6573, 23.4756 ], [ -84.6534, 23.4743 ], [ -84.6495, 23.4732 ], [ -84.6455, 23.4722 ], [ -84.6414, 23.4713 ], [ -84.6373, 23.4705 ], [ -84.6331, 23.4699 ], [ -84.6289, 23.4694 ], [ -84.6247, 23.469 ], [ -84.6204, 23.4687 ], [ -84.6161, 23.4686 ], [ -84.6118, 23.4686 ], [ -84.6074, 23.4687 ], [ -84.6031, 23.4689 ], [ -84.5987, 23.4693 ], [ -84.5943, 23.4698 ], [ -84.5899, 23.4705 ], [ -84.5854, 23.4713 ], [ -84.581, 23.4722 ], [ -84.5766, 23.4732 ], [ -84.5721, 23.4744 ], [ -84.5677, 23.4757 ], [ -84.5633, 23.4771 ], [ -84.5589, 23.4787 ], [ -84.5546, 23.4804 ], [ -84.5502, 23.4823 ], [ -84.5459, 23.4843 ], [ -84.5416, 23.4864 ], [ -84.5374, 23.4886 ], [ -84.5332, 23.491 ], [ -84.529, 23.4935 ], [ -84.5249, 23.4961 ], [ -84.5208, 23.4989 ], [ -84.5168, 23.5018 ], [ -84.5128, 23.5048 ], [ -84.5089, 23.508 ], [ -84.5051, 23.5112 ], [ -84.5013, 23.5146 ], [ -84.4976, 23.5182 ], [ -84.4939, 23.5218 ], [ -84.4904, 23.5256 ], [ -84.4869, 23.5295 ], [ -84.4836, 23.5335 ], [ -84.4803, 23.5376 ], [ -84.4771, 23.5419 ], [ -84.474, 23.5462 ], [ -84.4709, 23.5507 ], [ -84.468, 23.5553 ], [ -84.4652, 23.56 ], [ -84.4625, 23.5647 ], [ -84.46, 23.5696 ], [ -84.4575, 23.5746 ], [ -84.4551, 23.5797 ], [ -84.4529, 23.5849 ], [ -84.4508, 23.5902 ], [ -84.4488, 23.5956 ], [ -84.447, 23.6011 ], [ -84.4453, 23.6066 ], [ -84.4437, 23.6123 ], [ -84.4423, 23.618 ], [ -84.441, 23.6238 ], [ -84.4398, 23.6297 ], [ -84.4388, 23.6356 ], [ -84.438, 23.6417 ], [ -84.4373, 23.6478 ], [ -84.4367, 23.6539 ], [ -84.4363, 23.6602 ], [ -84.4361, 23.6664 ], [ -84.436, 23.6728 ], [ -84.4361, 23.6792 ], [ -84.4363, 23.6856 ], [ -84.4367, 23.6921 ], [ -84.4373, 23.6986 ], [ -84.4381, 23.7052 ], [ -84.4393, 23.7115 ], [ -84.4413, 23.7172 ], [ -84.4441, 23.7224 ], [ -84.4476, 23.7269 ], [ -84.4519, 23.7308 ], [ -84.4568, 23.7341 ], [ -84.4624, 23.7367 ], [ -84.4687, 23.7385 ], [ -84.4756, 23.7397 ], [ -84.4828, 23.7404 ], [ -84.4899, 23.7409 ], [ -84.497, 23.7413 ], [ -84.504, 23.7416 ], [ -84.511, 23.7417 ], [ -84.5179, 23.7416 ], [ -84.5248, 23.7414 ], [ -84.5316, 23.7411 ], [ -84.5383, 23.7406 ], [ -84.545, 23.74 ], [ -84.5516, 23.7392 ], [ -84.5581, 23.7383 ], [ -84.5645, 23.7373 ], [ -84.5709, 23.7361 ], [ -84.5771, 23.7348 ], [ -84.5833, 23.7334 ], [ -84.5894, 23.7318 ], [ -84.5954, 23.7301 ], [ -84.6012, 23.7283 ], [ -84.607, 23.7264 ], [ -84.6127, 23.7244 ], [ -84.6183, 23.7223 ], [ -84.6237, 23.72 ], [ -84.6291, 23.7176 ], [ -84.6343, 23.7152 ], [ -84.6395, 23.7126 ], [ -84.6445, 23.71 ], [ -84.6493, 23.7072 ], [ -84.6541, 23.7044 ], [ -84.6588, 23.7015 ], [ -84.6633, 23.6985 ], [ -84.6676, 23.6954 ], [ -84.6719, 23.6922 ], [ -84.676, 23.6889 ], [ -84.68, 23.6856 ], [ -84.6839, 23.6822 ], [ -84.6876, 23.6788 ], [ -84.6912, 23.6752 ], [ -84.6946, 23.6717 ], [ -84.6979, 23.668 ] ] ] } }
]
}
