{"type":"FeatureCollection","features":[{"type":"Feature","id":1,"geometry":{"type":"Polygon","coordinates":[[[-58.119906895286874,33.307100259169772],[-58.139510809176386,33.352077560731004],[-58.160056347422369,33.39676327420591],[-58.181533993398943,33.441134974999216],[-58.203934234077508,33.485170238515821],[-58.227247551033543,33.528846640160452],[-58.25146442854043,33.572141755337896],[-58.27657535267025,33.615033159452878],[-58.302570805897858,33.657498427010921],[-58.329441273395958,33.69951513431613],[-58.357177238538611,33.741060856773288],[-58.385769185599315,33.782113168887804],[-58.415207599750829,33.822649646963782],[-58.445482964367216,33.862647864607425],[-58.476585762822594,33.902085399022098],[-58.508506481189045,33.940939824713269],[-58.541235601941366,33.979188717085776],[-58.574763610252319,34.016809651544349],[-58.609080990395285,34.053780203493716],[-58.644178224845064,34.090077948338774],[-58.680045800573112,34.125680460584931],[-58.716674199154852,34.160565316536292],[-58.754053905763044,34.194710090698266],[-58.79217540557039,34.228092359375012],[-58.831029181051747,34.260689697071996],[-58.870605717379817,34.292479679194003],[-58.910895498828097,34.32343988114576],[-58.95188900877065,34.353547879231371],[-58.993576732380177,34.382781247057039],[-59.035949153030856,34.411117560926868],[-59.078996754996126,34.438534396245529],[-59.12271002254937,34.465009328417921],[-59.167079439964084,34.49051993194945],[-59.212095491513594,34.515043783144222],[-59.257748661471453,34.538558456507701],[-59.304029433211667,34.561041527444672],[-59.350928291907053,34.58247057225924],[-59.398435721830992,34.602823165456869],[-59.44654138347795,34.622078256606414],[-59.495223767762582,34.640233451712561],[-59.544453316667102,34.657299805241962],[-59.594200291410232,34.673288665739506],[-59.644434957707006,34.688211382649342],[-59.695127575876825,34.702079305415737],[-59.746248410735461,34.714903782583633],[-59.797767724400842,34.726696165395879],[-59.849655779890213,34.737467802397305],[-59.901882841120084,34.747230043032232],[-59.954419170208439,34.755994235845435],[-60.00723503107173,34.763771732079931],[-60.060300685827883,34.770573880280494],[-60.113586398393466,34.776412030790709],[-60.167062430886347,34.7812975312562],[-60.22069904722315,34.785241732020438],[-60.274466510421007,34.788255983427064],[-60.328335082597846,34.790351634020851],[-60.382275027670289,34.791540033246065],[-60.43625660775615,34.791832530546969],[-60.490250086771994,34.791240475367772],[-60.544225728634331,34.789775218052],[-60.598153793662561,34.787448107144598],[-60.652004547571721,34.784270492089661],[-60.705748252479736,34.780253722331565],[-60.759355170504591,34.775409148213782],[-60.812795565562794,34.7697481182812],[-60.866039701570855,34.763281982877345],[-60.919057839747381,34.756022090547162],[-60.971820244008939,34.747979790734917],[-61.024297178272036,34.739166433784021],[-61.076458903755281,34.729593368239478],[-61.128275685274559,34.719271943545493],[-61.179717784048364,34.708213510045596],[-61.230755464892695,34.696429417183992],[-61.281358989925309,34.683931013505628],[-61.331498622163565,34.670729648454653],[-61.381144667792057,34.656836656186897],[-61.430272539346106,34.642261377960381],[-61.478867576976995,34.627009289747093],[-61.526916255780463,34.611085423253826],[-61.574405054449585,34.594494809288165],[-61.621320449878738,34.577242479556958],[-61.667648920760996,34.559333466666317],[-61.713376943091362,34.540772800524451],[-61.758490995562909,34.521565513737642],[-61.802977555070015,34.501716638012567],[-61.846823099406379,34.481231203257551],[-61.890014105466491,34.46011424207876],[-61.932537051943257,34.438370786182986],[-61.974378414831847,34.416005867277079],[-62.015524673724599,34.393024515269303],[-62.055962303717251,34.369431763665091],[-62.095677783502822,34.345232642372707],[-62.134657590875008,34.320432183098887],[-62.172888203627565,34.29503541844997],[-62.210356097755607,34.269047379233314],[-62.247047751952095,34.24247309715588],[-62.282949644010728,34.215317603025085],[-62.318048250825996,34.18758592854789],[-62.35233004929222,34.159283106330463],[-62.385781518102476,34.1304141662809],[-62.418389134151084,34.100984141005426],[-62.450139375231856,34.070998061311627],[-62.48101871823917,34.040460958906294],[-62.511013640966667,34.009377866395539],[-62.54011062210742,33.977753812788364],[-62.568296137656489,33.945593832489521],[-62.595556665407685,33.912902954507899],[-62.621878683154591,33.879686211449666],[-62.64724866869102,33.845948635021614],[-62.671653098911293,33.811695256930705],[-62.695078451609163,33.77693110798441],[-62.717511204578329,33.741661218990203],[-62.73893783471317,33.705890623453627],[-62.759347273158028,33.669624823427],[-62.778742779055904,33.632872085478482],[-62.797132795242192,33.595641670826581],[-62.814525775344123,33.557942846085609],[-62.830930170291026,33.519784875171979],[-62.84635443011274,33.48117702290142],[-62.860807008436552,33.442128554089663],[-62.874296355292472,33.402648734451702],[-62.886830923408297,33.362746827903948],[-62.89841916281398,33.32243210016145],[-62.909069527136865,33.28171381514062],[-62.91879046640679,33.240601238556451],[-62.927590432452405,33.199103634325411],[-62.935477877102244,33.157230267263174],[-62.942461251285579,33.114990403984109],[-62.948549007730435,33.072393306605932],[-62.953749597365913,33.029448242642445],[-62.9580714711214,32.98616447511057],[-62.961523081724749,32.94255126972547],[-62.964112879205913,32.898617890403443],[-62.965849317192124,32.854373602859653],[-62.966740845713332,32.809827671909659],[-62.966795916598187,32.764989362369306],[-62.966022980775847,32.719867939054268],[-62.9644304918736,32.674472666780275],[-62.962026899022078,32.628812810363058],[-62.958820655848456,32.582897633718972],[-62.954820212382799,32.536736403462385],[-62.950034020453586,32.490338382610389],[-62.944470531889408,32.443712837777412],[-62.938138198518914,32.396869032879692],[-62.931045472170695,32.349816232733076],[-62.923200802874646,32.302563702153293],[-62.91461264335868,32.25512070595596],[-62.905289445451444,32.207496509856185],[-62.895239660082154,32.159700377770378],[-62.884471739079402,32.111741574514213],[-62.872993571296149,32.063630044790898],[-62.860800117831047,32.015391370715349],[-62.847873410229568,31.967066770914869],[-62.834194916162346,31.918698142105711],[-62.819746106897185,31.870327384601239],[-62.804508449205457,31.821996395117708],[-62.788463414354965,31.773747073069103],[-62.771592470915664,31.725621315171679],[-62.75387708835683,31.677661021738913],[-62.735298734348987,31.629908089486889],[-62.715838880160106,31.582404416930444],[-62.695478993460654,31.535191902584359],[-62.674200543720019,31.488312444963526],[-62.651985000407308,31.441807942582614],[-62.628813832991909,31.395720293057195],[-62.604668510043609,31.350091394002789],[-62.579530501031684,31.304963145732756],[-62.553381275425409,31.26037744406392],[-62.526202301794683,31.216376189309813],[-62.497975049608726,31.173001279085895],[-62.468680987437494,31.130294611007628],[-62.438301585649526,31.088298084489168],[-62.406818312814778,31.047053596246599],[-62.374212638402412,31.006603046593455],[-62.340466030982441,30.966988331346556],[-62.305559960024027,30.928251351718643],[-62.269475894996447,30.890434003526593],[-62.232195305368919,30.853578185285187],[-62.193699658812079,30.817725797307844],[-62.153970425694467,30.782918735411442],[-62.112989075485359,30.749198899010139],[-62.070737076754597,30.716608186618657],[-62.027195898971456,30.685188495852572],[-61.982347010705894,30.654981726125925],[-61.936171882326391,30.626029774154915],[-61.888651981503642,30.598374538454323],[-61.839768778606128,30.572057918438304],[-61.789503770082831,30.547121792836606],[-61.73785832380247,30.523594268161105],[-61.684888710345604,30.501465400607913],[-61.630660601805232,30.480718730784929],[-61.575239669375151,30.461337800199487],[-61.518691585148417,30.443306149459374],[-61.461082021218203,30.426607318273284],[-61.402476647878871,30.411224847249059],[-61.34294113812291,30.397142277893977],[-61.28254116404338,30.38434315081588],[-61.221342395934698,30.372811004824143],[-61.159410505890037,30.362529383224626],[-61.096811166901716,30.353481824826474],[-61.033610049264269,30.345651870237759],[-60.969872825070695,30.339023060965644],[-60.905665166414167,30.333578937618029],[-60.841052744488479,30.329303039903493],[-60.776101231386633,30.326178909329371],[-60.710876298302423,30.32419008560413],[-60.645443618228285,30.323320110235045],[-60.579868861458692,30.323552523830074],[-60.514217700086704,30.32487086609774],[-60.448555807104697,30.32725867854532],[-60.382948851907884,30.330699500881394],[-60.317462508387962,30.335176875512559],[-60.25216244683935,30.340674341248018],[-60.187114339355162,30.347175438695672],[-60.122383858028513,30.354663710262173],[-60.058036674053142,30.363122694756726],[-59.994138459522162,30.372535933686549],[-59.930754885629369,30.382886966760225],[-59.867951625367084,30.394159336384405],[-59.805794349029895,30.406336581368294],[-59.744348729610067,30.41940224321911],[-59.683680437402131,30.433339862544756],[-59.623855144499203,30.448132979953186],[-59.564938523893659,30.463765135152983],[-59.506996245879918,30.480219870550741],[-59.450089330358196,30.497481284333958],[-59.394238298958214,30.515538346317783],[-59.339442824326795,30.534382532727875],[-59.285702405541485,30.554005339574928],[-59.233016540780625,30.574398262869693],[-59.181384730021136,30.595552800421558],[-59.130806472340737,30.617460448241218],[-59.081281265917596,30.640112703238799],[-59.032808611628013,30.663501061424995],[-58.985388007650329,30.687617018810499],[-58.939018953062146,30.712452074104078],[-58.89370094784033,30.737997721517786],[-58.849433490163335,30.764245458860955],[-58.806216079108651,30.79118678304377],[-58.764048215552577,30.81881319007681],[-58.722929396774134,30.847116175970882],[-58.682859122750187,30.876087238535376],[-58.643836891659134,30.905717873780986],[-58.605862204377104,30.935999577718462],[-58.56893455908255,30.966923848157194],[-58.533053455752281,30.998482180208612],[-58.498218391665318,31.030666071681992],[-58.464428867697961,31.063467018588199],[-58.431684382927813,31.096876517837188],[-58.399984435533156,31.130886065439711],[-58.369328525490971,31.165487158305837],[-58.339716151878804,31.200671293345636],[-58.311146813774315,31.236429966569858],[-58.283620010255163,31.272754674888461],[-58.257135240398895,31.309636915211627],[-58.231692003283229,31.347068183549993],[-58.207289798884972,31.38503997591431],[-58.183928125382579,31.423543790113968],[-58.161606482752859,31.462571123059035],[-58.140324369174209,31.502113468961568],[-58.120081284623495,31.542162327429594],[-58.100876728178321,31.582709192675225],[-58.082710182728647,31.623745459985116],[-58.065580409008533,31.665257883244863],[-58.049485164108944,31.707226781690792],[-58.034422132275495,31.749631997019208],[-58.020388996854592,31.792453374523745],[-58.007383441192758,31.835670755900821],[-57.995403149535605,31.87926398464532],[-57.984445805229598,31.923212906050935],[-57.974509092520464,31.967497360914592],[-57.965590693855347,32.012097194530043],[-57.957688293479862,32.056992249492851],[-57.950799574740472,32.102162369298071],[-57.944922222782225,32.147587397440589],[-57.940053919152945,32.193247176516138],[-57.936192348098245,32.2391215518183],[-57.933335194763288,32.285190365043434],[-57.93148014069584,32.331433460585856],[-57.930624870141514,32.377830681940566],[-57.930767068245473,32.424361870803864],[-57.931904416555483,32.471006872469331],[-57.934034600216535,32.517745529532704],[-57.937155301675716,32.564557686388241],[-57.941264206078131,32.611423184732359],[-57.946358995870867,32.658321868959206],[-57.952437354400274,32.705233582563949],[-57.959496966811457,32.752138168142096],[-57.967535515551504,32.799015470088023],[-57.976550684866083,32.845845331896669],[-57.986540158101718,32.892607595264451],[-57.997501618604701,32.939282106384269],[-58.009432750620817,32.985848706053105],[-58.022331237496473,33.032287238665276],[-58.036194762578134,33.078577547715781],[-58.051021010111413,33.124699476699618],[-58.066807663442773,33.170632869111785],[-58.083552406818001,33.216357568447165],[-58.101252922684125,33.261853417301495],[-58.119906895286874,33.307100259169772]]]},"properties":{"objectid":1,"basin":"Atlantic","prob2day":"10%","risk2day":"Low","prob7day":"10%","risk7day":"Low","idp_source":"gtwo_areas_202609180556","idp_filedate":1789711081000,"idp_ingestdate":1789711138000,"st_area(shape)":18.101797765949858,"st_perimeter(shape)":15.14670401303297}},{"type":"Feature","id":2,"geometry":{"type":"Polygon","coordinates":[[[-107.24863311192848,8.941514015359644],[-107.12076065058346,8.9582001400245872],[-106.99888319770133,8.9764931733214439],[-106.88275406025156,8.9963981676414733],[-106.77212654250582,9.0179201762752541],[-106.66675395053431,9.0410642516140456],[-106.56638958950788,9.0658354487471229],[-106.47078676549671,9.092238818266992],[-106.37969878367181,9.1202794152629281],[-106.29287895010339,9.1499622912268705],[-106.21008056996226,9.1812925003487749],[-106.13105694841931,9.2142750959191062],[-106.05556139154487,9.2489151303291237],[-105.98334720450976,9.2852176559702002],[-105.91416769248491,9.3231877279314403],[-105.84777616243986,9.3628303977048404],[-105.7839259186461,9.4041507185809223],[-105.72237026627465,9.4471537438503219],[-105.66286251229502,9.491844526803618],[-105.60515596097872,9.5382281198320129],[-105.54900391839601,9.5863095771254052],[-105.49415969061715,9.6360939510751109],[-105.44037658191365,9.687586294971652],[-105.38740789835572,9.7407916621056643],[-105.33500694601366,9.79571510486835],[-105.28292703005832,9.8523616765502879],[-105.23092145566056,9.9107364313413768],[-105.17874352889066,9.970844420733556],[-105.1261465549195,10.032690698017461],[-105.07288383981728,10.096280317382877],[-105.0187087454122,10.161618317731325],[-104.96345083039142,10.228691472733431],[-104.90716604877406,10.297432283772991],[-104.84995221622171,10.367763218497885],[-104.79190714659745,10.439606743656441],[-104.73312865376425,10.512885325997161],[-104.67371455158519,10.587521433167751],[-104.61376265572187,10.663437531916713],[-104.55337077823873,10.740556089891754],[-104.49263673479737,10.818799574740694],[-104.43165833926088,10.898090452312658],[-104.37053340549215,10.978351190255353],[-104.30935974825366,11.059504256216599],[-104.24823518050908,11.141472116045463],[-104.18725751792005,11.22417723828903],[-104.12652457345018,11.307542089695801],[-104.06613416186201,11.391489137014219],[-104.00618409701838,11.475940846992614],[-103.94677219278236,11.560819688178185],[-103.88799626391636,11.646048126420055],[-103.82995412428329,11.731548629365875],[-103.77274358774628,11.817243664663522],[-103.71646246996693,11.903055698162063],[-103.66120858300962,11.98890719840864],[-103.60707974163665,12.074720631252262],[-103.55417376150979,12.160418465240127],[-103.50258845469335,12.245923166221303],[-103.45242163594963,12.331157201843553],[-103.40377112004109,12.416043039754641],[-103.35673472172994,12.500503145803691],[-103.31141015685319,12.584460187287959],[-103.26787467807384,12.667879071761888],[-103.22615987677682,12.750818950334406],[-103.1862911651051,12.833351727400441],[-103.1482939561011,12.915549307354809],[-103.11219366100858,12.997483593693005],[-103.07801569376915,13.079226489910695],[-103.04578546652596,13.160849900402695],[-103.01552839052272,13.242425729563934],[-102.9872698797011,13.324025881789169],[-102.96103534620414,13.40572225877537],[-102.9368502030743,13.487586767615369],[-102.91473986155529,13.569691309106759],[-102.89472973558873,13.65210778944305],[-102.87684523641843,13.734908112119797],[-102.86111177708676,13.81816418063255],[-102.84755477063607,13.901947899376182],[-102.83619962831011,13.986331171846246],[-102.82707176405057,14.071385902437612],[-102.82019659000053,14.157183994645777],[-102.81559951740371,14.24379735376499],[-102.81330596110115,14.331297881492162],[-102.81334133143719,14.419757484020806],[-102.81573104145428,14.509248063947155],[-102.8205005041948,14.599841525666022],[-102.82767513270113,14.691609773572338],[-102.83728033821694,14.784624711161655],[-102.84934153378464,14.878958241929467],[-102.86388413154731,14.974682271170025],[-102.88093354544668,15.071868701479502],[-102.90051474785724,15.170588339180654],[-102.92261880401452,15.270827027145742],[-102.94717929898536,15.372426589915335],[-102.97412424833527,15.475214902645803],[-103.00338166942839,15.579019837795443],[-103.03487957962881,15.683669271419888],[-103.06854599450196,15.788991077776132],[-103.10430893141194,15.894813130221905],[-103.14209640772293,16.000963303014146],[-103.18183643900034,16.107269471309166],[-103.22345704260835,16.213559509364018],[-103.26688623591093,16.31966129053626],[-103.31205203537303,16.42540268998232],[-103.35888245656002,16.530611581959079],[-103.4073055186347,16.635115839824266],[-103.45724923626312,16.738743338734253],[-103.50864162680955,16.841321953845238],[-103.56141070673863,16.942679557615634],[-103.61548449431388,17.042644025201753],[-103.67079100420136,17.141043230860532],[-103.72725825556392,17.23770504884908],[-103.78481426306769,17.332457354323594],[-103.84338704407674,17.42512802064175],[-103.90290461595515,17.515544922060656],[-103.96329499516781,17.60353593283719],[-104.02448619817943,17.688928928127666],[-104.08640624145477,17.771551781289816],[-104.14898314325734,17.851232367479895],[-104.21214491915259,17.927798560055635],[-104.27581958560529,18.001078233273972],[-104.33993589562499,18.070902301100432],[-104.40445117907854,18.137219789961478],[-104.46935988894762,18.200133160517112],[-104.53465896034265,18.259755130195231],[-104.60034532927341,18.316198414625262],[-104.66641592995109,18.369575730335839],[-104.73286769748614,18.419999792056899],[-104.79969756698904,18.467583317216452],[-104.86690247267086,18.512439021443811],[-104.93447935054149,18.554679620368347],[-105.00242513481203,18.59441783051858],[-105.07073676149224,18.631766368423314],[-105.13941116389401,18.666837948812429],[-105.20844527892638,18.699745289113935],[-105.27783603990122,18.730601104957145],[-105.34758038282831,18.759518112870751],[-105.41767524281812,18.786609027584689],[-105.48811755408178,18.811986566526969],[-105.55890425172976,18.835763444427585],[-105.6300322708725,18.858052378714433],[-105.70149854662054,18.878966085016941],[-105.77330001318495,18.898617279863743],[-105.84543360747489,18.917118677984718],[-105.91789626190285,18.93458299680799],[-105.99068491337795,18.951122951962816],[-106.06379649611131,18.96685125907851],[-106.1372279452134,18.981880634683705],[-106.21097619579473,18.996323794407715],[-106.28503818296565,19.01029345477923],[-106.35941084093747,19.023902332326941],[-106.4340910535592,19.037260546337279],[-106.509074529266,19.050418513703562],[-106.5843557983813,19.063366944429106],[-106.65992934086631,19.076093954872249],[-106.73578963578296,19.088587661391614],[-106.81193116399191,19.100836178546956],[-106.88834840455513,19.112827621797464],[-106.96503583743385,19.124550107501591],[-107.0419879425894,19.135991750219262],[-107.11919919998297,19.147140666308815],[-107.19666408867664,19.157984972128872],[-107.27437708863164,19.168512781339928],[-107.35233268070857,19.178712211199752],[-107.43052534307003,19.188571376268158],[-107.508949557476,19.198078392903653],[-107.58759980118975,19.207221376565428],[-107.66647055597127,19.215988441813295],[-107.74555630178179,19.224367705005704],[-107.82485151678395,19.232347282501223],[-107.90435068183842,19.239915288859606],[-107.98404827600706,19.2470598395401],[-108.06393878015047,19.253769050901099],[-108.14401667333073,19.260031038401848],[-108.22427643550901,19.265833916602105],[-108.30471254664661,19.271165801860434],[-108.38531948670487,19.27601481053523],[-108.46609173474565,19.280369057186363],[-108.54702377073033,19.284216657273078],[-108.62811007462017,19.287545727153713],[-108.70934512637638,19.290344382287572],[-108.79072464342744,19.292596855760451],[-108.87226285664542,19.294229302440499],[-108.95398825115677,19.295123164702431],[-109.03592967811204,19.295158735587336],[-109.11811598866183,19.294216309035562],[-109.20057603305736,19.292176178088312],[-109.28333866244924,19.288918634887239],[-109.36643272888722,19.284323974272127],[-109.44988708262269,19.278272488384744],[-109.5337305748061,19.270644470266234],[-109.61799205658804,19.261320212957628],[-109.70270038001843,19.250180010399276],[-109.78788439444912,19.237104154733117],[-109.87357295103078,19.221972939899388],[-109.95979490271247,19.204666658939288],[-110.04657909884622,19.185065605793227],[-110.13395439058257,19.163050071703594],[-110.22194962997133,19.138500350610855],[-110.31059366726384,19.111296736455358],[-110.39991535450991,19.08131952227825],[-110.48994354106145,19.048449000221297],[-110.58070707896843,19.012565464224906],[-110.67223481938129,18.973549207330166],[-110.76455561345068,18.93128052257822],[-110.85769831232716,18.885639703010042],[-110.95169176626189,18.836507042566097],[-111.04656482730485,18.783762833388209],[-111.14234634570721,18.727287369416729],[-111.23906517261952,18.666960942793423],[-111.3367501600917,18.602663847458757],[-111.43541594189213,18.534285709617961],[-111.5349303950216,18.461812505243074],[-111.6350748142512,18.385287051956027],[-111.73562937649444,18.304752901225527],[-111.83637425866499,18.220253605419714],[-111.93708963677722,18.131832717805821],[-112.03755568774471,18.039533788953349],[-112.13755258848107,17.943400371230268],[-112.23686051500067,17.843476017904038],[-112.3352596442171,17.739804280443309],[-112.43253015304401,17.632428710316844],[-112.52845221749573,17.521392860792048],[-112.62280601358657,17.40674028243825],[-112.71537172002877,17.288514529422116],[-112.80592951103802,17.166759152313148],[-112.89425956532659,17.041517704378691],[-112.98014205800945,16.912833736188134],[-113.06335716600029,16.780750801908141],[-113.14368506621275,16.645312451208781],[-113.22090593556038,16.506562239156153],[-113.29479994915823,16.364543715420268],[-113.36514728571859,16.219300432369209],[-113.43172812035635,16.070875944169643],[-113.49432262998528,15.919313800491636],[-113.55271099151895,15.764657555501913],[-113.60667338097164,15.606950759769859],[-113.65598997615638,15.446236965663559],[-113.7004409521881,15.282559726450359],[-113.73980648598047,15.115962592699645],[-113.77386675534638,14.946489117678766],[-113.80242024289981,14.774206823386351],[-113.82540074145095,14.5993603820761],[-113.8428026868944,14.422273867145407],[-113.85462079931034,14.243271726109413],[-113.8608498032757,14.062678407382748],[-113.86148441887076,13.88081835848061],[-113.85651936887371,13.698016026018934],[-113.84594937516346,13.514595857512973],[-113.82976915961893,13.330882301377244],[-113.80797344411906,13.147199805127059],[-113.78055695144207,12.963872816277615],[-113.74751440346682,12.781225781444789],[-113.70884052207236,12.599583149942532],[-113.66453002823812,12.419269368386779],[-113.61457764564176,12.240608883393406],[-113.55897809526277,12.063926144276252],[-113.49772609987951,11.889545598550683],[-113.43081638047147,11.717791691933201],[-113.35824365891762,11.548988873737642],[-113.28000265889551,11.383461591479374],[-113.1960881013847,11.221534291774276],[-113.10649470826405,11.063531423036864],[-113.01121720141259,10.909777431883128],[-112.91025030270919,10.760596767626851],[-112.8035887358314,10.616313875984702],[-112.69122722085945,10.477253205371255],[-112.57316048057163,10.343739203301709],[-112.44938323684681,10.216096317291374],[-112.31989021246324,10.09464899575471],[-112.18467612750118,9.979721685307652],[-112.04378498219108,9.8715779772419978],[-111.89752729714695,9.7701523100811869],[-111.74630329136369,9.6752683411611429],[-111.59051325218473,9.586749650476122],[-111.43055746515478,9.5044198126244055],[-111.26683621671793,9.428102406700873],[-111.09974979511685,9.3576210073038055],[-110.929698484997,9.2927991935280829],[-110.75708257370172,9.2334605417707394],[-110.58230234857444,9.179428627529262],[-110.40575809515985,9.1305270298986443],[-110.22785009990207,9.0865793243764301],[-110.04897865014448,9.0474090891582932],[-109.86954403233113,9.0128398997417207],[-109.68994653200673,8.9826953343223295],[-109.51058643741408,8.9567989692971537],[-109.3318640340978,8.93497438196232],[-109.15417960940135,8.9170451487148057],[-108.97793344886946,8.9028348468508511],[-108.8035258389462,8.8921670536667534],[-108.63135706787426,8.8848653455593762],[-108.46182742119845,8.8807532998250736],[-108.29533718446339,8.8796544937600288],[-108.1322866459119,8.8813925037611625],[-107.97307609198793,8.8857909071248287],[-107.81810580823634,8.8926732802478341],[-107.6677760820005,8.9018632004264759],[-107.52248719882505,8.913184245856371],[-107.38263944695279,8.9264599911358005],[-107.24863311192848,8.941514015359644]]]},"properties":{"objectid":2,"basin":"Pacific","prob2day":"0%","risk2day":"Low","prob7day":"80%","risk7day":"High","idp_source":"gtwo_areas_202609180556","idp_filedate":1789711081000,"idp_ingestdate":1789711138000,"st_area(shape)":91.711304287013874,"st_perimeter(shape)":34.088993315077708}},{"type":"Feature","id":3,"geometry":{"type":"Polygon","coordinates":[[[-125.73044914111489,8.2754034302242871],[-125.42949189523466,8.2499739689236549],[-125.12943875219656,8.2247797396933606],[-124.83042737032679,8.1999270747747914],[-124.53259541244825,8.1755223055101283],[-124.23608053778651,8.1516717632414384],[-123.94102040646652,8.1284817802101088],[-123.64755268041176,8.1060586868590576],[-123.35581501884798,8.0845088163289347],[-123.06594508279926,8.0639384990626013],[-122.77808053328988,8.0444540673015013],[-122.49235902954547,8.0261618514883821],[-122.20891823348961,8.0091681847640643],[-121.92789580434783,7.9935793984706152],[-121.64942940314432,7.979501823050839],[-121.37365669000417,7.9670417907461797],[-121.10071532685077,7.9563056337980811],[-120.83074297201046,7.9473996835486673],[-120.5638772874068,7.9404302704407428],[-120.30025593316469,7.9355037276150711],[-120.04001656940903,7.9327263864137194],[-119.78329685716415,7.9322045772795491],[-119.53023445745413,7.9340446324539471],[-119.28096702950472,7.9383528841784141],[-119.03563223434003,7.9452356637949606],[-118.79436773208505,7.9547993017465046],[-118.55731118466332,7.9671501311737529],[-118.32460025040115,7.9823944834188296],[-118.09637259122201,8.0006386889244823],[-117.87276586815022,8.0219890799322116],[-117.653917739512,8.0465519886834613],[-117.43996586813023,8.0744337465202989],[-117.2310479132305,8.1057406847849052],[-117.02730153493781,8.1405791348193475],[-116.82886439517563,8.1790554279657499],[-116.63587415316954,8.2212758973649329],[-116.44846846994386,8.2673468725602675],[-116.26678500562343,8.317374686692574],[-116.09096142123252,8.3714656711039765],[-115.92113537689602,8.4297261571365993],[-115.75744453273887,8.4922624761325096],[-115.60002655068467,8.5591809603332081],[-115.44901908995894,8.630587941080762],[-115.30455930796558,8.7065885877932487],[-115.16674053724591,8.7871868251120304],[-115.03557889544959,8.8722082007479912],[-114.91108264105094,8.961460106898528],[-114.79326003342373,9.0547499339623982],[-114.6821193310422,9.1518850714390396],[-114.57766879238079,9.2526729124251119],[-114.47991667591378,9.3569208455207331],[-114.3888712392162,9.4644362629233569],[-114.30454074256113,9.5750265559309469],[-114.22693344442285,9.6884991140429975],[-114.15605760237634,9.8046613285575859],[-114.0919214757954,9.9233205907727893],[-114.0345333222549,10.044284291087308],[-113.98390140112866,10.16735982169854],[-113.94003397179029,10.292354571206658],[-113.90293929091547,10.419075931808948],[-113.87262561877719,10.547331294803541],[-113.84910121384985,10.676928049689877],[-113.83237433370846,10.807673588665295],[-113.8224532368273,10.93937530122929],[-113.81934618347947,11.071840579579202],[-113.82306143034066,11.204876814113845],[-113.83360723768379,11.338291395231863],[-113.85099186308389,11.47189171423139],[-113.8752235650154,11.605485162410446],[-113.90631060285193,11.738879129268526],[-113.94426123416855,11.871881007003026],[-113.98908371923818,12.004298186012591],[-114.04078631473652,12.135938056696091],[-114.09937728003734,12.266608010351547],[-114.16486487361493,12.396115438276979],[-114.23725735484294,12.524267729971882],[-114.31656298129644,12.650872278532972],[-114.4027900123491,12.775736472560311],[-114.49594670557593,12.898667703351975],[-114.59604132124986,13.019473363105362],[-114.70308211604674,13.137960842219229],[-114.81707734934008,13.253937530193014],[-114.9380352805037,13.367210819224056],[-115.06596416711255,13.47758809971117],[-115.20087226764093,13.584876762952376],[-115.34276784236192,13.688884198447113],[-115.49165278794572,13.789426992162078],[-115.64742218858305,13.886476144558571],[-115.80988249128387,13.980130787006374],[-115.97883746038042,14.070493930550583],[-116.15409086380225,14.157668584437772],[-116.33544646408296,14.241757759712982],[-116.52270802915211,14.322864466522049],[-116.71567932154335,14.401091714111431],[-116.91416410918617,14.47654251352634],[-117.11796615641288,14.549319874912442],[-117.32688922755574,14.619526807516309],[-117.54073708964489,14.687266322382982],[-117.7593135061133,14.752641429658411],[-117.98242224399127,14.81575513948826],[-118.20986706851033,14.876710462018366],[-118.44145174400268,14.935610407394506],[-118.67698003570001,14.992557985762573],[-118.91625570973315,15.04765620726829],[-119.15908253133364,15.10100808205749],[-119.40526426573319,15.152716620275953],[-119.65460467816325,15.202884832069458],[-119.90690753295621,15.251615727583896],[-120.16197659804146,15.29901231786431],[-120.41961563595277,15.345177611257895],[-120.67962841372025,15.39021461970907],[-120.94181869567615,15.43422635336367],[-121.20599024795149,15.477315820568776],[-121.47194683487845,15.519586034168299],[-121.73949222348722,15.561140001609942],[-122.00843017721081,15.602080734838182],[-122.27856446307942,15.642511243998854],[-122.54969884452595,15.682534538338416],[-122.8216370885807,15.722253628002647],[-123.09418295957585,15.76177152403676],[-123.36714022274299,15.801191236586419],[-123.64031264421305,15.840615775797573],[-123.91350398921765,15.880148150916568],[-124.18651802208893,15.919891372988616],[-124.45915850985728,15.959948452159495],[-124.73122921595547,16.000422398574983],[-125.00253390651449,16.041416221481597],[-125.27287634676588,16.083032932823755],[-125.54206030284064,16.125375540948596],[-125.80990401096125,16.168525369750171],[-126.0763150217208,16.212429897921595],[-126.34123492055505,16.256985599106258],[-126.60460536124833,16.302088847122718],[-126.86636799578628,16.347636013991007],[-127.12646447795322,16.393523473529626],[-127.38483646063406,16.439647597758551],[-127.64142559671382,16.485904759597133],[-127.89617353997681,16.532191332863874],[-128.14902194240864,16.578403689578749],[-128.3999124568943,16.624438202661054],[-128.64878673811739,16.670191245929402],[-128.89558643716424,16.715559192303033],[-129.14025320871849,16.760438413801921],[-129.38272870476584,16.804725283345306],[-129.62295457909045,16.848316174751801],[-129.86087248367807,16.891107460940702],[-130.09642407231297,16.932995513931985],[-130.3295509987795,16.97387670754415],[-130.56019491416384,17.01364741469655],[-130.78829747314978,17.052204007409159],[-131.01380032862215,17.08944285950048],[-131.23664513256671,17.1252603429906],[-131.45677353966704,17.159552831697965],[-131.67412720100941,17.192216698541927],[-131.88864777127753,17.22314831554246],[-132.10027690245698,17.252244057417442],[-132.30895624833209,17.27940029528753],[-132.51462746178782,17.304513402971281],[-132.71723219480987,17.327479752488728],[-132.91671210208176,17.34819571855769],[-133.11300883648852,17.366557672298882],[-133.30606404911646,17.38246198753086],[-133.49581939554855,17.395805037172863],[-133.68221652687112,17.406483194144243],[-133.86519709776775,17.414392831364239],[-134.04470275932482,17.419430321752088],[-134.22067516622587,17.421492037327823],[-134.39305597135592,17.420474352809265],[-134.56178682759992,17.416273640216446],[-134.72680938694356,17.40878627156934],[-134.88806530317112,17.397908621585771],[-135.04549628132821,17.383537145922674],[-135.19907007082702,17.365610914612148],[-135.34882276775642,17.344180814892809],[-135.49480154155782,17.319315853543969],[-135.63705356167242,17.291085035546075],[-135.77562600023964,17.259557366779177],[-135.91056602490204,17.224801854921793],[-136.04192080779893,17.186887504954541],[-136.16973751747236,17.1458833227573],[-136.29406332516226,17.101858315109268],[-136.41494540030988,17.054881486991178],[-136.53243091325595,17.00502184608149],[-136.64656703434105,16.952348397360765],[-136.75740093210726,16.896930147608373],[-136.86497977869374,16.838836101804816],[-136.96935074264258,16.778135267628613],[-137.07056099429434,16.714896649161176],[-137.16865770488909,16.649189254080966],[-137.26368804296874,16.58108208826792],[-137.35569917977324,16.510644157601917],[-137.44473828474395,16.43794446796295],[-137.53085252822149,16.3630520252309],[-137.61408907964721,16.286035836185022],[-137.6944951093617,16.206964906705196],[-137.77211778860499,16.125908241772095],[-137.84700428591896,16.042934849064181],[-137.91920177254366,15.958113734461392],[-137.98875741702108,15.8715139029444],[-138.05571839059115,15.783204362191725],[-138.12013186359457,15.69325411628455],[-138.18204500547256,15.60173217290162],[-138.24150498656581,15.508707537922703],[-138.29855897631563,15.414249216328415],[-138.35325414596196,15.318426215797388],[-138.40563766404688,15.221307541310125],[-138.45575670181023,15.12296219874662],[-138.50365842959275,15.023459195785392],[-138.54939001683573,14.922867536507738],[-138.59299863298043,14.821256228592233],[-138.63453144926689,14.718694277019381],[-138.67403563513636,14.615250688568551],[-138.71155836092953,14.510994469119566],[-138.74714679608769,14.40599462455242],[-138.78084582397548,14.300320104988998],[-138.81262473993974,14.194038021437677],[-138.84236174609759,14.087213265380058],[-138.86992962165465,13.979910597895923],[-138.89520114761478,13.872194778266532],[-138.91804910138484,13.764130566672463],[-138.93834626396881,13.65578272329418],[-138.9559654136728,13.547216009211581],[-138.97077932970222,13.438495183705925],[-138.98266079306109,13.329685006957618],[-138.99148258205543,13.220850240046673],[-138.9971174749914,13.112055642254234],[-138.99943825377233,13.003365973760822],[-138.99831769580493,12.894845995646335],[-138.993628581194,12.786560467191919],[-138.98524368914485,12.678574148578207],[-138.97303579886295,12.570951800885041],[-138.95687769045298,12.463758184292885],[-138.93664214312031,12.357058057183735],[-138.91220193517108,12.250916182436015],[-138.88342984760931,12.145397317532343],[-138.85019865874102,12.040566224451823],[-138.81238114777165,11.93648766337509],[-138.76985009480592,11.833226393583345],[-138.72247827994858,11.730847175257054],[-138.67013848060628,11.62941476947617],[-138.61270347778321,11.528993936421159],[-138.55004604978529,11.429649434473959],[-138.48203897671732,11.331446026513049],[-138.40855503868403,11.234448470920313],[-138.32946701309208,11.138721527876328],[-138.2446476809456,11.044329958460935],[-138.15396982055069,10.951338522854655],[-138.05730621201201,10.859811980338748],[-137.95452963543426,10.769815091993053],[-137.8455128682242,10.681412617098715],[-137.73012869138591,10.59466931673569],[-137.60824988412475,10.509649950185178],[-137.47974922474685,10.426419278527021],[-137.34449949425618,10.34504206194174],[-137.20237347095883,10.265583059710593],[-137.05324393406022,10.188107032913365],[-136.89698366366508,10.11267874083137],[-136.73348462871257,10.0393561645555],[-136.5628273131299,9.9681306723927605],[-136.38519920308067,9.8989558269499867],[-136.20078901050437,9.8317847564615022],[-136.00978545003841,9.7665705891615175],[-135.81237723362233,9.7032664523849803],[-135.60875307409498,9.6418254752655912],[-135.39910168519452,9.5822007851382409],[-135.18361177975976,9.5243455111365734],[-134.96247207152879,9.4682127805954792],[-134.73587127244116,9.4137557217492827],[-134.50399809623508,9.3609274628323078],[-134.26704125574929,9.3096811320787083],[-134.0251894647219,9.2599698577228651],[-133.77863143509256,9.2117467679991023],[-133.52755588149864,9.1649649911415736],[-133.27215151498035,9.1195776544852833],[-133.01260705107444,9.0755378871638754],[-132.74911120082118,9.0327988165122974],[-132.48185267795861,8.9913135707648166],[-132.21102019622498,8.9510352790550201],[-131.93680246755974,8.9119170687178553],[-131.65938820570102,8.8739120679877033],[-131.37896612348771,8.8369734050987176],[-131.09572493465794,8.8010542073859028],[-130.80985335205048,8.7661076048822224],[-130.5215400885042,8.7320867240232474],[-130.23097385685793,8.6989446939426216],[-129.93834336995047,8.6666346419752927],[-129.64383734241932,8.6351096972548476],[-129.34764448530467,8.6043229871162907],[-129.04995351324396,8.5742276397938895],[-128.75095313907599,8.5447767835218542],[-128.45083207474039,8.5159235474338857],[-128.14977903487448,8.4876210579656117],[-127.84798273231718,8.4598224442505625],[-127.54563187900794,8.4324808345230053],[-127.24291518868495,8.4055493561180015],[-126.9400213750863,8.3789811381691379],[-126.63713915015154,8.3527293089106252],[-126.33445722761888,8.3267469956774676],[-126.03216432032701,8.3009873267038756],[-125.73044914111489,8.2754034302242871]]]},"properties":{"objectid":3,"basin":"Pacific","prob2day":"60%","risk2day":"Medium","prob7day":"80%","risk7day":"High","idp_source":"gtwo_areas_202609180556","idp_filedate":1789711081000,"idp_ingestdate":1789711138000,"st_area(shape)":179.26817015692924,"st_perimeter(shape)":58.454630130551102}},{"type":"Feature","id":4,"geometry":{"type":"Polygon","coordinates":[[[-137.96509636370615,18.133377472492498],[-138.16729668509385,18.148161308897443],[-138.37005903149901,18.161449662671941],[-138.57316250514543,18.173314958918354],[-138.77638620735752,18.18382962183972],[-138.97950924035905,18.193066074739704],[-139.18231070457529,18.201096740921969],[-139.38456970312922,18.207994046388251],[-139.58606533554672,18.213830413542894],[-139.78657670585022,18.218678267488201],[-139.98588291266623,18.222610032427212],[-140.1837630600171,18.225698131663592],[-140.3799962483281,18.228014989400378],[-140.57436157982295,18.229633029840613],[-140.7666381549268,18.230624677187222],[-140.9566050767628,18.23106235564336],[-141.14404144575605,18.231018489411895],[-141.328726363231,18.230565501796605],[-141.51043893231082,18.229775817000473],[-141.68895825252127,18.228721860125859],[-141.86406342698547,18.227476054476483],[-142.03553355702797,18.226110823355953],[-142.20314774397315,18.224698592766003],[-142.36668508824613,18.223311785110923],[-142.52599485357956,18.22200748395835],[-142.68120693984832,18.220781406736648],[-142.83252141023479,18.219613930238836],[-142.98013832612276,18.218485430358442],[-143.1242577488959,18.217376284787861],[-143.26507973993796,18.216266870319942],[-143.40280436243131,18.215137561949064],[-143.53763167686031,18.213968736468132],[-143.66976174460876,18.212740771569486],[-143.7993946297583,18.21143404314671],[-143.92673039189401,18.210028927992767],[-144.05196909329894,18.208505802001298],[-144.17531079625616,18.206845042864586],[-144.29695556214938,18.205027025576896],[-144.41710345236234,18.203032127830568],[-144.53595453007742,18.200840725519186],[-144.65370885577897,18.198433196335088],[-144.7705664908508,18.195789915272485],[-144.88672749847518,18.192891260023771],[-145.00239194003592,18.189717606482475],[-145.11775987601737,18.186249331441616],[-145.23303137050127,18.182466810794836],[-145.34840648307264,18.178350423133679],[-145.46407596263549,18.173866306285163],[-145.58019330367793,18.168923656601635],[-145.69690268640977,18.1634174341674],[-145.8143482901414,18.15724259726818],[-145.9326742968812,18.150294105089017],[-146.05202488504034,18.142466916814897],[-146.17254423752647,18.13365599163086],[-146.29437653185138,18.123756288721893],[-146.41766595092281,18.112662767273036],[-146.54255667315186,18.100270386469276],[-146.6691928796476,18.086474105495711],[-146.79771875151908,18.071168883537268],[-146.92827846807677,18.054249679779048],[-147.06101620953035,18.035611453405977],[-147.19607615788829,18.015149163603155],[-147.33360249156166,17.992757769555567],[-147.47373939165951,17.968332230448198],[-147.61663103839163,17.941767504566826],[-147.76242161286706,17.91295855289502],[-147.91125529439623,17.881800332819239],[-148.06327626408824,17.848187804423787],[-148.21862870125346,17.81201592689365],[-148.37745678790037,17.77317965941387],[-148.53981344823197,17.731616130380246],[-148.70538658872002,17.687431152226054],[-148.87377286072885,17.640772704796632],[-149.04456891472356,17.59178876883675],[-149.21737140296779,17.540627325091123],[-149.39177697502728,17.487436355203783],[-149.56738228226644,17.43236383991939],[-149.74378397694889,17.375557759982769],[-149.92057871043906,17.317166096138578],[-150.09736313140331,17.257336829131475],[-150.27373389390399,17.196217939706287],[-150.44928764660753,17.133957409506991],[-150.62362104267689,17.0707032192783],[-150.79633073167784,17.00660334886561],[-150.96701336587407,16.941805780812274],[-151.13526559573057,16.876458494963686],[-151.30068407171245,16.810709472064616],[-151.4628654469827,16.744706693759042],[-151.62140637110707,16.678598139892358],[-151.77590349455056,16.612531793007975],[-151.9259534704762,16.546655632051909],[-152.07115294844974,16.481117639567572],[-152.21109858073484,16.41606579450098],[-152.34548516440873,16.35158588408143],[-152.47440008839328,16.287514907087427],[-152.59802888552457,16.223627668782001],[-152.71655709133663,16.159698973528918],[-152.83017024136348,16.09550362569189],[-152.93905386934051,16.030816429634683],[-153.04339350900315,15.965412189720894],[-153.14337469678475,15.899065711213723],[-153.23918296642069,15.831551797577561],[-153.331003853445,15.762645253176004],[-153.41902289069378,15.692120884171629],[-153.50342561460036,15.619753493129338],[-153.58439755890015,15.545317885312272],[-153.66212425822786,15.46858886598352],[-153.73679124721821,15.389341237708095],[-153.80858406050589,15.307349806648404],[-153.87768823362501,15.222389377168156],[-153.94428930031088,15.1342347527318],[-154.00857279609758,15.042660738602365],[-154.07072425382117,14.947442138244242],[-154.13092920991502,14.84835375781978],[-154.18937319901383,14.745170399894164],[-154.24624175485303,14.637666870629687],[-154.30167192421985,14.525723185177014],[-154.35560680161251,14.409640207229927],[-154.40794099458114,14.289824011269218],[-154.45856910977651,14.166680670876417],[-154.50738575295006,14.040616262330786],[-154.55428553255121,13.912036859213799],[-154.59916305343208,13.781348536905568],[-154.6419129231428,13.64895736988683],[-154.68242974923345,13.51526943353764],[-154.72060813655617,13.380690800540151],[-154.75634269356038,13.245627547173683],[-154.78952802689685,13.110485747919085],[-154.82005874231703,12.975671477256981],[-154.84782944647171,12.841590810567595],[-154.87273474781028,12.708649821432232],[-154.89466925118492,12.57725458433174],[-154.91352756414568,12.447811175545439],[-154.92920429334339,12.320725668654802],[-154.94159404632811,12.196404138140622],[-154.95059142795196,12.075252659382841],[-154.9560910466644,11.957677306862365],[-154.95798750821686,11.844084155059818],[-154.95617542015944,11.734879279355368],[-154.95052071425948,11.630380517247204],[-154.9407746326431,11.530552766397193],[-154.92665973895572,11.435272685686016],[-154.9078986013393,11.344416936692426],[-154.8842137852379,11.257862179196366],[-154.85532785609561,11.175485072977892],[-154.82096338115502,11.097162278716326],[-154.78084292675959,11.022770457091042],[-154.73468905835327,10.952186267882098],[-154.68222434227948,10.885286371768757],[-154.62317134488157,10.821947429430452],[-154.55725263250289,10.762046099747863],[-154.48419077148682,10.705459044299573],[-154.4037083272774,10.652062922865753],[-154.31552786711728,10.601734396125607],[-154.21937195645054,10.554350123859251],[-154.11496316162052,10.509786765846684],[-154.00202404897061,10.467920984565922],[-153.88027718484412,10.428629437998325],[-153.74944513468515,10.391788787722533],[-153.60925046573632,10.357275693518602],[-153.45941574344172,10.324966816065853],[-153.29966353414471,10.294738815144342],[-153.12979789715516,10.266509258895326],[-152.94994886364907,10.240359347106335],[-152.7603279559703,10.216411185228139],[-152.56114669916076,10.194786881409584],[-152.35261661646359,10.17560854110144],[-152.13494923202137,10.158998271553116],[-151.90835606907726,10.145078179114819],[-151.67304865087445,10.133970371035957],[-151.42923850155552,10.125796953666622],[-151.17713714526295,10.120680033357019],[-150.91695610523999,10.118741718255819],[-150.64890690472978,10.120104112914589],[-150.37320106877422,10.124889325482116],[-150.09005011971718,10.133219463207809],[-149.79966558170116,10.14521663064312],[-149.5022589788687,10.161002936836212],[-149.198041834463,10.180700487237857],[-148.88722567172729,10.204431388198145],[-148.57002201570339,10.232317746966601],[-148.24664238873515,10.264481670792634],[-147.91729831586451,10.301045266026335],[-147.58220131943526,10.34213063901791],[-147.24156292358998,10.387859896117448],[-146.8956863482463,10.438277631107951],[-146.54524159642244,10.493118374013875],[-146.1909903660125,10.552039144990658],[-145.83369435670912,10.614696960596405],[-145.47411526730565,10.680748840087062],[-145.11301479569619,10.749851800020679],[-144.75115464157335,10.821662858754053],[-144.38929650373058,10.89583903464387],[-144.02820208006187,10.972037346046818],[-143.66863307025989,11.049914809520999],[-143.31135117221874,11.129128444322362],[-142.95711808563107,11.209335267009124],[-142.60669550839094,11.290192296837176],[-142.26084514109033,11.371356551263943],[-141.92032867982465,11.452485048646224],[-141.58590782518587,11.533234805541952],[-141.25834427596749,11.613262841207302],[-140.9383997300634,11.692226173998847],[-140.62683588716635,11.769781820474748],[-140.32441444517042,11.84558679899169],[-140.03189710376824,11.919298127906416],[-139.75004556085389,11.990572824676235],[-139.47962151612001,12.059067907657948],[-139.22117567841474,12.124545053811346],[-138.974414795906,12.187184576307288],[-138.73883462771579,12.247271448718493],[-138.51393093566406,12.305090642819039],[-138.29919947617481,12.36092713218153],[-138.09413601016865,12.415065888580045],[-137.89823629676761,12.46779188468787],[-137.71099609419429,12.519390094077721],[-137.53191116426871,12.570145488523622],[-137.36047726341491,12.620343041598233],[-137.19619015255341,12.670267725974895],[-137.03854559080628,12.720204513427689],[-136.8870393372955,12.770438377529217],[-136.74116715204235,12.82125429005356],[-136.6004247932695,12.872937224573377],[-136.46430802099826,12.925772153762011],[-136.33231259435064,12.980044049393484],[-136.20393427244863,13.036037885040514],[-136.07866881441419,13.094038633376385],[-135.95601198026861,13.15433126617512],[-135.83545952913386,13.217200757009493],[-135.71650722013203,13.282932078552733],[-135.59865081238502,13.351810203478237],[-135.48150698425985,13.424039375916607],[-135.36517608390903,13.499500925827192],[-135.24987937873027,13.577995454626659],[-135.13583813612098,13.659323564630938],[-135.02327362347887,13.743285857256637],[-134.91240710820142,13.829682934819743],[-134.80345985768622,13.918315398736809],[-134.69665313843149,14.008983850424499],[-134.59220821873424,14.101488891299425],[-134.49034636509259,14.195631124576892],[-134.39128884490418,14.291211149874812],[-134.29525692556655,14.388029570408492],[-134.20247187447734,14.48588698849386],[-134.11315495813471,14.584584003748887],[-134.02752744573496,14.683921219388878],[-133.9458106019776,14.783699236830444],[-133.86822569605891,14.883718657490192],[-133.79499399447718,14.983780083684053],[-133.72633676462988,15.083684116828692],[-133.66247527391465,15.183231358340663],[-133.6036307897291,15.282222410535951],[-133.55002457857137,15.380457873931903],[-133.50187790873844,15.477738351743653],[-133.45938846380648,15.573890330574443],[-133.42265959476441,15.668843834175732],[-133.39177106967901,15.762554773284307],[-133.36680265751653,15.854979057737467],[-133.34783412544442,15.94607259827194],[-133.33494524242889,16.035791303825761],[-133.32821577563743,16.124091085135603],[-133.32772549313688,16.210927852038878],[-133.33355416389344,16.29625751437294],[-133.34578155507461,16.380035981975141],[-133.36448743564654,16.462219164682836],[-133.38975157277679,16.542762973232755],[-133.42165373543145,16.621623316562932],[-133.46027369077814,16.698756106309418],[-133.50569120688363,16.774117250510869],[-133.55798605271406,16.84766266080328],[-133.61723799633637,16.919348246124798],[-133.68352680491802,16.98912991721204],[-133.7569322474252,17.056963583003096],[-133.83753409102542,17.12280515513396],[-133.92541210468477,17.186610541643347],[-134.02064605557092,17.248335654167249],[-134.12331571264991,17.307936401643758],[-134.23343876288851,17.365380394090039],[-134.35078456615474,17.420682043141937],[-134.47506040571307,17.473867458816301],[-134.60597355943213,17.524962752928843],[-134.74323130877781,17.573994034597149],[-134.88654093521592,17.620987416536195],[-135.03560971751438,17.665969007863566],[-135.19014493623973,17.708964920394919],[-135.34985387375718,17.750001265046478],[-135.51444380793532,17.789104151835261],[-135.68362202113929,17.826299692576868],[-135.85709579303631,17.86161399638894],[-136.03457240329368,17.895073175986397],[-136.21575913427654,17.926703341386258],[-136.4003632647528,17.956530603504689],[-136.58809207528896,17.984581072358765],[-136.77865284735094,18.010880859764029],[-136.97175286060593,18.035456076636763],[-137.16709939562054,18.058332832993983],[-137.36439973386052,18.079537239751971],[-137.56336115319459,18.099095407826951],[-137.76369093688714,18.11703344813526],[-137.96509636370615,18.133377472492498]]]},"properties":{"objectid":4,"basin":"Pacific","prob2day":"10%","risk2day":"Low","prob7day":"30%","risk7day":"Low","idp_source":"gtwo_areas_202609180556","idp_filedate":1789711081000,"idp_ingestdate":1789711138000,"st_area(shape)":131.23468560383157,"st_perimeter(shape)":50.027267344304946}}]}