{"type":"FeatureCollection","features":[{"type":"Feature","id":1,"geometry":{"type":"Polygon","coordinates":[[[-143.49866527658116,15.133737832335214],[-143.55489281994761,15.1810727408145],[-143.61232318856423,15.227603104999446],[-143.67103349390055,15.273400137706346],[-143.73110084922473,15.318535057147301],[-143.79260236690561,15.363079076138604],[-143.85561515931209,15.407103411993035],[-143.92021633701427,15.450679278426094],[-143.98648301417967,15.493877891851355],[-144.05449230227785,15.536770467783015],[-144.1243213136776,15.579428221735157],[-144.19604716074778,15.621922368322771],[-144.26974695495792,15.664324123059998],[-144.34549781047548,15.706704701460922],[-144.42337683697136,15.749135319939228],[-144.50346114861304,15.791687192210304],[-144.58582785687003,15.834431533788404],[-144.67055407411115,15.877439561986307],[-144.75771691270526,15.920782489620365],[-144.84739348502123,15.964531534003243],[-144.93966090342786,16.008757909749875],[-145.03459627939469,16.053532832374458],[-145.13227672529055,16.098927517391132],[-145.23277935438361,16.145013179414832],[-145.33618127814339,16.191861034859016],[-145.44255960893872,16.239542299237883],[-145.55199145913843,16.288128186266931],[-145.66455394111142,16.337689913259055],[-145.78032416632712,16.388298693929698],[-145.89937924805378,16.440025745591811],[-146.02179628157305,16.492942252283228],[-146.14763019297894,16.547080233466147],[-146.27687003302552,16.602355322840026],[-146.40949267654571,16.658661639623119],[-146.54547499657374,16.715893300335665],[-146.68479386434527,16.773944425095294],[-146.8274261546932,16.832709131321508],[-146.97334873975245,16.892081535534601],[-147.12253849255731,16.951955756952771],[-147.27497228704132,17.012225913894952],[-147.43062699533948,17.072786123780702],[-147.58947949048601,17.133530504929013],[-147.75150664551521,17.194353174759328],[-147.91668533436061,17.255148251590697],[-148.08499242915718,17.315809853741882],[-148.25640480383854,17.376232099531933],[-148.4308993305396,17.436309106380293],[-148.60845288319393,17.495934991706633],[-148.78904233303714,17.555003874729152],[-148.97264455580154,17.613409872867464],[-149.15923642182332,17.671047103541127],[-149.34879480593546,17.727809686867715],[-149.54129658117219,17.78359173846809],[-149.73671861966847,17.838287377560562],[-149.93503779535789,17.891790721564689],[-150.13623098037536,17.94399588879935],[-150.34027504775517,17.994796997583535],[-150.5471468714309,18.044088166236008],[-150.75682332443679,18.091763511277179],[-150.9692812789078,18.137717151925187],[-151.18449723915617,18.181843134553162],[-151.40236931828932,18.224020386132054],[-151.62262073825639,18.264094099163458],[-151.84495105354819,18.301904901190369],[-152.06905981865563,18.337293419755667],[-152.29464658986814,18.370100282402234],[-152.52141092167662,18.400166118471702],[-152.7490523694712,18.42733155370837],[-152.97727048954138,18.451437217453758],[-153.20576483637802,18.472323738150124],[-153.43423496537127,18.489831741541764],[-153.66238043191132,18.503801856970256],[-153.88990079138833,18.514074711079218],[-154.11649559919246,18.520490933210112],[-154.34186440981458,18.522891150006728],[-154.56570677954417,18.521115989911152],[-154.78772226377137,18.515006080466378],[-155.00761041698706,18.504402049215344],[-155.22507079458143,18.489144524600249],[-155.43980295194459,18.469074134164089],[-155.65150644536607,18.444031506349063],[-155.85988082843741,18.41385726779879],[-156.06462565834738,18.378392046955526],[-156.26544048868752,18.337476471362208],[-156.46202487574735,18.290951169461039],[-156.65407837491699,18.238656768795011],[-156.84130054068731,18.180433896906948],[-157.02339092844852,18.116123181339901],[-157.20004909449003,18.045565251435335],[-157.37097459420207,17.968600732937603],[-157.53586840480295,17.885072409963868],[-157.69454167855554,17.794989784750896],[-157.84699231374421,17.698644960696527],[-157.99323629851628,17.596357416561659],[-158.13328961922048,17.488446628409292],[-158.26716826490343,17.375232076799023],[-158.39488822371248,17.257033238693168],[-158.51646548199631,17.134169591953253],[-158.63191602880161,17.00696061534029],[-158.74125585227569,16.875725785816485],[-158.84450093876723,16.740784582142908],[-158.94166727732292,16.602456483080346],[-159.03277085609005,16.46106096559123],[-159.11782766141735,16.316917508436404],[-159.19685368235147,16.170345589477506],[-159.26986490614041,16.021664686576173],[-159.33687732093153,15.871194277593986],[-159.39790691487215,15.719253841291902],[-159.45296967521026,15.566162855531502],[-159.50208159009324,15.412240798174423],[-159.54525864676904,15.257807147082303],[-159.58251683428441,15.103181381016043],[-159.61387213898794,14.948682977837279],[-159.63934054992635,14.79463141540765],[-159.65893805434766,14.64134617158868],[-159.67268064039916,14.489146725141381],[-159.6805842962282,14.338352553028017],[-159.68266500908283,14.189283134908862],[-159.67893876621102,14.042257947746236],[-159.66942155665944,13.897596469401662],[-159.65413110876358,13.755615036404947],[-159.63315284193004,13.61650785105661],[-159.60666010408045,13.480310454563948],[-159.57483212290407,13.347047788724581],[-159.53784812339211,13.216744792638224],[-159.49588733233443,13.089426405404424],[-159.44912897562165,12.965117567921538],[-159.39775228004362,12.843843219289283],[-159.34193646969223,12.725628299506582],[-159.28186077315607,12.610497748572357],[-159.21770441452702,12.498476506485702],[-159.1496466214943,12.389589512346276],[-159.07786661904916,12.283861707052267],[-159.00254363308213,12.181318029703448],[-158.92385689128241,12.081983420298741],[-158.84198561774198,11.985882818837183],[-158.75710904015,11.893041165317641],[-158.66940638439704,11.803483398839944],[-158.57905687547435,11.717234460302222],[-158.4862397410711,11.634319288804249],[-158.39113420527926,11.554762824345005],[-158.29391949668735,11.478590006024092],[-158.19477483938724,11.405825774739867],[-158.09387946016886,11.336495070491253],[-157.99141258492278,11.270622832377967],[-157.88755344043884,11.208234000398932],[-157.7824812517083,11.149353514553184],[-157.67637524642041,11.094006313940383],[-157.56941464866702,11.042217339458773],[-157.46177868613736,10.99401153110739],[-157.35364075981315,10.949411059872659],[-157.24504028338228,10.908374438229885],[-157.13588269043373,10.870796519244095],[-157.02606758515086,10.836569386068447],[-156.91549457441499,10.80558512365468],[-156.80406326330888,10.777735816954532],[-156.69167325781453,10.75291355002048],[-156.57822416301462,10.731010407804206],[-156.46361558579056,10.711918474358242],[-156.34774713122505,10.695529833734952],[-156.23051840530007,10.681736570886187],[-156.11182901399772,10.670430770763573],[-155.99157856240066,10.661504516520381],[-155.86966665739024,10.654849894007555],[-155.74599290314987,10.650358986378251],[-155.62045690656092,10.647923879483585],[-155.49295827360535,10.647436656476657],[-155.36339660936594,10.648789402309205],[-155.23167151982469,10.651874201933026],[-155.09768261006431,10.656583139400482],[-154.96132948696618,10.662808298764105],[-154.82251175651228,10.670441765874955],[-154.68112902288601,10.679375622986754],[-154.53708089296876,10.689501956849938],[-154.39026697274252,10.70071285061772],[-154.24058686729001,10.712900388342405],[-154.08794018259326,10.725956655875109],[-153.93222652373501,10.739773737268308],[-153.77334549849587,10.754243715675102],[-153.61119671015996,10.769258677845869],[-153.44569046933961,10.784713851862932],[-153.27689723881645,10.800551549814315],[-153.10501076493478,10.816750320171252],[-152.93022796954509,10.833289646699996],[-152.75274577269917,10.850149013166572],[-152.57276109265021,10.867307900639219],[-152.39047085034937,10.884745792884189],[-152.20607196674777,10.902442173667509],[-152.01976135919929,10.920376524057474],[-151.83173595045366,10.938528327820222],[-151.6421926578648,10.956877067822575],[-151.4513284032831,10.975402226931351],[-151.25934010586113,10.994083288013485],[-151.06642468654996,11.012899733036363],[-150.8727790627035,11.031831046665616],[-150.67860015707151,11.05085670996931],[-150.48408488790716,11.069956207613018],[-150.28943017526228,11.089109020664921],[-150.09483294008803,11.108294632891159],[-149.90049010153686,11.127492527158552],[-149.70659857876132,11.146682185434656],[-149.51335529361182,11.165843092384932],[-149.32095716434156,11.184954729077617],[-149.12960111190171,11.203996579278851],[-148.93948405544472,11.222948125855453],[-148.75080291502243,11.241788851674301],[-148.56375461068666,11.260498238702894],[-148.37853606338854,11.279055770707373],[-148.19534419138125,11.297440930554615],[-148.01437591561591,11.315633201111496],[-147.83581872225614,11.333616243494987],[-147.65976271707564,11.35141686379734],[-147.48624055355862,11.369087319824075],[-147.31528414504717,11.386680196733835],[-147.14692540128615,11.404248083282539],[-146.98119623651701,11.421843563729624],[-146.81812856138393,11.43951922503237],[-146.65775428832967,11.45732765414806],[-146.5001053279984,11.475321438034086],[-146.34521359463162,11.493553162748412],[-146.19311099797409,11.512075415248376],[-146.043829451368,11.530940780692617],[-145.8974008663568,11.550201846937796],[-145.753857154484,11.569911200041986],[-145.61323022819238,11.590121426063092],[-145.47555199992476,11.61088511195851],[-145.34085438032531,11.632254844685463],[-145.20916928183681,11.654283210302026],[-145.08052861600274,11.677022794866218],[-144.95496429616526,11.70052618533532],[-144.83250823296848,11.724845968666671],[-144.71319233885527,11.75003473091823],[-144.5970485262684,11.776145058148074],[-144.48410870585201,11.803229537313427],[-144.37440479004894,11.831340754472365],[-144.26796869130197,11.860531297481543],[-144.16483232115462,11.890853751499549],[-144.06502759204966,11.922360703483832],[-143.96858641463126,11.955104739492299],[-143.87554070224155,11.989138447381606],[-143.78591730144223,12.024506604396436],[-143.6997056299108,12.06119628817828],[-143.61687832757269,12.099168712766016],[-143.53740795521287,12.1383849707899],[-143.46126707541509,12.178806153081609],[-143.38842824896443,12.220393353170834],[-143.31886403664589,12.263107661889251],[-143.25254700104318,12.306910172766379],[-143.18944970204205,12.351761977533386],[-143.12954470222616,12.397624167921151],[-143.07280456238055,12.444457836560048],[-143.01920184329038,12.49222407608039],[-142.96870910753921,12.540883977313854],[-142.92129891591213,12.590398633790073],[-142.87694382919426,12.640729137240044],[-142.83561640996925,12.69183657939476],[-142.79728921812284,12.743682052884594],[-142.76193481623869,12.796226649440484],[-142.72952576600119,12.849431462592065],[-142.70003462639681,12.903257582271749],[-142.6734339618078,12.957666102908433],[-142.64969633122064,13.012618115333908],[-142.62879429631965,13.068074712178372],[-142.61070041968856,13.12399698517288],[-142.59538726211235,13.180346027847065],[-142.58282738527555,13.237082930133283],[-142.57299334906372,13.294168786460489],[-142.56585771606063,13.351564687660357],[-142.56139304795073,13.409231726363203],[-142.55957190551896,13.467130995199398],[-142.56036413809443,13.525223983400224],[-142.56372493245959,13.583474342167278],[-142.56960453811888,13.641846443059023],[-142.5779532018787,13.700304662130577],[-142.58872116964619,13.758813374537738],[-142.60185868912714,13.817336954536984],[-142.61731600532931,13.875839777284057],[-142.6350433659585,13.934286217035435],[-142.65499101602251,13.992640649846237],[-142.6771092041264,14.050867449073678],[-142.70134817437867,14.108930990772762],[-142.72765817538442,14.166795650099289],[-142.75598945215143,14.224425800410472],[-142.78629225238546,14.281785817761431],[-142.81851682109431,14.338840075509211],[-142.85261340598379,14.395552950608305],[-142.888532252961,14.451888817315194],[-142.9262236088324,14.507812048987034],[-142.96563771950508,14.563287021678832],[-143.00672483268477,14.618278110546498],[-143.0494351933794,14.672749689846455],[-143.09371904839526,14.726666134734444],[-143.13952664543825,14.779991820366376],[-143.18680822951609,14.832691120099241],[-143.23551404743523,14.88472841088759],[-143.2855943460022,14.936068066088524],[-143.33699937202334,14.986674460857841],[-143.3896793714058,15.036511970351285],[-143.44358459095605,15.085544968825388],[-143.49866527658116,15.133737832335214]]]},"properties":{"objectid":1,"basin":"Pacific","prob2day":"0%","risk2day":"Low","prob7day":"70%","risk7day":"High","idp_source":"gtwo_areas_202609210528","idp_filedate":1789969075000,"idp_ingestdate":1789969091000,"st_area(shape)":102.87625565827165,"st_perimeter(shape)":41.203035599065586}},{"type":"Feature","id":2,"geometry":{"type":"Polygon","coordinates":[[[-92.789171858294537,13.00914185431327],[-92.91448378160112,13.096660229086467],[-93.04309258265647,13.184654478321647],[-93.174886572856963,13.273053984553883],[-93.30975406359903,13.361788128519436],[-93.447583365379899,13.450786290954682],[-93.588262791394584,13.539977853495259],[-93.731680652140255,13.629292195978223],[-93.877725259013403,13.71865869913978],[-94.026284924309721,13.808006745515058],[-94.17724795762706,13.897265714940943],[-94.330502673059812,13.986364989053129],[-94.485937380205826,14.075233948587993],[-94.643440391360855,14.163801974281853],[-94.802900017022068,14.251998447770291],[-94.964204570384538,14.339752748890362],[-95.127242361046001,14.426994259277762],[-95.291901702201699,14.51365236056813],[-95.458070903449311,14.599656432598408],[-95.625638277984024,14.684935856105028],[-95.794492137202269,14.769420013622891],[-95.96452079070184,14.853038285888317],[-96.135612551677809,14.935720052738361],[-96.307655731526665,15.017394694909399],[-96.480538640745579,15.097991594936275],[-96.654149592529564,15.177440133555478],[-96.82837689647647,15.255669690603895],[-97.003108864882108,15.33260964771722],[-97.178233809142853,15.408189385631772],[-97.35364004065525,15.482338285983246],[-97.529215870815676,15.554985728608642],[-97.70484961191994,15.626061096042861],[-97.880429574465211,15.695493768123015],[-98.055844070747185,15.763213125585423],[-98.230981411263031,15.829148550964987],[-98.405729907409182,15.893229423199443],[-98.579977872380823,15.955385124823806],[-98.753613615775635,16.015545036574338],[-98.926525450788802,16.073638538288037],[-99.098601687018117,16.129595012499976],[-99.269730636759391,16.183343839047097],[-99.439800612308318,16.234814399565039],[-99.608699924162067,16.283936074790176],[-99.776316883717129,16.330638245458772],[-99.942539803269199,16.374850292307258],[-100.1072569933155,16.416501597870592],[-100.27035676615174,16.455521541086398],[-100.43172743317439,16.49183950448969],[-100.59125730488063,16.525384868816786],[-100.74883469446547,16.556087013904687],[-100.90434801225086,16.583875422113181],[-101.05771990035299,16.608713585463761],[-101.20895689864187,16.630648367628226],[-101.35807817077085,16.649739172425029],[-101.50510287949419,16.66604540367257],[-101.65005018756602,16.679626467887317],[-101.79293925774044,16.69054176708903],[-101.9337892527717,16.698850706894746],[-102.07261933451457,16.704612692022238],[-102.20944866662256,16.707887126289961],[-102.34429641095051,16.70873341441569],[-102.47718173115186,16.707210960217765],[-102.6081237890815,16.703379168414017],[-102.7371417483929,16.697297443722164],[-102.86425477094082,16.68902518996066],[-102.98948201947951,16.678621811847279],[-103.11284265766244,16.666146714099739],[-103.23435584734437,16.651659300536437],[-103.35404075127957,16.635218975875148],[-103.47191653222211,16.616885143934383],[-103.58800235292614,16.596717209431802],[-103.70231737614591,16.574774577984499],[-103.81488076463546,16.551116652511666],[-103.92571168024972,16.525802836831588],[-104.03482928754147,16.49889253746079],[-104.14225274746622,16.470445157318295],[-104.24800122367742,16.440520101121933],[-104.35209387892928,16.409176773589365],[-104.45454987507657,16.376474578539103],[-104.55538837577285,16.342472920688863],[-104.65462854287284,16.3072312038571],[-104.75228954003018,16.270808833660908],[-104.84839052909956,16.233265213019308],[-104.9429506728352,16.194659747549451],[-105.03598913489054,16.155051841969055],[-105.12752507712054,16.114500899197253],[-105.21757766227921,16.073066323951821],[-105.30616605312076,16.030807521849795],[-105.39330941239939,15.98778389581031],[-105.47902690286918,15.944054850551026],[-105.56333768728433,15.899679791689152],[-105.64626092839904,15.854718122143765],[-105.72781578806809,15.809229247531903],[-105.80802143084424,15.763272570772642],[-105.88689701768311,15.716907497483135],[-105.96446171223812,15.670193431481835],[-106.04073467636414,15.623189777486402],[-106.11573507371457,15.575955939315293],[-106.18948206704368,15.528551322585599],[-106.26199481730686,15.481035330216457],[-106.33329157174853,15.433466821936406],[-106.40333550133221,15.385871881682135],[-106.47200441517151,15.338225801479666],[-106.53916878121419,15.290499499952091],[-106.60469906470996,15.24266389752097],[-106.66846573360664,15.194689914608034],[-106.73033925315389,15.146548469836148],[-106.79019009129956,15.098210484526362],[-106.8478887132934,15.049646877301711],[-106.90330558708308,15.000828569483019],[-106.95631117791845,14.951726481492074],[-107.00677595374719,14.902311531052476],[-107.0545703798191,14.852554640384483],[-107.0995649240819,14.802426728111129],[-107.14163005268466,14.751898714654089],[-107.18063623177659,14.700941519535661],[-107.21645392750668,14.649526064076724],[-107.24895360872199,14.597623266900371],[-107.27800573977299,14.545204049327538],[-107.30348078770811,14.492239329081883],[-107.32524922047503,14.438700028383721],[-107.34318150242427,14.384557066755349],[-107.3571481024029,14.329781363719121],[-107.36701948566065,14.274343838797279],[-107.37266611924593,14.218215413310816],[-107.37395847020713,14.161367005882767],[-107.37076700379407,14.103769537834069],[-107.36296218795451,14.0453939277877],[-107.35041448883749,13.986211096165277],[-107.33299437349143,13.926191964287852],[-107.31057230716613,13.865307449879026],[-107.28301875780932,13.803528474259792],[-107.25020419157011,13.740825957851825],[-107.21199907549686,13.677170819278047],[-107.16827387573869,13.612533979859393],[-107.1188990584447,13.546886358219012],[-107.0637450906633,13.480198875677729],[-107.00268243944294,13.412442450858578],[-106.93558157093264,13.343588005082495],[-106.8623129521809,13.273606457871892],[-106.78274704933676,13.202468729648274],[-106.69675432854933,13.130145739034788],[-106.60420525776635,13.056608407352257],[-106.50497030223755,12.981827653223775],[-106.39891992901141,12.90577439797022],[-106.2859246051363,12.828419561114003],[-106.1658547976607,12.749734063076687],[-106.03858097183428,12.669688823380625],[-105.90397359470552,12.588254761548171],[-105.76190313332285,12.505402798000887],[-105.61224839864457,12.421106428818746],[-105.45508013853748,12.335398408210096],[-105.29066103238063,12.248370746712737],[-105.1192621079598,12.160118029623504],[-104.94115439216137,12.070734845836625],[-104.75660890917374,11.98031578064888],[-104.56589668768191,11.888955421155913],[-104.36928875277363,11.796748354453143],[-104.1670561313353,11.703789168535423],[-103.9594698502533,11.61017244780038],[-103.74680093461535,11.515992781142074],[-103.52932041130782,11.421344755656094],[-103.30729930721714,11.326322955739954],[-103.08100864922966,11.231021971187147],[-102.85071946243312,11.135536386395245],[-102.61670277281462,11.0399607893591],[-102.37922960905911,10.944389768073449],[-102.13857099535505,10.848917906935981],[-101.89499795948814,10.753639794840808],[-101.64878152654609,10.658650017084767],[-101.40019272431465,10.56404316166271],[-101.14950257878087,10.469913815670168],[-100.89698211503247,10.376356564404034],[-100.64290236175447,10.28346599585916],[-100.38753434313531,10.191336697131021],[-100.1311490869607,10.100063254415772],[-99.874017619217625,10.00974025480906],[-99.616410966792557,9.9204622854063018],[-99.358600154773228,9.8323239324037104],[-99.100856210945267,9.7454197837961374],[-98.843450161295834,9.6598444248804185],[-98.586653031811863,9.5756924436514623],[-98.330735848480515,9.4930584272048009],[-98.075969639087475,9.412036960837213],[-97.822625428720471,9.332722633442927],[-97.570974244265869,9.2552100303187785],[-97.321287112610037,9.1795937385602997],[-97.073835059740134,9.105968346162399],[-96.828889111643093,9.0344284384218554],[-96.586720295205339,8.9650686033335205],[-96.347599637313294,8.8979834270936067],[-96.111798163054686,8.8332674967977027],[-95.879586899315825,8.7710153986418504],[-95.651236872983191,8.711321720621072],[-95.427019110043773,8.654281049830729],[-95.207204637383995,8.5999879715677707],[-94.992064480990905,8.548537073827049],[-94.781869666851549,8.5000229428047192],[-94.576891221852293,8.454540166495633],[-94.377400171980241,8.4121833301966831],[-94.183650108065933,8.3730397706690383],[-93.995691924542598,8.3371125240238939],[-93.813445743626062,8.3043502434691163],[-93.636829508474932,8.2747006729978239],[-93.465761163147079,8.2481115575025115],[-93.300158649901675,8.2245306436744272],[-93.139939912796649,8.2039056755066326],[-92.985022894091173,8.1861843978917932],[-92.835325538742495,8.1713145575209296],[-92.690765789009845,8.159243897488011],[-92.551261588051773,8.1499201653834348],[-92.416730879026716,8.14329110430117],[-92.287091605992714,8.1393044609322374],[-92.162261712108204,8.1379079792699827],[-92.042159139632474,8.1390494051061069],[-91.926701832623394,8.1426764833331617],[-91.815807734239456,8.1487369597430188],[-91.709394788538532,8.1571785783288533],[-91.607380936880645,8.1679490857817996],[-91.509684124222872,8.1809962260950897],[-91.416222293723763,8.1962677450605383],[-91.326913387642605,8.2137113884699602],[-91.241675350037269,8.2332748994172107],[-91.160426124066248,8.2549060254928008],[-91.083083652888149,8.2785525097906429],[-91.009565879661523,8.3041620990018146],[-90.939790748444182,8.3316825380188675],[-90.873676201495414,8.3610615717342966],[-90.811140181973713,8.392246945040597],[-90.752100634836324,8.4251864037296968],[-90.69647550144316,8.4598276926939775],[-90.644182725852033,8.4961185577253673],[-90.595140251221494,8.5340067428170414],[-90.549266020710206,8.5734399937608146],[-90.506477978375926,8.6143660554492385],[-90.466694066477885,8.6567326736740711],[-90.429832229074009,8.7004875933279209],[-90.395810409322848,8.745578559303226],[-90.364546550382897,8.7919533173918012],[-90.335958594513443,8.839559612486255],[-90.309964486671618,8.8883451894790255],[-90.286482169116709,8.9382577932626646],[-90.265429585007212,8.9892451705283065],[-90.246724678401108,9.0412550643698637],[-90.230285392456778,9.0942352223777334],[-90.216029670332944,9.1481333876458848],[-90.203875454288664,9.2028973059660188],[-90.193740688381979,9.2584747231301208],[-90.185543316670646,9.3148133831312521],[-90.179201281413896,9.3718610326606608],[-90.17464363239759,9.4295702594600357],[-90.17187325015027,9.487925851496982],[-90.170923136193665,9.5469257340355398],[-90.171826380183177,9.6065678674132755],[-90.17461607087489,9.6668502164644678],[-90.179325297924038,9.7277707433252658],[-90.185987151885456,9.7893274092326692],[-90.194634721515058,9.8515181781215801],[-90.205301096468304,9.9143410121281477],[-90.21801936640054,9.977793874288011],[-90.232822620067736,10.041874726737376],[-90.249743948024673,10.106581532511825],[-90.268816439926638,10.171912252848301],[-90.290073184529717,10.237864852581026],[-90.313547271489313,10.30443729204751],[-90.339271790460657,10.371627536082087],[-90.367279831099211,10.439433545022212],[-90.39760448306032,10.507853283702218],[-90.430278835999388,10.576884713358993],[-90.465335978672385,10.646525796128742],[-90.502809001634034,10.716774495946368],[-90.542730993640362,10.787628774948132],[-90.585135044346714,10.859086595270298],[-90.630054243408495,10.931145919948392],[-90.67752168048105,11.003804712017995],[-90.727570446119103,11.077060932715995],[-90.780233627279983,11.150912545977349],[-90.835544316317055,11.225357513938263],[-90.893535600187704,11.300393798734945],[-90.954240571245236,11.376019364302351],[-91.017692316447153,11.45223217187737],[-91.083923926348007,11.529030184495582],[-91.152968490603257,11.606411364293137],[-91.224859098868194,11.684373675205109],[-91.299628840798277,11.762915078468211],[-91.377310805149421,11.842033538017517],[-91.457938082476403,11.9217270150898],[-91.541543761535252,12.001993473620075],[-91.628160931981313,12.082830874845115],[-91.71782268346999,12.164237181800615],[-91.810562105656572,12.246210357522102],[-91.906412288196464,12.328748364145838],[-92.00540632074501,12.411849165606668],[-92.107577292058295,12.495510722242159],[-92.212958291791608,12.579730998886646],[-92.32158241049973,12.664507955877582],[-92.433482736938629,12.749839558049302],[-92.54869236076371,12.835723766638637],[-92.667244371630318,12.922158544681224],[-92.789171858294537,13.00914185431327]]]},"properties":{"objectid":2,"basin":"Pacific","prob2day":"0%","risk2day":"Low","prob7day":"30%","risk7day":"Low","idp_source":"gtwo_areas_202609210528","idp_filedate":1789969075000,"idp_ingestdate":1789969091000,"st_area(shape)":86.180218534569434,"st_perimeter(shape)":40.375618027278271}}]}