{"type":"FeatureCollection","features":[{"type":"Feature","id":1,"geometry":{"type":"Polygon","coordinates":[[[-52.454670031296814,31.257512004375656],[-52.51480975416672,31.380007074766809],[-52.578388585264861,31.501733618711683],[-52.645278606822103,31.62260187487675],[-52.715351896572656,31.742522082828032],[-52.788480536747272,31.861404481231943],[-52.864536606878801,31.979159309654563],[-52.943392186500091,32.095696806762362],[-53.024919356043313,32.210927211221986],[-53.108990195940692,32.324760762599283],[-53.195476785724964,32.437107698661521],[-53.284251205828355,32.547878260773246],[-53.375185537582354,32.656982685802461],[-53.468151859620491,32.764331213314961],[-53.563022251475616,32.869834082876764],[-53.659668795378479,32.973401532255082],[-53.757963570861989,33.074943801915083],[-53.857778656559617,33.174371130523411],[-53.95898613380291,33.271593755847277],[-54.061458083023979,33.36652191925134],[-54.165066583755731,33.459065856704058],[-54.269683716430279,33.549135809570089],[-54.375181560580415,33.636642016516021],[-54.481432197537742,33.721494715309007],[-54.58830770683511,33.803604146414386],[-54.695680168005254,33.882880547599314],[-54.8034216614804,33.959234158429808],[-54.91140426769266,34.03257521847172],[-55.019500067074318,34.10281396549226],[-55.12758113915811,34.16986063905739],[-55.235519564376261,34.233625478733018],[-55.343187423160941,34.294018723185673],[-55.450456795044943,34.350950611081998],[-55.557199759561115,34.404331381987845],[-55.663288398940324,34.454071273670479],[-55.768594791816099,34.500080526595184],[-55.872991017721176,34.54226937942849],[-55.976349158886478,34.580548070836926],[-56.078548652198435,34.614833875782892],[-56.179568846524944,34.645139596115598],[-56.279461089557515,34.671546875887771],[-56.378278318989089,34.694138879905552],[-56.47607347341193,34.712998772975141],[-56.572899490518978,34.728209719902793],[-56.668809308902382,34.739854885494708],[-56.763855867154405,34.748017433657765],[-56.858092102068724,34.752780528298899],[-56.951570953136866,34.754227336022893],[-57.044345357152395,34.752441019837363],[-57.136468252707573,34.74750474544777],[-57.227992578394662,34.739501676761108],[-57.318971272805868,34.728514978583519],[-57.409457271835493,34.714627814821938],[-57.499503515874437,34.697923351181885],[-57.589162942615587,34.678484751570181],[-57.678488488852565,34.656395181692403],[-57.767533094076896,34.631737804556167],[-57.856349695082258,34.604595785866991],[-57.94499123225944,34.575052290431017],[-58.033510641502801,34.543190481255863],[-58.121960861404489,34.509093524946366],[-58.210394830556879,34.472844584510085],[-58.298865487552121,34.434526825652654],[-58.387425769183778,34.39422341228078],[-58.476128614044171,34.352017510100154],[-58.565026961624881,34.307992282118278],[-58.654173747820096,34.26223089404067],[-58.743621912121455,34.214816509774266],[-58.833424392221787,34.165832295024529],[-58.923634126713466,34.115361413698452],[-59.014304052390003,34.063487029702799],[-59.105487108742977,34.010292308743203],[-59.197236234364595,33.955860415625807],[-59.289604365149216,33.900274513358227],[-59.382644441487685,33.8436177685453],[-59.4764090557332,33.7859730860892],[-59.57090917961483,33.727392087974636],[-59.666074943903425,33.667865641586218],[-59.761827192071166,33.60737762927431],[-59.858086766690803,33.545911937885762],[-59.954774512133895,33.4834524506702],[-60.051811271872566,33.419983053575208],[-60.14911788758036,33.355487630749678],[-60.246615204527927,33.289950067241932],[-60.344224064388925,33.223354247200916],[-60.441865312434118,33.155684056574103],[-60.539459789437615,33.086923378611175],[-60.636928340670295,33.017056099259719],[-60.734191809604226,32.946066102668624],[-60.831171037912952,32.873937274785533],[-60.927786869967974,32.800653497960695],[-61.023960149241361,32.726198659041017],[-61.119611719205352,32.650556642175445],[-61.214662422432752,32.573711332412188],[-61.309033102395631,32.495646613900249],[-61.402644602566227,32.416346372587157],[-61.495417766416665,32.335794491722538],[-61.587273437419071,32.25397485635466],[-61.678132458146308,32.170871352431107],[-61.767915672969821,32.086467863201449],[-61.856543924462414,32.000748274613329],[-61.943938056096272,31.913696471714957],[-62.030018911343575,31.825296337755901],[-62.114707333676392,31.735531758683862],[-62.197924165667587,31.644386618647673],[-62.27959025078934,31.551844802695655],[-62.359626433413041,31.457890194976642],[-62.437953556111609,31.362506681438333],[-62.514492462357111,31.265678147128938],[-62.589163995621789,31.167388474398706],[-62.661888998478389,31.06762155099392],[-62.732588314399095,30.966361259264829],[-62.801182787755351,30.863591485159077],[-62.867600738083468,30.759306266171393],[-62.931814148803824,30.653558927602546],[-62.993810806223621,30.546424254376007],[-63.053578521831184,30.437977061991944],[-63.111105103517616,30.328292163252854],[-63.166378360073168,30.217444375457717],[-63.219386101187524,30.1055085114088],[-63.270116136550371,29.992559386606558],[-63.318556274052696,29.878671816551218],[-63.364694324283505,29.763920614045219],[-63.40851809603322,29.64838059548822],[-63.450015398092035,29.532126575481243],[-63.489174040149749,29.415233368625195],[-63.525981830996614,29.297775788621891],[-63.560426580322314,29.179828651870935],[-63.592496096917216,29.061466772074027],[-63.622178190471004,28.942764963832133],[-63.649460668874667,28.823798042645706],[-63.674331342717153,28.704640823115653],[-63.69677802078894,28.585368119842997],[-63.716788512779544,28.466054747428814],[-63.734350626580067,28.346775520474012],[-63.749452172779456,28.227605253579725],[-63.762080960168078,28.108618763145557],[-63.772224797536239,27.989890861973834],[-63.779871493674364,27.871496364665632],[-63.785008859171398,27.753510087620612],[-63.787624701918332,27.636006845439681],[-63.787706832504227,27.519061450925335],[-63.785243058820015,27.402748721376554],[-63.78022119055538,27.287143469595605],[-63.772629037400065,27.172320511082887],[-63.762454408144322,27.058354660439363],[-63.749685111578515,26.945320732266111],[-63.734308957392329,26.833293542063473],[-63.716313754376131,26.722347903533091],[-63.695687312219547,26.612558632175251],[-63.672417338988907,26.503999758382292],[-63.646489223398817,26.396727267649453],[-63.617886030315958,26.290779100575151],[-63.586590728379292,26.186192415347818],[-63.552586282630728,26.083004367457761],[-63.515855659910642,25.981252115093184],[-63.476381825260887,25.880972814643826],[-63.434147747320594,25.78220362339863],[-63.389136390232125,25.684981697747276],[-63.34133072083597,25.589344194079445],[-63.290713705972621,25.495328269684023],[-63.237268311583193,25.402971082749389],[-63.180977503608801,25.312309787866582],[-63.12182424888988,25.223381543223809],[-63.059791514266863,25.136223506110071],[-62.994862263882283,25.050872832015727],[-62.927019466375157,24.9673666791291],[-62.856246086787337,24.885742203839754],[-62.782525091059995,24.806036562537486],[-62.705839446932828,24.728286913410443],[-62.626172119447631,24.652530411949101],[-62.543506075444895,24.578804215442347],[-62.457824280865736,24.50714548117918],[-62.369109702550645,24.437591365549224],[-62.277345306440623,24.370179025841537],[-62.182514058476897,24.304945618445686],[-62.084598924600584,24.24192830065067],[-61.983582872551438,24.181164229745548],[-61.879448868270515,24.122690561220566],[-61.772179876799783,24.066544453264044],[-61.661758864979504,24.012763062265662],[-61.548168800549604,23.961383545514366],[-61.431392647652444,23.912443059399834],[-61.311413373128573,23.865978760311691],[-61.188213944717688,23.822027806438257],[-61.061777326562265,23.780627353269892],[-60.932086486402113,23.741814558994861],[-60.79912445582886,23.705626557519736],[-60.662921519512395,23.672084779688987],[-60.523638518502707,23.64116726405814],[-60.381458648297894,23.612844618084807],[-60.236565105295256,23.587087451924504],[-60.089141084093626,23.563866373034841],[-59.93936978109042,23.543151989772639],[-59.787434393582259,23.524914910494886],[-59.633518116168034,23.509125745356982],[-59.477804145244988,23.495755100917336],[-59.320475676311275,23.484773586432027],[-59.161715905764311,23.476151810257988],[-59.001708029102133,23.469860380752095],[-58.840635242722158,23.4658699071706],[-58.678680743021744,23.464150996971057],[-58.516027724599724,23.464674259409662],[-58.352859383853342,23.467410302843348],[-58.189358917180186,23.472329734729612],[-58.0257095209775,23.479403165224028],[-57.862094389844117,23.488601201784149],[-57.698696721076715,23.499894453666229],[-57.53569970927407,23.513253528327823],[-57.373286550833541,23.528649035025069],[-57.211640442152543,23.546051582114956],[-57.050944579628549,23.565431777954302],[-56.891382157860164,23.586760230900097],[-56.733136373244918,23.610007549309103],[-56.576390422180111,23.63514434243757],[-56.421327500163898,23.662141218642489],[-56.268130802694259,23.690968785381301],[-56.116983527067987,23.721597651910258],[-55.968068867883858,23.753998427485556],[-55.821570021539173,23.788141718665543],[-55.677670184431349,23.823998135605621],[-55.536552552058538,23.861538286662721],[-55.398400320818041,23.900732779294458],[-55.263396686208011,23.941552222757025],[-55.131724843726431,23.983967225407241],[-55.003551140072943,24.027950690671958],[-54.87889526590368,24.073495504014431],[-54.757701401198574,24.120604835544839],[-54.639913100009437,24.169281941708391],[-54.525473916388023,24.219530079849449],[-54.414327407084045,24.271352505513846],[-54.306417126149313,24.324752476046058],[-54.201686628534958,24.379733246991918],[-54.100079469192053,24.436298074796468],[-54.001539203071673,24.494450216804182],[-53.906009386024209,24.554192929460271],[-53.813433571202211,24.615529468310456],[-53.723755314456071,24.678463089799891],[-53.636918171636182,24.742997050373731],[-53.552865695895036,24.809134607376393],[-53.471541443982346,24.876879017252975],[-53.392888969050546,24.946233535549368],[-53.316851827849462,25.01720141871067],[-53.243373573531471,25.089785924081298],[-53.172397762846344,25.16399030720703],[-53.103867948946572,25.239817825432453],[-53.037727688581867,25.317271734303233],[-52.973920534904664,25.39635529026458],[-52.912390044664733,25.477071750660912],[-52.853079771014507,25.559424371038062],[-52.795933269804436,25.643416408740393],[-52.740894095985652,25.729051119313851],[-52.687905805408491,25.816331760102798],[-52.636911951225443,25.905261586653069],[-52.587856089286959,25.99584385540976],[-52.540681773644849,26.088081823717346],[-52.495332561048713,26.181978747121605],[-52.451752005550475,26.277537882967067],[-52.409883661201889,26.374762486799455],[-52.369671084752667,26.473655815963298],[-52.331057829355245,26.574221126004318],[-52.293987450860072,26.676461673367669],[-52.258404497969082,26.780380131737843],[-52.22429852865406,26.885952747321596],[-52.191721554306184,26.993119094670647],[-52.160730186348928,27.101816050370587],[-52.131381038004406,27.211980488309052],[-52.103730721595412,27.323549284172259],[-52.077835848545476,27.436459312747218],[-52.053753030278017,27.550647449720145],[-52.031538879115885,27.666050568978733],[-52.011250008281138,27.78260554710846],[-51.992943028297987,27.900249257997018],[-51.976674552388545,28.018918576431304],[-51.962501192875607,28.138550378996911],[-51.950479560283384,28.25908153868221],[-51.940666266934556,28.380448932972001],[-51.933117926051352,28.502589434854656],[-51.927891149057189,28.625439920016447],[-51.92504254737554,28.748937264143592],[-51.924628734228577,28.873018341123668],[-51.926706321039774,28.997620027542382],[-51.931331920131868,29.122679196387935],[-51.938562142928447,29.248132725145297],[-51.948453602651512,29.373917486802725],[-51.96106290982533,29.499970357945813],[-51.976446677671902,29.626228212462195],[-51.994661518514135,29.752627926038087],[-52.015764042876185,29.879106373460502],[-52.039810863980051,30.005600430415655],[-52.066858593249378,30.132046970791237],[-52.096963843006847,30.258382871172728],[-52.130183226474628,30.384545004548443],[-52.166573353277499,30.510470248403408],[-52.206190837537008,30.636095475725767],[-52.249092290676572,30.761357562201852],[-52.295334325018985,30.886193383517991],[-52.344973551088401,31.010539814461026],[-52.398066583006312,31.134333729817911],[-52.454670031296814,31.257512004375656]]]},"properties":{"objectid":1,"basin":"Atlantic","prob2day":"20%","risk2day":"Low","prob7day":"30%","risk7day":"Low","idp_source":"gtwo_areas_202609161757","idp_filedate":1789582102000,"idp_ingestdate":1789582323000,"st_area(shape)":103.72427799154937,"st_perimeter(shape)":36.458378730499312}},{"type":"Feature","id":2,"geometry":{"type":"Polygon","coordinates":[[[-101.03413106169904,11.127317422860926],[-100.9767724338007,11.208343927230601],[-100.92105118446449,11.291098006767754],[-100.86701206575412,11.37551408470739],[-100.81469983333056,11.461526586982529],[-100.76415923925737,11.549069937727609],[-100.71543503739696,11.638078561076895],[-100.66857198251091,11.72848688206409],[-100.62361482756216,11.820229323924309],[-100.58060832551371,11.913240312590517],[-100.53959723202655,12.007454272197037],[-100.50062629826493,12.102805626878308],[-100.46374027988992,12.199228801668028],[-100.42898392896507,12.296658219801145],[-100.39640200025201,12.395028307210737],[-100.36603924671374,12.494273487131863],[-100.33794042311195,12.594328184598169],[-100.3121502824095,12.695126824643353],[-100.28871357756947,12.796603831401853],[-100.26767506335341,12.898693629007937],[-100.24907949272432,13.001330642495304],[-100.23297161954451,13.104449295099016],[-100.21939619857562,13.207984013651469],[-100.20839798098194,13.311869219588971],[-100.20002172242442,13.416039339743861],[-100.19431217676544,13.520428798250578],[-100.1913140960686,13.624972019243444],[-100.19107223509548,13.729603425957464],[-100.19363134680913,13.834257445225035],[-100.19903618597112,13.938868500281217],[-100.20733150554446,14.043371015260277],[-100.21856205849213,14.147699415195973],[-100.23277260047502,14.251788124222685],[-100.25000788265754,14.355571567374056],[-100.27031266070065,14.458984168784525],[-100.29373168666791,14.561960353487677],[-100.32030971622032,14.664434544718574],[-100.35009150052224,14.766341168410349],[-100.38312179523456,14.867614647797893],[-100.41944535332033,14.968189407914963],[-100.45910692864175,15.067999872895939],[-100.50215127416186,15.166980467774522],[-100.54862314464231,15.265065617584298],[-100.59856729304602,15.362189745560443],[-100.65202847233604,15.458287275837222],[-100.70905143817322,15.553292634347713],[-100.76968094262128,15.647140245226296],[-100.83396173954253,15.739764532607239],[-100.90193858279923,15.831099920624979],[-100.97365622535443,15.921080834313216],[-101.04915930685644,16.009641740074358],[-101.12845318996267,16.09673121377466],[-101.21144696580473,16.18233241920592],[-101.29803524553006,16.266433725436229],[-101.38811263758805,16.349023499734869],[-101.48157375402542,16.430090109371179],[-101.57831320239228,16.509621922513873],[-101.6782255947353,16.587607305532856],[-101.78120553950396,16.664034628395541],[-101.88714764784555,16.738892256572512],[-101.99594652910895,16.812168558232543],[-102.10749679264279,16.883851901544176],[-102.22169304959448,16.953930652877489],[-102.33842990931277,17.022393182199721],[-102.45760198114641,17.089227854981687],[-102.57910387624281,17.154423039391872],[-102.70283020395067,17.217967103599108],[-102.82867557451806,17.279848415771937],[-102.95653459729374,17.34005534138106],[-103.08630188252573,17.398576249494454],[-103.21787204046223,17.455399508280834],[-103.35113968045181,17.510513484110163],[-103.48599941364193,17.563906546050418],[-103.62234584848204,17.6155670595723],[-103.76007359611947,17.665483394643104],[-103.89907726500365,17.713643917632851],[-104.03925146718137,17.760036996710141],[-104.18049081110195,17.804650998245108],[-104.32268990701351,17.847474291305616],[-104.46574336516409,17.88849524316106],[-104.60954579490243,17.927702221080779],[-104.75399180737594,17.965083593233373],[-104.89897601103399,18.00062772688824],[-105.04439301702399,18.03432298931466],[-105.19013743469475,18.066157749580611],[-105.33610387429428,18.09612037315685],[-105.48218694517129,18.124199229111298],[-105.62828125847318,18.150382685612612],[-105.77428142264944,18.174659108131493],[-105.92008204884741,18.197016866635238],[-106.06557774641578,18.217444327493865],[-106.21066312560265,18.235929857976714],[-106.35523279665614,18.252461827151762],[-106.49918136892495,18.267028601388972],[-106.64240345265711,18.279618548857059],[-106.78479365720142,18.29022003682536],[-106.92624659280591,18.298821433462535],[-107.06665687061798,18.305411106037866],[-107.20591909908705,18.30997742272001],[-107.34392788846117,18.312508749879044],[-107.48057838138709,18.312993571696097],[-107.61579765633667,18.311427262058658],[-107.7495622940645,18.307815881497845],[-107.88185313271583,18.302166407853576],[-108.01265101043566,18.29448582076418],[-108.14193676626866,18.284781098968665],[-108.2696912392592,18.273059219407571],[-108.39589526665316,18.259327161719284],[-108.52052968749496,18.243591905542132],[-108.64357534082922,18.225860427816656],[-108.76501306390168,18.206139707281807],[-108.88482369665616,18.184436723576084],[-109.00298807723789,18.160758455438497],[-109.11948704289262,18.135111879809529],[-109.23430143446353,18.107503977226884],[-109.34741208829712,18.077941724631046],[-109.45879984433725,18.046432101660287],[-109.56844554072904,18.012982087053842],[-109.6763300147183,17.977598658651289],[-109.78243410714822,17.940288796091181],[-109.88673865436533,17.901059477213266],[-109.98922449631334,17.859917680756496],[-110.08987247113754,17.816870385460049],[-110.18866341788231,17.771924569163673],[-110.28557817379357,17.725087211505752],[-110.38059757791581,17.676365291225352],[-110.47370246839409,17.625765786162219],[-110.56487368517236,17.573295675954796],[-110.65409206549634,17.518961937543509],[-110.74133844841054,17.462771550566742],[-110.8265936720602,17.404731493763563],[-110.90983857459042,17.344848745873037],[-110.99105399594504,17.283130285634286],[-111.0702207733699,17.219583089987736],[-111.14731974590944,17.154214139471094],[-111.22233175170885,17.087030412823424],[-111.29523762981268,17.01803888698521],[-111.36601821836598,16.94724654159478],[-111.43465435641332,16.87466035449188],[-111.50112688209981,16.80028730531501],[-111.56541663267137,16.724134372803178],[-111.62750444897102,16.646208534796187],[-111.68737116824474,16.566516770033047],[-111.74499762863758,16.48506605725288],[-111.80036467009336,16.40186337519475],[-111.85345312985794,16.316915701698406],[-111.90424384697587,16.230230017301608],[-111.95271765959222,16.141813298045406],[-111.99885540585223,16.051672524467563],[-112.04263792569964,15.959814674407824],[-112.08404644129013,15.866248231171085],[-112.12307102500768,15.771016279477863],[-112.15971059586718,15.674196507263161],[-112.19396446049137,15.575868104329686],[-112.2258319228049,15.476110262278894],[-112.25531228763185,15.375002174510882],[-112.28240486069569,15.272623029929036],[-112.30710894592102,15.169052021034076],[-112.32942384993061,15.06436833942746],[-112.34934887574991,14.958651176710589],[-112.36688332910228,14.851979722686167],[-112.38202651571106,14.744433170754348],[-112.39477773950097,14.636090710717838],[-112.40513630619546,14.527031535077413],[-112.41310151971925,14.417334834535097],[-112.41867268579574,14.307079800692406],[-112.42184910924891,14.196345625150627],[-112.42263009580216,14.085211499511217],[-112.42101494938032,13.973756614476315],[-112.41700297480736,13.862060161647264],[-112.41059347780669,13.750201332625522],[-112.40178576230301,13.638259319012491],[-112.39057913491905,13.526313311510251],[-112.37697289868021,13.414442501720202],[-112.36096636020926,13.302726081243804],[-112.34255882343086,13.1912432416824],[-112.32174959406842,13.080073173738128],[-112.29853797604665,12.969295069911709],[-112.272923275089,12.858988120005847],[-112.2449047960194,12.749231516521434],[-112.21448184366204,12.640104451059699],[-112.18165372374028,12.531686114322838],[-112.14641973927945,12.424055697912252],[-112.10877919780165,12.317292393429341],[-112.06873140233228,12.211475392475506],[-112.02627565859467,12.106683885752886],[-111.98141127141292,12.002997064862768],[-111.93413754561112,11.900494121406723],[-111.8844537860133,11.799254246086718],[-111.83235929834285,11.699356631403532],[-111.7778533865245,11.600880468958621],[-111.72093535628159,11.503904948554691],[-111.66160451333752,11.408509262692462],[-111.59986016071775,11.314772602074072],[-111.53570160414563,11.222774158300922],[-111.46912814844518,11.132593123873733],[-111.40013910023919,11.044308688595265],[-111.32873376165367,10.958000044966241],[-111.25491144021072,10.873746383688797],[-111.17867143893568,10.791626897263654],[-111.1000163038093,10.711715837316149],[-111.0189862435202,10.634030049047681],[-110.93564576374092,10.558549341778814],[-110.85005977843593,10.485252906096889],[-110.76229319887193,10.41411993168964],[-110.67241093811418,10.345129610942934],[-110.58047790742938,10.278261132645298],[-110.48655901988275,10.213493688283222],[-110.39071918853961,10.150806469343195],[-110.29302332466659,10.090178666412442],[-110.19353634042966,10.031589469178812],[-110.09232314799476,9.9750180691287369],[-109.98944866132655,9.920443656849443],[-109.88497779079233,9.8678454238273616],[-109.77897545035665,9.817202558851136],[-109.6715065512862,9.7684942552058374],[-109.56263600574698,9.7216997016800519],[-109.45242872680421,9.6767980897601547],[-109.34094962572453,9.6337686100334849],[-109.22826361647265,9.5925904539864177],[-109.11443561031507,9.553242811306859],[-108.99953051941782,9.5157048725819209],[-108.8836132559469,9.4799558292982056],[-108.76674873296753,9.4459748729421449],[-108.64900186264578,9.4137411923023251],[-108.5304375562481,9.383233978865178],[-108.41112072773927,9.3544324241171921],[-108.29111628838592,9.3273157186456501],[-108.17048915125321,9.3018630530376072],[-108.04930422760793,9.2780536169809693],[-107.92762643051526,9.2558666028615448],[-107.8055206721412,9.2352812003672398],[-107.68305186465176,9.2162766000851661],[-107.5602849211121,9.1988319935018126],[-107.43728475188971,9.1829265712044617],[-107.31411627184838,9.1685395237801117],[-107.19084439135548,9.1556500418161022],[-107.0675340234763,9.1442373158995451],[-106.94425008127615,9.1342805375169291],[-106.82105747602162,9.1257588963561034],[-106.69802111987866,9.1186515839036133],[-106.57520592501334,9.1129377916458907],[-106.45267680539018,9.1085967083715218],[-106.33049867227578,9.105607526466315],[-106.20873643693693,9.1039494356181194],[-106.08745501333811,9.1036016273133669],[-105.96671931364529,9.1045432921393399],[-105.84659424912519,9.1067536206832074],[-105.72714473284304,9.1102118035320245],[-105.6084356769648,9.1148970321724505],[-105.49052723624288,9.1207916457179863],[-105.37344793177652,9.1278989257949092],[-105.25721338389047,9.1362306921928393],[-105.14183917154043,9.1457987943790044],[-105.02734087727958,9.1566150773240906],[-104.91373408006365,9.1686913895960629],[-104.80103436064712,9.1820395779643036],[-104.68925730068378,9.1966714900973443],[-104.57841848002874,9.2125989718651908],[-104.46853347943642,9.229833871835865],[-104.3596178796613,9.2483880358793158],[-104.25168726055853,9.2682733116641316],[-104.14475720378181,9.2895015468590145],[-104.03884328918633,9.3120845882332901],[-103.93396109662723,9.336034282556227],[-103.83012620865753,9.3613624774964705],[-103.72735420513237,9.3880810198233462],[-103.62566066500756,9.4162017563061227],[-103.52506117173562,9.445736534613502],[-103.42557130337286,9.4766972024140728],[-103.32720664157313,9.5090956064772172],[-103.22998276709092,9.5429435935721472],[-103.13391526068062,9.5782530104681882],[-103.03901970219738,9.6150357057333622],[-102.94531167329501,9.653303525237618],[-102.85280675292921,9.6930683166496578],[-102.76152052275381,9.7343419267386366],[-102.67146856352326,9.7771362031733702],[-102.58266645599207,9.8214629927230703],[-102.49512978001525,9.8673341430563823],[-102.40887411634731,9.914761500043312],[-102.32391504574269,9.9637569122518244],[-102.24026814805649,10.014332226451245],[-102.15794900584183,10.066499289410842],[-102.07697319805453,10.120269948799262],[-101.99735630544905,10.175656050486452],[-101.91911390877976,10.232669443939812],[-101.84226158880119,10.291321974129914],[-101.76681492626773,10.35162548872546],[-101.69278950103455,10.413591835395039],[-101.62020089475538,10.477232860907918],[-101.54906468728541,10.542560412932858],[-101.47939645937902,10.609586337339749],[-101.41121179179066,10.678322482696558],[-101.34452626437547,10.748780695772609],[-101.27935545878728,10.820972823337286],[-101.21571495578047,10.894910713059119],[-101.15362033431086,10.970606210808114],[-101.09308717603227,11.048071165152294],[-101.03413106169904,11.127317422860926]]]},"properties":{"objectid":2,"basin":"Pacific","prob2day":"0%","risk2day":"Low","prob7day":"60%","risk7day":"Medium","idp_source":"gtwo_areas_202609161757","idp_filedate":1789582102000,"idp_ingestdate":1789582323000,"st_area(shape)":90.913337227042007,"st_perimeter(shape)":34.395473049091635}},{"type":"Feature","id":3,"geometry":{"type":"MultiPolygon","coordinates":[[[[-111.69758810520682,29.098089567879413],[-111.69748168213385,29.096056272678993],[-111.69716624132889,29.093970723270388],[-111.69664753125846,29.091834356770278],[-111.69593129589248,29.089648609395965],[-111.69502328369748,29.087414917364697],[-111.69392923864336,29.085134716893833],[-111.6926549082973,29.08280944509994],[-111.6912060375285,29.080440539099754],[-111.68958837480358,29.078029434211146],[-111.6878076640923,29.075577567550852],[-111.68586965206271,29.073086375336118],[-111.6837800844832,29.070557294683567],[-111.68154470892108,29.067991761810504],[-111.67916927114487,29.065391213833607],[-111.67665951602373,29.062757086070803],[-111.67402119112495,29.060090815638773],[-111.67126004221706,29.057393839654139],[-111.66838181506864,29.054667593434829],[-111.66539225634745,29.051913514996841],[-111.66229711092285,29.049133039658216],[-111.65910212726129,29.046327604535463],[-111.65581304933266,29.04349864674532],[-111.6524356247042,29.040647601605656],[-111.64897559914448,29.037775905333888],[-111.64543871842204,29.034884996845278],[-111.64183072920468,29.031976310558434],[-111.63815737726105,29.029051283590036],[-111.63442440835968,29.026111352157329],[-111.63063757006773,29.023157953376995],[-111.62680260725443,29.020192524365655],[-111.62292526658769,29.017216499541973],[-111.61901129473534,29.014231317821213],[-111.61506643656668,29.011238414521358],[-111.61109643874954,29.008239225859711],[-111.60710704795179,29.005235189852272],[-111.60310401084132,29.002227740917647],[-111.59909307138804,28.999218317071836],[-111.59758809731272,28.998089533904988],[-111.59708643479104,28.998465821040952],[-111.59307441884926,29.001475513784101],[-111.58906886723435,29.004483591344808],[-111.58507552571484,29.007488615707189],[-111.58110014095865,29.010489150653939],[-111.57714845963363,29.013483759967698],[-111.57322622750831,29.016471006531845],[-111.56933919035123,29.01944945502845],[-111.56549309393102,29.022417668340893],[-111.56169368581487,29.025374209352435],[-111.55794671177125,29.028317641845831],[-111.55425791666943,29.031246529603777],[-111.55063304807663,29.034159435509707],[-111.54707785086202,29.037054923346204],[-111.54359807349221,29.039931556895965],[-111.54019945903769,29.0427878999418],[-111.5368877559651,29.045622514467595],[-111.53366871004283,29.048433965155539],[-111.53054806703955,29.051220814888836],[-111.52753157272383,29.053981627450298],[-111.52462497376342,29.056714965723245],[-111.52183401682635,29.059419394389693],[-111.5191644467817,29.062093475433699],[-111.51662201029745,29.064735773537279],[-111.51421245494072,29.067344851583755],[-111.5119415246815,29.069919272456616],[-111.50981496708698,29.072457600837765],[-111.50783852792563,29.0749584005099],[-111.50601795296603,29.077420232557813],[-111.50435898887616,29.079841662562842],[-111.50286738142444,29.08222125340825],[-111.50154887727876,29.084557568876846],[-111.50040922220774,29.086849170952632],[-111.4994541628792,29.089094625216944],[-111.49868944506176,29.091292493653782],[-111.49812081452387,29.093441340045956],[-111.49775401793346,29.09553972817605],[-111.49759480195843,29.097586220927496],[-111.49764810297745,29.09957948370635],[-111.49791182826817,29.101519059656994],[-111.49838025994097,29.103404944282886],[-111.49904765222726,29.10523713848329],[-111.49990825935856,29.107015642258204],[-111.50095633466702,29.108740454708368],[-111.502186132384,29.110411577632362],[-111.50359190674101,29.112029009231549],[-111.50516791017083,29.113592749505926],[-111.50690839780424,29.115102800254192],[-111.50880762297334,29.116559159677593],[-111.51085983990959,29.117961828675618],[-111.51305930194513,29.119310806348778],[-111.51540026331139,29.120606094495827],[-111.51787697823988,29.121847691318067],[-111.52048369916326,29.123035596815498],[-111.52321468121249,29.124169812786761],[-111.52606417682023,29.125250337433272],[-111.52902644201657,29.126277171654294],[-111.53209572923441,29.127250315449828],[-111.53526629180584,29.12816976792061],[-111.53853238486158,29.129035529965904],[-111.54188826173379,29.129847601585709],[-111.54532817575461,29.130605981880706],[-111.54884638115544,29.13131067264959],[-111.55243713216782,29.13196167209361],[-111.55609468212378,29.132558980212934],[-111.55981328525479,29.133102598806033],[-111.56358719489305,29.133592526074381],[-111.5674106652699,29.134028762917239],[-111.57127795061683,29.13441130843529],[-111.57518330336666,29.134740164427171],[-111.57912097865017,29.135015329094301],[-111.58308522979939,29.135236803335943],[-111.58707031104592,29.135404586252776],[-111.59107047572178,29.135518678744177],[-111.59507997805844,29.135579080810089],[-111.59909307138804,29.135585792450513],[-111.60310401084132,29.135538812766129],[-111.60710704795179,29.135438142656312],[-111.61109643874954,29.135283782121007],[-111.61506643656668,29.135075731160214],[-111.61901129473534,29.134813988874612],[-111.62292526658769,29.134498556163578],[-111.62680260725443,29.134129433027056],[-111.63063757006773,29.133706618565725],[-111.63442440835968,29.133230113678962],[-111.63815737726105,29.132699918366654],[-111.64183072920468,29.132116032628971],[-111.64543871842204,29.131478455566423],[-111.64897559914448,29.130787188078386],[-111.6524356247042,29.130042230164918],[-111.65581304933266,29.129243581825961],[-111.65910212726129,29.128391242162252],[-111.66229711092285,29.127485212072997],[-111.66539225634745,29.126525490658992],[-111.66838181506864,29.125512079718874],[-111.67126004221706,29.124444977453891],[-111.67402119112495,29.123324184763476],[-111.67665951602373,29.122149700748253],[-111.67916927114487,29.12092152720686],[-111.68154470892108,29.11963966234066],[-111.6837800844832,29.118304106149708],[-111.68586965206271,29.116914860432587],[-111.6878076640923,29.115471923390714],[-111.68958837480358,29.113975295923296],[-111.6912060375285,29.112424978030447],[-111.6926549082973,29.110820968812789],[-111.69392923864336,29.109163269169699],[-111.69502328369748,29.107451879101063],[-111.69593129589248,29.105686797707676],[-111.69664753125846,29.103868026788177],[-111.69716624132889,29.101995563644493],[-111.69748168213385,29.100069410974697],[-111.69758810520682,29.098089567879413]]],[[[-111.60109916929116,28.995455948433403],[-111.60510687568166,28.992447333078076],[-111.60910380819411,28.989441411192331],[-111.61308422105986,28.986439618993359],[-111.61704236671176,28.983443393597895],[-111.62097250028057,28.980454171223187],[-111.6248688750984,28.977473388086537],[-111.62872574539676,28.974502482203945],[-111.63253736360832,28.971542887994019],[-111.63629798576335,28.968596043472758],[-111.6400018642945,28.965663385756784],[-111.64364325343331,28.962746349264762],[-111.64721640651186,28.959846372012578],[-111.65071557776162,28.956964890217648],[-111.65413502141399,28.95410334009722],[-111.65746899080119,28.951263158767915],[-111.66071174015457,28.948445782447038],[-111.66385752280632,28.945652648251269],[-111.66690059298787,28.942885191498533],[-111.66983520403136,28.940144849305511],[-111.67265561016819,28.93743305878877],[-111.67535606562984,28.934751256165669],[-111.6779308237484,28.932100877653511],[-111.68037413875538,28.92948336036892],[-111.68268026398289,28.926900139629879],[-111.68484345366238,28.924352653452331],[-111.6868579611259,28.92184233805358],[-111.68871804060501,28.919370628751665],[-111.69041794633108,28.916938963562473],[-111.69195193163625,28.914548777803986],[-111.69331424985268,28.912201509492206],[-111.69449915611108,28.909898593945115],[-111.69550090284429,28.90764146827928],[-111.69631374518309,28.905431568712061],[-111.69693193556026,28.90327033236008],[-111.69734972910663,28.901159194541322],[-111.69756138005357,28.899099593271728],[-111.69756138005357,28.897092934191676],[-111.69734972910663,28.895139935859504],[-111.69693193556026,28.893240628852084],[-111.69631374518309,28.891395011370832],[-111.69550090284429,28.889603085214333],[-111.69449915611108,28.887864849483378],[-111.69331424985268,28.886180305077175],[-111.69195193163625,28.884549450197085],[-111.69041794633108,28.882972286641859],[-111.68871804060501,28.881448814411385],[-111.6868579611259,28.87997903170708],[-111.68484345366238,28.878562940327583],[-111.68268026398289,28.877200539373518],[-111.68037413875538,28.875891828844942],[-111.6779308237484,28.874636809641174],[-111.67535606562984,28.873435480862895],[-111.67265561016819,28.872287842510048],[-111.66983520403136,28.871193895482008],[-111.66690059298787,28.870153637980138],[-111.66385752280632,28.869167071803076],[-111.66071174015457,28.868234196950766],[-111.65746899080119,28.867355011624625],[-111.65413502141399,28.866529517623292],[-111.65071557776162,28.86575771404739],[-111.64721640651186,28.865039601796354],[-111.64364325343331,28.864375179071374],[-111.6400018642945,28.863764447671258],[-111.63629798576335,28.863207407595951],[-111.63253736360832,28.862704057046756],[-111.62872574539676,28.862254397822369],[-111.6248688750984,28.861858429023414],[-111.62097250028057,28.861516150649948],[-111.61704236671176,28.861227563601346],[-111.61308422105986,28.86099266697812],[-111.60910380819411,28.86081146078044],[-111.60510687568166,28.86068394590751],[-111.60109916929116,28.86061012056075],[-111.59708643479104,28.860589986538798],[-111.59307441884926,28.860623543841598],[-111.58906886723435,28.860710790670623],[-111.58507552571484,28.860851728824343],[-111.58110014095865,28.861046357403609],[-111.57714845963363,28.861294677307683],[-111.57322622750831,28.861596686737869],[-111.56933919035123,28.861952387492806],[-111.56549309393102,28.862361779572609],[-111.56169368581487,28.862824861178524],[-111.55794671177125,28.863341634109247],[-111.55425791666943,28.863912097465459],[-111.55063304807663,28.864536251247159],[-111.54707785086202,28.865214096353611],[-111.54359807349221,28.865945631885552],[-111.54019945903769,28.866730857842981],[-111.5368877559651,28.867569774225842],[-111.53366871004283,28.868462381933512],[-111.53054806703955,28.86940868006667],[-111.52753157272383,28.870408668625316],[-111.52462497376342,28.871462348508715],[-111.52183401682635,28.872569718817601],[-111.5191644467817,28.873730779551977],[-111.51662201029745,28.874945530711841],[-111.51421245494072,28.876213973196457],[-111.5119415246815,28.877536106106561],[-111.50981496708698,28.878911929442154],[-111.50783852792563,28.880341444102498],[-111.50601795296603,28.881824649188331],[-111.50435898887616,28.883361544699653],[-111.50286738142444,28.884952130636464],[-111.50154887727876,28.886596407898026],[-111.50040922220774,28.888294374685813],[-111.4994541628792,28.890046033697615],[-111.49868944506176,28.891851382235643],[-111.49812081452387,28.893710422098422],[-111.49775401793346,28.89562315238669],[-111.49759480195843,28.897589573100447],[-111.49764810297745,28.899609583515598],[-111.49791182826817,28.901682204270458],[-111.49838025994097,28.903806000946304],[-111.49904765222726,28.905979538225267],[-111.49990825935856,28.908201378091292],[-111.50095633466702,28.910470086125713],[-111.502186132384,28.912784225211965],[-111.50359190674101,28.915142357334048],[-111.50516791017083,28.917543047174036],[-111.50690839780424,28.919984857615248],[-111.50880762297334,28.922466353339701],[-111.51085983990959,28.924986096331452],[-111.51305930194513,28.927542651272461],[-111.51540026331139,28.930134580146898],[-111.51787697823988,28.932760447636667],[-111.52048369916326,28.935418816625258],[-111.52321468121249,28.938108251794517],[-111.52606417682023,28.940827314229296],[-111.52902644201657,28.943574569510929],[-111.53209572923441,28.946348580522738],[-111.53526629180584,28.949147910148099],[-111.53853238486158,28.951971122169709],[-111.54188826173379,28.954816780370265],[-111.54532817575461,28.957683447633144],[-111.54884638115544,28.960569688640362],[-111.55243713216782,28.963474065375976],[-111.55609468212378,28.966395141622627],[-111.55981328525479,28.969331481163067],[-111.56358719489305,28.972281647779937],[-111.5674106652699,28.97524420435667],[-111.57127795061683,28.978217714675907],[-111.57518330336666,28.98120074162108],[-111.57912097865017,28.984191848974774],[-111.58308522979939,28.987189601419118],[-111.58707031104592,28.990192560038736],[-111.59107047572178,28.993199290415077],[-111.59507997805844,28.996208355431406],[-111.59758809731272,28.998089533904988],[-111.60109916929116,28.995455948433403]]]]},"properties":{"objectid":3,"basin":"Pacific","prob2day":"0%","risk2day":"nearZero","prob7day":"0%","risk7day":"nearZero","idp_source":"gtwo_areas_202609161757","idp_filedate":1789582102000,"idp_ingestdate":1789582323000,"st_area(shape)":0.03574373643160679,"st_perimeter(shape)":1.0345477049695573}},{"type":"Feature","id":4,"geometry":{"type":"Polygon","coordinates":[[[-128.38201514957939,10.494881070405199],[-128.12084293885044,10.483301859293533],[-127.85772233791545,10.471332678760234],[-127.59288259835313,10.459056225064899],[-127.32655297444012,10.446555196265422],[-127.05896271775515,10.433912287722023],[-126.79034108077616,10.421210197492769],[-126.52091731688057,10.408531621837028],[-126.25092067764706,10.395959257913546],[-125.98058041645294,10.383575802881126],[-125.71012578487699,10.371463952999193],[-125.43978603629643,10.35970640542638],[-125.16979042229008,10.348385856422283],[-124.90036819713453,10.337585004944174],[-124.63174861150912,10.327386545452839],[-124.3641609187913,10.317873176905721],[-124.09783437145899,10.309127594662925],[-123.83299822288956,10.301232496782461],[-123.56988172376242,10.294270578624435],[-123.30871412835427,10.288324539146288],[-123.04972468824366,10.283477073708127],[-122.79314265590875,10.279810879468641],[-122.53919728472681,10.277408653586633],[-122.28811782717588,10.276353093220791],[-122.04013353483469,10.276726894630599],[-121.79547366108051,10.278612754974802],[-121.55436745749205,10.282093371412088],[-121.31704417834607,10.287251441101262],[-121.08373307432186,10.294169660301691],[-120.85466339969605,10.302930726172235],[-120.63006440514806,10.31361733497215],[-120.41016534405532,10.326312184759672],[-120.19519546979501,10.341097971794113],[-119.98538403394593,10.358057393234219],[-119.7809602898854,10.377273145339529],[-119.58215348919208,10.398827926167996],[-119.38919288434403,10.422804431079783],[-119.20230772871861,10.449285358132897],[-119.02172727479382,10.478353404486143],[-118.84768077414833,10.510091266398945],[-118.68039748015951,10.54458164013073],[-118.52010664530536,10.581907223739506],[-118.36703752206392,10.622150714384077],[-118.22141791950128,10.66539408167165],[-118.08334981624091,10.711656053983859],[-117.95271350442459,10.760843936398658],[-117.8293667113046,10.812853689945996],[-117.71316716143525,10.867581276554802],[-117.60397258027029,10.924922658154287],[-117.50164069416263,10.984773796673494],[-117.40602922856596,11.047030654940897],[-117.31699590983328,11.111589193986276],[-117.23439846341824,11.178345375738616],[-117.15809461477454,11.247195163026504],[-117.08794209025518,11.318034516879607],[-117.02379861441443,11.390759399227022],[-116.96552191450468,11.465265773796546],[-116.91296971508018,11.541449599819316],[-116.86599974339333,11.619206841023015],[-116.82446972309913,11.698433459336798],[-116.78823738234922,11.779025415790443],[-116.75716044479861,11.860878673212312],[-116.73109663680026,11.943889193531618],[-116.70990368470717,12.027952938677288],[-116.69343931397304,12.112965869679272],[-116.68156125095089,12.198823949365931],[-116.67412722019498,12.285423139666307],[-116.67099494805831,12.372659402509555],[-116.67202215999458,12.460428698925455],[-116.67706658235682,12.548626992641744],[-116.68598594059858,12.6371502446882],[-116.69863796017364,12.725894416094548],[-116.71488036743489,12.814755470588636],[-116.73457088783613,12.903629369200189],[-116.75756724773021,12.992412073858247],[-116.78372717167156,13.080999546492023],[-116.81290838601313,13.169287749030559],[-116.8449686171079,13.257172644302216],[-116.87976558951027,13.344550193336886],[-116.91715702957316,13.431316358063611],[-116.95700066364964,13.517367101310811],[-116.99915421629396,13.602598383208942],[-117.04347541475852,13.686906168385121],[-117.08982198359757,13.770186416070374],[-117.13805164826488,13.85233509089187],[-117.18802213601265,13.933248152080694],[-117.23959999194597,14.012825846835483],[-117.29279991458429,14.091040362722708],[-117.34775953527424,14.167923584306095],[-117.40462020675704,14.243509201988218],[-117.46352327997528,14.317830907970176],[-117.52461010767024,14.390922394453071],[-117.58802204168376,14.462817350940156],[-117.65390043385781,14.533549469632476],[-117.72238663693366,14.603152440932547],[-117.79362200275312,14.671659957940847],[-117.86774788405751,14.739105711059835],[-117.94490563178937,14.805523391591407],[-118.02523659779064,14.870946690837229],[-118.10888213570189,14.935409300099252],[-118.19598359646574,14.998944911578519],[-118.28668233282332,15.061587214778285],[-118.38111969661662,15.123369902798913],[-118.47943703968753,15.184326666042921],[-118.58177571477734,15.244491195812202],[-118.68827707282855,15.303897184307743],[-118.79908246658249,15.362578321932176],[-118.91433324878034,15.420568299987167],[-119.03417077036465,15.477900810673987],[-119.15873638407675,15.534609544395096],[-119.28817144175855,15.590728192452275],[-119.4226172961512,15.646290447046624],[-119.56221529909669,15.701329999480038],[-119.70710680153758,15.755880540154919],[-119.85743315711443,15.809975761272483],[-120.0133357167698,15.863649354134509],[-120.17495583324501,15.916935009143515],[-120.34243485928124,15.969866417601224],[-120.51591414492174,16.022477272608171],[-120.69553504470645,16.074801263667496],[-120.8814389086786,16.126872082980412],[-121.07376709047873,16.178723421848588],[-121.27266094104948,16.230388971573916],[-121.47826181313206,16.281902423458234],[-121.69071105856841,16.333297467903947],[-121.91015002920039,16.384607798011587],[-122.13672007776927,16.435867104183671],[-122.37056255611697,16.487109076822549],[-122.61181881608542,16.538367409028865],[-122.86057691659136,16.589666619918717],[-123.11659602009018,16.640974638768682],[-123.37950995322166,16.692237825515349],[-123.64895229351345,16.743402497827162],[-123.92455661849306,16.794414972473135],[-124.20595650658743,16.845221568920408],[-124.49278553532412,16.895768603938052],[-124.78467728313001,16.946002396093832],[-125.08126532753272,16.995869262156873],[-125.38218324605987,17.045315520694885],[-125.6870646180376,17.094287490275576],[-125.9955430200942,17.142731486768866],[-126.30725203065657,17.190593829641671],[-126.62182522815169,17.237820836562491],[-126.93889619010702,17.284358824300455],[-127.25809849494948,17.330154111423269],[-127.57906571930744,17.375153015599324],[-127.90143144250698,17.419301854497121],[-128.22482924207577,17.46254694668437],[-128.5488926964407,17.504834609829516],[-128.87325538223001,17.546111160701628],[-129.19755087876996,17.586322917868529],[-129.5214127635881,17.62541619899855],[-129.844474614212,17.663337321760139],[-130.1663700090686,17.700032604721059],[-130.4867325256854,17.735448364650438],[-130.80519574248945,17.769530920115983],[-131.12139323790751,17.802226588786198],[-131.43495858856789,17.833481689228734],[-131.74552537379685,17.863242537313397],[-132.05272717022262,17.891455452507273],[-132.35619755717141,17.918066751579488],[-132.65557011127152,17.943022753997013],[-132.95047841184913,17.966269775629769],[-133.24055603553251,17.987754135045463],[-133.52543656074857,18.007422150811749],[-133.80475356592422,18.025220139697808],[-134.07814062948637,18.041094419372087],[-134.3452313271639,18.054991309301613],[-134.60565923918244,18.066857125356194],[-134.8590579430695,18.076638187002857],[-135.10506101545343,18.084280811010785],[-135.34330227487999,18.089731339330001],[-135.57353691059984,18.092948389656613],[-135.79583859417568,18.093922790704369],[-136.01033260746379,18.092650590852202],[-136.21714423052174,18.089127836680461],[-136.41639874340717,18.083350576567966],[-136.60822142707713,18.075314859793082],[-136.79273756158909,18.065016732036668],[-136.97007242700084,18.052452243476409],[-137.14035130426919,18.037617439793166],[-137.30369947345184,18.02050837116451],[-137.46024221460641,18.001121084170848],[-137.61010480868987,17.979451627190997],[-137.75341253575982,17.955496047704571],[-137.89029067677325,17.929250394090559],[-138.02086451088837,17.900710714727836],[-138.14525931906223,17.869873056196752],[-138.26360038225175,17.836733467775446],[-138.37601298051453,17.801287996943643],[-138.48262239390829,17.763532691180899],[-138.58355390338983,17.723463598866147],[-138.67893278811761,17.681076767478999],[-138.76888432994781,17.63636824629765],[-138.85353380803872,17.589334081902507],[-138.93300650334737,17.539970322672389],[-139.00742769593131,17.488273016086964],[-139.07692266674758,17.434238211424429],[-139.14161669675309,17.377861955265189],[-139.20163506420676,17.319140295988007],[-139.25710305096493,17.258069281072608],[-139.30814593708521,17.194644959797188],[-139.35488900352459,17.128863378742096],[-139.39745753034066,17.060720586286152],[-139.4359767966917,16.990212630808401],[-139.47057208443408,16.917335559788398],[-139.50136867362528,16.842085420705757],[-139.52849184432307,16.764458262838673],[-139.552066876585,16.684450132767552],[-139.57221905136805,16.602057078871212],[-139.58907364962914,16.517275149528643],[-139.60275595052661,16.430100392219458],[-139.61339123501739,16.340528854423212],[-139.62110478315913,16.248556585418214],[-139.62601991808464,16.154181463703708],[-139.62819526839684,16.057461878662934],[-139.62761150136959,15.958529143905025],[-139.62424463927857,15.857518913167439],[-139.61807070799671,15.754566841087012],[-139.60906573159815,15.649808583199672],[-139.59720573235859,15.543379792343671],[-139.5824667370502,15.435416124954315],[-139.56482476704929,15.3260532338698],[-139.54425584912804,15.21542677462611],[-139.52073600646145,15.103672401860024],[-139.49424126222436,14.990925769308944],[-139.46474764139043,14.877322532509027],[-139.43223116893319,14.762998345197616],[-139.39666786712826,14.648088862011491],[-139.35803376184856,14.532729737587431],[-139.31630487716825,14.417056627461534],[-139.27145723536302,14.301205184471826],[-139.22346686320509,14.185311063255085],[-139.17230978207073,14.069509920246787],[-139.1179620187321,13.953937407385581],[-139.06039959636422,13.838729182006261],[-138.99959853814192,13.724020896047648],[-138.93553486903886,13.609948205945102],[-138.86818461402862,13.496646765436026],[-138.79752379538678,13.384252228257878],[-138.72352843898619,13.272900250846021],[-138.64617456890113,13.16272648603865],[-138.56543820740728,13.053866589371751],[-138.48129538037739,12.946456215482101],[-138.39372211188589,12.84063101810716],[-138.30269442600689,12.736526651883594],[-138.20818834591535,12.634278771448294],[-138.11017989748422,12.534023032337188],[-138.00864510298902,12.435895087388531],[-137.90355998740341,12.340030592138248],[-137.79490057570092,12.246565201223177],[-137.6826428910565,12.155634569280096],[-137.56676295754437,12.06737435004635],[-137.44723679923879,11.981920198158775],[-137.32404044201269,11.899407769153356],[-137.19714990724236,11.819972716767609],[-137.06654122169994,11.743750695638255],[-136.93219409847876,11.670863632250985],[-136.79412450953839,11.601298583562937],[-136.65236900692406,11.534966058936618],[-136.50696437740402,11.471775687298248],[-136.35794740684725,11.411637097574157],[-136.20535488382075,11.354459920489091],[-136.04922359419345,11.300153784070005],[-135.88959032653224,11.248628319041813],[-135.72649186670617,11.199793155230054],[-135.55996500238285,11.153557920661626],[-135.39004652033054,11.109832245162124],[-135.21677320821692,11.06852575945635],[-135.04018185191086,11.029548092470634],[-134.86030924087868,10.992808873131139],[-134.67719216009004,10.958217731263403],[-134.49086739721253,10.925684296693078],[-134.3013717399138,10.895118199245644],[-134.10874197496207,10.866429066948001],[-133.91301488912575,10.83952653142444],[-133.71422727007234,10.814320219802426],[-133.51241590457028,10.79071976370625],[-133.30761757938768,10.76863479116281],[-133.0998690821923,10.747974931997646],[-132.8892072006517,10.728649816935615],[-132.67566872063486,10.710569074003672],[-132.45929042980941,10.693642333027412],[-132.24010911584293,10.67777922473158],[-132.01816156460444,10.662889376243868],[-131.79348456466084,10.648882419188453],[-131.56611490188112,10.635667982491555],[-131.3360893639329,10.62315569507939],[-131.10344473758448,10.611255187676932],[-130.86821781050344,10.599876088310964],[-130.63044537035745,10.588928027706459],[-130.39016420211613,10.578320633890257],[-130.14741109524579,10.567963538486651],[-129.90222283471599,10.557766369522483],[-129.65463620909367,10.547638756823289],[-129.40468800604657,10.537490329315403],[-129.15241501054419,10.527230717723569],[-128.8978540120529,10.516769550974118],[-128.64104179554232,10.506016458892589],[-128.38201514957939,10.494881070405199]]]},"properties":{"objectid":4,"basin":"Pacific","prob2day":"0%","risk2day":"Low","prob7day":"40%","risk7day":"Medium","idp_source":"gtwo_areas_202609161757","idp_filedate":1789582102000,"idp_ingestdate":1789582323000,"st_area(shape)":140.85289324363407,"st_perimeter(shape)":52.848003915689233}}]}