{"type":"FeatureCollection","features":[{"type":"Feature","id":1,"geometry":{"type":"Polygon","coordinates":[[[-124.12021581360881,19.734556216995941],[-124.27767070024254,19.725348372429607],[-124.43512115861449,19.715501296048103],[-124.59245338221774,19.704967825604797],[-124.74955356544461,19.693700798852944],[-124.90630790178813,19.681653054445064],[-125.0626025847414,19.668777431033732],[-125.21832380689807,19.655026766372316],[-125.37335776354985,19.640353899113279],[-125.52759064818974,19.62471166790931],[-125.68090865341151,19.60805291051355],[-125.83319797270821,19.590330465578688],[-125.98434480047206,19.571497171757187],[-126.13423533109557,19.551505866802472],[-126.28275575627305,19.530309389366948],[-126.42979227129621,19.507860578103362],[-126.57523106875874,19.484112270764797],[-126.71895834305298,19.459017306004],[-126.86086028677272,19.43252852247349],[-127.00082309520957,19.404598757027145],[-127.13873296005795,19.375180850116294],[-127.27447607660957,19.344227638594759],[-127.40793863655875,19.31169196201455],[-127.53900683609652,19.2775266572296],[-127.6675668669173,19.24168456379175],[-127.79350492341337,19.204118519454255],[-127.9167071990779,19.164781361970427],[-128.03705988650449,19.12362593089216],[-128.15444918188416,19.080605064871975],[-128.26876127601201,19.035671600763919],[-128.37988236417965,18.988778377220456],[-128.48769863988025,18.939878233793593],[-128.59209629660671,18.888924007337209],[-128.69296152785216,18.835868537403201],[-128.79019479215583,18.780669224904955],[-128.88380983925259,18.723319712534817],[-128.97387444295111,18.663830926156436],[-129.06045671070854,18.602213895954662],[-129.14362474818347,18.538479653913043],[-129.22344666463175,18.47263923111575],[-129.29999056481262,18.404703659546385],[-129.37332455618321,18.33468397028912],[-129.44351674620077,18.262591194428239],[-129.51063524232251,18.188436363047856],[-129.57474814930754,18.112230508131574],[-129.63592357641181,18.033984661662942],[-129.69422962929389,17.953709853826808],[-129.74973441451152,17.871417116606779],[-129.80250604042135,17.787117481087023],[-129.85261261268187,17.700821979251089],[-129.90012223875021,17.612541641283883],[-129.9451030260837,17.522287500068217],[-129.98762308034077,17.430070586688373],[-130.02775050897873,17.335901931329204],[-130.06555341945466,17.239792565974255],[-130.10109991742718,17.141753522607132],[-130.13445811125274,17.041795832311948],[-130.16569610748928,16.939930526172986],[-130.19488201269462,16.836168635274419],[-130.22208393342669,16.730521192499168],[-130.24736997714263,16.622999227132766],[-130.27080825129968,16.513613772058079],[-130.29246686155631,16.402375858359335],[-130.31241391626912,16.289296518020024],[-130.33071752109663,16.17438678032579],[-130.34744578349603,16.057657679058764],[-130.36266681092451,15.93912024350459],[-130.37644222942527,15.818789938405075],[-130.38871734942603,15.696761773537162],[-130.39933686520408,15.573199568505402],[-130.40814215703483,15.448269411903993],[-130.41497460339514,15.322137391427589],[-130.41967558276184,15.194969593871804],[-130.42208647361178,15.066932108729986],[-130.42204865442176,14.938191023696902],[-130.41940350456798,14.80891242646743],[-130.41399240252724,14.679262403837015],[-130.40565672587712,14.549407046198382],[-130.39423785489299,14.419512439447658],[-130.37957716805175,14.28974467217904],[-130.36151604293093,14.160269832087238],[-130.33989585890669,14.031254007766393],[-130.31455799535513,13.902863286911327],[-130.28534382985379,13.775263757216749],[-130.25209474177882,13.648621507276857],[-130.21465210870775,13.523102623887098],[-130.17285731091607,13.398873196540933],[-130.1265517259813,13.276099311134431],[-130.07557673327955,13.154947058060429],[-130.01977371038834,13.035582523214998],[-129.95898403758315,12.918171795192336],[-129.89304909244157,12.802880962586471],[-129.82181025344033,12.689876113092282],[-129.74510890085497,12.579323334404478],[-129.6627864113637,12.471388714217937],[-129.57468416434261,12.366238340227369],[-129.48064353916789,12.264038301926234],[-129.38050591431642,12.164954685210716],[-129.27411266826493,12.069153579574163],[-129.16130517859102,11.976801072711453],[-129.04192586698508,11.8880615597933],[-128.91587961395294,11.802997873752986],[-128.7831681147166,11.721515426595772],[-128.64380139401902,11.64350609013411],[-128.49778947660297,11.568861733482379],[-128.3451423872113,11.49747422755371],[-128.18587014968756,11.429235444160554],[-128.0199827887746,11.364037253316724],[-127.84749032831593,11.301771525035974],[-127.6684027939537,11.242330130231437],[-127.48273020863212,11.185604939816244],[-127.29048259709407,11.13148782380415],[-127.09166998408239,11.079870654007607],[-126.88630239344059,11.030645299541106],[-126.67438984991156,10.983703632216987],[-126.45594237913741,10.938937522049116],[-126.23097000316301,10.896238839051307],[-125.99948274763062,10.855499455035954],[-125.76149063728298,10.816611240916188],[-125.51700369596369,10.779466065806446],[-125.26603194841562,10.743955801519178],[-125.0085854184822,10.70997231716882],[-124.74467413090633,10.677407485467199],[-124.47430811043085,10.646153175528752],[-124.19749738089934,10.61610125826661],[-123.91425196705455,10.587143605493111],[-123.62458189274008,10.55917208542354],[-123.32849718269875,10.532078570769556],[-123.02600786167341,10.505754931544971],[-122.71712395350755,10.480093037763595],[-122.40185548294409,10.454984760338562],[-122.08021247472584,10.430321970182888],[-121.75220495179701,10.40599653820982],[-121.41784308548989,10.381900406378804],[-121.07728158977346,10.357997340105271],[-120.73109096487605,10.334457705159082],[-120.37991601481212,10.311488784479934],[-120.02440154449556,10.289297863705599],[-119.6651923579409,10.268092229372996],[-119.30293326006182,10.248079164422052],[-118.9382690557722,10.229465955389685],[-118.57184454908656,10.21245988701429],[-118.20430454401941,10.197268244933696],[-117.8362938463838,10.184098312986919],[-117.46845725929501,10.173157376811616],[-117.10143958766673,10.164652721146297],[-116.73588563641289,10.158791632527937],[-116.37244020954796,10.155781393896348],[-116.0117481119857,10.155829291788507],[-115.65445414684132,10.159142611842185],[-115.30120312082727,10.165928636997137],[-114.95263983705871,10.176394653790396],[-114.60940910044951,10.19074794785962],[-114.27215571501415,10.209195802144677],[-113.94152448566638,10.231945504081864],[-113.61816021642073,10.259204337510312],[-113.30270771219108,10.291179587168358],[-112.99581177789116,10.328078539593037],[-112.69811721663615,10.370108478623536],[-112.41026883423922,10.417476689897455],[-112.13291143471486,10.470390457253927],[-111.86668982297687,10.529057068129305],[-111.61224880303973,10.593683805463399],[-111.370233178918,10.664477955793188],[-111.14128775552541,10.741646802957746],[-110.92605733777583,10.825397632594786],[-110.72518672968374,10.915937730342137],[-110.53919739054703,11.01341144368331],[-110.36792056977839,11.117610943790169],[-110.21094757317189,11.228205970829038],[-110.06786946460403,11.344866140859835],[-109.93827730705198,11.467261070841857],[-109.82176216349296,11.595060375935759],[-109.71791509960207,11.727933674899305],[-109.62632717655788,11.865550581993887],[-109.54658946003548,12.007580715078063],[-109.47829301301203,12.153693690211753],[-109.42102889846478,12.303559124354251],[-109.37438818027022,12.456846633565419],[-109.33796192320409,12.613225833905233],[-109.31134118934432,12.772366342332987],[-109.29411704346671,12.933937775807863],[-109.28588054854839,13.097609749490459],[-109.2862227684659,13.263051881239448],[-109.29473476619643,13.429933787114749],[-109.31100760741504,13.597925084075484],[-109.33463235330038,13.766695387282425],[-109.36520006862816,13.935914314594072],[-109.40230181727497,14.105251481171081],[-109.4455286622179,14.274376504871952],[-109.49447166823279,14.442959001756662],[-109.54872189739757,14.610668587885186],[-109.60787041448793,14.777174880216705],[-109.67150828248117,14.942147494811195],[-109.73922656525366,15.105256048627894],[-109.81061632668201,15.266170158626039],[-109.88526862974339,15.424559439966345],[-109.96277453921351,15.580093509607934],[-110.04272511806965,15.732441984510103],[-110.12471142928894,15.881274480732827],[-110.20834503049866,16.026279906592549],[-110.29347570793749,16.167371430747096],[-110.38010694198169,16.304606908382254],[-110.46824477967277,16.438046603068415],[-110.55789526265613,16.567750782872452],[-110.64906443617468,16.693779711364755],[-110.74175834457185,16.816193654813446],[-110.83598303129179,16.935052878587612],[-110.93174454157725,17.050417648056168],[-111.02904891797311,17.16234822948735],[-111.12790220572214,17.270904888250129],[-111.22831044826847,17.37614788881416],[-111.33027969085498,17.478137498346996],[-111.43381597602638,17.576933981318348],[-111.53892534902553,17.672597603097017],[-111.64561385419591,17.765188629951467],[-111.75388753408231,17.854767327250499],[-111.86375243482689,17.941393960363143],[-111.97521459897445,18.025128794658315],[-112.08828007176783,18.106032096404249],[-112.20295489575176,18.184164130070712],[-112.31924511706842,18.259585161026507],[-112.43715677826259,18.332355456439302],[-112.55669592457718,18.40253528077875],[-112.67786859945619,18.470184900313029],[-112.8006808472432,18.53536457951185],[-112.92513871228164,18.598134583744184],[-113.05124823801566,18.658555180177586],[-113.17901546878875,18.716686633281654],[-113.30844644894438,18.772589208425359],[-113.43954722282598,18.826323170977673],[-113.57232383387776,18.87794878720689],[-113.70678232734241,18.927526322481924],[-113.84292779698018,18.975115834428379],[-113.98073655464816,19.020771080021461],[-114.12015163459017,19.064538529929337],[-114.26111421664768,19.106464250125157],[-114.40356548066228,19.146594306582131],[-114.54744660917356,19.184974765273353],[-114.69269878022442,19.221651691272655],[-114.83926317545507,19.256671150553302],[-114.98708097560643,19.29007920908839],[-115.13609335962076,19.321921931951749],[-115.28624150913822,19.352245386015909],[-115.43746660489978,19.381095635455324],[-115.58970982494839,19.40851874714258],[-115.74291235272278,19.434560787050827],[-115.89701536626603,19.459267819354523],[-116.0519600472183,19.482685911825513],[-116.20768757452186,19.504861128638311],[-116.36413913071624,19.525839535766124],[-116.52125589474366,19.545667199182049],[-116.67897904734508,19.564390184859292],[-116.83724976926135,19.582054557871686],[-116.9960092403341,19.598706385091759],[-117.15519864040482,19.614391730693967],[-117.31475915111383,19.629156661550837],[-117.47463195230267,19.643047243635522],[-117.63475822471219,19.656109541122589],[-117.79507914818407,19.668389620884454],[-117.95553590255975,19.679933547995006],[-118.11606967037886,19.690787389326715],[-118.27662162968437,19.700997209953414],[-118.43713296211644,19.710609074948991],[-118.59754484751659,19.719669051185917],[-118.75779846662584,19.728223203738025],[-118.91783512698942,19.736317504149611],[-119.07761693477363,19.743982742509672],[-119.23714960067343,19.751217865712078],[-119.39644432934222,19.758017813271579],[-119.55551232453405,19.76437752380383],[-119.71436478910363,19.770291935024943],[-119.87301292770434,19.77575598824842],[-120.03146794409025,19.780764620291109],[-120.18974104201538,19.785312770667986],[-120.34784342433449,19.789395378893744],[-120.50578629570089,19.793007382684721],[-120.6635808589694,19.796143722454985],[-120.82123831969261,19.798799335021442],[-120.9787698789267,19.800969160798275],[-121.13618674222425,19.802648138401025],[-121.29350011333946,19.803831206445182],[-121.45072119512696,19.804513303546287],[-121.60786119224014,19.804689369219147],[-121.76493130753374,19.804354342079364],[-121.92194274566111,19.803503160742423],[-122.078906709477,19.802130763823811],[-122.23583440363473,19.800232090838449],[-122.39273703098911,19.797802080401823],[-122.54962579529411,19.794835672028796],[-122.70651190120316,19.791327803435536],[-122.86340655157102,19.787273414136905],[-123.02032095015164,19.782667443647767],[-123.17726630159842,19.77750482878497],[-123.33425380786684,19.771780510862015],[-123.49129467540882,19.765489427595128],[-123.64840010528053,19.758626516700531],[-123.80558130303461,19.75118671949167],[-123.96284947062645,19.743164972785394],[-124.12021581360881,19.734556216995941]]]},"properties":{"objectid":1,"basin":"Pacific","prob2day":"50%","risk2day":"Medium","prob7day":"90%","risk7day":"High","idp_source":"gtwo_areas_202609112128","idp_filedate":1789162666000,"idp_ingestdate":1789162727000,"st_area(shape)":173.39707960381335,"st_perimeter(shape)":52.323639677538857}},{"type":"Feature","id":2,"geometry":{"type":"Polygon","coordinates":[[[-150.11630761830185,11.903031642196652],[-150.0521898981452,11.816699856313448],[-149.98594795503402,11.73099959415606],[-149.91764366682168,11.645994442289805],[-149.84733891136159,11.561747987279944],[-149.77509556740642,11.478323815691681],[-149.7009755137089,11.395785514989655],[-149.62504062812241,11.314196669940486],[-149.54735278850032,11.233620868908133],[-149.4679738735953,11.154121697558423],[-149.3869657612608,11.075762742456732],[-149.30439033024945,10.998607591067639],[-149.2203094584147,10.922719828157653],[-149.13478502360988,10.848163042090846],[-149.04787890548701,10.775000818533101],[-148.95965298010086,10.703296744049624],[-148.87016912800277,10.633114405205788],[-148.77948922614678,10.564517389466062],[-148.68767515328562,10.497569282496499],[-148.59478878727262,10.432333670862363],[-148.50089200686054,10.368874142028176],[-148.40604668990272,10.30725428165988],[-148.31031471515189,10.24753767632285],[-148.21375795956209,10.189787912582233],[-148.11643830278535,10.134068577902667],[-148.01841762267506,10.080443257950151],[-147.91975779708457,10.028975540189151],[-147.82052070476664,9.9797290093864035],[-147.72076822357457,9.9327672539057517],[-147.62056223226114,9.8881538603125136],[-147.51996460778034,9.8459524142726309],[-147.41903723068356,9.8062265023513646],[-147.31784197702552,9.7690397120132388],[-147.21644072645827,9.7344556289242519],[-147.11489535683518,9.7025378405490414],[-147.01326774600957,9.6733499325534922],[-146.91161977183492,9.6469554915028652],[-146.8100133139632,9.6234181048617984],[-146.70850937790539,9.6027957851974861],[-146.6071571233025,9.5850708842140762],[-146.50599717612869,9.5701712250221362],[-146.40506997080243,9.5580234265400463],[-146.30441594444019,9.548554106786753],[-146.20407553325916,9.5416898864792188],[-146.10408917257718,9.5373573827371843],[-146.00449729951069,9.5354832171768749],[-145.90534034847821,9.5359940069180311],[-145.80665875659625,9.5388163708789762],[-145.70849295918265,9.5438769297766157],[-145.61088339245453,9.5511023007307472],[-145.51387049352837,9.5604191044582194],[-145.41749469682273,9.5717539598774692],[-145.32179643945403,9.5850334850074432],[-145.22681615674017,9.6001842996658411],[-145.13259428489823,9.6171330218716093],[-145.03917126014545,9.6358062723417106],[-144.94658751869895,9.656130669095262],[-144.85488349677587,9.6780328319497926],[-144.76409962879475,9.7014393789243627],[-144.67427635277139,9.7262769298365583],[-144.58545410312428,9.7524721036048163],[-144.49767331696992,9.7799515191474029],[-144.41097443052547,9.8086417953826981],[-144.32539787820943,9.8384695521282879],[-144.24098409803761,9.8693614074031757],[-144.15777352442853,9.9012439810250612],[-144.07580659449866,9.9340438919122107],[-143.99512374356584,9.9676877589830042],[-143.91576540784723,10.002102201155822],[-143.83777202266066,10.037213838248192],[-143.76118402602191,10.072949288279176],[-143.68604185234955,10.109235171066416],[-143.61238593786067,10.145998105528292],[-143.54025671877247,10.183164710583071],[-143.46969463040278,10.220661605149076],[-143.40074001723792,10.258415768772863],[-143.33342191209147,10.296397701892545],[-143.26774739082936,10.334662433124947],[-143.2037210031217,10.373274702865388],[-143.14134730133679,10.41229925061009],[-143.08063083604418,10.451800816754428],[-143.02157615781334,10.491844141693946],[-142.9641878181132,10.532493965824017],[-142.90847036841268,10.573815027741489],[-142.85442835928126,10.615872068741112],[-142.80206634218786,10.658729828319053],[-142.75138886770202,10.702453046870744],[-142.70240048729255,10.747106464791671],[-142.65510575152911,10.792754820678567],[-142.60950921188055,10.839462856725618],[-142.56561541981569,10.887295311529556],[-142.52342892500479,10.936316926385189],[-142.48295428071538,10.986592439889307],[-142.44419603571839,11.038186592437455],[-142.40715874238197,11.091164125324269],[-142.3718469512757,11.145589777146654],[-142.33826521386845,11.201528289199302],[-142.30641808072977,11.259044400978439],[-142.27631010332851,11.318202852879494],[-142.24794583223428,11.379068383499259],[-142.22132981981525,11.441705735031803],[-142.19646661484234,11.506179646073917],[-142.17336077058303,11.572554857920522],[-142.15201683760688,11.640896110067558],[-142.13243936648348,11.711268142011306],[-142.11463290778238,11.783735694147083],[-142.09860201387175,11.858363506870489],[-142.08435123532115,11.935216320576899],[-142.07188512270017,12.014358873863102],[-142.06120822747761,12.09585590892317],[-142.05232510022313,12.179772164354063],[-142.0452402933048,12.266172380551041],[-142.03995835639296,12.355121297010385],[-142.03648198295707,12.446663116309935],[-142.03480301614621,12.540722095748265],[-142.03490937177003,12.637179080550254],[-142.03678895934291,12.73591485568619],[-142.04042969017797,12.836810206126245],[-142.04581947468893,12.939745916840707],[-142.05294622149086,13.044602773699182],[-142.06179784279612,13.151261561671845],[-142.07236224811919,13.259603063930399],[-142.0846273469744,13.369508068142977],[-142.09858105067485,13.480857356581851],[-142.114211268735,13.593531716915322],[-142.13150591246779,13.707411932314983],[-142.15045289138772,13.822378788650326],[-142.17104011590851,13.938313070891638],[-142.1932554964439,14.055095564009207],[-142.21708694340765,14.172607052973262],[-142.24252236631406,14.290728322754035],[-142.26954967647629,14.409340158321811],[-142.29815678340873,14.528323345546085],[-142.32833159752511,14.64755866759856],[-142.36006203013852,14.766926911248106],[-142.39333598986394,14.886308860565578],[-142.42814138801458,15.005585301420638],[-142.46446613410473,15.124637018783517],[-142.50229813944748,15.243344796725125],[-142.54162531355729,15.361589420215694],[-142.58243556684783,15.479251676024148],[-142.62471680973289,15.596212347322137],[-142.66845695262617,15.712352219979095],[-142.71364390594141,15.827552078965425],[-142.76026557919306,15.941692709251242],[-142.80830988369411,16.054654895806948],[-142.85776472895901,16.166319423602658],[-142.90861802540144,16.276567078507981],[-142.96085768343528,16.385278643694562],[-143.01447161347409,16.492334906830649],[-143.0694477978775,16.597618983029804],[-143.12577590703239,16.701067648153582],[-143.18344729125943,16.802671330717487],[-143.2424533773214,16.902422792977632],[-143.30278559108206,17.000314798089619],[-143.36443535840499,17.096340108309505],[-143.4273941042544,17.190491486792837],[-143.49165325539332,17.282761694896465],[-143.55720423768531,17.373143494876501],[-143.62403847609471,17.46162965078787],[-143.6921473964851,17.548212923088045],[-143.76152242472006,17.632886075831891],[-143.83215498756255,17.715641871275466],[-143.90403650907757,17.796473070775733],[-143.9771584169273,17.875372438387444],[-144.05151213517681,17.952332735467508],[-144.1270890914883,18.027346724272036],[-144.20388070992675,18.100407167956575],[-144.28187841725506,18.17150682877724],[-144.36107363843757,18.240638469889632],[-144.4414578002372,18.307794852650488],[-144.52302232761824,18.372968739315979],[-144.60575864734361,18.436152893941028],[-144.68965818437763,18.497340077882427],[-144.77471236458388,18.556523053396347],[-144.86091261382597,18.613694582738958],[-144.94825035796757,18.668847429965069],[-145.03671702287221,18.721974356431531],[-145.12630403440357,18.77306812439457],[-145.21700281842524,18.822121496110299],[-145.30880479990151,18.869127234734208],[-145.40170140649462,18.9140781034219],[-145.49568406137024,18.956966862630736],[-145.59074419219064,18.997786276415638],[-145.68687322481938,19.036529107032777],[-145.78406258422081,19.073188116738322],[-145.88230369535916,19.107756067788443],[-145.98158796071573,19.140225720640615],[-146.08188792758571,19.170588337481945],[-146.18312406712192,19.198831037322634],[-146.28520793190046,19.224940234104679],[-146.38805107539673,19.248902338172513],[-146.49156504928752,19.270703761669381],[-146.59566140614888,19.290330915839206],[-146.70025169945629,19.307770212825176],[-146.80524748088644,19.323008064770534],[-146.91056030391482,19.336030881120394],[-147.01610172021813,19.346825076716073],[-147.12178328327181,19.355377060103365],[-147.22751654565198,19.36167324522421],[-147.33321305903536,19.365700042423157],[-147.43878437689739,19.367443864742711],[-147.54414205091484,19.36689112252742],[-147.64919763546243,19.364028227920528],[-147.7538626813176,19.358841592165902],[-147.8580487419558,19.351317628306049],[-147.96166736905374,19.341442745786253],[-148.06463011698622,19.329203358548284],[-148.16684853742998,19.314585876936803],[-148.26823418296109,19.297576713094998],[-148.36869860525636,19.278162278266677],[-148.46815335869047,19.256328984595086],[-148.56650999494022,19.232063243324149],[-148.66368006658172,19.205351466597051],[-148.75957512619104,19.176180065657661],[-148.85410672634427,19.144535452649166],[-148.9471864205168,19.110404038815489],[-149.03872576038546,19.073772235400497],[-149.12863629852626,19.034626455446698],[-149.2168295884147,18.992953109298696],[-149.30321718172746,18.948738609099678],[-149.38771063194002,18.90196936609351],[-149.47022149072913,18.852631793322757],[-149.55066131067088,18.800712301131909],[-149.62894164524064,18.746197301664267],[-149.70498169934586,18.689079481632916],[-149.77876727988598,18.629406148974738],[-149.85031849030599,18.56725273432636],[-149.91965571463945,18.502694900349525],[-149.98679933781909,18.435808309705862],[-150.05176974567715,18.366668627755132],[-150.11458732314637,18.295351515360267],[-150.17527245605891,18.221932636981762],[-150.23384552844828,18.146487655281192],[-150.29032692524731,18.069092232920354],[-150.34473703318744,17.98982203435952],[-150.39709623630219,17.908752722260488],[-150.44742491952434,17.82595995928483],[-150.49574346868604,17.741519409892987],[-150.54207226782083,17.655506735847325],[-150.58643170366011,17.56799760070885],[-150.62884216113673,17.479067667139248],[-150.66932402428421,17.388792599598958],[-150.70789767893464,17.297248060749553],[-150.74458351002087,17.204509713252776],[-150.77940190247574,17.110653221569066],[-150.81237324213134,17.015754246561357],[-150.84351791392052,16.919888453589408],[-150.87285630277606,16.823131505314848],[-150.90040879453016,16.72555906439942],[-150.92619577321628,16.627246794404186],[-150.95023762466656,16.528270357990777],[-150.97255473381384,16.428705418720256],[-150.9931674855909,16.328627639254307],[-151.01209626582991,16.228112684053258],[-151.02936145856438,16.127236215778851],[-151.04498345052573,16.026073896193509],[-151.05898262574749,15.924701390656764],[-151.07137936916249,15.823194360931154],[-151.0821940666028,15.721628469678251],[-151.09144710300131,15.620079382257813],[-151.09915886419014,15.518622759532889],[-151.10534939515838,15.417333684102402],[-151.11002340745421,15.316260868644292],[-151.11316432747165,15.215416440516435],[-151.11475401678436,15.114809831808429],[-151.11477433696601,15.014450474609873],[-151.11320714779154,14.914347800111045],[-151.11003431083469,14.814511240401544],[-151.10523768676975,14.7149502284704],[-151.09879913627103,14.615674194608516],[-151.09070052001292,14.516692571804867],[-151.08092369866966,14.418014792149052],[-151.069450533815,14.319650286831404],[-151.05626288612322,14.221608488840843],[-151.04134261626865,14.12389882846827],[-151.02467158492561,14.026530739602094],[-151.00623165276849,13.92951365253316],[-150.98600468047155,13.832857000250499],[-150.96397252960847,13.736570214843653],[-150.94011706085359,13.640662727503013],[-150.91442013488123,13.545143970318122],[-150.88686361236574,13.450023375378635],[-150.85742935398142,13.355310374774092],[-150.82609922130194,13.261014400594263],[-150.79285507410231,13.167144884029312],[-150.75767877395617,13.073711258068215],[-150.72055218153787,12.980722953002044],[-150.68145715842104,12.888189402718922],[-150.6403755634814,12.796120038409185],[-150.59728925919188,12.704524291263169],[-150.55218010622684,12.613411594269792],[-150.5050299652606,12.522791379518708],[-150.45582069696752,12.432673077300819],[-150.40453416202189,12.343066121504421],[-150.35115222109803,12.253979942420528],[-150.29565673576965,12.165423973937379],[-150.23802956581173,12.077407645446613],[-150.17825257369722,11.989940391735843],[-150.11630761830185,11.903031642196652]]]},"properties":{"objectid":2,"basin":"Pacific","prob2day":"20%","risk2day":"Low","prob7day":"20%","risk7day":"Low","idp_source":"gtwo_areas_202609112128","idp_filedate":1789162666000,"idp_ingestdate":1789162727000,"st_area(shape)":69.749776103777123,"st_perimeter(shape)":29.940946715127602}}]}