{
"type": "FeatureCollection",
"name": "al092021-011A_5day_pgn",
"features": [
{ "type": "Feature", "properties": { "STORMNAME": "Ida", "STORMTYPE": "HU", "ADVDATE": "100 AM CDT Sun Aug 29 2021", "ADVISNUM": "11A", "STORMNUM": 9.0, "FCSTPRD": 120.0, "BASIN": "AL" }, "geometry": { "type": "Polygon", "coordinates": [ [ [ -88.7727, 27.3468 ], [ -88.7478, 27.343 ], [ -88.7209, 27.3412 ], [ -88.6922, 27.3412 ], [ -88.6629, 27.343 ], [ -88.6339, 27.3468 ], [ -88.6062, 27.3526 ], [ -88.5801, 27.3603 ], [ -88.5445, 27.3755 ], [ -88.534, 27.3819 ], [ -88.5039, 27.4026 ], [ -88.4861, 27.4186 ], [ -88.4629, 27.4462 ], [ -88.4558, 27.456 ], [ -88.4431, 27.4771 ], [ -88.4322, 27.5001 ], [ -88.4203, 27.5388 ], [ -88.4151, 27.5663 ], [ -88.4124, 27.595 ], [ -88.4124, 27.6243 ], [ -88.4151, 27.653 ], [ -88.4203, 27.6805 ], [ -88.4279, 27.7065 ], [ -88.4375, 27.7308 ], [ -88.4488, 27.7534 ], [ -88.4611, 27.7749 ], [ -88.4739, 27.7959 ], [ -88.4934, 27.8272 ], [ -88.5061, 27.8484 ], [ -88.5122, 27.8592 ], [ -88.5241, 27.8812 ], [ -88.5357, 27.9034 ], [ -88.5472, 27.9257 ], [ -88.5584, 27.9484 ], [ -88.5697, 27.971 ], [ -88.5812, 27.9933 ], [ -88.5928, 28.0156 ], [ -88.6047, 28.0375 ], [ -88.6171, 28.0589 ], [ -88.63, 28.0799 ], [ -88.643, 28.1008 ], [ -88.656, 28.1217 ], [ -88.6688, 28.1427 ], [ -88.6813, 28.1641 ], [ -88.6932, 28.186 ], [ -88.7048, 28.2082 ], [ -88.7164, 28.2305 ], [ -88.7281, 28.2527 ], [ -88.74, 28.2746 ], [ -88.7524, 28.296 ], [ -88.7718, 28.3275 ], [ -88.7782, 28.3379 ], [ -88.7912, 28.3588 ], [ -88.8041, 28.3798 ], [ -88.8167, 28.401 ], [ -88.829, 28.4226 ], [ -88.8413, 28.4441 ], [ -88.8539, 28.4654 ], [ -88.8667, 28.4864 ], [ -88.8865, 28.5174 ], [ -88.8932, 28.5276 ], [ -88.9068, 28.5479 ], [ -88.927, 28.5784 ], [ -88.9406, 28.5987 ], [ -88.9541, 28.6191 ], [ -88.9608, 28.6292 ], [ -88.9811, 28.6597 ], [ -88.9947, 28.68 ], [ -89.0014, 28.6902 ], [ -89.0082, 28.7003 ], [ -89.0352, 28.741 ], [ -89.0488, 28.7613 ], [ -89.0623, 28.7816 ], [ -89.0691, 28.7918 ], [ -89.0826, 28.8121 ], [ -89.1029, 28.8426 ], [ -89.1167, 28.8627 ], [ -89.1307, 28.8825 ], [ -89.1379, 28.8922 ], [ -89.1524, 28.9116 ], [ -89.1746, 28.9402 ], [ -89.1819, 28.9498 ], [ -89.1963, 28.9692 ], [ -89.2179, 28.9984 ], [ -89.2322, 29.0179 ], [ -89.2465, 29.0375 ], [ -89.2611, 29.0567 ], [ -89.276, 29.0757 ], [ -89.2906, 29.0949 ], [ -89.2978, 29.1047 ], [ -89.3193, 29.1339 ], [ -89.3336, 29.1534 ], [ -89.348, 29.1729 ], [ -89.3553, 29.1826 ], [ -89.3775, 29.2112 ], [ -89.3921, 29.2304 ], [ -89.3993, 29.2402 ], [ -89.4136, 29.2597 ], [ -89.4351, 29.2889 ], [ -89.4494, 29.3084 ], [ -89.464, 29.3277 ], [ -89.4789, 29.3467 ], [ -89.4935, 29.3659 ], [ -89.5079, 29.3854 ], [ -89.515, 29.3952 ], [ -89.5365, 29.4244 ], [ -89.5437, 29.4342 ], [ -89.5655, 29.4632 ], [ -89.5729, 29.4727 ], [ -89.595, 29.5014 ], [ -89.6093, 29.5209 ], [ -89.6163, 29.5308 ], [ -89.6303, 29.5507 ], [ -89.6507, 29.5811 ], [ -89.6642, 29.6014 ], [ -89.671, 29.6115 ], [ -89.6913, 29.642 ], [ -89.698, 29.6522 ], [ -89.7116, 29.6725 ], [ -89.7251, 29.6928 ], [ -89.7454, 29.7233 ], [ -89.7589, 29.7436 ], [ -89.7724, 29.764 ], [ -89.786, 29.7843 ], [ -89.7995, 29.8046 ], [ -89.813, 29.8249 ], [ -89.8265, 29.8453 ], [ -89.8333, 29.8554 ], [ -89.8468, 29.8758 ], [ -89.8668, 29.9065 ], [ -89.8733, 29.9169 ], [ -89.8925, 29.9485 ], [ -89.9047, 29.9702 ], [ -89.9105, 29.9813 ], [ -89.9222, 30.0035 ], [ -89.9337, 30.0259 ], [ -89.9448, 30.0486 ], [ -89.9556, 30.0717 ], [ -89.9663, 30.0949 ], [ -89.9764, 30.1186 ], [ -89.9859, 30.1429 ], [ -89.9951, 30.1676 ], [ -90.004, 30.1925 ], [ -90.0125, 30.2179 ], [ -90.0209, 30.2434 ], [ -90.0294, 30.2687 ], [ -90.0379, 30.294 ], [ -90.0463, 30.3195 ], [ -90.0547, 30.345 ], [ -90.0632, 30.3703 ], [ -90.0718, 30.3956 ], [ -90.0801, 30.4211 ], [ -90.0885, 30.4466 ], [ -90.0969, 30.4721 ], [ -90.1049, 30.4979 ], [ -90.1122, 30.5245 ], [ -90.119, 30.5516 ], [ -90.1252, 30.5792 ], [ -90.1309, 30.6074 ], [ -90.1364, 30.6357 ], [ -90.1421, 30.6639 ], [ -90.1476, 30.6922 ], [ -90.1528, 30.721 ], [ -90.1573, 30.7504 ], [ -90.1606, 30.7809 ], [ -90.1628, 30.8126 ], [ -90.164, 30.8452 ], [ -90.1646, 30.8785 ], [ -90.1647, 30.9123 ], [ -90.1647, 30.9462 ], [ -90.1647, 30.98 ], [ -90.1647, 31.0139 ], [ -90.1646, 31.0476 ], [ -90.164, 31.081 ], [ -90.1628, 31.1136 ], [ -90.1606, 31.1453 ], [ -90.1572, 31.1758 ], [ -90.1526, 31.2051 ], [ -90.1471, 31.2334 ], [ -90.1409, 31.261 ], [ -90.1343, 31.2883 ], [ -90.1274, 31.3152 ], [ -90.1202, 31.3419 ], [ -90.1128, 31.3684 ], [ -90.1049, 31.3944 ], [ -90.1008, 31.4072 ], [ -90.0873, 31.4445 ], [ -90.0827, 31.4568 ], [ -90.073, 31.481 ], [ -90.057, 31.5158 ], [ -90.0516, 31.5273 ], [ -90.0356, 31.5621 ], [ -90.0302, 31.5736 ], [ -90.0148, 31.609 ], [ -90.0099, 31.6211 ], [ -89.9956, 31.6575 ], [ -89.9859, 31.6816 ], [ -89.9759, 31.7055 ], [ -89.965, 31.7285 ], [ -89.9594, 31.7397 ], [ -89.9472, 31.7614 ], [ -89.9345, 31.7826 ], [ -89.9215, 31.8034 ], [ -89.9085, 31.8243 ], [ -89.8958, 31.8454 ], [ -89.8773, 31.8777 ], [ -89.8712, 31.8885 ], [ -89.8587, 31.9099 ], [ -89.846, 31.9311 ], [ -89.833, 31.9519 ], [ -89.813, 31.9827 ], [ -89.8062, 31.9929 ], [ -89.786, 32.0233 ], [ -89.7724, 32.0437 ], [ -89.7589, 32.064 ], [ -89.7454, 32.0843 ], [ -89.7318, 32.1046 ], [ -89.7251, 32.1148 ], [ -89.7048, 32.1453 ], [ -89.698, 32.1554 ], [ -89.6845, 32.1758 ], [ -89.671, 32.1961 ], [ -89.6572, 32.2161 ], [ -89.6431, 32.2359 ], [ -89.6215, 32.2651 ], [ -89.6142, 32.2747 ], [ -89.5993, 32.2936 ], [ -89.5775, 32.3226 ], [ -89.5703, 32.3324 ], [ -89.5488, 32.3617 ], [ -89.5344, 32.381 ], [ -89.5271, 32.3907 ], [ -89.5039, 32.4183 ], [ -89.4959, 32.4272 ], [ -89.4797, 32.4449 ], [ -89.4629, 32.4619 ], [ -89.4462, 32.479 ], [ -89.4291, 32.4958 ], [ -89.4124, 32.5129 ], [ -89.3953, 32.5297 ], [ -89.3785, 32.5468 ], [ -89.3615, 32.5636 ], [ -89.3447, 32.5806 ], [ -89.3277, 32.5974 ], [ -89.3109, 32.6145 ], [ -89.2939, 32.6313 ], [ -89.2771, 32.6484 ], [ -89.2601, 32.6652 ], [ -89.2433, 32.6822 ], [ -89.2262, 32.699 ], [ -89.2095, 32.7161 ], [ -89.1924, 32.7329 ], [ -89.1756, 32.75 ], [ -89.1502, 32.7753 ], [ -89.1418, 32.7839 ], [ -89.1248, 32.8007 ], [ -89.108, 32.8177 ], [ -89.091, 32.8345 ], [ -89.0742, 32.8516 ], [ -89.0571, 32.8684 ], [ -89.0404, 32.8855 ], [ -89.0233, 32.9023 ], [ -89.0066, 32.9194 ], [ -88.9895, 32.9362 ], [ -88.9728, 32.9532 ], [ -88.9557, 32.97 ], [ -88.9389, 32.9871 ], [ -88.9219, 33.0039 ], [ -88.9051, 33.021 ], [ -88.8881, 33.0378 ], [ -88.871, 33.0546 ], [ -88.8534, 33.0708 ], [ -88.8356, 33.0868 ], [ -88.8169, 33.102 ], [ -88.7977, 33.1166 ], [ -88.7782, 33.131 ], [ -88.7588, 33.1454 ], [ -88.7396, 33.16 ], [ -88.7209, 33.1752 ], [ -88.7028, 33.1909 ], [ -88.6847, 33.2066 ], [ -88.6665, 33.2223 ], [ -88.6478, 33.2375 ], [ -88.6286, 33.2521 ], [ -88.6092, 33.2665 ], [ -88.5897, 33.2809 ], [ -88.5702, 33.2952 ], [ -88.551, 33.3098 ], [ -88.5321, 33.3248 ], [ -88.5129, 33.3394 ], [ -88.4934, 33.3537 ], [ -88.4739, 33.3681 ], [ -88.4544, 33.3825 ], [ -88.435, 33.3968 ], [ -88.4157, 33.4115 ], [ -88.3968, 33.4264 ], [ -88.3776, 33.441 ], [ -88.3581, 33.4554 ], [ -88.3384, 33.4695 ], [ -88.3284, 33.4764 ], [ -88.3082, 33.49 ], [ -88.2778, 33.5104 ], [ -88.2575, 33.5239 ], [ -88.2473, 33.5307 ], [ -88.2169, 33.551 ], [ -88.1966, 33.5646 ], [ -88.1763, 33.5781 ], [ -88.156, 33.5917 ], [ -88.1256, 33.612 ], [ -88.1155, 33.6188 ], [ -88.1053, 33.6255 ], [ -88.085, 33.6391 ], [ -88.0546, 33.6594 ], [ -88.0343, 33.673 ], [ -88.014, 33.6865 ], [ -87.9937, 33.7001 ], [ -87.9836, 33.7068 ], [ -87.9531, 33.7272 ], [ -87.9329, 33.7407 ], [ -87.9126, 33.7543 ], [ -87.8923, 33.7678 ], [ -87.8717, 33.7811 ], [ -87.8613, 33.7876 ], [ -87.8298, 33.8068 ], [ -87.8084, 33.8193 ], [ -87.7868, 33.8315 ], [ -87.7654, 33.844 ], [ -87.7443, 33.8567 ], [ -87.7235, 33.8697 ], [ -87.7132, 33.8763 ], [ -87.6826, 33.8965 ], [ -87.6623, 33.9101 ], [ -87.642, 33.9236 ], [ -87.6319, 33.9304 ], [ -87.6115, 33.9438 ], [ -87.5804, 33.9635 ], [ -87.5698, 33.9698 ], [ -87.5376, 33.9884 ], [ -87.5265, 33.9942 ], [ -87.5043, 34.0059 ], [ -87.4822, 34.0175 ], [ -87.4489, 34.035 ], [ -87.4381, 34.0411 ], [ -87.4061, 34.0599 ], [ -87.3853, 34.073 ], [ -87.3749, 34.0795 ], [ -87.3436, 34.099 ], [ -87.3226, 34.1117 ], [ -87.3009, 34.1239 ], [ -87.2898, 34.1297 ], [ -87.2676, 34.1414 ], [ -87.2341, 34.1586 ], [ -87.2114, 34.1697 ], [ -87.2001, 34.1754 ], [ -87.1665, 34.1925 ], [ -87.1437, 34.2036 ], [ -87.1213, 34.2149 ], [ -87.0988, 34.2263 ], [ -87.0875, 34.2319 ], [ -87.0649, 34.2431 ], [ -87.0424, 34.2545 ], [ -87.0085, 34.2713 ], [ -86.9972, 34.277 ], [ -86.9636, 34.2941 ], [ -86.9406, 34.3049 ], [ -86.9291, 34.3103 ], [ -86.9059, 34.321 ], [ -86.8702, 34.3361 ], [ -86.8581, 34.3408 ], [ -86.8338, 34.3504 ], [ -86.8096, 34.3601 ], [ -86.7854, 34.3697 ], [ -86.7501, 34.3851 ], [ -86.7271, 34.396 ], [ -86.7155, 34.4013 ], [ -86.6924, 34.412 ], [ -86.6576, 34.4279 ], [ -86.6335, 34.4377 ], [ -86.6214, 34.4424 ], [ -86.5971, 34.4521 ], [ -86.5729, 34.4617 ], [ -86.5367, 34.4762 ], [ -86.525, 34.4815 ], [ -86.5019, 34.4922 ], [ -86.4788, 34.5029 ], [ -86.4557, 34.5136 ], [ -86.4325, 34.5243 ], [ -86.3968, 34.5393 ], [ -86.3846, 34.5441 ], [ -86.3604, 34.5537 ], [ -86.3362, 34.5633 ], [ -86.3119, 34.5728 ], [ -86.2878, 34.5825 ], [ -86.264, 34.5926 ], [ -86.2277, 34.6071 ], [ -86.2154, 34.6117 ], [ -86.1908, 34.6209 ], [ -86.1659, 34.6298 ], [ -86.1406, 34.6384 ], [ -86.1028, 34.6512 ], [ -86.0905, 34.6558 ], [ -86.0658, 34.6651 ], [ -86.0413, 34.6744 ], [ -86.0171, 34.684 ], [ -85.9929, 34.6936 ], [ -85.9682, 34.7027 ], [ -85.9427, 34.7111 ], [ -85.9168, 34.719 ], [ -85.8769, 34.7298 ], [ -85.8633, 34.7332 ], [ -85.8363, 34.74 ], [ -85.8092, 34.7468 ], [ -85.7822, 34.7535 ], [ -85.7551, 34.7603 ], [ -85.7281, 34.7671 ], [ -85.701, 34.7739 ], [ -85.674, 34.7806 ], [ -85.6469, 34.7874 ], [ -85.6199, 34.7942 ], [ -85.5928, 34.801 ], [ -85.5658, 34.8077 ], [ -85.5387, 34.8145 ], [ -85.5116, 34.8213 ], [ -85.4846, 34.8281 ], [ -85.4575, 34.8348 ], [ -85.4305, 34.8416 ], [ -85.4034, 34.8484 ], [ -85.3764, 34.8552 ], [ -85.3493, 34.8619 ], [ -85.3223, 34.8687 ], [ -85.2952, 34.8755 ], [ -85.2682, 34.8823 ], [ -85.2411, 34.889 ], [ -85.2141, 34.8958 ], [ -85.187, 34.9026 ], [ -85.16, 34.9094 ], [ -85.1329, 34.9161 ], [ -85.1059, 34.9229 ], [ -85.0788, 34.9297 ], [ -85.0518, 34.9365 ], [ -85.0247, 34.9432 ], [ -84.9976, 34.95 ], [ -84.9706, 34.9568 ], [ -84.93, 34.9669 ], [ -84.9165, 34.9703 ], [ -84.8894, 34.9771 ], [ -84.8624, 34.9839 ], [ -84.8353, 34.9907 ], [ -84.8083, 34.9974 ], [ -84.7812, 35.0042 ], [ -84.7542, 35.011 ], [ -84.7271, 35.0178 ], [ -84.7001, 35.0245 ], [ -84.673, 35.0313 ], [ -84.646, 35.0381 ], [ -84.6189, 35.0448 ], [ -84.5919, 35.0516 ], [ -84.5648, 35.0584 ], [ -84.5378, 35.0652 ], [ -84.5107, 35.072 ], [ -84.4836, 35.0787 ], [ -84.4566, 35.0855 ], [ -84.4296, 35.0923 ], [ -84.4025, 35.099 ], [ -84.3754, 35.1058 ], [ -84.3484, 35.1126 ], [ -84.3213, 35.1194 ], [ -84.2943, 35.1261 ], [ -84.2672, 35.1329 ], [ -84.2402, 35.1397 ], [ -84.2131, 35.1465 ], [ -84.1861, 35.1532 ], [ -84.159, 35.16 ], [ -84.132, 35.1668 ], [ -84.1049, 35.1736 ], [ -84.0779, 35.1803 ], [ -84.0508, 35.1871 ], [ -84.0238, 35.1939 ], [ -83.9967, 35.2007 ], [ -83.9697, 35.2074 ], [ -83.9291, 35.2176 ], [ -83.9155, 35.221 ], [ -83.8885, 35.2278 ], [ -83.8614, 35.2345 ], [ -83.8344, 35.2413 ], [ -83.8073, 35.2481 ], [ -83.7803, 35.2549 ], [ -83.7532, 35.2616 ], [ -83.7262, 35.2684 ], [ -83.699, 35.2751 ], [ -83.6715, 35.2814 ], [ -83.6438, 35.2875 ], [ -83.6158, 35.2933 ], [ -83.5875, 35.2989 ], [ -83.5593, 35.3045 ], [ -83.5313, 35.3103 ], [ -83.5035, 35.3164 ], [ -83.4761, 35.3228 ], [ -83.4489, 35.3294 ], [ -83.4218, 35.3362 ], [ -83.3948, 35.3429 ], [ -83.3677, 35.3497 ], [ -83.3407, 35.3565 ], [ -83.3136, 35.3633 ], [ -83.2866, 35.37 ], [ -83.2595, 35.3768 ], [ -83.2325, 35.3836 ], [ -83.2054, 35.3904 ], [ -83.1784, 35.3971 ], [ -83.1513, 35.4039 ], [ -83.1243, 35.4107 ], [ -83.0972, 35.4175 ], [ -83.0702, 35.4242 ], [ -83.0431, 35.431 ], [ -83.0161, 35.4378 ], [ -82.989, 35.4446 ], [ -82.9619, 35.4513 ], [ -82.9349, 35.4581 ], [ -82.9078, 35.4649 ], [ -82.8808, 35.4716 ], [ -82.8537, 35.4784 ], [ -82.8132, 35.4886 ], [ -82.7996, 35.492 ], [ -82.7726, 35.4988 ], [ -82.7455, 35.5055 ], [ -82.7185, 35.5123 ], [ -82.6914, 35.5191 ], [ -82.6644, 35.5259 ], [ -82.6373, 35.5326 ], [ -82.5967, 35.5428 ], [ -82.5832, 35.5462 ], [ -82.5562, 35.553 ], [ -82.5291, 35.5597 ], [ -82.5021, 35.5665 ], [ -82.4615, 35.5767 ], [ -82.4478, 35.5799 ], [ -82.4204, 35.5863 ], [ -82.3926, 35.5924 ], [ -82.3646, 35.5982 ], [ -82.3364, 35.6038 ], [ -82.3081, 35.6093 ], [ -82.2801, 35.6151 ], [ -82.2524, 35.6212 ], [ -82.2249, 35.6276 ], [ -82.1977, 35.6342 ], [ -82.1707, 35.641 ], [ -82.1301, 35.6512 ], [ -82.1166, 35.6546 ], [ -82.0895, 35.6613 ], [ -82.0625, 35.6681 ], [ -82.0354, 35.6749 ], [ -82.0083, 35.6817 ], [ -81.9813, 35.6884 ], [ -81.9542, 35.6952 ], [ -81.9272, 35.702 ], [ -81.9001, 35.7088 ], [ -81.8731, 35.7155 ], [ -81.846, 35.7223 ], [ -81.819, 35.7291 ], [ -81.7919, 35.7359 ], [ -81.7649, 35.7426 ], [ -81.7243, 35.7528 ], [ -81.7108, 35.7562 ], [ -81.6837, 35.763 ], [ -81.6567, 35.7697 ], [ -81.6296, 35.7765 ], [ -81.6025, 35.7833 ], [ -81.5755, 35.7901 ], [ -81.5485, 35.7968 ], [ -81.5214, 35.8036 ], [ -81.4943, 35.8104 ], [ -81.4672, 35.817 ], [ -81.4397, 35.8234 ], [ -81.3981, 35.8325 ], [ -81.384, 35.8353 ], [ -81.3557, 35.8409 ], [ -81.3274, 35.8464 ], [ -81.2994, 35.8523 ], [ -81.2717, 35.8584 ], [ -81.2442, 35.8647 ], [ -81.2171, 35.8714 ], [ -81.19, 35.8781 ], [ -81.163, 35.8849 ], [ -81.1359, 35.8917 ], [ -81.1088, 35.8984 ], [ -81.0818, 35.9052 ], [ -81.0547, 35.912 ], [ -81.0277, 35.9188 ], [ -81.0006, 35.9256 ], [ -80.9736, 35.9323 ], [ -80.9465, 35.9391 ], [ -80.9195, 35.9459 ], [ -80.8924, 35.9527 ], [ -80.8654, 35.9594 ], [ -80.8383, 35.9662 ], [ -80.8113, 35.973 ], [ -80.7842, 35.9798 ], [ -80.7572, 35.9865 ], [ -80.7301, 35.9933 ], [ -80.7031, 36.0001 ], [ -80.676, 36.0069 ], [ -80.649, 36.0136 ], [ -80.6219, 36.0204 ], [ -80.5948, 36.0272 ], [ -80.5678, 36.034 ], [ -80.5272, 36.0441 ], [ -80.5137, 36.0475 ], [ -80.4866, 36.0543 ], [ -80.4596, 36.0611 ], [ -80.4325, 36.0678 ], [ -80.4055, 36.0746 ], [ -80.3784, 36.0814 ], [ -80.3512, 36.088 ], [ -80.3238, 36.0944 ], [ -80.2961, 36.1005 ], [ -80.2681, 36.1063 ], [ -80.2398, 36.1119 ], [ -80.2115, 36.1174 ], [ -80.1835, 36.1233 ], [ -80.1558, 36.1293 ], [ -80.1283, 36.1357 ], [ -80.1011, 36.1424 ], [ -80.0606, 36.1525 ], [ -80.047, 36.1559 ], [ -80.02, 36.1627 ], [ -79.9929, 36.1695 ], [ -79.9659, 36.1762 ], [ -79.9388, 36.183 ], [ -79.9118, 36.1898 ], [ -79.8847, 36.1965 ], [ -79.8577, 36.2033 ], [ -79.8306, 36.2101 ], [ -79.8036, 36.2169 ], [ -79.7765, 36.2236 ], [ -79.7495, 36.2304 ], [ -79.7224, 36.2372 ], [ -79.6954, 36.244 ], [ -79.6684, 36.2509 ], [ -79.6418, 36.2581 ], [ -79.6154, 36.2655 ], [ -79.5893, 36.2732 ], [ -79.5635, 36.2812 ], [ -79.5376, 36.2892 ], [ -79.5115, 36.2969 ], [ -79.4852, 36.3044 ], [ -79.4587, 36.3117 ], [ -79.4323, 36.3192 ], [ -79.3935, 36.3311 ], [ -79.3683, 36.3398 ], [ -79.3561, 36.3445 ], [ -79.3319, 36.3541 ], [ -79.3077, 36.3637 ], [ -79.2834, 36.3732 ], [ -79.2591, 36.3829 ], [ -79.2349, 36.3925 ], [ -79.2106, 36.402 ], [ -79.1746, 36.4167 ], [ -79.1627, 36.4217 ], [ -79.1386, 36.4315 ], [ -79.1143, 36.441 ], [ -79.078, 36.4555 ], [ -79.0537, 36.465 ], [ -79.0416, 36.4698 ], [ -79.018, 36.48 ], [ -78.9948, 36.4907 ], [ -78.9603, 36.507 ], [ -78.9491, 36.5127 ], [ -78.9267, 36.524 ], [ -78.9041, 36.5353 ], [ -78.8703, 36.5522 ], [ -78.8481, 36.5639 ], [ -78.837, 36.5697 ], [ -78.8042, 36.5877 ], [ -78.7831, 36.6005 ], [ -78.7623, 36.6135 ], [ -78.7415, 36.6265 ], [ -78.7206, 36.6395 ], [ -78.6996, 36.6522 ], [ -78.6782, 36.6647 ], [ -78.6674, 36.6708 ], [ -78.6352, 36.6893 ], [ -78.6141, 36.7021 ], [ -78.5933, 36.7151 ], [ -78.583, 36.7217 ], [ -78.5524, 36.7419 ], [ -78.5324, 36.7557 ], [ -78.5126, 36.7698 ], [ -78.4931, 36.7842 ], [ -78.4739, 36.7988 ], [ -78.455, 36.8137 ], [ -78.4358, 36.8284 ], [ -78.4066, 36.8499 ], [ -78.3968, 36.8571 ], [ -78.3774, 36.8714 ], [ -78.3581, 36.8861 ], [ -78.3306, 36.9092 ], [ -78.3216, 36.9172 ], [ -78.304, 36.9335 ], [ -78.287, 36.9503 ], [ -78.2616, 36.9756 ], [ -78.2532, 36.9842 ], [ -78.2361, 37.001 ], [ -78.2194, 37.018 ], [ -78.2023, 37.0348 ], [ -78.1856, 37.0519 ], [ -78.1685, 37.0687 ], [ -78.1517, 37.0858 ], [ -78.1263, 37.1111 ], [ -78.1094, 37.1281 ], [ -78.0925, 37.145 ], [ -78.0756, 37.1619 ], [ -78.0671, 37.1703 ], [ -78.0418, 37.1958 ], [ -78.0249, 37.2128 ], [ -78.0081, 37.2298 ], [ -77.9997, 37.2383 ], [ -77.9755, 37.2649 ], [ -77.9599, 37.2832 ], [ -77.9451, 37.3022 ], [ -77.9377, 37.3118 ], [ -77.9162, 37.3411 ], [ -77.9091, 37.3508 ], [ -77.8874, 37.3799 ], [ -77.8727, 37.3991 ], [ -77.8653, 37.4085 ], [ -77.8435, 37.4375 ], [ -77.8363, 37.4473 ], [ -77.8153, 37.4771 ], [ -77.8017, 37.4973 ], [ -77.7949, 37.5075 ], [ -77.7817, 37.528 ], [ -77.7623, 37.5595 ], [ -77.7499, 37.5809 ], [ -77.738, 37.6028 ], [ -77.7263, 37.6251 ], [ -77.7148, 37.6474 ], [ -77.7036, 37.67 ], [ -77.6981, 37.6814 ], [ -77.681, 37.7152 ], [ -77.6698, 37.7378 ], [ -77.6586, 37.7604 ], [ -77.6472, 37.7829 ], [ -77.6361, 37.8057 ], [ -77.6253, 37.8287 ], [ -77.6199, 37.8402 ], [ -77.6045, 37.8756 ], [ -77.5996, 37.8876 ], [ -77.5858, 37.9246 ], [ -77.5769, 37.9496 ], [ -77.5683, 37.9749 ], [ -77.56, 38.0004 ], [ -77.5516, 38.0259 ], [ -77.5435, 38.0516 ], [ -77.5357, 38.0777 ], [ -77.5283, 38.1042 ], [ -77.5211, 38.1309 ], [ -77.5143, 38.1578 ], [ -77.5076, 38.185 ], [ -77.5013, 38.2126 ], [ -77.4952, 38.2403 ], [ -77.4894, 38.2684 ], [ -77.4838, 38.2967 ], [ -77.4783, 38.325 ], [ -77.4726, 38.3532 ], [ -77.467, 38.3815 ], [ -77.4619, 38.4102 ], [ -77.4574, 38.4396 ], [ -77.4541, 38.4701 ], [ -77.4519, 38.5018 ], [ -77.4507, 38.5345 ], [ -77.4501, 38.5678 ], [ -77.45, 38.6016 ], [ -77.45, 38.6354 ], [ -77.45, 38.6693 ], [ -77.4501, 38.703 ], [ -77.4507, 38.7364 ], [ -77.4519, 38.769 ], [ -77.4541, 38.8007 ], [ -77.4574, 38.8312 ], [ -77.4619, 38.8606 ], [ -77.4669, 38.8895 ], [ -77.4721, 38.9182 ], [ -77.477, 38.9471 ], [ -77.4816, 38.9763 ], [ -77.486, 39.0059 ], [ -77.4907, 39.035 ], [ -77.4963, 39.0633 ], [ -77.5026, 39.0908 ], [ -77.5098, 39.1175 ], [ -77.514, 39.1303 ], [ -77.522, 39.1561 ], [ -77.5345, 39.1943 ], [ -77.5429, 39.2198 ], [ -77.5514, 39.2452 ], [ -77.56, 39.2705 ], [ -77.5683, 39.296 ], [ -77.5769, 39.3213 ], [ -77.5858, 39.3462 ], [ -77.595, 39.3709 ], [ -77.6045, 39.3953 ], [ -77.6146, 39.419 ], [ -77.6253, 39.4422 ], [ -77.6361, 39.4652 ], [ -77.6472, 39.488 ], [ -77.6586, 39.5105 ], [ -77.6698, 39.5331 ], [ -77.681, 39.5557 ], [ -77.6925, 39.5781 ], [ -77.6983, 39.5892 ], [ -77.7161, 39.6222 ], [ -77.7285, 39.6437 ], [ -77.7414, 39.6647 ], [ -77.748, 39.6749 ], [ -77.7679, 39.7058 ], [ -77.7746, 39.716 ], [ -77.7949, 39.7465 ], [ -77.8017, 39.7567 ], [ -77.8152, 39.777 ], [ -77.8355, 39.8075 ], [ -77.8492, 39.8276 ], [ -77.8631, 39.8476 ], [ -77.8773, 39.8672 ], [ -77.8918, 39.8866 ], [ -77.9065, 39.9057 ], [ -77.9213, 39.9248 ], [ -77.9357, 39.9442 ], [ -77.9501, 39.9637 ], [ -77.9644, 39.9832 ], [ -77.9789, 40.0026 ], [ -77.9937, 40.0215 ], [ -78.0093, 40.0398 ], [ -78.0254, 40.0576 ], [ -78.0419, 40.0749 ], [ -78.0587, 40.092 ], [ -78.0756, 40.1089 ], [ -78.1009, 40.1344 ], [ -78.1094, 40.1428 ], [ -78.135, 40.168 ], [ -78.1438, 40.1761 ], [ -78.1615, 40.1923 ], [ -78.1797, 40.2078 ], [ -78.2083, 40.2301 ], [ -78.218, 40.2372 ], [ -78.2472, 40.2588 ], [ -78.2568, 40.2661 ], [ -78.2851, 40.2886 ], [ -78.2942, 40.2965 ], [ -78.3214, 40.32 ], [ -78.3304, 40.3279 ], [ -78.3582, 40.3509 ], [ -78.3678, 40.3582 ], [ -78.3968, 40.3799 ], [ -78.4066, 40.3871 ], [ -78.4261, 40.4015 ], [ -78.4454, 40.416 ], [ -78.4739, 40.4382 ], [ -78.4837, 40.4454 ], [ -78.5034, 40.4594 ], [ -78.534, 40.4796 ], [ -78.5445, 40.486 ], [ -78.5767, 40.5046 ], [ -78.5981, 40.517 ], [ -78.6087, 40.5234 ], [ -78.64, 40.5428 ], [ -78.6609, 40.5558 ], [ -78.6713, 40.5623 ], [ -78.6923, 40.5752 ], [ -78.7244, 40.5937 ], [ -78.7466, 40.6054 ], [ -78.7688, 40.617 ], [ -78.8026, 40.634 ], [ -78.814, 40.6395 ], [ -78.8252, 40.6452 ], [ -78.8703, 40.6678 ], [ -78.8816, 40.6734 ], [ -78.8928, 40.6791 ], [ -78.9265, 40.6962 ], [ -78.9492, 40.7073 ], [ -78.9605, 40.713 ], [ -79.0057, 40.7355 ], [ -79.0172, 40.7409 ], [ -79.0287, 40.7463 ], [ -79.0518, 40.757 ], [ -79.0998, 40.7766 ], [ -79.1244, 40.7859 ], [ -79.1367, 40.7905 ], [ -79.1746, 40.8033 ], [ -79.2, 40.8117 ], [ -79.2127, 40.8159 ], [ -79.2379, 40.8246 ], [ -79.2633, 40.833 ], [ -79.3015, 40.8456 ], [ -79.3268, 40.8541 ], [ -79.3393, 40.8585 ], [ -79.3775, 40.8711 ], [ -79.3902, 40.8753 ], [ -79.4283, 40.8879 ], [ -79.454, 40.896 ], [ -79.467, 40.8999 ], [ -79.5065, 40.9112 ], [ -79.5198, 40.9149 ], [ -79.5601, 40.9253 ], [ -79.5871, 40.9321 ], [ -79.6142, 40.9388 ], [ -79.6413, 40.9456 ], [ -79.6548, 40.949 ], [ -79.6818, 40.9558 ], [ -79.7089, 40.9625 ], [ -79.75, 40.9722 ], [ -79.7638, 40.9753 ], [ -79.8057, 40.9841 ], [ -79.834, 40.9896 ], [ -79.8623, 40.9952 ], [ -79.8904, 41.0009 ], [ -79.9187, 41.0064 ], [ -79.9473, 41.0116 ], [ -79.9767, 41.0161 ], [ -80.007, 41.0196 ], [ -80.0381, 41.0223 ], [ -80.0695, 41.0247 ], [ -80.0852, 41.026 ], [ -80.116, 41.0289 ], [ -80.1603, 41.0354 ], [ -80.1891, 41.0405 ], [ -80.2179, 41.0455 ], [ -80.2324, 41.0479 ], [ -80.2777, 41.0533 ], [ -80.3093, 41.0555 ], [ -80.3419, 41.0567 ], [ -80.3752, 41.0573 ], [ -80.4089, 41.0574 ], [ -80.4427, 41.0574 ], [ -80.4765, 41.0574 ], [ -80.5103, 41.0574 ], [ -80.5441, 41.0574 ], [ -80.5779, 41.0574 ], [ -80.6118, 41.0574 ], [ -80.6456, 41.0574 ], [ -80.6794, 41.0574 ], [ -80.7132, 41.0574 ], [ -80.747, 41.0574 ], [ -80.7808, 41.0574 ], [ -80.8147, 41.0574 ], [ -80.8483, 41.0573 ], [ -80.8816, 41.0567 ], [ -80.9142, 41.0555 ], [ -80.9298, 41.0541 ], [ -80.9763, 41.0499 ], [ -81.0057, 41.0455 ], [ -81.0345, 41.0405 ], [ -81.0633, 41.0354 ], [ -81.0925, 41.0308 ], [ -81.1224, 41.0269 ], [ -81.1528, 41.0235 ], [ -81.1832, 41.0201 ], [ -81.2132, 41.0162 ], [ -81.2424, 41.0116 ], [ -81.271, 41.0064 ], [ -81.2993, 41.0009 ], [ -81.3274, 40.9952 ], [ -81.3557, 40.9896 ], [ -81.384, 40.9841 ], [ -81.4121, 40.9784 ], [ -81.4403, 40.9727 ], [ -81.4684, 40.967 ], [ -81.4965, 40.9613 ], [ -81.5248, 40.9558 ], [ -81.5529, 40.9501 ], [ -81.5805, 40.9438 ], [ -81.6076, 40.9371 ], [ -81.6341, 40.9298 ], [ -81.66, 40.9219 ], [ -81.6859, 40.9139 ], [ -81.712, 40.9062 ], [ -81.7384, 40.8987 ], [ -81.765, 40.8915 ], [ -81.7918, 40.8845 ], [ -81.8184, 40.8773 ], [ -81.8448, 40.8699 ], [ -81.8708, 40.862 ], [ -81.8961, 40.8535 ], [ -81.9331, 40.8398 ], [ -81.9453, 40.835 ], [ -81.9694, 40.8253 ], [ -81.9932, 40.8153 ], [ -82.0173, 40.8055 ], [ -82.0416, 40.796 ], [ -82.0658, 40.7864 ], [ -82.09, 40.7768 ], [ -82.1143, 40.7672 ], [ -82.1379, 40.757 ], [ -82.1611, 40.7463 ], [ -82.1841, 40.7355 ], [ -82.2068, 40.7243 ], [ -82.2292, 40.713 ], [ -82.2518, 40.7017 ], [ -82.2744, 40.6905 ], [ -82.2969, 40.6791 ], [ -82.3195, 40.6678 ], [ -82.342, 40.6566 ], [ -82.3757, 40.6395 ], [ -82.3871, 40.634 ], [ -82.4097, 40.6227 ], [ -82.4321, 40.6113 ], [ -82.4547, 40.6001 ], [ -82.4885, 40.5832 ], [ -82.4998, 40.5775 ], [ -82.5337, 40.5607 ], [ -82.5449, 40.555 ], [ -82.5674, 40.5436 ], [ -82.6013, 40.5268 ], [ -82.6126, 40.5211 ], [ -82.6462, 40.504 ], [ -82.6576, 40.4985 ], [ -82.7027, 40.4759 ], [ -82.7139, 40.4701 ], [ -82.7366, 40.4591 ], [ -82.7591, 40.4477 ], [ -82.7815, 40.4363 ], [ -82.7929, 40.4307 ], [ -82.8267, 40.4138 ], [ -82.8491, 40.4024 ], [ -82.8605, 40.3969 ], [ -82.8943, 40.3799 ], [ -82.9056, 40.3742 ], [ -82.9281, 40.363 ], [ -82.9507, 40.3517 ], [ -82.973, 40.3402 ], [ -82.9952, 40.3286 ], [ -83.0171, 40.3166 ], [ -83.0491, 40.2978 ], [ -83.0699, 40.2848 ], [ -83.0907, 40.2718 ], [ -83.1116, 40.2588 ], [ -83.1327, 40.246 ], [ -83.1543, 40.2339 ], [ -83.1765, 40.2222 ], [ -83.1987, 40.2106 ], [ -83.2099, 40.2049 ], [ -83.2438, 40.1881 ], [ -83.2551, 40.1824 ], [ -83.2887, 40.1653 ], [ -83.3001, 40.1597 ], [ -83.3227, 40.1485 ], [ -83.3564, 40.1314 ], [ -83.3791, 40.1203 ], [ -83.3903, 40.1146 ], [ -83.424, 40.0976 ], [ -83.4354, 40.092 ], [ -83.458, 40.0808 ], [ -83.4804, 40.0694 ], [ -83.5144, 40.0526 ], [ -83.5368, 40.0412 ], [ -83.5593, 40.0298 ], [ -83.5706, 40.0243 ], [ -83.5932, 40.013 ], [ -83.6269, 39.9959 ], [ -83.6383, 39.9904 ], [ -83.6721, 39.9734 ], [ -83.6945, 39.9621 ], [ -83.7059, 39.9565 ], [ -83.7397, 39.9396 ], [ -83.751, 39.9339 ], [ -83.7735, 39.9226 ], [ -83.7961, 39.9114 ], [ -83.8298, 39.8943 ], [ -83.8412, 39.8888 ], [ -83.8638, 39.8775 ], [ -83.8862, 39.8661 ], [ -83.9202, 39.8493 ], [ -83.9314, 39.8436 ], [ -83.9538, 39.8323 ], [ -83.9878, 39.8155 ], [ -84.0102, 39.8041 ], [ -84.0215, 39.7984 ], [ -84.0554, 39.7816 ], [ -84.0779, 39.7702 ], [ -84.0891, 39.7645 ], [ -84.1117, 39.7533 ], [ -84.1455, 39.7363 ], [ -84.1567, 39.7306 ], [ -84.1793, 39.7194 ], [ -84.2019, 39.7081 ], [ -84.2356, 39.6911 ], [ -84.2583, 39.68 ], [ -84.2808, 39.6686 ], [ -84.292, 39.6629 ], [ -84.3146, 39.6516 ], [ -84.3484, 39.6347 ], [ -84.3596, 39.629 ], [ -84.3936, 39.6122 ], [ -84.4048, 39.6065 ], [ -84.4385, 39.5895 ], [ -84.4498, 39.5839 ], [ -84.4837, 39.567 ], [ -84.4949, 39.5613 ], [ -84.5175, 39.55 ], [ -84.54, 39.5388 ], [ -84.5737, 39.5217 ], [ -84.5851, 39.5161 ], [ -84.6189, 39.4992 ], [ -84.6414, 39.4878 ], [ -84.6527, 39.4823 ], [ -84.6753, 39.471 ], [ -84.709, 39.454 ], [ -84.7204, 39.4484 ], [ -84.743, 39.4372 ], [ -84.7766, 39.4201 ], [ -84.788, 39.4145 ], [ -84.8106, 39.4033 ], [ -84.8443, 39.3862 ], [ -84.867, 39.3751 ], [ -84.8782, 39.3694 ], [ -84.9007, 39.358 ], [ -84.9346, 39.3412 ], [ -84.9458, 39.3355 ], [ -84.9683, 39.3242 ], [ -84.9909, 39.3129 ], [ -85.0247, 39.296 ], [ -85.0472, 39.2846 ], [ -85.0585, 39.279 ], [ -85.0811, 39.2678 ], [ -85.1148, 39.2507 ], [ -85.1262, 39.2452 ], [ -85.1487, 39.2339 ], [ -85.1712, 39.2225 ], [ -85.1938, 39.2113 ], [ -85.2164, 39.2 ], [ -85.2501, 39.183 ], [ -85.2728, 39.1719 ], [ -85.2952, 39.1605 ], [ -85.3177, 39.1491 ], [ -85.329, 39.1435 ], [ -85.3629, 39.1266 ], [ -85.3741, 39.1209 ], [ -85.408, 39.1041 ], [ -85.4305, 39.0927 ], [ -85.4417, 39.087 ], [ -85.4757, 39.0702 ], [ -85.4869, 39.0645 ], [ -85.5206, 39.0475 ], [ -85.5319, 39.0419 ], [ -85.5545, 39.0307 ], [ -85.577, 39.0193 ], [ -85.5996, 39.008 ], [ -85.6334, 38.9911 ], [ -85.6558, 38.9797 ], [ -85.6672, 38.9742 ], [ -85.6898, 38.9629 ], [ -85.7121, 38.9514 ], [ -85.7454, 38.9339 ], [ -85.767, 38.9217 ], [ -85.7776, 38.9154 ], [ -85.7985, 38.9025 ], [ -85.8298, 38.883 ], [ -85.8506, 38.87 ], [ -85.8612, 38.8636 ], [ -85.8934, 38.845 ], [ -85.9045, 38.8392 ], [ -85.9377, 38.8217 ], [ -85.949, 38.816 ], [ -85.9715, 38.8048 ], [ -85.9941, 38.7936 ], [ -86.0278, 38.7765 ], [ -86.0505, 38.7654 ], [ -86.0618, 38.7597 ], [ -86.0954, 38.7426 ], [ -86.1068, 38.7371 ], [ -86.1294, 38.7258 ], [ -86.1519, 38.7144 ], [ -86.1744, 38.7032 ], [ -86.2083, 38.6862 ], [ -86.2195, 38.6805 ], [ -86.2534, 38.6638 ], [ -86.2759, 38.6524 ], [ -86.2871, 38.6467 ], [ -86.3211, 38.6299 ], [ -86.3323, 38.6242 ], [ -86.3657, 38.6069 ], [ -86.3879, 38.5952 ], [ -86.3987, 38.5891 ], [ -86.4306, 38.5703 ], [ -86.441, 38.5638 ], [ -86.4723, 38.5443 ], [ -86.4931, 38.5312 ], [ -86.5142, 38.5185 ], [ -86.525, 38.5124 ], [ -86.558, 38.4947 ], [ -86.5691, 38.4888 ], [ -86.5915, 38.4773 ], [ -86.614, 38.4661 ], [ -86.6479, 38.4491 ], [ -86.6591, 38.4434 ], [ -86.6817, 38.4322 ], [ -86.7155, 38.4153 ], [ -86.7377, 38.4036 ], [ -86.7488, 38.3978 ], [ -86.7815, 38.3798 ], [ -86.8026, 38.367 ], [ -86.813, 38.3605 ], [ -86.8339, 38.3475 ], [ -86.8651, 38.328 ], [ -86.8756, 38.3216 ], [ -86.897, 38.3092 ], [ -86.9189, 38.2972 ], [ -86.9522, 38.2798 ], [ -86.9747, 38.2684 ], [ -86.986, 38.2628 ], [ -87.0086, 38.2516 ], [ -87.042, 38.2342 ], [ -87.0531, 38.2284 ], [ -87.0858, 38.2104 ], [ -87.1069, 38.1977 ], [ -87.1278, 38.1847 ], [ -87.1486, 38.1716 ], [ -87.159, 38.1651 ], [ -87.18, 38.1523 ], [ -87.2119, 38.1334 ], [ -87.2227, 38.1273 ], [ -87.2442, 38.115 ], [ -87.276, 38.096 ], [ -87.2864, 38.0895 ], [ -87.3177, 38.07 ], [ -87.3385, 38.057 ], [ -87.3596, 38.0443 ], [ -87.3703, 38.038 ], [ -87.4026, 38.0196 ], [ -87.424, 38.0072 ], [ -87.4346, 38.0008 ], [ -87.4659, 37.9814 ], [ -87.4972, 37.9619 ], [ -87.5076, 37.9554 ], [ -87.5181, 37.949 ], [ -87.5394, 37.9364 ], [ -87.5717, 37.918 ], [ -87.5824, 37.9118 ], [ -87.6142, 37.8928 ], [ -87.6246, 37.8863 ], [ -87.6556, 37.8665 ], [ -87.6759, 37.853 ], [ -87.6961, 37.8394 ], [ -87.7164, 37.8259 ], [ -87.7367, 37.8123 ], [ -87.7573, 37.799 ], [ -87.7677, 37.7925 ], [ -87.7887, 37.7797 ], [ -87.8206, 37.7608 ], [ -87.8314, 37.7547 ], [ -87.8636, 37.7362 ], [ -87.8847, 37.7234 ], [ -87.9055, 37.7104 ], [ -87.9158, 37.7038 ], [ -87.9362, 37.6904 ], [ -87.9768, 37.6633 ], [ -87.987, 37.6565 ], [ -87.9971, 37.6497 ], [ -88.0278, 37.6297 ], [ -88.0382, 37.6232 ], [ -88.0697, 37.6039 ], [ -88.0914, 37.5917 ], [ -88.1136, 37.5801 ], [ -88.1357, 37.5684 ], [ -88.1582, 37.557 ], [ -88.1696, 37.5515 ], [ -88.2034, 37.5346 ], [ -88.2145, 37.5287 ], [ -88.2367, 37.5171 ], [ -88.2694, 37.499 ], [ -88.2799, 37.4927 ], [ -88.3113, 37.4733 ], [ -88.3322, 37.4603 ], [ -88.353, 37.4473 ], [ -88.3635, 37.4409 ], [ -88.3957, 37.4224 ], [ -88.4068, 37.4165 ], [ -88.429, 37.4049 ], [ -88.4623, 37.3874 ], [ -88.4734, 37.3816 ], [ -88.5061, 37.3635 ], [ -88.5272, 37.3508 ], [ -88.5376, 37.3443 ], [ -88.5787, 37.3178 ], [ -88.5889, 37.311 ], [ -88.6092, 37.2974 ], [ -88.6295, 37.2839 ], [ -88.6497, 37.2703 ], [ -88.66, 37.2637 ], [ -88.6911, 37.2441 ], [ -88.7017, 37.2377 ], [ -88.7336, 37.2188 ], [ -88.7552, 37.2067 ], [ -88.7659, 37.2004 ], [ -88.7977, 37.1815 ], [ -88.8081, 37.1749 ], [ -88.8391, 37.1552 ], [ -88.8594, 37.1416 ], [ -88.8898, 37.1213 ], [ -88.9, 37.1145 ], [ -88.9101, 37.1077 ], [ -88.9406, 37.0874 ], [ -88.9709, 37.067 ], [ -88.9809, 37.06 ], [ -89.0006, 37.046 ], [ -89.0201, 37.0316 ], [ -89.0393, 37.017 ], [ -89.0678, 36.9947 ], [ -89.0774, 36.9874 ], [ -89.1068, 36.966 ], [ -89.1167, 36.959 ], [ -89.1468, 36.9384 ], [ -89.157, 36.9316 ], [ -89.1874, 36.9113 ], [ -89.1976, 36.9045 ], [ -89.2176, 36.8907 ], [ -89.2373, 36.8766 ], [ -89.2659, 36.8544 ], [ -89.2752, 36.8468 ], [ -89.2933, 36.8311 ], [ -89.3114, 36.8154 ], [ -89.3296, 36.7996 ], [ -89.3482, 36.7845 ], [ -89.3675, 36.7698 ], [ -89.3869, 36.7555 ], [ -89.416, 36.7338 ], [ -89.4256, 36.7265 ], [ -89.4443, 36.7113 ], [ -89.4624, 36.6956 ], [ -89.4715, 36.6877 ], [ -89.4987, 36.6641 ], [ -89.5173, 36.649 ], [ -89.5365, 36.6343 ], [ -89.556, 36.62 ], [ -89.5755, 36.6056 ], [ -89.5947, 36.591 ], [ -89.6134, 36.5758 ], [ -89.6312, 36.5598 ], [ -89.6488, 36.5435 ], [ -89.6659, 36.5267 ], [ -89.6829, 36.5099 ], [ -89.6997, 36.4929 ], [ -89.7167, 36.4761 ], [ -89.7335, 36.459 ], [ -89.7505, 36.4422 ], [ -89.7673, 36.4251 ], [ -89.7843, 36.4083 ], [ -89.8011, 36.3912 ], [ -89.8181, 36.3744 ], [ -89.8349, 36.3574 ], [ -89.852, 36.3406 ], [ -89.8687, 36.3235 ], [ -89.8858, 36.3067 ], [ -89.9026, 36.2896 ], [ -89.9196, 36.2728 ], [ -89.9364, 36.2558 ], [ -89.9534, 36.239 ], [ -89.9702, 36.2219 ], [ -89.9872, 36.2051 ], [ -90.004, 36.188 ], [ -90.021, 36.1712 ], [ -90.0378, 36.1541 ], [ -90.0549, 36.1373 ], [ -90.0716, 36.1203 ], [ -90.0887, 36.1035 ], [ -90.1054, 36.0864 ], [ -90.1225, 36.0696 ], [ -90.1393, 36.0525 ], [ -90.1563, 36.0357 ], [ -90.1731, 36.0186 ], [ -90.1901, 36.0018 ], [ -90.2069, 35.9848 ], [ -90.2318, 35.9589 ], [ -90.2479, 35.9411 ], [ -90.2634, 35.9228 ], [ -90.271, 35.9135 ], [ -90.2928, 35.8845 ], [ -90.3071, 35.865 ], [ -90.3143, 35.8552 ], [ -90.3365, 35.8267 ], [ -90.3441, 35.8173 ], [ -90.3681, 35.7906 ], [ -90.3762, 35.7818 ], [ -90.393, 35.7647 ], [ -90.4098, 35.7477 ], [ -90.4268, 35.7308 ], [ -90.4436, 35.7138 ], [ -90.4606, 35.697 ], [ -90.4774, 35.6799 ], [ -90.4945, 35.6631 ], [ -90.5112, 35.646 ], [ -90.5283, 35.6292 ], [ -90.545, 35.6122 ], [ -90.5621, 35.5954 ], [ -90.5789, 35.5783 ], [ -90.5956, 35.5612 ], [ -90.6119, 35.5436 ], [ -90.6354, 35.5164 ], [ -90.643, 35.507 ], [ -90.6648, 35.478 ], [ -90.6719, 35.4683 ], [ -90.6863, 35.4487 ], [ -90.7084, 35.4202 ], [ -90.716, 35.4108 ], [ -90.7401, 35.3841 ], [ -90.7482, 35.3753 ], [ -90.7728, 35.3492 ], [ -90.7889, 35.3314 ], [ -90.8045, 35.3131 ], [ -90.8121, 35.3038 ], [ -90.8338, 35.2748 ], [ -90.8482, 35.2553 ], [ -90.8554, 35.2455 ], [ -90.8775, 35.2169 ], [ -90.8929, 35.1985 ], [ -90.9008, 35.1894 ], [ -90.9243, 35.1622 ], [ -90.9397, 35.1438 ], [ -90.9473, 35.1344 ], [ -90.9619, 35.1152 ], [ -90.9763, 35.0957 ], [ -90.9978, 35.0664 ], [ -91.0049, 35.0566 ], [ -91.027, 35.0279 ], [ -91.0344, 35.0184 ], [ -91.0562, 34.9894 ], [ -91.0634, 34.9797 ], [ -91.0774, 34.9599 ], [ -91.0912, 34.9398 ], [ -91.1048, 34.9195 ], [ -91.1251, 34.889 ], [ -91.1386, 34.8687 ], [ -91.1521, 34.8484 ], [ -91.1589, 34.8382 ], [ -91.1724, 34.8179 ], [ -91.1859, 34.7976 ], [ -91.2062, 34.7671 ], [ -91.2197, 34.7468 ], [ -91.2265, 34.7366 ], [ -91.24, 34.7163 ], [ -91.2603, 34.6858 ], [ -91.2738, 34.6655 ], [ -91.2806, 34.6553 ], [ -91.3009, 34.6248 ], [ -91.3077, 34.6147 ], [ -91.3279, 34.5842 ], [ -91.3347, 34.574 ], [ -91.3482, 34.5537 ], [ -91.3685, 34.5232 ], [ -91.3819, 34.5027 ], [ -91.3885, 34.4924 ], [ -91.4015, 34.4716 ], [ -91.4205, 34.4397 ], [ -91.4267, 34.429 ], [ -91.4451, 34.3966 ], [ -91.4577, 34.3754 ], [ -91.4705, 34.3544 ], [ -91.477, 34.3439 ], [ -91.49, 34.3231 ], [ -91.503, 34.3022 ], [ -91.5157, 34.2811 ], [ -91.5279, 34.2594 ], [ -91.5453, 34.2261 ], [ -91.5568, 34.2037 ], [ -91.568, 34.1811 ], [ -91.5793, 34.1584 ], [ -91.5906, 34.136 ], [ -91.6019, 34.1133 ], [ -91.6074, 34.1019 ], [ -91.6245, 34.0682 ], [ -91.6357, 34.0456 ], [ -91.6469, 34.023 ], [ -91.6583, 34.0005 ], [ -91.6639, 33.9892 ], [ -91.6807, 33.9552 ], [ -91.6921, 33.9327 ], [ -91.7033, 33.9101 ], [ -91.7145, 33.8875 ], [ -91.7259, 33.865 ], [ -91.7371, 33.8423 ], [ -91.7483, 33.8197 ], [ -91.7597, 33.7972 ], [ -91.7708, 33.7745 ], [ -91.7762, 33.7629 ], [ -91.7923, 33.7283 ], [ -91.8024, 33.7045 ], [ -91.8121, 33.6803 ], [ -91.8217, 33.656 ], [ -91.8313, 33.6318 ], [ -91.836, 33.6196 ], [ -91.851, 33.5838 ], [ -91.8563, 33.5722 ], [ -91.8724, 33.5375 ], [ -91.8831, 33.5143 ], [ -91.8938, 33.4911 ], [ -91.899, 33.4795 ], [ -91.9135, 33.4432 ], [ -91.9231, 33.4189 ], [ -91.9327, 33.3947 ], [ -91.9422, 33.3703 ], [ -91.9519, 33.3462 ], [ -91.9619, 33.3223 ], [ -91.9717, 33.2982 ], [ -91.981, 33.2737 ], [ -91.9902, 33.249 ], [ -91.9991, 33.2241 ], [ -92.0076, 33.1987 ], [ -92.0118, 33.186 ], [ -92.0245, 33.1479 ], [ -92.0331, 33.1226 ], [ -92.0373, 33.1099 ], [ -92.0457, 33.0844 ], [ -92.054, 33.0589 ], [ -92.0669, 33.021 ], [ -92.0753, 32.9955 ], [ -92.0795, 32.9828 ], [ -92.0922, 32.9447 ], [ -92.0965, 32.9321 ], [ -92.1091, 32.8939 ], [ -92.1175, 32.8684 ], [ -92.1259, 32.8429 ], [ -92.134, 32.8172 ], [ -92.1417, 32.791 ], [ -92.1491, 32.7646 ], [ -92.1563, 32.7379 ], [ -92.1632, 32.711 ], [ -92.1698, 32.6837 ], [ -92.1762, 32.6562 ], [ -92.1823, 32.6285 ], [ -92.1881, 32.6004 ], [ -92.1936, 32.5721 ], [ -92.1992, 32.5438 ], [ -92.2048, 32.5156 ], [ -92.2105, 32.4874 ], [ -92.2162, 32.4592 ], [ -92.2219, 32.431 ], [ -92.2275, 32.4027 ], [ -92.233, 32.3744 ], [ -92.2387, 32.3462 ], [ -92.2442, 32.3179 ], [ -92.2494, 32.2892 ], [ -92.2538, 32.2598 ], [ -92.2573, 32.2294 ], [ -92.26, 32.1983 ], [ -92.2625, 32.1668 ], [ -92.2652, 32.1357 ], [ -92.2687, 32.1053 ], [ -92.2732, 32.0759 ], [ -92.2782, 32.047 ], [ -92.2832, 32.0182 ], [ -92.2876, 31.9888 ], [ -92.291, 31.9583 ], [ -92.2932, 31.9266 ], [ -92.2944, 31.8939 ], [ -92.2949, 31.8606 ], [ -92.2951, 31.8269 ], [ -92.2951, 31.793 ], [ -92.2951, 31.7591 ], [ -92.2951, 31.7252 ], [ -92.2951, 31.6914 ], [ -92.2951, 31.6575 ], [ -92.2951, 31.6236 ], [ -92.2949, 31.5899 ], [ -92.2944, 31.5566 ], [ -92.2932, 31.5239 ], [ -92.291, 31.4922 ], [ -92.2876, 31.4617 ], [ -92.2832, 31.4323 ], [ -92.2782, 31.4034 ], [ -92.273, 31.3747 ], [ -92.268, 31.3459 ], [ -92.2634, 31.3166 ], [ -92.2591, 31.2871 ], [ -92.2545, 31.2578 ], [ -92.2495, 31.2289 ], [ -92.2442, 31.2003 ], [ -92.2387, 31.172 ], [ -92.233, 31.1438 ], [ -92.2274, 31.1155 ], [ -92.2218, 31.0873 ], [ -92.2155, 31.0597 ], [ -92.212, 31.0463 ], [ -92.2015, 31.006 ], [ -92.1973, 30.9933 ], [ -92.1851, 30.9547 ], [ -92.1767, 30.9292 ], [ -92.1683, 30.9037 ], [ -92.1598, 30.8784 ], [ -92.1513, 30.8531 ], [ -92.1429, 30.8276 ], [ -92.1344, 30.8023 ], [ -92.1254, 30.7773 ], [ -92.1162, 30.7527 ], [ -92.1069, 30.7281 ], [ -92.0972, 30.704 ], [ -92.0872, 30.6802 ], [ -92.0727, 30.6439 ], [ -92.068, 30.6317 ], [ -92.0584, 30.6074 ], [ -92.0488, 30.5832 ], [ -92.0392, 30.5589 ], [ -92.029, 30.5352 ], [ -92.0182, 30.5122 ], [ -92.007, 30.4895 ], [ -91.9952, 30.4675 ], [ -91.9827, 30.446 ], [ -91.9699, 30.425 ], [ -91.9569, 30.4042 ], [ -91.9439, 30.3833 ], [ -91.9311, 30.3623 ], [ -91.9185, 30.341 ], [ -91.9062, 30.3195 ], [ -91.8939, 30.298 ], [ -91.8813, 30.2767 ], [ -91.8685, 30.2557 ], [ -91.8555, 30.2348 ], [ -91.8425, 30.2139 ], [ -91.8296, 30.1929 ], [ -91.8171, 30.1717 ], [ -91.8048, 30.1501 ], [ -91.786, 30.1182 ], [ -91.7793, 30.1079 ], [ -91.7658, 30.0875 ], [ -91.7517, 30.0678 ], [ -91.7371, 30.0485 ], [ -91.7224, 30.0294 ], [ -91.7079, 30.01 ], [ -91.6867, 29.9805 ], [ -91.6729, 29.9604 ], [ -91.6593, 29.9401 ], [ -91.6458, 29.9198 ], [ -91.6323, 29.8995 ], [ -91.6185, 29.8794 ], [ -91.6115, 29.8695 ], [ -91.5898, 29.8404 ], [ -91.5747, 29.8217 ], [ -91.559, 29.8035 ], [ -91.5433, 29.7854 ], [ -91.5354, 29.7763 ], [ -91.5124, 29.7485 ], [ -91.4978, 29.7293 ], [ -91.4907, 29.7195 ], [ -91.4692, 29.6903 ], [ -91.4619, 29.6806 ], [ -91.4394, 29.6523 ], [ -91.4316, 29.6432 ], [ -91.408, 29.616 ], [ -91.3923, 29.5979 ], [ -91.3772, 29.5792 ], [ -91.3626, 29.5599 ], [ -91.3482, 29.5404 ], [ -91.3411, 29.5307 ], [ -91.3266, 29.5113 ], [ -91.3042, 29.483 ], [ -91.2882, 29.4651 ], [ -91.2719, 29.4475 ], [ -91.2636, 29.4389 ], [ -91.2384, 29.4133 ], [ -91.2214, 29.3965 ], [ -91.213, 29.388 ], [ -91.1875, 29.3626 ], [ -91.1708, 29.3456 ], [ -91.1537, 29.3288 ], [ -91.1453, 29.3202 ], [ -91.1199, 29.2949 ], [ -91.1115, 29.2864 ], [ -91.0861, 29.261 ], [ -91.0693, 29.2439 ], [ -91.0523, 29.2271 ], [ -91.0439, 29.2186 ], [ -91.0185, 29.1933 ], [ -91.0101, 29.1847 ], [ -90.9846, 29.1594 ], [ -90.9679, 29.1423 ], [ -90.9508, 29.1255 ], [ -90.9341, 29.1085 ], [ -90.917, 29.0917 ], [ -90.9003, 29.0746 ], [ -90.8832, 29.0578 ], [ -90.8748, 29.0492 ], [ -90.8579, 29.0323 ], [ -90.8326, 29.0068 ], [ -90.8241, 28.9984 ], [ -90.7988, 28.973 ], [ -90.7818, 28.9562 ], [ -90.7734, 28.9476 ], [ -90.7479, 28.9223 ], [ -90.7395, 28.9137 ], [ -90.7141, 28.8884 ], [ -90.7057, 28.8799 ], [ -90.6803, 28.8545 ], [ -90.6718, 28.8461 ], [ -90.6457, 28.8215 ], [ -90.6278, 28.8055 ], [ -90.6185, 28.7979 ], [ -90.59, 28.7757 ], [ -90.5705, 28.7613 ], [ -90.551, 28.747 ], [ -90.5318, 28.7323 ], [ -90.5131, 28.7171 ], [ -90.4953, 28.7012 ], [ -90.4777, 28.6849 ], [ -90.4692, 28.6765 ], [ -90.4436, 28.6513 ], [ -90.4266, 28.6345 ], [ -90.4178, 28.6264 ], [ -90.3911, 28.6022 ], [ -90.3725, 28.5871 ], [ -90.3628, 28.5798 ], [ -90.3338, 28.5581 ], [ -90.3143, 28.5437 ], [ -90.2951, 28.5291 ], [ -90.2764, 28.5139 ], [ -90.2585, 28.4979 ], [ -90.241, 28.4817 ], [ -90.2323, 28.4734 ], [ -90.2061, 28.4489 ], [ -90.1971, 28.4409 ], [ -90.1789, 28.4253 ], [ -90.1503, 28.4031 ], [ -90.1309, 28.3887 ], [ -90.1114, 28.3743 ], [ -90.0922, 28.3597 ], [ -90.0735, 28.3445 ], [ -90.0554, 28.3288 ], [ -90.0373, 28.3131 ], [ -90.0282, 28.3052 ], [ -90.0098, 28.2898 ], [ -89.9813, 28.2676 ], [ -89.9618, 28.2532 ], [ -89.9423, 28.2389 ], [ -89.9327, 28.2315 ], [ -89.9138, 28.2166 ], [ -89.8866, 28.1931 ], [ -89.869, 28.1768 ], [ -89.852, 28.16 ], [ -89.8349, 28.1432 ], [ -89.8179, 28.1264 ], [ -89.8003, 28.1101 ], [ -89.7824, 28.0941 ], [ -89.7731, 28.0866 ], [ -89.7446, 28.0643 ], [ -89.7348, 28.0572 ], [ -89.7056, 28.0356 ], [ -89.6864, 28.021 ], [ -89.6677, 28.0058 ], [ -89.6499, 27.9898 ], [ -89.6323, 27.9736 ], [ -89.615, 27.957 ], [ -89.6062, 27.9489 ], [ -89.5795, 27.9248 ], [ -89.5702, 27.9172 ], [ -89.5417, 27.895 ], [ -89.5222, 27.8806 ], [ -89.5124, 27.8734 ], [ -89.4835, 27.8516 ], [ -89.4742, 27.844 ], [ -89.4558, 27.8286 ], [ -89.4377, 27.8129 ], [ -89.4105, 27.7893 ], [ -89.3918, 27.7741 ], [ -89.3726, 27.7595 ], [ -89.3628, 27.7523 ], [ -89.3336, 27.7308 ], [ -89.3142, 27.7164 ], [ -89.3046, 27.7091 ], [ -89.276, 27.6869 ], [ -89.2568, 27.6722 ], [ -89.2373, 27.6579 ], [ -89.2179, 27.6435 ], [ -89.1984, 27.6291 ], [ -89.1789, 27.6148 ], [ -89.1597, 27.6001 ], [ -89.1502, 27.5927 ], [ -89.1215, 27.5706 ], [ -89.1021, 27.5562 ], [ -89.0826, 27.5419 ], [ -89.0631, 27.5275 ], [ -89.0436, 27.5131 ], [ -89.0244, 27.4985 ], [ -89.0055, 27.4836 ], [ -88.9863, 27.469 ], [ -88.9668, 27.4546 ], [ -88.9471, 27.4405 ], [ -88.927, 27.4267 ], [ -88.9069, 27.4132 ], [ -88.8869, 27.3999 ], [ -88.8771, 27.3935 ], [ -88.8472, 27.3752 ], [ -88.8273, 27.3646 ], [ -88.7956, 27.3526 ], [ -88.7727, 27.3468 ] ] ] } }
]
}
