{
"type": "FeatureCollection",
"name": "al092021_2021082906_initialradii",
"features": [
{ "type": "Feature", "properties": { "RADII": 34.0, "STORMID": "al092021", "BASIN": "al", "STORMNUM": 9.0, "ADVNUM": "11A", "VALIDTIME": "2021082906", "SYNOPTIME": "2021082900", "TIMEZONE": "UTC", "TAU": 0.0, "NE": 120.0, "SE": 100.0, "SW": 80.0, "NW": 110.0 }, "geometry": { "type": "Polygon", "coordinates": [ [ [ -88.6806, 29.5121 ], [ -88.7189, 29.5103 ], [ -88.7572, 29.5078 ], [ -88.7953, 29.5048 ], [ -88.8333, 29.5012 ], [ -88.8713, 29.497 ], [ -88.9091, 29.4922 ], [ -88.9467, 29.4869 ], [ -88.9842, 29.4809 ], [ -89.0215, 29.4744 ], [ -89.0587, 29.4673 ], [ -89.0957, 29.4597 ], [ -89.1324, 29.4515 ], [ -89.169, 29.4427 ], [ -89.2053, 29.4334 ], [ -89.2414, 29.4235 ], [ -89.2772, 29.413 ], [ -89.3128, 29.4021 ], [ -89.3481, 29.3905 ], [ -89.3832, 29.3785 ], [ -89.4179, 29.3659 ], [ -89.4524, 29.3528 ], [ -89.4865, 29.3392 ], [ -89.5203, 29.3251 ], [ -89.5538, 29.3104 ], [ -89.587, 29.2953 ], [ -89.6198, 29.2796 ], [ -89.6522, 29.2635 ], [ -89.6842, 29.2469 ], [ -89.7159, 29.2298 ], [ -89.7472, 29.2122 ], [ -89.7781, 29.1942 ], [ -89.8086, 29.1757 ], [ -89.8387, 29.1568 ], [ -89.8683, 29.1374 ], [ -89.8975, 29.1176 ], [ -89.9263, 29.0974 ], [ -89.9546, 29.0767 ], [ -89.9825, 29.0556 ], [ -90.0099, 29.0341 ], [ -90.0368, 29.0122 ], [ -90.0633, 28.9899 ], [ -90.089, 28.9671 ], [ -90.114, 28.9437 ], [ -90.1381, 28.9196 ], [ -90.1613, 28.8949 ], [ -90.1836, 28.8696 ], [ -90.205, 28.8437 ], [ -90.2255, 28.8173 ], [ -90.2451, 28.7903 ], [ -90.2636, 28.7628 ], [ -90.2814, 28.735 ], [ -90.2986, 28.707 ], [ -90.3151, 28.6788 ], [ -90.331, 28.6504 ], [ -90.3463, 28.6219 ], [ -90.3609, 28.5932 ], [ -90.3749, 28.5644 ], [ -90.3882, 28.5354 ], [ -90.4009, 28.5063 ], [ -90.4129, 28.4771 ], [ -90.4243, 28.4478 ], [ -90.4351, 28.4185 ], [ -90.4452, 28.389 ], [ -90.4547, 28.3595 ], [ -90.4636, 28.33 ], [ -90.4718, 28.3004 ], [ -90.4793, 28.2707 ], [ -90.4863, 28.2411 ], [ -90.4926, 28.2114 ], [ -90.4983, 28.1817 ], [ -90.5033, 28.152 ], [ -90.5078, 28.1224 ], [ -90.5116, 28.0928 ], [ -90.5148, 28.0632 ], [ -90.5173, 28.0337 ], [ -90.5193, 28.0042 ], [ -90.5206, 27.9748 ], [ -90.5214, 27.9455 ], [ -90.5215, 27.9162 ], [ -90.5211, 27.8871 ], [ -90.5201, 27.858 ], [ -90.5184, 27.8291 ], [ -90.5162, 27.8003 ], [ -90.5134, 27.7717 ], [ -90.51, 27.7431 ], [ -90.5061, 27.7148 ], [ -90.5016, 27.6866 ], [ -90.4966, 27.6586 ], [ -90.491, 27.6307 ], [ -90.4848, 27.603 ], [ -90.4781, 27.5756 ], [ -90.4709, 27.5483 ], [ -90.4632, 27.5212 ], [ -90.4549, 27.4944 ], [ -90.4461, 27.4678 ], [ -90.4369, 27.4414 ], [ -90.4271, 27.4153 ], [ -90.4168, 27.3894 ], [ -90.406, 27.3638 ], [ -90.3948, 27.3384 ], [ -90.3831, 27.3134 ], [ -90.3709, 27.2885 ], [ -90.3583, 27.264 ], [ -90.3452, 27.2398 ], [ -90.3317, 27.2159 ], [ -90.3178, 27.1923 ], [ -90.3034, 27.1689 ], [ -90.2886, 27.1459 ], [ -90.2734, 27.1233 ], [ -90.2578, 27.1009 ], [ -90.2418, 27.0789 ], [ -90.2254, 27.0572 ], [ -90.2087, 27.0359 ], [ -90.1916, 27.0149 ], [ -90.1741, 26.9943 ], [ -90.1563, 26.9741 ], [ -90.1382, 26.9542 ], [ -90.1197, 26.9346 ], [ -90.1009, 26.9155 ], [ -90.0818, 26.8967 ], [ -90.0624, 26.8783 ], [ -90.0426, 26.8603 ], [ -90.0227, 26.8427 ], [ -90.0024, 26.8254 ], [ -89.9818, 26.8086 ], [ -89.9611, 26.7922 ], [ -89.94, 26.7761 ], [ -89.9187, 26.7605 ], [ -89.8972, 26.7453 ], [ -89.8755, 26.7304 ], [ -89.8536, 26.716 ], [ -89.8318, 26.7017 ], [ -89.8107, 26.6869 ], [ -89.7901, 26.6719 ], [ -89.77, 26.6564 ], [ -89.7505, 26.6406 ], [ -89.7315, 26.6243 ], [ -89.7129, 26.6075 ], [ -89.6948, 26.5903 ], [ -89.6772, 26.5726 ], [ -89.6595, 26.5548 ], [ -89.6415, 26.5372 ], [ -89.623, 26.5199 ], [ -89.6042, 26.5028 ], [ -89.585, 26.4859 ], [ -89.5654, 26.4694 ], [ -89.5454, 26.453 ], [ -89.5251, 26.437 ], [ -89.5044, 26.4213 ], [ -89.4833, 26.4058 ], [ -89.4619, 26.3907 ], [ -89.4402, 26.3758 ], [ -89.418, 26.3612 ], [ -89.3956, 26.347 ], [ -89.3728, 26.3331 ], [ -89.3497, 26.3195 ], [ -89.3263, 26.3063 ], [ -89.3025, 26.2934 ], [ -89.2785, 26.2808 ], [ -89.2541, 26.2686 ], [ -89.2295, 26.2567 ], [ -89.2045, 26.2452 ], [ -89.1793, 26.2341 ], [ -89.1538, 26.2234 ], [ -89.128, 26.213 ], [ -89.102, 26.203 ], [ -89.0757, 26.1934 ], [ -89.0492, 26.1842 ], [ -89.0224, 26.1754 ], [ -88.9954, 26.167 ], [ -88.9681, 26.159 ], [ -88.9407, 26.1514 ], [ -88.913, 26.1442 ], [ -88.8851, 26.1375 ], [ -88.857, 26.1312 ], [ -88.8288, 26.1253 ], [ -88.8003, 26.1198 ], [ -88.7717, 26.1148 ], [ -88.743, 26.1102 ], [ -88.7141, 26.1061 ], [ -88.685, 26.1024 ], [ -88.6558, 26.0992 ], [ -88.6264, 26.0964 ], [ -88.597, 26.0941 ], [ -88.5674, 26.0922 ], [ -88.5378, 26.0908 ], [ -88.508, 26.0899 ], [ -88.4781, 26.0894 ], [ -88.4482, 26.0894 ], [ -88.4182, 26.0899 ], [ -88.3882, 26.0908 ], [ -88.3581, 26.0923 ], [ -88.3279, 26.0942 ], [ -88.2978, 26.0965 ], [ -88.2676, 26.0994 ], [ -88.2374, 26.1028 ], [ -88.2072, 26.1066 ], [ -88.177, 26.1109 ], [ -88.1469, 26.1157 ], [ -88.1167, 26.121 ], [ -88.0866, 26.1268 ], [ -88.0566, 26.1331 ], [ -88.0266, 26.1398 ], [ -87.9966, 26.147 ], [ -87.9668, 26.1548 ], [ -87.937, 26.163 ], [ -87.9073, 26.1717 ], [ -87.8777, 26.1809 ], [ -87.8483, 26.1906 ], [ -87.8189, 26.2007 ], [ -87.7897, 26.2114 ], [ -87.7607, 26.2225 ], [ -87.7318, 26.2341 ], [ -87.703, 26.2462 ], [ -87.6745, 26.2587 ], [ -87.6461, 26.2718 ], [ -87.6179, 26.2853 ], [ -87.5899, 26.2993 ], [ -87.5621, 26.3137 ], [ -87.5346, 26.3286 ], [ -87.5073, 26.344 ], [ -87.4802, 26.3599 ], [ -87.4534, 26.3762 ], [ -87.4268, 26.3929 ], [ -87.4005, 26.4101 ], [ -87.3745, 26.4278 ], [ -87.3488, 26.4459 ], [ -87.3233, 26.4645 ], [ -87.2982, 26.4834 ], [ -87.2734, 26.5029 ], [ -87.2489, 26.5227 ], [ -87.2248, 26.543 ], [ -87.201, 26.5637 ], [ -87.1775, 26.5848 ], [ -87.1545, 26.6063 ], [ -87.1318, 26.6282 ], [ -87.1095, 26.6505 ], [ -87.0875, 26.6733 ], [ -87.066, 26.6964 ], [ -87.0449, 26.7199 ], [ -87.0242, 26.7437 ], [ -87.0039, 26.768 ], [ -86.984, 26.7926 ], [ -86.9646, 26.8175 ], [ -86.9456, 26.8429 ], [ -86.9272, 26.8685 ], [ -86.9091, 26.8945 ], [ -86.8916, 26.9209 ], [ -86.8745, 26.9475 ], [ -86.8579, 26.9745 ], [ -86.8418, 27.0018 ], [ -86.8262, 27.0294 ], [ -86.8111, 27.0573 ], [ -86.7966, 27.0855 ], [ -86.7826, 27.114 ], [ -86.7691, 27.1427 ], [ -86.7561, 27.1717 ], [ -86.7437, 27.201 ], [ -86.7318, 27.2305 ], [ -86.7205, 27.2603 ], [ -86.7098, 27.2903 ], [ -86.6997, 27.3205 ], [ -86.6901, 27.351 ], [ -86.6811, 27.3816 ], [ -86.6727, 27.4124 ], [ -86.6649, 27.4435 ], [ -86.6577, 27.4747 ], [ -86.6511, 27.5061 ], [ -86.6451, 27.5376 ], [ -86.6397, 27.5693 ], [ -86.6349, 27.6011 ], [ -86.6308, 27.6331 ], [ -86.6273, 27.6652 ], [ -86.6244, 27.6974 ], [ -86.6222, 27.7297 ], [ -86.6206, 27.7621 ], [ -86.6197, 27.7946 ], [ -86.6194, 27.8272 ], [ -86.6197, 27.8598 ], [ -86.6207, 27.8925 ], [ -86.6224, 27.9252 ], [ -86.6247, 27.9579 ], [ -86.6277, 27.9907 ], [ -86.6313, 28.0235 ], [ -86.6357, 28.0563 ], [ -86.6406, 28.0891 ], [ -86.6463, 28.1218 ], [ -86.6526, 28.1546 ], [ -86.6596, 28.1873 ], [ -86.6673, 28.2199 ], [ -86.6756, 28.2525 ], [ -86.6846, 28.285 ], [ -86.6943, 28.3174 ], [ -86.7047, 28.3497 ], [ -86.7157, 28.3819 ], [ -86.7275, 28.414 ], [ -86.7398, 28.446 ], [ -86.7529, 28.4778 ], [ -86.7666, 28.5095 ], [ -86.781, 28.5411 ], [ -86.7961, 28.5724 ], [ -86.8118, 28.6036 ], [ -86.8282, 28.6346 ], [ -86.8453, 28.6653 ], [ -86.863, 28.6959 ], [ -86.8814, 28.7262 ], [ -86.9004, 28.7564 ], [ -86.9201, 28.7862 ], [ -86.9404, 28.8158 ], [ -86.9614, 28.8451 ], [ -86.983, 28.8742 ], [ -87.0055, 28.9027 ], [ -87.0291, 28.9306 ], [ -87.0538, 28.9576 ], [ -87.0796, 28.9838 ], [ -87.1065, 29.0092 ], [ -87.1343, 29.0338 ], [ -87.1632, 29.0575 ], [ -87.193, 29.0803 ], [ -87.2238, 29.1022 ], [ -87.2552, 29.1234 ], [ -87.287, 29.1441 ], [ -87.3193, 29.1643 ], [ -87.3519, 29.1839 ], [ -87.3849, 29.203 ], [ -87.4182, 29.2216 ], [ -87.4519, 29.2397 ], [ -87.4859, 29.2572 ], [ -87.5203, 29.2741 ], [ -87.555, 29.2905 ], [ -87.5899, 29.3064 ], [ -87.6252, 29.3217 ], [ -87.6607, 29.3364 ], [ -87.6965, 29.3505 ], [ -87.7326, 29.3641 ], [ -87.7689, 29.3771 ], [ -87.8054, 29.3896 ], [ -87.8421, 29.4014 ], [ -87.8791, 29.4127 ], [ -87.9162, 29.4234 ], [ -87.9536, 29.4335 ], [ -87.9911, 29.443 ], [ -88.0287, 29.4519 ], [ -88.0665, 29.4603 ], [ -88.1044, 29.468 ], [ -88.1425, 29.4751 ], [ -88.1806, 29.4817 ], [ -88.2189, 29.4876 ], [ -88.2572, 29.493 ], [ -88.2956, 29.4977 ], [ -88.3341, 29.5018 ], [ -88.3726, 29.5054 ], [ -88.4111, 29.5083 ], [ -88.4496, 29.5107 ], [ -88.4882, 29.5124 ], [ -88.5267, 29.5135 ], [ -88.5652, 29.5141 ], [ -88.6037, 29.514 ], [ -88.6422, 29.5134 ], [ -88.6806, 29.5121 ] ] ] } },
{ "type": "Feature", "properties": { "RADII": 50.0, "STORMID": "al092021", "BASIN": "al", "STORMNUM": 9.0, "ADVNUM": "11A", "VALIDTIME": "2021082906", "SYNOPTIME": "2021082900", "TIMEZONE": "UTC", "TAU": 0.0, "NE": 70.0, "SE": 60.0, "SW": 40.0, "NW": 60.0 }, "geometry": { "type": "Polygon", "coordinates": [ [ [ -88.689, 28.6812 ], [ -88.7105, 28.6793 ], [ -88.7319, 28.6772 ], [ -88.7532, 28.6747 ], [ -88.7745, 28.6718 ], [ -88.7956, 28.6687 ], [ -88.8167, 28.6652 ], [ -88.8376, 28.6614 ], [ -88.8584, 28.6573 ], [ -88.8791, 28.6528 ], [ -88.8996, 28.6481 ], [ -88.9201, 28.643 ], [ -88.9403, 28.6376 ], [ -88.9605, 28.632 ], [ -88.9804, 28.626 ], [ -89.0002, 28.6197 ], [ -89.0199, 28.6131 ], [ -89.0394, 28.6062 ], [ -89.0587, 28.5991 ], [ -89.0778, 28.5916 ], [ -89.0967, 28.5839 ], [ -89.1155, 28.5759 ], [ -89.134, 28.5676 ], [ -89.1523, 28.559 ], [ -89.1705, 28.5502 ], [ -89.1884, 28.5411 ], [ -89.2061, 28.5317 ], [ -89.2235, 28.5221 ], [ -89.2408, 28.5122 ], [ -89.2578, 28.5021 ], [ -89.2745, 28.4917 ], [ -89.291, 28.4811 ], [ -89.3073, 28.4703 ], [ -89.3233, 28.4592 ], [ -89.3391, 28.4479 ], [ -89.3546, 28.4364 ], [ -89.3698, 28.4246 ], [ -89.3848, 28.4127 ], [ -89.3995, 28.4005 ], [ -89.4139, 28.3881 ], [ -89.428, 28.3755 ], [ -89.4419, 28.3628 ], [ -89.4554, 28.3497 ], [ -89.4684, 28.3364 ], [ -89.481, 28.3227 ], [ -89.4931, 28.3087 ], [ -89.5047, 28.2944 ], [ -89.5157, 28.2799 ], [ -89.5263, 28.265 ], [ -89.5364, 28.2499 ], [ -89.546, 28.2346 ], [ -89.5551, 28.2191 ], [ -89.5639, 28.2035 ], [ -89.5723, 28.1878 ], [ -89.5804, 28.172 ], [ -89.5881, 28.1562 ], [ -89.5955, 28.1403 ], [ -89.6024, 28.1244 ], [ -89.6091, 28.1084 ], [ -89.6154, 28.0923 ], [ -89.6213, 28.0763 ], [ -89.6268, 28.0601 ], [ -89.632, 28.044 ], [ -89.6369, 28.0278 ], [ -89.6414, 28.0117 ], [ -89.6455, 27.9955 ], [ -89.6493, 27.9793 ], [ -89.6527, 27.9631 ], [ -89.6558, 27.9469 ], [ -89.6586, 27.9308 ], [ -89.661, 27.9146 ], [ -89.663, 27.8985 ], [ -89.6647, 27.8824 ], [ -89.6661, 27.8664 ], [ -89.6671, 27.8504 ], [ -89.6678, 27.8344 ], [ -89.6682, 27.8185 ], [ -89.6682, 27.8027 ], [ -89.6679, 27.7869 ], [ -89.6673, 27.7712 ], [ -89.6663, 27.7556 ], [ -89.6651, 27.74 ], [ -89.6635, 27.7246 ], [ -89.6616, 27.7092 ], [ -89.6594, 27.6939 ], [ -89.6569, 27.6787 ], [ -89.6541, 27.6637 ], [ -89.6509, 27.6487 ], [ -89.6475, 27.6339 ], [ -89.6438, 27.6191 ], [ -89.6398, 27.6045 ], [ -89.6355, 27.5901 ], [ -89.631, 27.5757 ], [ -89.6261, 27.5615 ], [ -89.621, 27.5474 ], [ -89.6156, 27.5335 ], [ -89.61, 27.5198 ], [ -89.6041, 27.5061 ], [ -89.5979, 27.4927 ], [ -89.5915, 27.4794 ], [ -89.5848, 27.4663 ], [ -89.5779, 27.4533 ], [ -89.5708, 27.4405 ], [ -89.5634, 27.4279 ], [ -89.5558, 27.4154 ], [ -89.548, 27.4032 ], [ -89.5399, 27.3911 ], [ -89.5316, 27.3792 ], [ -89.5232, 27.3675 ], [ -89.5145, 27.356 ], [ -89.5056, 27.3447 ], [ -89.4966, 27.3336 ], [ -89.4873, 27.3227 ], [ -89.4779, 27.312 ], [ -89.4682, 27.3015 ], [ -89.4585, 27.2912 ], [ -89.4485, 27.2812 ], [ -89.4384, 27.2713 ], [ -89.4281, 27.2617 ], [ -89.4177, 27.2522 ], [ -89.4071, 27.243 ], [ -89.3964, 27.234 ], [ -89.3855, 27.2253 ], [ -89.3745, 27.2167 ], [ -89.3634, 27.2084 ], [ -89.3522, 27.2003 ], [ -89.3409, 27.1925 ], [ -89.3294, 27.1848 ], [ -89.3179, 27.1774 ], [ -89.3062, 27.1702 ], [ -89.2945, 27.1633 ], [ -89.2827, 27.1566 ], [ -89.2711, 27.1498 ], [ -89.2601, 27.1426 ], [ -89.2496, 27.1351 ], [ -89.2396, 27.1271 ], [ -89.2301, 27.1188 ], [ -89.2211, 27.11 ], [ -89.2125, 27.1007 ], [ -89.2044, 27.0909 ], [ -89.1967, 27.0807 ], [ -89.189, 27.0702 ], [ -89.1811, 27.0598 ], [ -89.173, 27.0495 ], [ -89.1646, 27.0393 ], [ -89.1559, 27.0292 ], [ -89.1469, 27.0192 ], [ -89.1378, 27.0093 ], [ -89.1283, 26.9995 ], [ -89.1186, 26.9898 ], [ -89.1087, 26.9802 ], [ -89.0985, 26.9708 ], [ -89.0881, 26.9615 ], [ -89.0774, 26.9523 ], [ -89.0665, 26.9432 ], [ -89.0554, 26.9343 ], [ -89.044, 26.9256 ], [ -89.0324, 26.9169 ], [ -89.0205, 26.9085 ], [ -89.0084, 26.9002 ], [ -88.9961, 26.8921 ], [ -88.9836, 26.8841 ], [ -88.9709, 26.8763 ], [ -88.9579, 26.8687 ], [ -88.9447, 26.8613 ], [ -88.9313, 26.8541 ], [ -88.9177, 26.847 ], [ -88.9039, 26.8402 ], [ -88.8899, 26.8335 ], [ -88.8757, 26.8271 ], [ -88.8613, 26.8209 ], [ -88.8467, 26.8148 ], [ -88.832, 26.809 ], [ -88.817, 26.8035 ], [ -88.8019, 26.7981 ], [ -88.7866, 26.793 ], [ -88.7711, 26.7881 ], [ -88.7555, 26.7834 ], [ -88.7397, 26.779 ], [ -88.7237, 26.7748 ], [ -88.7076, 26.7709 ], [ -88.6914, 26.7672 ], [ -88.675, 26.7638 ], [ -88.6585, 26.7606 ], [ -88.6418, 26.7577 ], [ -88.6251, 26.755 ], [ -88.6082, 26.7526 ], [ -88.5912, 26.7505 ], [ -88.574, 26.7486 ], [ -88.5568, 26.7471 ], [ -88.5395, 26.7458 ], [ -88.522, 26.7447 ], [ -88.5045, 26.744 ], [ -88.487, 26.7436 ], [ -88.4693, 26.7434 ], [ -88.4515, 26.7435 ], [ -88.4337, 26.7439 ], [ -88.4159, 26.7446 ], [ -88.398, 26.7456 ], [ -88.38, 26.7469 ], [ -88.362, 26.7485 ], [ -88.344, 26.7504 ], [ -88.3259, 26.7526 ], [ -88.3078, 26.7551 ], [ -88.2897, 26.7579 ], [ -88.2716, 26.761 ], [ -88.2535, 26.7644 ], [ -88.2354, 26.7681 ], [ -88.2173, 26.7722 ], [ -88.1992, 26.7765 ], [ -88.1811, 26.7812 ], [ -88.1631, 26.7861 ], [ -88.1451, 26.7914 ], [ -88.1271, 26.797 ], [ -88.1092, 26.8029 ], [ -88.0914, 26.8091 ], [ -88.0736, 26.8156 ], [ -88.0559, 26.8224 ], [ -88.0382, 26.8295 ], [ -88.0207, 26.837 ], [ -88.0032, 26.8447 ], [ -87.9858, 26.8528 ], [ -87.9687, 26.8613 ], [ -87.9517, 26.8702 ], [ -87.9351, 26.8795 ], [ -87.9188, 26.8893 ], [ -87.9028, 26.8995 ], [ -87.8871, 26.9101 ], [ -87.8718, 26.9212 ], [ -87.8568, 26.9326 ], [ -87.8422, 26.9445 ], [ -87.8278, 26.9567 ], [ -87.8137, 26.9691 ], [ -87.7998, 26.9818 ], [ -87.7861, 26.9947 ], [ -87.7726, 27.0078 ], [ -87.7594, 27.0212 ], [ -87.7464, 27.0348 ], [ -87.7337, 27.0486 ], [ -87.7212, 27.0627 ], [ -87.709, 27.077 ], [ -87.697, 27.0914 ], [ -87.6853, 27.1061 ], [ -87.6739, 27.121 ], [ -87.6627, 27.1361 ], [ -87.6518, 27.1515 ], [ -87.6413, 27.167 ], [ -87.6309, 27.1826 ], [ -87.6209, 27.1985 ], [ -87.6112, 27.2146 ], [ -87.6018, 27.2308 ], [ -87.5927, 27.2472 ], [ -87.5838, 27.2638 ], [ -87.5753, 27.2805 ], [ -87.5672, 27.2974 ], [ -87.5593, 27.3145 ], [ -87.5518, 27.3317 ], [ -87.5446, 27.3491 ], [ -87.5377, 27.3666 ], [ -87.5312, 27.3842 ], [ -87.525, 27.4019 ], [ -87.5191, 27.4198 ], [ -87.5136, 27.4378 ], [ -87.5084, 27.4559 ], [ -87.5036, 27.4742 ], [ -87.4991, 27.4925 ], [ -87.495, 27.5109 ], [ -87.4913, 27.5294 ], [ -87.4879, 27.548 ], [ -87.4849, 27.5667 ], [ -87.4822, 27.5855 ], [ -87.4799, 27.6043 ], [ -87.478, 27.6232 ], [ -87.4765, 27.6422 ], [ -87.4753, 27.6612 ], [ -87.4745, 27.6802 ], [ -87.4741, 27.6993 ], [ -87.474, 27.7185 ], [ -87.4744, 27.7376 ], [ -87.4751, 27.7568 ], [ -87.4762, 27.776 ], [ -87.4777, 27.7953 ], [ -87.4796, 27.8145 ], [ -87.4819, 27.8337 ], [ -87.4845, 27.8529 ], [ -87.4876, 27.8721 ], [ -87.491, 27.8913 ], [ -87.4948, 27.9105 ], [ -87.4991, 27.9296 ], [ -87.5037, 27.9487 ], [ -87.5087, 27.9678 ], [ -87.514, 27.9867 ], [ -87.5198, 28.0057 ], [ -87.526, 28.0246 ], [ -87.5325, 28.0434 ], [ -87.5395, 28.0621 ], [ -87.5468, 28.0808 ], [ -87.5545, 28.0994 ], [ -87.5626, 28.1178 ], [ -87.5711, 28.1362 ], [ -87.5799, 28.1545 ], [ -87.5892, 28.1726 ], [ -87.5988, 28.1907 ], [ -87.6088, 28.2086 ], [ -87.6192, 28.2264 ], [ -87.6299, 28.244 ], [ -87.6411, 28.2616 ], [ -87.6526, 28.2789 ], [ -87.6644, 28.2961 ], [ -87.6767, 28.3132 ], [ -87.6892, 28.3301 ], [ -87.7022, 28.3468 ], [ -87.7157, 28.3631 ], [ -87.7298, 28.379 ], [ -87.7446, 28.3945 ], [ -87.7601, 28.4093 ], [ -87.7762, 28.4237 ], [ -87.7929, 28.4375 ], [ -87.8102, 28.4508 ], [ -87.828, 28.4635 ], [ -87.8464, 28.4756 ], [ -87.8653, 28.4872 ], [ -87.8843, 28.4986 ], [ -87.9035, 28.5096 ], [ -87.9229, 28.5203 ], [ -87.9425, 28.5307 ], [ -87.9622, 28.5407 ], [ -87.9822, 28.5505 ], [ -88.0023, 28.5599 ], [ -88.0225, 28.5689 ], [ -88.0429, 28.5777 ], [ -88.0635, 28.5861 ], [ -88.0842, 28.5942 ], [ -88.105, 28.6019 ], [ -88.1259, 28.6093 ], [ -88.1469, 28.6164 ], [ -88.1681, 28.6231 ], [ -88.1893, 28.6295 ], [ -88.2107, 28.6355 ], [ -88.2321, 28.6412 ], [ -88.2536, 28.6465 ], [ -88.2752, 28.6516 ], [ -88.2968, 28.6562 ], [ -88.3185, 28.6605 ], [ -88.3403, 28.6645 ], [ -88.362, 28.6681 ], [ -88.3839, 28.6714 ], [ -88.4057, 28.6743 ], [ -88.4276, 28.6769 ], [ -88.4495, 28.6791 ], [ -88.4714, 28.681 ], [ -88.4932, 28.6826 ], [ -88.5151, 28.6838 ], [ -88.537, 28.6847 ], [ -88.5588, 28.6852 ], [ -88.5806, 28.6854 ], [ -88.6024, 28.6852 ], [ -88.6241, 28.6847 ], [ -88.6458, 28.6839 ], [ -88.6675, 28.6827 ], [ -88.689, 28.6812 ] ] ] } },
{ "type": "Feature", "properties": { "RADII": 64.0, "STORMID": "al092021", "BASIN": "al", "STORMNUM": 9.0, "ADVNUM": "11A", "VALIDTIME": "2021082906", "SYNOPTIME": "2021082900", "TIMEZONE": "UTC", "TAU": 0.0, "NE": 35.0, "SE": 30.0, "SW": 20.0, "NW": 30.0 }, "geometry": { "type": "Polygon", "coordinates": [ [ [ -88.6945, 28.1406 ], [ -88.7052, 28.1397 ], [ -88.7159, 28.1386 ], [ -88.7265, 28.1373 ], [ -88.7371, 28.1359 ], [ -88.7476, 28.1343 ], [ -88.758, 28.1326 ], [ -88.7685, 28.1307 ], [ -88.7788, 28.1287 ], [ -88.7891, 28.1264 ], [ -88.7993, 28.1241 ], [ -88.8095, 28.1215 ], [ -88.8196, 28.1189 ], [ -88.8296, 28.116 ], [ -88.8396, 28.1131 ], [ -88.8494, 28.1099 ], [ -88.8592, 28.1067 ], [ -88.8689, 28.1032 ], [ -88.8785, 28.0997 ], [ -88.888, 28.0959 ], [ -88.8975, 28.0921 ], [ -88.9068, 28.0881 ], [ -88.916, 28.084 ], [ -88.9252, 28.0797 ], [ -88.9342, 28.0753 ], [ -88.9431, 28.0708 ], [ -88.9519, 28.0661 ], [ -88.9607, 28.0613 ], [ -88.9692, 28.0564 ], [ -88.9777, 28.0513 ], [ -88.9861, 28.0462 ], [ -88.9943, 28.0409 ], [ -89.0024, 28.0355 ], [ -89.0104, 28.03 ], [ -89.0183, 28.0243 ], [ -89.026, 28.0186 ], [ -89.0337, 28.0127 ], [ -89.0411, 28.0068 ], [ -89.0485, 28.0007 ], [ -89.0557, 27.9945 ], [ -89.0627, 27.9882 ], [ -89.0696, 27.9819 ], [ -89.0764, 27.9754 ], [ -89.0829, 27.9687 ], [ -89.0892, 27.9619 ], [ -89.0952, 27.9549 ], [ -89.101, 27.9478 ], [ -89.1066, 27.9405 ], [ -89.1119, 27.9331 ], [ -89.117, 27.9256 ], [ -89.1218, 27.9179 ], [ -89.1264, 27.9102 ], [ -89.1308, 27.9024 ], [ -89.135, 27.8946 ], [ -89.1391, 27.8867 ], [ -89.1429, 27.8788 ], [ -89.1466, 27.8709 ], [ -89.1501, 27.8629 ], [ -89.1535, 27.8549 ], [ -89.1566, 27.8469 ], [ -89.1596, 27.8389 ], [ -89.1624, 27.8308 ], [ -89.1651, 27.8228 ], [ -89.1675, 27.8147 ], [ -89.1698, 27.8066 ], [ -89.1719, 27.7985 ], [ -89.1738, 27.7905 ], [ -89.1756, 27.7824 ], [ -89.1772, 27.7743 ], [ -89.1786, 27.7662 ], [ -89.1798, 27.7581 ], [ -89.1809, 27.7501 ], [ -89.1817, 27.7421 ], [ -89.1825, 27.734 ], [ -89.183, 27.726 ], [ -89.1834, 27.7181 ], [ -89.1836, 27.7101 ], [ -89.1837, 27.7022 ], [ -89.1835, 27.6943 ], [ -89.1833, 27.6864 ], [ -89.1828, 27.6786 ], [ -89.1822, 27.6709 ], [ -89.1815, 27.6631 ], [ -89.1806, 27.6554 ], [ -89.1795, 27.6478 ], [ -89.1783, 27.6402 ], [ -89.1769, 27.6327 ], [ -89.1754, 27.6252 ], [ -89.1737, 27.6177 ], [ -89.1719, 27.6104 ], [ -89.1699, 27.6031 ], [ -89.1678, 27.5958 ], [ -89.1655, 27.5886 ], [ -89.1632, 27.5815 ], [ -89.1606, 27.5745 ], [ -89.158, 27.5675 ], [ -89.1552, 27.5606 ], [ -89.1522, 27.5538 ], [ -89.1492, 27.5471 ], [ -89.146, 27.5404 ], [ -89.1427, 27.5338 ], [ -89.1393, 27.5273 ], [ -89.1357, 27.5209 ], [ -89.132, 27.5146 ], [ -89.1283, 27.5084 ], [ -89.1244, 27.5022 ], [ -89.1204, 27.4962 ], [ -89.1162, 27.4902 ], [ -89.112, 27.4844 ], [ -89.1077, 27.4786 ], [ -89.1033, 27.4729 ], [ -89.0988, 27.4674 ], [ -89.0941, 27.4619 ], [ -89.0894, 27.4566 ], [ -89.0846, 27.4513 ], [ -89.0798, 27.4461 ], [ -89.0748, 27.4411 ], [ -89.0697, 27.4361 ], [ -89.0646, 27.4313 ], [ -89.0594, 27.4266 ], [ -89.0541, 27.422 ], [ -89.0488, 27.4175 ], [ -89.0434, 27.4131 ], [ -89.0379, 27.4088 ], [ -89.0323, 27.4046 ], [ -89.0267, 27.4005 ], [ -89.021, 27.3966 ], [ -89.0153, 27.3928 ], [ -89.0095, 27.389 ], [ -89.0037, 27.3854 ], [ -88.9978, 27.382 ], [ -88.9919, 27.3786 ], [ -88.9861, 27.3752 ], [ -88.9806, 27.3716 ], [ -88.9754, 27.3678 ], [ -88.9704, 27.3638 ], [ -88.9656, 27.3596 ], [ -88.9611, 27.3552 ], [ -88.9568, 27.3506 ], [ -88.9528, 27.3457 ], [ -88.9489, 27.3406 ], [ -88.9451, 27.3353 ], [ -88.9412, 27.3301 ], [ -88.9371, 27.325 ], [ -88.9329, 27.3199 ], [ -88.9285, 27.3148 ], [ -88.9241, 27.3098 ], [ -88.9195, 27.3048 ], [ -88.9147, 27.2999 ], [ -88.9099, 27.2951 ], [ -88.9049, 27.2903 ], [ -88.8998, 27.2855 ], [ -88.8946, 27.2809 ], [ -88.8893, 27.2763 ], [ -88.8838, 27.2717 ], [ -88.8782, 27.2673 ], [ -88.8725, 27.2629 ], [ -88.8667, 27.2586 ], [ -88.8608, 27.2543 ], [ -88.8547, 27.2502 ], [ -88.8485, 27.2461 ], [ -88.8423, 27.2421 ], [ -88.8359, 27.2382 ], [ -88.8294, 27.2344 ], [ -88.8228, 27.2307 ], [ -88.816, 27.2271 ], [ -88.8092, 27.2236 ], [ -88.8023, 27.2201 ], [ -88.7953, 27.2168 ], [ -88.7882, 27.2136 ], [ -88.7809, 27.2105 ], [ -88.7736, 27.2074 ], [ -88.7662, 27.2045 ], [ -88.7587, 27.2017 ], [ -88.7511, 27.1991 ], [ -88.7434, 27.1965 ], [ -88.7357, 27.194 ], [ -88.7278, 27.1917 ], [ -88.7199, 27.1895 ], [ -88.7119, 27.1874 ], [ -88.7038, 27.1854 ], [ -88.6957, 27.1836 ], [ -88.6875, 27.1819 ], [ -88.6792, 27.1803 ], [ -88.6708, 27.1788 ], [ -88.6624, 27.1775 ], [ -88.6539, 27.1763 ], [ -88.6454, 27.1753 ], [ -88.6368, 27.1743 ], [ -88.6281, 27.1736 ], [ -88.6194, 27.1729 ], [ -88.6107, 27.1724 ], [ -88.6019, 27.172 ], [ -88.5931, 27.1718 ], [ -88.5842, 27.1717 ], [ -88.5753, 27.1718 ], [ -88.5664, 27.172 ], [ -88.5574, 27.1724 ], [ -88.5484, 27.1729 ], [ -88.5394, 27.1735 ], [ -88.5304, 27.1744 ], [ -88.5213, 27.1753 ], [ -88.5123, 27.1764 ], [ -88.5032, 27.1777 ], [ -88.4941, 27.1791 ], [ -88.485, 27.1807 ], [ -88.4759, 27.1824 ], [ -88.4668, 27.1843 ], [ -88.4577, 27.1863 ], [ -88.4487, 27.1885 ], [ -88.4396, 27.1908 ], [ -88.4306, 27.1933 ], [ -88.4216, 27.196 ], [ -88.4125, 27.1988 ], [ -88.4036, 27.2017 ], [ -88.3946, 27.2049 ], [ -88.3857, 27.2081 ], [ -88.3768, 27.2116 ], [ -88.368, 27.2152 ], [ -88.3592, 27.2189 ], [ -88.3504, 27.2228 ], [ -88.3417, 27.2269 ], [ -88.3331, 27.2311 ], [ -88.3247, 27.2356 ], [ -88.3163, 27.2403 ], [ -88.3082, 27.2452 ], [ -88.3001, 27.2503 ], [ -88.2923, 27.2557 ], [ -88.2846, 27.2612 ], [ -88.2771, 27.267 ], [ -88.2698, 27.2729 ], [ -88.2626, 27.279 ], [ -88.2556, 27.2853 ], [ -88.2486, 27.2916 ], [ -88.2418, 27.2981 ], [ -88.2351, 27.3047 ], [ -88.2285, 27.3114 ], [ -88.222, 27.3182 ], [ -88.2157, 27.3252 ], [ -88.2094, 27.3322 ], [ -88.2033, 27.3394 ], [ -88.1974, 27.3466 ], [ -88.1915, 27.354 ], [ -88.1858, 27.3615 ], [ -88.1803, 27.369 ], [ -88.1749, 27.3767 ], [ -88.1696, 27.3845 ], [ -88.1645, 27.3923 ], [ -88.1595, 27.4003 ], [ -88.1547, 27.4083 ], [ -88.15, 27.4165 ], [ -88.1455, 27.4247 ], [ -88.1411, 27.433 ], [ -88.1369, 27.4414 ], [ -88.1328, 27.4499 ], [ -88.1289, 27.4584 ], [ -88.1252, 27.467 ], [ -88.1216, 27.4757 ], [ -88.1182, 27.4845 ], [ -88.115, 27.4933 ], [ -88.112, 27.5022 ], [ -88.1091, 27.5112 ], [ -88.1064, 27.5202 ], [ -88.1038, 27.5292 ], [ -88.1015, 27.5384 ], [ -88.0993, 27.5475 ], [ -88.0973, 27.5568 ], [ -88.0955, 27.566 ], [ -88.0938, 27.5753 ], [ -88.0923, 27.5847 ], [ -88.0911, 27.5941 ], [ -88.09, 27.6035 ], [ -88.0891, 27.6129 ], [ -88.0883, 27.6224 ], [ -88.0878, 27.6319 ], [ -88.0875, 27.6415 ], [ -88.0873, 27.651 ], [ -88.0874, 27.6606 ], [ -88.0876, 27.6702 ], [ -88.088, 27.6798 ], [ -88.0886, 27.6894 ], [ -88.0894, 27.699 ], [ -88.0904, 27.7086 ], [ -88.0916, 27.7182 ], [ -88.093, 27.7278 ], [ -88.0946, 27.7374 ], [ -88.0963, 27.747 ], [ -88.0983, 27.7565 ], [ -88.1004, 27.7661 ], [ -88.1028, 27.7756 ], [ -88.1053, 27.7852 ], [ -88.1081, 27.7946 ], [ -88.111, 27.8041 ], [ -88.1141, 27.8135 ], [ -88.1175, 27.8229 ], [ -88.121, 27.8323 ], [ -88.1247, 27.8416 ], [ -88.1286, 27.8509 ], [ -88.1327, 27.8601 ], [ -88.1369, 27.8693 ], [ -88.1414, 27.8784 ], [ -88.1461, 27.8874 ], [ -88.1509, 27.8964 ], [ -88.1559, 27.9054 ], [ -88.1612, 27.9143 ], [ -88.1666, 27.9231 ], [ -88.1721, 27.9318 ], [ -88.1779, 27.9405 ], [ -88.1839, 27.949 ], [ -88.19, 27.9575 ], [ -88.1963, 27.966 ], [ -88.2028, 27.9743 ], [ -88.2096, 27.9824 ], [ -88.2167, 27.9904 ], [ -88.2241, 27.9981 ], [ -88.2318, 28.0055 ], [ -88.2398, 28.0126 ], [ -88.2482, 28.0195 ], [ -88.2568, 28.0261 ], [ -88.2658, 28.0324 ], [ -88.275, 28.0385 ], [ -88.2843, 28.0443 ], [ -88.2938, 28.0499 ], [ -88.3034, 28.0554 ], [ -88.3131, 28.0607 ], [ -88.3229, 28.0659 ], [ -88.3327, 28.0709 ], [ -88.3427, 28.0757 ], [ -88.3527, 28.0804 ], [ -88.3628, 28.0849 ], [ -88.373, 28.0892 ], [ -88.3832, 28.0934 ], [ -88.3935, 28.0974 ], [ -88.4039, 28.1013 ], [ -88.4143, 28.105 ], [ -88.4248, 28.1085 ], [ -88.4353, 28.1118 ], [ -88.4459, 28.115 ], [ -88.4565, 28.118 ], [ -88.4672, 28.1208 ], [ -88.4779, 28.1235 ], [ -88.4886, 28.1259 ], [ -88.4994, 28.1283 ], [ -88.5102, 28.1304 ], [ -88.521, 28.1324 ], [ -88.5319, 28.1342 ], [ -88.5427, 28.1358 ], [ -88.5536, 28.1372 ], [ -88.5645, 28.1385 ], [ -88.5754, 28.1396 ], [ -88.5863, 28.1406 ], [ -88.5972, 28.1413 ], [ -88.608, 28.1419 ], [ -88.6189, 28.1424 ], [ -88.6298, 28.1426 ], [ -88.6406, 28.1427 ], [ -88.6515, 28.1426 ], [ -88.6623, 28.1424 ], [ -88.6731, 28.1419 ], [ -88.6838, 28.1413 ], [ -88.6945, 28.1406 ] ] ] } }
]
}
