{
"type": "FeatureCollection",
"name": "al092021_2021082800_initialradii",
"features": [
{ "type": "Feature", "properties": { "RADII": 34.0, "STORMID": "al092021", "BASIN": "al", "STORMNUM": 9.0, "ADVNUM": "6A", "VALIDTIME": "2021082800", "SYNOPTIME": "2021082718", "TIMEZONE": "UTC", "TAU": 0.0, "NE": 80.0, "SE": 60.0, "SW": 40.0, "NW": 60.0 }, "geometry": { "type": "Polygon", "coordinates": [ [ [ -83.4884, 23.5652 ], [ -83.5106, 23.5615 ], [ -83.5326, 23.5575 ], [ -83.5545, 23.5531 ], [ -83.5761, 23.5483 ], [ -83.5977, 23.5432 ], [ -83.619, 23.5378 ], [ -83.6402, 23.532 ], [ -83.6612, 23.526 ], [ -83.682, 23.5195 ], [ -83.7026, 23.5128 ], [ -83.723, 23.5057 ], [ -83.7432, 23.4983 ], [ -83.7632, 23.4906 ], [ -83.783, 23.4826 ], [ -83.8025, 23.4743 ], [ -83.8218, 23.4657 ], [ -83.8409, 23.4568 ], [ -83.8597, 23.4476 ], [ -83.8783, 23.4382 ], [ -83.8966, 23.4284 ], [ -83.9146, 23.4184 ], [ -83.9325, 23.4081 ], [ -83.95, 23.3976 ], [ -83.9673, 23.3868 ], [ -83.9843, 23.3758 ], [ -84.001, 23.3645 ], [ -84.0174, 23.3529 ], [ -84.0336, 23.3412 ], [ -84.0494, 23.3292 ], [ -84.065, 23.317 ], [ -84.0802, 23.3045 ], [ -84.0952, 23.2919 ], [ -84.1099, 23.279 ], [ -84.1242, 23.266 ], [ -84.1383, 23.2528 ], [ -84.152, 23.2393 ], [ -84.1654, 23.2257 ], [ -84.1785, 23.2119 ], [ -84.1912, 23.198 ], [ -84.2037, 23.1839 ], [ -84.2158, 23.1696 ], [ -84.2276, 23.1552 ], [ -84.2391, 23.1406 ], [ -84.2502, 23.1259 ], [ -84.261, 23.1111 ], [ -84.2715, 23.0961 ], [ -84.2816, 23.081 ], [ -84.2914, 23.0658 ], [ -84.3008, 23.0505 ], [ -84.3099, 23.0351 ], [ -84.3187, 23.0196 ], [ -84.3271, 23.004 ], [ -84.3352, 22.9884 ], [ -84.343, 22.9726 ], [ -84.3504, 22.9568 ], [ -84.3574, 22.9409 ], [ -84.3642, 22.925 ], [ -84.3705, 22.909 ], [ -84.3766, 22.893 ], [ -84.3822, 22.8769 ], [ -84.3876, 22.8608 ], [ -84.3926, 22.8447 ], [ -84.3973, 22.8285 ], [ -84.4016, 22.8123 ], [ -84.4056, 22.7962 ], [ -84.4093, 22.78 ], [ -84.4126, 22.7638 ], [ -84.4156, 22.7476 ], [ -84.4182, 22.7315 ], [ -84.4206, 22.7153 ], [ -84.4225, 22.6992 ], [ -84.4242, 22.6831 ], [ -84.4255, 22.6671 ], [ -84.4266, 22.6511 ], [ -84.4273, 22.6351 ], [ -84.4276, 22.6192 ], [ -84.4277, 22.6034 ], [ -84.4274, 22.5876 ], [ -84.4269, 22.5719 ], [ -84.426, 22.5563 ], [ -84.4248, 22.5407 ], [ -84.4233, 22.5253 ], [ -84.4215, 22.5099 ], [ -84.4194, 22.4946 ], [ -84.417, 22.4794 ], [ -84.4144, 22.4644 ], [ -84.4114, 22.4494 ], [ -84.4082, 22.4345 ], [ -84.4046, 22.4198 ], [ -84.4008, 22.4052 ], [ -84.3968, 22.3907 ], [ -84.3924, 22.3764 ], [ -84.3878, 22.3622 ], [ -84.3829, 22.3481 ], [ -84.3778, 22.3342 ], [ -84.3724, 22.3204 ], [ -84.3667, 22.3068 ], [ -84.3608, 22.2933 ], [ -84.3547, 22.28 ], [ -84.3484, 22.2668 ], [ -84.3417, 22.2539 ], [ -84.3349, 22.2411 ], [ -84.3279, 22.2284 ], [ -84.3206, 22.216 ], [ -84.3131, 22.2037 ], [ -84.3054, 22.1916 ], [ -84.2975, 22.1797 ], [ -84.2894, 22.168 ], [ -84.2811, 22.1565 ], [ -84.2726, 22.1452 ], [ -84.2639, 22.1341 ], [ -84.2551, 22.1232 ], [ -84.246, 22.1125 ], [ -84.2368, 22.102 ], [ -84.2274, 22.0917 ], [ -84.2179, 22.0816 ], [ -84.2082, 22.0717 ], [ -84.1984, 22.0621 ], [ -84.1884, 22.0526 ], [ -84.1782, 22.0434 ], [ -84.168, 22.0344 ], [ -84.1576, 22.0256 ], [ -84.1471, 22.0171 ], [ -84.1364, 22.0087 ], [ -84.1256, 22.0006 ], [ -84.1148, 21.9928 ], [ -84.1038, 21.9851 ], [ -84.0927, 21.9777 ], [ -84.0816, 21.9705 ], [ -84.0703, 21.9635 ], [ -84.059, 21.9568 ], [ -84.0479, 21.95 ], [ -84.0373, 21.9429 ], [ -84.0272, 21.9353 ], [ -84.0177, 21.9274 ], [ -84.0086, 21.919 ], [ -83.9999, 21.9102 ], [ -83.9917, 21.9009 ], [ -83.9839, 21.8911 ], [ -83.9766, 21.8809 ], [ -83.9692, 21.8704 ], [ -83.9616, 21.86 ], [ -83.9538, 21.8497 ], [ -83.9458, 21.8395 ], [ -83.9374, 21.8294 ], [ -83.9289, 21.8194 ], [ -83.9201, 21.8094 ], [ -83.911, 21.7996 ], [ -83.9017, 21.7899 ], [ -83.8922, 21.7804 ], [ -83.8825, 21.7709 ], [ -83.8725, 21.7616 ], [ -83.8622, 21.7524 ], [ -83.8518, 21.7433 ], [ -83.8411, 21.7344 ], [ -83.8301, 21.7256 ], [ -83.819, 21.717 ], [ -83.8076, 21.7086 ], [ -83.796, 21.7003 ], [ -83.7842, 21.6921 ], [ -83.7722, 21.6842 ], [ -83.76, 21.6764 ], [ -83.7475, 21.6688 ], [ -83.7349, 21.6614 ], [ -83.722, 21.6541 ], [ -83.709, 21.6471 ], [ -83.6957, 21.6402 ], [ -83.6823, 21.6336 ], [ -83.6687, 21.6271 ], [ -83.6548, 21.6209 ], [ -83.6408, 21.6149 ], [ -83.6267, 21.6091 ], [ -83.6123, 21.6035 ], [ -83.5978, 21.5981 ], [ -83.5831, 21.593 ], [ -83.5683, 21.5881 ], [ -83.5533, 21.5834 ], [ -83.5381, 21.579 ], [ -83.5228, 21.5748 ], [ -83.5073, 21.5709 ], [ -83.4917, 21.5672 ], [ -83.476, 21.5637 ], [ -83.4601, 21.5606 ], [ -83.4442, 21.5577 ], [ -83.428, 21.555 ], [ -83.4118, 21.5526 ], [ -83.3955, 21.5505 ], [ -83.379, 21.5487 ], [ -83.3625, 21.5471 ], [ -83.3459, 21.5458 ], [ -83.3291, 21.5448 ], [ -83.3123, 21.544 ], [ -83.2954, 21.5436 ], [ -83.2785, 21.5434 ], [ -83.2615, 21.5436 ], [ -83.2444, 21.544 ], [ -83.2272, 21.5447 ], [ -83.21, 21.5457 ], [ -83.1928, 21.547 ], [ -83.1755, 21.5486 ], [ -83.1582, 21.5505 ], [ -83.1408, 21.5527 ], [ -83.1235, 21.5552 ], [ -83.1061, 21.558 ], [ -83.0887, 21.5611 ], [ -83.0713, 21.5646 ], [ -83.0539, 21.5683 ], [ -83.0366, 21.5723 ], [ -83.0192, 21.5767 ], [ -83.0019, 21.5814 ], [ -82.9846, 21.5863 ], [ -82.9673, 21.5916 ], [ -82.95, 21.5972 ], [ -82.9329, 21.6031 ], [ -82.9157, 21.6093 ], [ -82.8987, 21.6159 ], [ -82.8817, 21.6227 ], [ -82.8647, 21.6299 ], [ -82.8479, 21.6373 ], [ -82.8311, 21.6451 ], [ -82.8145, 21.6532 ], [ -82.7979, 21.6616 ], [ -82.7814, 21.6703 ], [ -82.7651, 21.6793 ], [ -82.7489, 21.6886 ], [ -82.7328, 21.6983 ], [ -82.7168, 21.7082 ], [ -82.701, 21.7184 ], [ -82.6853, 21.729 ], [ -82.6698, 21.7398 ], [ -82.6544, 21.7509 ], [ -82.6392, 21.7624 ], [ -82.6241, 21.7741 ], [ -82.6093, 21.7861 ], [ -82.5946, 21.7984 ], [ -82.5801, 21.811 ], [ -82.5658, 21.8238 ], [ -82.5518, 21.837 ], [ -82.5379, 21.8504 ], [ -82.5242, 21.8642 ], [ -82.5108, 21.8781 ], [ -82.4976, 21.8924 ], [ -82.4846, 21.9069 ], [ -82.4719, 21.9217 ], [ -82.4594, 21.9368 ], [ -82.4472, 21.9521 ], [ -82.4352, 21.9676 ], [ -82.4235, 21.9834 ], [ -82.412, 21.9995 ], [ -82.4009, 22.0158 ], [ -82.39, 22.0323 ], [ -82.3794, 22.0491 ], [ -82.3691, 22.0661 ], [ -82.3591, 22.0833 ], [ -82.3494, 22.1007 ], [ -82.34, 22.1184 ], [ -82.3309, 22.1363 ], [ -82.3222, 22.1544 ], [ -82.3138, 22.1726 ], [ -82.3057, 22.1911 ], [ -82.2979, 22.2098 ], [ -82.2905, 22.2286 ], [ -82.2834, 22.2476 ], [ -82.2766, 22.2668 ], [ -82.2703, 22.2862 ], [ -82.2642, 22.3058 ], [ -82.2586, 22.3255 ], [ -82.2533, 22.3453 ], [ -82.2484, 22.3653 ], [ -82.2438, 22.3854 ], [ -82.2396, 22.4057 ], [ -82.2359, 22.4261 ], [ -82.2325, 22.4466 ], [ -82.2294, 22.4673 ], [ -82.2268, 22.488 ], [ -82.2246, 22.5089 ], [ -82.2228, 22.5298 ], [ -82.2214, 22.5509 ], [ -82.2204, 22.572 ], [ -82.2198, 22.5932 ], [ -82.2196, 22.6145 ], [ -82.2198, 22.6358 ], [ -82.2204, 22.6572 ], [ -82.2215, 22.6786 ], [ -82.223, 22.7001 ], [ -82.2249, 22.7216 ], [ -82.2272, 22.7432 ], [ -82.23, 22.7647 ], [ -82.2332, 22.7863 ], [ -82.2368, 22.8079 ], [ -82.2409, 22.8295 ], [ -82.2454, 22.851 ], [ -82.2503, 22.8726 ], [ -82.2557, 22.8941 ], [ -82.2615, 22.9156 ], [ -82.2677, 22.9371 ], [ -82.2744, 22.9585 ], [ -82.2815, 22.9799 ], [ -82.289, 23.0012 ], [ -82.297, 23.0224 ], [ -82.3055, 23.0436 ], [ -82.3143, 23.0647 ], [ -82.3236, 23.0857 ], [ -82.3334, 23.1066 ], [ -82.3435, 23.1273 ], [ -82.3541, 23.148 ], [ -82.3652, 23.1686 ], [ -82.3767, 23.189 ], [ -82.3886, 23.2093 ], [ -82.4009, 23.2294 ], [ -82.4137, 23.2494 ], [ -82.4272, 23.2689 ], [ -82.4418, 23.2877 ], [ -82.4574, 23.3057 ], [ -82.4739, 23.3228 ], [ -82.4914, 23.3391 ], [ -82.5099, 23.3546 ], [ -82.5293, 23.3691 ], [ -82.5495, 23.3828 ], [ -82.5706, 23.3954 ], [ -82.5922, 23.4074 ], [ -82.614, 23.4191 ], [ -82.6359, 23.4303 ], [ -82.658, 23.4411 ], [ -82.6803, 23.4515 ], [ -82.7027, 23.4616 ], [ -82.7252, 23.4712 ], [ -82.7478, 23.4804 ], [ -82.7706, 23.4893 ], [ -82.7934, 23.4977 ], [ -82.8164, 23.5057 ], [ -82.8395, 23.5134 ], [ -82.8626, 23.5206 ], [ -82.8858, 23.5274 ], [ -82.9091, 23.5338 ], [ -82.9324, 23.5398 ], [ -82.9558, 23.5454 ], [ -82.9793, 23.5506 ], [ -83.0027, 23.5554 ], [ -83.0262, 23.5598 ], [ -83.0497, 23.5638 ], [ -83.0732, 23.5674 ], [ -83.0967, 23.5706 ], [ -83.1202, 23.5733 ], [ -83.1437, 23.5757 ], [ -83.1671, 23.5777 ], [ -83.1905, 23.5793 ], [ -83.2139, 23.5805 ], [ -83.2373, 23.5814 ], [ -83.2605, 23.5818 ], [ -83.2837, 23.5818 ], [ -83.3069, 23.5815 ], [ -83.3299, 23.5808 ], [ -83.3529, 23.5797 ], [ -83.3758, 23.5782 ], [ -83.3985, 23.5763 ], [ -83.4212, 23.5741 ], [ -83.4437, 23.5715 ], [ -83.4662, 23.5685 ], [ -83.4884, 23.5652 ] ] ] } },
{ "type": "Feature", "properties": { "RADII": 50.0, "STORMID": "al092021", "BASIN": "al", "STORMNUM": 9.0, "ADVNUM": "6A", "VALIDTIME": "2021082800", "SYNOPTIME": "2021082718", "TIMEZONE": "UTC", "TAU": 0.0, "NE": 40.0, "SE": 30.0, "SW": 0.0, "NW": 20.0 }, "geometry": { "type": "Polygon", "coordinates": [ [ [ -83.4948, 22.9004 ], [ -83.5042, 22.8967 ], [ -83.5135, 22.8929 ], [ -83.5227, 22.8889 ], [ -83.5317, 22.8848 ], [ -83.5406, 22.8805 ], [ -83.5493, 22.8761 ], [ -83.5578, 22.8716 ], [ -83.5663, 22.8669 ], [ -83.5745, 22.8621 ], [ -83.5826, 22.8572 ], [ -83.5905, 22.8522 ], [ -83.5982, 22.847 ], [ -83.6058, 22.8418 ], [ -83.6132, 22.8364 ], [ -83.6205, 22.8309 ], [ -83.6275, 22.8254 ], [ -83.6344, 22.8197 ], [ -83.6411, 22.814 ], [ -83.6477, 22.8081 ], [ -83.654, 22.8022 ], [ -83.6602, 22.7962 ], [ -83.6662, 22.7901 ], [ -83.672, 22.7839 ], [ -83.6777, 22.7777 ], [ -83.6831, 22.7714 ], [ -83.6884, 22.7651 ], [ -83.6935, 22.7587 ], [ -83.6984, 22.7523 ], [ -83.7031, 22.7458 ], [ -83.7076, 22.7392 ], [ -83.712, 22.7326 ], [ -83.7162, 22.726 ], [ -83.7201, 22.7194 ], [ -83.7239, 22.7127 ], [ -83.7275, 22.706 ], [ -83.7309, 22.6993 ], [ -83.7342, 22.6925 ], [ -83.7372, 22.6858 ], [ -83.7401, 22.679 ], [ -83.7428, 22.6723 ], [ -83.7453, 22.6655 ], [ -83.7476, 22.6587 ], [ -83.7498, 22.652 ], [ -83.7517, 22.6452 ], [ -83.7535, 22.6385 ], [ -83.7551, 22.6318 ], [ -83.7566, 22.6251 ], [ -83.7578, 22.6184 ], [ -83.7589, 22.6118 ], [ -83.7598, 22.6052 ], [ -83.7606, 22.5986 ], [ -83.7611, 22.5921 ], [ -83.7615, 22.5856 ], [ -83.7618, 22.5792 ], [ -83.7619, 22.5728 ], [ -83.7618, 22.5665 ], [ -83.7616, 22.5602 ], [ -83.7612, 22.5539 ], [ -83.7606, 22.5478 ], [ -83.7599, 22.5417 ], [ -83.7591, 22.5357 ], [ -83.7581, 22.5297 ], [ -83.7569, 22.5238 ], [ -83.7556, 22.518 ], [ -83.7542, 22.5123 ], [ -83.7526, 22.5066 ], [ -83.7509, 22.5011 ], [ -83.7491, 22.4956 ], [ -83.7472, 22.4902 ], [ -83.7451, 22.4849 ], [ -83.7429, 22.4797 ], [ -83.7406, 22.4746 ], [ -83.7381, 22.4696 ], [ -83.7355, 22.4648 ], [ -83.7329, 22.46 ], [ -83.7301, 22.4553 ], [ -83.7272, 22.4507 ], [ -83.7242, 22.4462 ], [ -83.7212, 22.4419 ], [ -83.718, 22.4376 ], [ -83.7147, 22.4335 ], [ -83.7113, 22.4295 ], [ -83.7079, 22.4256 ], [ -83.7044, 22.4218 ], [ -83.7008, 22.4182 ], [ -83.6971, 22.4147 ], [ -83.6934, 22.4112 ], [ -83.6896, 22.408 ], [ -83.6857, 22.4048 ], [ -83.6818, 22.4018 ], [ -83.6778, 22.3989 ], [ -83.6737, 22.3961 ], [ -83.6696, 22.3935 ], [ -83.6655, 22.391 ], [ -83.6613, 22.3886 ], [ -83.6571, 22.3864 ], [ -83.6529, 22.3843 ], [ -83.6486, 22.3823 ], [ -83.6443, 22.3804 ], [ -83.6399, 22.3787 ], [ -83.6356, 22.3771 ], [ -83.6312, 22.3757 ], [ -83.6268, 22.3744 ], [ -83.6225, 22.3732 ], [ -83.6181, 22.3722 ], [ -83.6137, 22.3713 ], [ -83.6093, 22.3705 ], [ -83.6049, 22.3698 ], [ -83.6005, 22.3693 ], [ -83.5962, 22.3689 ], [ -83.5918, 22.3687 ], [ -83.5875, 22.3686 ], [ -83.5832, 22.3686 ], [ -83.5789, 22.3687 ], [ -83.5747, 22.369 ], [ -83.5705, 22.3694 ], [ -83.5663, 22.3699 ], [ -83.5622, 22.3705 ], [ -83.5581, 22.3713 ], [ -83.5541, 22.3722 ], [ -83.5501, 22.3732 ], [ -83.5462, 22.3743 ], [ -83.5424, 22.3756 ], [ -83.5386, 22.3769 ], [ -83.5348, 22.3784 ], [ -83.5312, 22.38 ], [ -83.5276, 22.3817 ], [ -83.5241, 22.3835 ], [ -83.5206, 22.3854 ], [ -83.5173, 22.3874 ], [ -83.514, 22.3895 ], [ -83.5112, 22.3914 ], [ -83.5092, 22.3926 ], [ -83.5081, 22.3931 ], [ -83.5077, 22.3929 ], [ -83.5082, 22.392 ], [ -83.5093, 22.3904 ], [ -83.5112, 22.3879 ], [ -83.5138, 22.3847 ], [ -83.517, 22.3806 ], [ -83.5204, 22.3761 ], [ -83.5237, 22.3714 ], [ -83.5268, 22.3666 ], [ -83.5297, 22.3618 ], [ -83.5325, 22.3568 ], [ -83.5351, 22.3517 ], [ -83.5374, 22.3465 ], [ -83.5396, 22.3412 ], [ -83.5417, 22.3359 ], [ -83.5435, 22.3305 ], [ -83.5451, 22.3249 ], [ -83.5465, 22.3194 ], [ -83.5478, 22.3137 ], [ -83.5488, 22.308 ], [ -83.5496, 22.3022 ], [ -83.5503, 22.2964 ], [ -83.5507, 22.2905 ], [ -83.5509, 22.2846 ], [ -83.5509, 22.2786 ], [ -83.5507, 22.2726 ], [ -83.5503, 22.2666 ], [ -83.5497, 22.2606 ], [ -83.5488, 22.2545 ], [ -83.5478, 22.2484 ], [ -83.5465, 22.2423 ], [ -83.545, 22.2362 ], [ -83.5433, 22.2302 ], [ -83.5414, 22.2241 ], [ -83.5393, 22.218 ], [ -83.5369, 22.2119 ], [ -83.5344, 22.2059 ], [ -83.5316, 22.1999 ], [ -83.5286, 22.1939 ], [ -83.5254, 22.188 ], [ -83.5219, 22.1821 ], [ -83.5183, 22.1763 ], [ -83.5145, 22.1705 ], [ -83.5104, 22.1647 ], [ -83.5061, 22.1591 ], [ -83.5016, 22.1535 ], [ -83.4969, 22.1479 ], [ -83.492, 22.1425 ], [ -83.4869, 22.1371 ], [ -83.4816, 22.1318 ], [ -83.4761, 22.1267 ], [ -83.4704, 22.1216 ], [ -83.4645, 22.1166 ], [ -83.4583, 22.1117 ], [ -83.452, 22.107 ], [ -83.4455, 22.1023 ], [ -83.4389, 22.0978 ], [ -83.432, 22.0934 ], [ -83.4249, 22.0891 ], [ -83.4177, 22.085 ], [ -83.4103, 22.081 ], [ -83.4027, 22.0772 ], [ -83.3949, 22.0735 ], [ -83.387, 22.0699 ], [ -83.3789, 22.0665 ], [ -83.3706, 22.0633 ], [ -83.3622, 22.0603 ], [ -83.3537, 22.0574 ], [ -83.345, 22.0547 ], [ -83.3361, 22.0522 ], [ -83.3271, 22.0498 ], [ -83.318, 22.0477 ], [ -83.3087, 22.0457 ], [ -83.2993, 22.0439 ], [ -83.2898, 22.0423 ], [ -83.2801, 22.0409 ], [ -83.2704, 22.0398 ], [ -83.2605, 22.0388 ], [ -83.2505, 22.038 ], [ -83.2405, 22.0375 ], [ -83.2303, 22.0372 ], [ -83.22, 22.0371 ], [ -83.2097, 22.0372 ], [ -83.1993, 22.0375 ], [ -83.1888, 22.0381 ], [ -83.1782, 22.0389 ], [ -83.1676, 22.0399 ], [ -83.1571, 22.0413 ], [ -83.1468, 22.0432 ], [ -83.1368, 22.0457 ], [ -83.1272, 22.0486 ], [ -83.1178, 22.052 ], [ -83.1088, 22.0559 ], [ -83.1001, 22.0603 ], [ -83.0918, 22.0651 ], [ -83.0839, 22.0704 ], [ -83.0762, 22.076 ], [ -83.0686, 22.0817 ], [ -83.0611, 22.0876 ], [ -83.0537, 22.0936 ], [ -83.0463, 22.0998 ], [ -83.0391, 22.1061 ], [ -83.032, 22.1126 ], [ -83.0249, 22.1192 ], [ -83.018, 22.1259 ], [ -83.0112, 22.1328 ], [ -83.0045, 22.1398 ], [ -82.9979, 22.147 ], [ -82.9914, 22.1542 ], [ -82.9851, 22.1617 ], [ -82.9789, 22.1692 ], [ -82.9728, 22.1769 ], [ -82.9668, 22.1847 ], [ -82.961, 22.1926 ], [ -82.9553, 22.2006 ], [ -82.9497, 22.2088 ], [ -82.9443, 22.2171 ], [ -82.939, 22.2255 ], [ -82.9339, 22.234 ], [ -82.9289, 22.2426 ], [ -82.9241, 22.2514 ], [ -82.9194, 22.2602 ], [ -82.9149, 22.2692 ], [ -82.9106, 22.2782 ], [ -82.9064, 22.2874 ], [ -82.9024, 22.2966 ], [ -82.8985, 22.306 ], [ -82.8949, 22.3154 ], [ -82.8914, 22.325 ], [ -82.888, 22.3346 ], [ -82.8849, 22.3443 ], [ -82.8819, 22.3541 ], [ -82.8791, 22.3639 ], [ -82.8765, 22.3738 ], [ -82.8741, 22.3839 ], [ -82.8719, 22.3939 ], [ -82.8698, 22.4041 ], [ -82.868, 22.4143 ], [ -82.8663, 22.4246 ], [ -82.8649, 22.4349 ], [ -82.8636, 22.4453 ], [ -82.8626, 22.4557 ], [ -82.8617, 22.4662 ], [ -82.861, 22.4767 ], [ -82.8606, 22.4873 ], [ -82.8603, 22.4979 ], [ -82.8603, 22.5085 ], [ -82.8604, 22.5192 ], [ -82.8608, 22.5299 ], [ -82.8614, 22.5406 ], [ -82.8622, 22.5513 ], [ -82.8632, 22.5621 ], [ -82.8644, 22.5728 ], [ -82.8658, 22.5836 ], [ -82.8675, 22.5944 ], [ -82.8693, 22.6052 ], [ -82.8714, 22.616 ], [ -82.8737, 22.6267 ], [ -82.8762, 22.6375 ], [ -82.8789, 22.6483 ], [ -82.8819, 22.659 ], [ -82.885, 22.6697 ], [ -82.8884, 22.6804 ], [ -82.892, 22.6911 ], [ -82.8958, 22.7017 ], [ -82.8999, 22.7123 ], [ -82.9041, 22.7229 ], [ -82.9086, 22.7334 ], [ -82.9133, 22.7439 ], [ -82.9182, 22.7543 ], [ -82.9233, 22.7647 ], [ -82.9286, 22.775 ], [ -82.9342, 22.7853 ], [ -82.94, 22.7955 ], [ -82.946, 22.8056 ], [ -82.9521, 22.8156 ], [ -82.9585, 22.8256 ], [ -82.9654, 22.8353 ], [ -82.9729, 22.8444 ], [ -82.9811, 22.853 ], [ -82.9899, 22.861 ], [ -82.9993, 22.8685 ], [ -83.0093, 22.8753 ], [ -83.0199, 22.8815 ], [ -83.031, 22.887 ], [ -83.0427, 22.892 ], [ -83.0546, 22.8964 ], [ -83.0666, 22.9006 ], [ -83.0786, 22.9046 ], [ -83.0906, 22.9084 ], [ -83.1026, 22.9119 ], [ -83.1147, 22.9152 ], [ -83.1267, 22.9183 ], [ -83.1387, 22.9211 ], [ -83.1507, 22.9237 ], [ -83.1628, 22.9261 ], [ -83.1748, 22.9282 ], [ -83.1867, 22.9302 ], [ -83.1987, 22.9319 ], [ -83.2106, 22.9334 ], [ -83.2225, 22.9346 ], [ -83.2343, 22.9356 ], [ -83.2461, 22.9365 ], [ -83.2579, 22.9371 ], [ -83.2695, 22.9375 ], [ -83.2812, 22.9376 ], [ -83.2927, 22.9376 ], [ -83.3042, 22.9374 ], [ -83.3157, 22.9369 ], [ -83.327, 22.9363 ], [ -83.3383, 22.9354 ], [ -83.3494, 22.9344 ], [ -83.3605, 22.9331 ], [ -83.3715, 22.9317 ], [ -83.3824, 22.9301 ], [ -83.3932, 22.9283 ], [ -83.4039, 22.9263 ], [ -83.4145, 22.9241 ], [ -83.425, 22.9217 ], [ -83.4353, 22.9192 ], [ -83.4455, 22.9165 ], [ -83.4557, 22.9136 ], [ -83.4656, 22.9105 ], [ -83.4755, 22.9073 ], [ -83.4852, 22.904 ], [ -83.4948, 22.9004 ] ] ] } },
{ "type": "Feature", "properties": { "RADII": 64.0, "STORMID": "al092021", "BASIN": "al", "STORMNUM": 9.0, "ADVNUM": "6A", "VALIDTIME": "2021082800", "SYNOPTIME": "2021082718", "TIMEZONE": "UTC", "TAU": 0.0, "NE": 20.0, "SE": 0.0, "SW": 0.0, "NW": 0.0 }, "geometry": { "type": "Polygon", "coordinates": [ [ [ -83.498, 22.568 ], [ -83.5011, 22.5644 ], [ -83.5041, 22.5606 ], [ -83.507, 22.5568 ], [ -83.5097, 22.553 ], [ -83.5123, 22.5492 ], [ -83.5147, 22.5453 ], [ -83.517, 22.5413 ], [ -83.5191, 22.5374 ], [ -83.5211, 22.5334 ], [ -83.523, 22.5294 ], [ -83.5247, 22.5254 ], [ -83.5263, 22.5213 ], [ -83.5277, 22.5173 ], [ -83.529, 22.5132 ], [ -83.5301, 22.5092 ], [ -83.5311, 22.5051 ], [ -83.5319, 22.501 ], [ -83.5326, 22.497 ], [ -83.5332, 22.4929 ], [ -83.5336, 22.4889 ], [ -83.5339, 22.4849 ], [ -83.534, 22.4809 ], [ -83.534, 22.4769 ], [ -83.5338, 22.473 ], [ -83.5336, 22.4691 ], [ -83.5331, 22.4652 ], [ -83.5326, 22.4613 ], [ -83.5319, 22.4575 ], [ -83.5311, 22.4538 ], [ -83.5301, 22.45 ], [ -83.529, 22.4464 ], [ -83.5278, 22.4427 ], [ -83.5265, 22.4392 ], [ -83.525, 22.4357 ], [ -83.5234, 22.4322 ], [ -83.5217, 22.4288 ], [ -83.5198, 22.4255 ], [ -83.5179, 22.4222 ], [ -83.5158, 22.4191 ], [ -83.5136, 22.4159 ], [ -83.5113, 22.4129 ], [ -83.5091, 22.4101 ], [ -83.507, 22.4077 ], [ -83.5053, 22.4056 ], [ -83.5037, 22.4038 ], [ -83.5024, 22.4024 ], [ -83.5014, 22.4014 ], [ -83.5006, 22.4006 ], [ -83.5002, 22.4001 ], [ -83.5, 22.4 ], [ -83.5, 22.4 ], [ -83.5, 22.4 ], [ -83.5, 22.4 ], [ -83.5, 22.4 ], [ -83.5, 22.4 ], [ -83.5, 22.4 ], [ -83.5, 22.4 ], [ -83.5, 22.4 ], [ -83.5, 22.4 ], [ -83.5, 22.4 ], [ -83.5, 22.4 ], [ -83.5, 22.4 ], [ -83.5, 22.4 ], [ -83.5, 22.4 ], [ -83.5, 22.4 ], [ -83.5, 22.4 ], [ -83.5, 22.4 ], [ -83.5, 22.4 ], [ -83.5, 22.4 ], [ -83.5, 22.4 ], [ -83.5, 22.4 ], [ -83.5, 22.4 ], [ -83.5, 22.4 ], [ -83.5, 22.4 ], [ -83.5, 22.4 ], [ -83.5, 22.4 ], [ -83.5, 22.4 ], [ -83.5, 22.4 ], [ -83.5, 22.4 ], [ -83.5, 22.4 ], [ -83.5, 22.4 ], [ -83.5, 22.4 ], [ -83.5, 22.4 ], [ -83.5, 22.4 ], [ -83.5, 22.4 ], [ -83.5, 22.4 ], [ -83.5, 22.4 ], [ -83.5, 22.4 ], [ -83.5, 22.4 ], [ -83.5, 22.4 ], [ -83.5, 22.4 ], [ -83.5, 22.4 ], [ -83.5, 22.4 ], [ -83.5, 22.4 ], [ -83.5, 22.4 ], [ -83.5, 22.4 ], [ -83.5, 22.4 ], [ -83.5, 22.4 ], [ -83.5, 22.4 ], [ -83.5, 22.4 ], [ -83.5, 22.4 ], [ -83.5, 22.4 ], [ -83.5, 22.4 ], [ -83.5, 22.4 ], [ -83.5, 22.4 ], [ -83.5, 22.4 ], [ -83.5, 22.4 ], [ -83.5, 22.4 ], [ -83.5, 22.4 ], [ -83.5, 22.4 ], [ -83.5, 22.4 ], [ -83.5, 22.4 ], [ -83.5, 22.4 ], [ -83.5, 22.4 ], [ -83.5, 22.4 ], [ -83.5, 22.4 ], [ -83.5, 22.4 ], [ -83.5, 22.4 ], [ -83.5, 22.4 ], [ -83.5, 22.4 ], [ -83.5, 22.4 ], [ -83.5, 22.4 ], [ -83.5, 22.4 ], [ -83.5, 22.4 ], [ -83.5, 22.4 ], [ -83.5, 22.4 ], [ -83.5, 22.4 ], [ -83.5, 22.4 ], [ -83.5, 22.4 ], [ -83.5, 22.4 ], [ -83.5, 22.4 ], [ -83.5, 22.4 ], [ -83.5, 22.4 ], [ -83.5, 22.4 ], [ -83.5, 22.4 ], [ -83.5, 22.4 ], [ -83.5, 22.4 ], [ -83.5, 22.4 ], [ -83.5, 22.4 ], [ -83.5, 22.4 ], [ -83.5, 22.4 ], [ -83.5, 22.4 ], [ -83.5, 22.4 ], [ -83.5, 22.4 ], [ -83.5, 22.4 ], [ -83.5, 22.4 ], [ -83.5, 22.4 ], [ -83.5, 22.4 ], [ -83.5, 22.4 ], [ -83.5, 22.4 ], [ -83.5, 22.4 ], [ -83.5, 22.4 ], [ -83.5, 22.4 ], [ -83.5, 22.4 ], [ -83.5, 22.4 ], [ -83.5, 22.4 ], [ -83.5, 22.4 ], [ -83.5, 22.4 ], [ -83.5, 22.4 ], [ -83.5, 22.4 ], [ -83.5, 22.4 ], [ -83.5, 22.4 ], [ -83.5, 22.4 ], [ -83.5, 22.4 ], [ -83.5, 22.4 ], [ -83.5, 22.4 ], [ -83.5, 22.4 ], [ -83.5, 22.4 ], [ -83.5, 22.4 ], [ -83.5, 22.4 ], [ -83.5, 22.4 ], [ -83.5, 22.4 ], [ -83.5, 22.4 ], [ -83.5, 22.4 ], [ -83.5, 22.4 ], [ -83.5, 22.4 ], [ -83.5, 22.4 ], [ -83.5, 22.4 ], [ -83.5, 22.4 ], [ -83.5, 22.4 ], [ -83.5, 22.4 ], [ -83.5, 22.4 ], [ -83.5, 22.4 ], [ -83.5, 22.4 ], [ -83.5, 22.4 ], [ -83.5, 22.4 ], [ -83.5, 22.4 ], [ -83.5, 22.4 ], [ -83.5, 22.4 ], [ -83.5, 22.4 ], [ -83.5, 22.4 ], [ -83.5, 22.4 ], [ -83.5, 22.4 ], [ -83.5, 22.4 ], [ -83.5, 22.4 ], [ -83.5, 22.4 ], [ -83.5, 22.4 ], [ -83.5, 22.4 ], [ -83.5, 22.4 ], [ -83.5, 22.4 ], [ -83.5, 22.4 ], [ -83.5, 22.4 ], [ -83.5, 22.4 ], [ -83.5, 22.4 ], [ -83.5, 22.4 ], [ -83.5, 22.4 ], [ -83.5, 22.4 ], [ -83.5, 22.4 ], [ -83.5, 22.4 ], [ -83.5, 22.4 ], [ -83.5, 22.4 ], [ -83.5, 22.4 ], [ -83.5, 22.4 ], [ -83.5, 22.4 ], [ -83.5, 22.4 ], [ -83.5, 22.4 ], [ -83.5, 22.4 ], [ -83.5, 22.4 ], [ -83.5, 22.4 ], [ -83.5, 22.4 ], [ -83.5, 22.4 ], [ -83.4998, 22.3999 ], [ -83.4994, 22.3994 ], [ -83.4985, 22.3987 ], [ -83.4974, 22.3978 ], [ -83.4959, 22.3966 ], [ -83.494, 22.3951 ], [ -83.4917, 22.3935 ], [ -83.4891, 22.3916 ], [ -83.486, 22.3895 ], [ -83.4828, 22.3874 ], [ -83.4794, 22.3854 ], [ -83.476, 22.3835 ], [ -83.4724, 22.3817 ], [ -83.4688, 22.38 ], [ -83.4652, 22.3784 ], [ -83.4614, 22.3769 ], [ -83.4576, 22.3756 ], [ -83.4538, 22.3743 ], [ -83.4499, 22.3732 ], [ -83.4459, 22.3722 ], [ -83.4419, 22.3713 ], [ -83.4378, 22.3705 ], [ -83.4337, 22.3699 ], [ -83.4295, 22.3694 ], [ -83.4253, 22.369 ], [ -83.4211, 22.3687 ], [ -83.4168, 22.3686 ], [ -83.4125, 22.3686 ], [ -83.4082, 22.3687 ], [ -83.4039, 22.3689 ], [ -83.3995, 22.3693 ], [ -83.3951, 22.3698 ], [ -83.3907, 22.3705 ], [ -83.3863, 22.3713 ], [ -83.382, 22.3722 ], [ -83.3776, 22.3732 ], [ -83.3732, 22.3744 ], [ -83.3688, 22.3757 ], [ -83.3644, 22.3771 ], [ -83.3601, 22.3787 ], [ -83.3558, 22.3804 ], [ -83.3514, 22.3823 ], [ -83.3472, 22.3843 ], [ -83.3429, 22.3864 ], [ -83.3387, 22.3886 ], [ -83.3345, 22.391 ], [ -83.3304, 22.3935 ], [ -83.3263, 22.3961 ], [ -83.3222, 22.3989 ], [ -83.3182, 22.4018 ], [ -83.3143, 22.4048 ], [ -83.3104, 22.408 ], [ -83.3066, 22.4113 ], [ -83.3029, 22.4147 ], [ -83.2992, 22.4182 ], [ -83.2956, 22.4218 ], [ -83.2921, 22.4256 ], [ -83.2887, 22.4295 ], [ -83.2853, 22.4335 ], [ -83.282, 22.4376 ], [ -83.2789, 22.4419 ], [ -83.2758, 22.4462 ], [ -83.2728, 22.4507 ], [ -83.2699, 22.4553 ], [ -83.2671, 22.46 ], [ -83.2645, 22.4648 ], [ -83.2619, 22.4697 ], [ -83.2595, 22.4746 ], [ -83.2571, 22.4797 ], [ -83.2549, 22.4849 ], [ -83.2528, 22.4902 ], [ -83.2509, 22.4956 ], [ -83.2491, 22.5011 ], [ -83.2474, 22.5066 ], [ -83.2458, 22.5123 ], [ -83.2444, 22.518 ], [ -83.2431, 22.5238 ], [ -83.2419, 22.5297 ], [ -83.241, 22.5357 ], [ -83.2401, 22.5417 ], [ -83.2394, 22.5478 ], [ -83.2389, 22.5539 ], [ -83.2385, 22.5602 ], [ -83.2382, 22.5665 ], [ -83.2381, 22.5728 ], [ -83.2382, 22.5792 ], [ -83.2385, 22.5856 ], [ -83.2389, 22.5921 ], [ -83.2395, 22.5986 ], [ -83.2402, 22.6052 ], [ -83.2414, 22.6115 ], [ -83.2434, 22.6173 ], [ -83.2462, 22.6224 ], [ -83.2497, 22.6269 ], [ -83.2539, 22.6309 ], [ -83.2588, 22.6341 ], [ -83.2644, 22.6367 ], [ -83.2706, 22.6385 ], [ -83.2774, 22.6397 ], [ -83.2846, 22.6404 ], [ -83.2916, 22.641 ], [ -83.2987, 22.6413 ], [ -83.3056, 22.6416 ], [ -83.3126, 22.6417 ], [ -83.3194, 22.6416 ], [ -83.3262, 22.6414 ], [ -83.333, 22.6411 ], [ -83.3397, 22.6406 ], [ -83.3463, 22.64 ], [ -83.3528, 22.6392 ], [ -83.3593, 22.6383 ], [ -83.3656, 22.6373 ], [ -83.3719, 22.6361 ], [ -83.3781, 22.6348 ], [ -83.3842, 22.6334 ], [ -83.3903, 22.6318 ], [ -83.3962, 22.6301 ], [ -83.402, 22.6283 ], [ -83.4078, 22.6264 ], [ -83.4134, 22.6244 ], [ -83.419, 22.6223 ], [ -83.4244, 22.62 ], [ -83.4297, 22.6177 ], [ -83.4349, 22.6152 ], [ -83.44, 22.6126 ], [ -83.4449, 22.61 ], [ -83.4498, 22.6072 ], [ -83.4545, 22.6044 ], [ -83.4591, 22.6015 ], [ -83.4636, 22.5985 ], [ -83.4679, 22.5954 ], [ -83.4721, 22.5922 ], [ -83.4762, 22.5889 ], [ -83.4802, 22.5856 ], [ -83.484, 22.5822 ], [ -83.4877, 22.5788 ], [ -83.4912, 22.5752 ], [ -83.4947, 22.5717 ], [ -83.498, 22.568 ] ] ] } }
]
}
