{"type":"FeatureCollection","features":[{"type":"Feature","id":1,"geometry":{"type":"MultiPolygon","coordinates":[[[[-59.529999999999859,26.870000000000118],[-59.529893576027575,26.867966704799755],[-59.529578136121984,26.86588115629047],[-59.529059425152241,26.86374478979036],[-59.528343190685575,26.861559041516671],[-59.527435177591258,26.859325349485459],[-59.52634113343646,26.857045149913858],[-59.525066803090397,26.854719878120022],[-59.523617932321599,26.85235097122046],[-59.522000268697354,26.849939866331908],[-59.520219557986081,26.847487999671614],[-59.518281545956484,26.844996808356143],[-59.5161919792763,26.842467727703593],[-59.513956603714178,26.839902194830586],[-59.511581165937969,26.837301645954312],[-59.50907141081683,26.834667518191566],[-59.506433085918047,26.832001247759536],[-59.503671937010154,26.829304271774845],[-59.500793709861682,26.826578026454911],[-59.497804150241222,26.823823947117603],[-59.494709005715947,26.821043471778921],[-59.491514022054389,26.818238037555545],[-59.488224944125761,26.815409078866026],[-59.484847519497293,26.812558033726418],[-59.481387493937575,26.80968633835397],[-59.477850613215139,26.806795428966041],[-59.474242623098462,26.803886742679197],[-59.470569271154829,26.800961715710741],[-59.466836303152775,26.798021785177411],[-59.463049464860774,26.795068386397077],[-59.45921450204753,26.792102956486417],[-59.455337161380783,26.789126932562056],[-59.451423188629121,26.786141750841296],[-59.447478331359775,26.783148846642121],[-59.443508333542638,26.780149658879793],[-59.439518942744883,26.777145621973034],[-59.435515904735098,26.774138173937729],[-59.431504966181137,26.771128750091862],[-59.42999999300514,26.76999996692507],[-59.429498329584135,26.770376254061034],[-59.425486313642352,26.773385946804126],[-59.421480762027443,26.776394023465571],[-59.417487420507939,26.779399047827951],[-59.413512035751751,26.782399582774644],[-59.409560354426674,26.785394192088461],[-59.405638122301411,26.788381439551927],[-59.401751085144326,26.791359888048532],[-59.397904988724122,26.794328100461598],[-59.39410558060797,26.797284641473141],[-59.390358605665028,26.800228073966593],[-59.386669811462525,26.80315696172454],[-59.383044942869731,26.806069867630413],[-59.379489745655121,26.80896535636623],[-59.376009967385983,26.811841989916047],[-59.372611353830791,26.814698332062505],[-59.369299650758137,26.817532946588358],[-59.366080604835929,26.820344397276244],[-59.362959961832644,26.823131247009599],[-59.359943467516871,26.825892059571061],[-59.35703686855652,26.82862539784395],[-59.354245910720067,26.831329826510455],[-59.351576341574798,26.834003907554461],[-59.34903390509055,26.836646205657985],[-59.346624348834496,26.839255283704517],[-59.344353419474601,26.841829705476641],[-59.342226861880079,26.844368033857791],[-59.340250421819405,26.846868832630662],[-59.33842984775913,26.849330665577895],[-59.33677088366926,26.851752095582867],[-59.335279276217534,26.854131685529012],[-59.333960772071862,26.856468000997609],[-59.332821117000833,26.858759603972715],[-59.3318660576723,26.86100505733765],[-59.331101339854854,26.863202925774544],[-59.330532709316969,26.865351772166719],[-59.330165912726557,26.867450160296812],[-59.330006696751525,26.869496653947579],[-59.330059997770547,26.871489915827112],[-59.330323723061269,26.873429491777756],[-59.330792154734013,26.875315376403648],[-59.331459547020359,26.877147571503372],[-59.33232015415166,26.878926074378967],[-59.33336822946012,26.88065088772845],[-59.334598027177094,26.882322009753068],[-59.336003800634785,26.883939441352254],[-59.337579804963923,26.885503182526008],[-59.339320292597336,26.887013232374898],[-59.341219517766433,26.888469591798355],[-59.343271734702682,26.889872260796324],[-59.345471196738231,26.891221239368861],[-59.347812158104489,26.892516526616532],[-59.350288872133603,26.893758123438772],[-59.352895593956362,26.894946029835523],[-59.355626575106214,26.896080244907523],[-59.358476071613325,26.897160770453354],[-59.36143833680967,26.898187603775057],[-59.364507623128191,26.899160747570591],[-59.367678186598937,26.900080200041316],[-59.37094427965468,26.900945962985929],[-59.374300156526886,26.901758033706415],[-59.377740070547702,26.902516414900788],[-59.381258275948539,26.903221104770296],[-59.384849026960921,26.903872104214372],[-59.388506576916882,26.90446941323296],[-59.392225180047888,26.905013030926796],[-59.395999089686143,26.905502958195086],[-59.399822560063001,26.905939195037945],[-59.403689844510609,26.906321741455372],[-59.407595198159754,26.906650596547934],[-59.411532873443264,26.906925761215064],[-59.415497124592491,26.907147235456705],[-59.419482205839017,26.907315019272858],[-59.423482370514876,26.907429111764259],[-59.427491872851533,26.907489513830114],[-59.431504966181137,26.907496224571275],[-59.435515904735098,26.907449245786211],[-59.439518942744883,26.907348575676394],[-59.443508333542638,26.907194215141033],[-59.447478331359775,26.906986163280976],[-59.451423188629121,26.906724420995374],[-59.455337161380783,26.90640898828434],[-59.45921450204753,26.906039865147818],[-59.463049464860774,26.905617051585807],[-59.466836303152775,26.905140546698988],[-59.470569271154829,26.904610351386737],[-59.474242623098462,26.904026464749677],[-59.477850613215139,26.903388888586505],[-59.481387493937575,26.902697621098469],[-59.484847519497293,26.90195266228568],[-59.488224944125761,26.901154013946723],[-59.491514022054389,26.900301674282957],[-59.494709005715947,26.89939564419376],[-59.497804150241222,26.898435923679074],[-59.500793709861682,26.897422511839579],[-59.503671937010154,26.896355409574653],[-59.506433085918047,26.895234616884181],[-59.50907141081683,26.894060133768278],[-59.511581165937969,26.892831959327623],[-59.513956603714178,26.891550094461422],[-59.5161919792763,26.89021453916979],[-59.518281545956484,26.888825292553349],[-59.520219557986081,26.88738235551142],[-59.522000268697354,26.885885728044059],[-59.523617932321599,26.884335410151209],[-59.525066803090397,26.882731400933551],[-59.52634113343646,26.881073701290404],[-59.527435177591258,26.879362311221826],[-59.528343190685575,26.877597230727758],[-59.529059425152241,26.875778458908883],[-59.529578136121984,26.873905996664575],[-59.529893576027575,26.871979843994723],[-59.529999999999859,26.870000000000118]]],[[[-59.4335110640842,26.767366381453485],[-59.437518770474753,26.764357765198838],[-59.441515702987203,26.761351843313037],[-59.445496115852961,26.758350051114121],[-59.449454261504854,26.755353825718601],[-59.45338439507367,26.752364603343892],[-59.457280769891497,26.749383821106619],[-59.461137639290484,26.746412914324651],[-59.464949258401418,26.743453321014101],[-59.468709880556446,26.74050647649284],[-59.472413759087601,26.737573817877546],[-59.476055147327088,26.734656781385468],[-59.479628301304956,26.73175680413334],[-59.483127472554713,26.728875322338411],[-59.486546916207089,26.726013773117302],[-59.489880885594289,26.723173591787997],[-59.493123634947665,26.72035621546712],[-59.496269417599422,26.717563080372031],[-59.499312487780969,26.714795623619295],[-59.502247098824455,26.712055282325537],[-59.505067504961289,26.709343491808852],[-59.507767960422939,26.706661689185751],[-59.510342718541494,26.704011310673593],[-59.51278603354848,26.701393792489682],[-59.515092158775985,26.698810572649961],[-59.517255348455478,26.696263086472413],[-59.519269855918992,26.693752770174342],[-59.521129935398108,26.691281060872427],[-59.522829841124178,26.688849395683235],[-59.524363825530031,26.686459210824069],[-59.525726144645773,26.684111942512288],[-59.526911050004855,26.681809026965141],[-59.527912797637384,26.679551901299362],[-59.528725639976187,26.677342001732143],[-59.529343830353355,26.675180764480842],[-59.529761623899731,26.673069627561404],[-59.529973273947348,26.67101002629181],[-59.529973273947348,26.669003367211758],[-59.529761623899731,26.667050368879586],[-59.529343830353355,26.665151060972846],[-59.528725639976187,26.663305444390915],[-59.527912797637384,26.661513517335095],[-59.526911050004855,26.659775282503404],[-59.525726144645773,26.658090737197881],[-59.524363825530031,26.656459883217167],[-59.522829841124178,26.654882719661941],[-59.521129935398108,26.653359246532148],[-59.519269855918992,26.651889464727162],[-59.517255348455478,26.650473372448346],[-59.515092158775985,26.649110971494281],[-59.51278603354848,26.647802261865024],[-59.510342718541494,26.646547241761937],[-59.507767960422939,26.645345912983657],[-59.505067504961289,26.64419827553013],[-59.502247098824455,26.643104327602771],[-59.499312487780969,26.64206407100022],[-59.496269417599422,26.641077504823159],[-59.493123634947665,26.640144629071528],[-59.489880885594289,26.639265444644707],[-59.486546916207089,26.638439950643374],[-59.483127472554713,26.637668147067473],[-59.479628301304956,26.63695003391706],[-59.476055147327088,26.636285612091456],[-59.472413759087601,26.63567488069134],[-59.468709880556446,26.635117839716656],[-59.464949258401418,26.634614490066781],[-59.461137639290484,26.634164829943074],[-59.457280769891497,26.633768862043496],[-59.45338439507367,26.63342658367003],[-59.449454261504854,26.633137996621372],[-59.445496115852961,26.632903099098883],[-59.441515702987203,26.632721893800522],[-59.437518770474753,26.632594378028273],[-59.4335110640842,26.632520553580832],[-59.429498329584135,26.63250041955888],[-59.425486313642352,26.63253397596236],[-59.421480762027443,26.632621223690649],[-59.417487420507939,26.632762161844425],[-59.413512035751751,26.632956790423691],[-59.409560354426674,26.633205109428388],[-59.405638122301411,26.633507119757894],[-59.401751085144326,26.633862820512888],[-59.397904988724122,26.634272211693371],[-59.39410558060797,26.634735294198606],[-59.390358605665028,26.635252066230009],[-59.386669811462525,26.635822529586221],[-59.383044942869731,26.636446684267185],[-59.379489745655121,26.637124528474374],[-59.376009967385983,26.637856064006314],[-59.372611353830791,26.638641289963687],[-59.369299650758137,26.639480207245924],[-59.366080604835929,26.640372814953594],[-59.362959961832644,26.641319113086752],[-59.359943467516871,26.642319101645342],[-59.35703686855652,26.643372780629477],[-59.354245910720067,26.644480150938364],[-59.351576341574798,26.645641211672739],[-59.34903390509055,26.646855963731866],[-59.346624348834496,26.648124406216539],[-59.344353419474601,26.649446538227323],[-59.342226861880079,26.650822362462179],[-59.340250421819405,26.652251876223261],[-59.33842984775913,26.653735081309094],[-59.33677088366926,26.655271976820416],[-59.335279276217534,26.656862562757226],[-59.333960772071862,26.658506840018788],[-59.332821117000833,26.660204807705838],[-59.3318660576723,26.661956465818378],[-59.331101339854854,26.663761814356405],[-59.330532709316969,26.665620854219185],[-59.330165912726557,26.667533584507453],[-59.330006696751525,26.669500005221209],[-59.330059997770547,26.67152001653568],[-59.330323723061269,26.67359263639122],[-59.330792154734013,26.675716433067066],[-59.331459547020359,26.677889970345973],[-59.33232015415166,26.680111811111317],[-59.33336822946012,26.682380519145795],[-59.334598027177094,26.684694657332727],[-59.336003800634785,26.68705278945481],[-59.337579804963923,26.689453479294798],[-59.339320292597336,26.691895290635273],[-59.341219517766433,26.694376785460406],[-59.343271734702682,26.696896529351477],[-59.345471196738231,26.699453083393223],[-59.347812158104489,26.70204501316698],[-59.350288872133603,26.704670880656749],[-59.352895593956362,26.707329249645284],[-59.355626575106214,26.71001868391528],[-59.358476071613325,26.712737747249378],[-59.36143833680967,26.715485002531011],[-59.364507623128191,26.718259012643443],[-59.367678186598937,26.721058342268805],[-59.37094427965468,26.723881555189735],[-59.374300156526886,26.726727213390348],[-59.377740070547702,26.729593880653226],[-59.381258275948539,26.732480120761124],[-59.384849026960921,26.735384497496682],[-59.388506576916882,26.738305573743389],[-59.392225180047888,26.741241913283829],[-59.395999089686143,26.744192079900699],[-59.399822560063001,26.747154636477433],[-59.403689844510609,26.750128146796669],[-59.407595198159754,26.753111173741843],[-59.411532873443264,26.756102281994856],[-59.415497124592491,26.75910003353988],[-59.419482205839017,26.762102993058818],[-59.423482370514876,26.765109723435103],[-59.427491872851533,26.768118787552169],[-59.42999999300514,26.76999996692507],[-59.4335110640842,26.767366381453485]]]]},"properties":{"objectid":1,"basin":"Atlantic","prob2day":"0%","risk2day":"nearZero","prob7day":"0%","risk7day":"nearZero","idp_source":"gtwo_areas_202610022329","idp_filedate":1790984277000,"idp_ingestdate":1790984291000,"st_area(shape)":0.03574373639485641,"st_perimeter(shape)":1.0345477040427904}},{"type":"Feature","id":2,"geometry":{"type":"Polygon","coordinates":[[[-93.024637825175375,13.426669945062031],[-93.045148054239235,13.51123055484635],[-93.067565989079014,13.593373411054188],[-93.091919121070475,13.673139801560751],[-93.118234940689831,13.750571014241075],[-93.146540938413466,13.825708337869628],[-93.17686460651629,13.898593059422296],[-93.209233434575253,13.969266468572812],[-93.243674914865323,14.037769852297004],[-93.280216536064188,14.104144498469964],[-93.318885791346077,14.168431695866218],[-93.359710169388677,14.230672732360858],[-93.402717163366276,14.290908895829034],[-93.447934262855824,14.349181475045157],[-93.495388958333649,14.405531756985113],[-93.545108741175341,14.460001030423371],[-93.597121102756603,14.512630583234966],[-93.65145353265433,14.563461703295104],[-93.708133523143488,14.612535679378254],[-93.767188564700405,14.659893799359509],[-93.828646147801351,14.705577351114016],[-93.89253376292271,14.749627622516925],[-93.958878902339393,14.792085902342649],[-94.027709055628293,14.832993477567072],[-94.099051714165171,14.872391637863927],[-94.17293436932556,14.910321670209044],[-94.249384510686525,14.94682486247757],[-94.328429629623599,14.981942502544598],[-94.410097218411806,15.015715880083917],[-94.494414765728777,15.048186282071413],[-94.581409763849422,15.079394996382121],[-94.671109703250124,15.109383311790566],[-94.763542074407098,15.138192516171841],[-94.858734368696048,15.165863896501776],[-94.956705752468395,15.192442974663663],[-95.057409284710616,15.218008875709188],[-95.160766495976929,15.242656753306676],[-95.266698725265883,15.266481857351948],[-95.37512731157608,15.289579441338276],[-95.485973592107484,15.3120447560608],[-95.599158905858701,15.333973052314661],[-95.714604590029694,15.355459582693697],[-95.832231984518387,15.376599597993163],[-95.951962426524688,15.397488349907576],[-96.07371725414788,15.41822108923202],[-96.197417806386568,15.43889306856039],[-96.322985421340036,15.459599538687883],[-96.450341437107511,15.480435751309017],[-96.579407191788391,15.501496958118253],[-96.71010402348179,15.522878409910845],[-96.842353271186425,15.544675359280518],[-96.976076273001524,15.566983056123263],[-97.111194366126995,15.58989675393218],[-97.247628890460817,15.613511702603148],[-97.385301183202955,15.637923153830627],[-97.524132582452637,15.663226360208512],[-97.664044427208466,15.689516572531943],[-97.804958055569728,15.716889041596119],[-97.946794804736328,15.745439019095613],[-98.089476014606305,15.775261757624151],[-98.232923023278772,15.806452507976985],[-98.377057167953865,15.839106521848635],[-98.521799786730696,15.873319050034297],[-98.667072219507247,15.909185344228376],[-98.812795803483425,15.946800656125504],[-98.958891876758628,15.98626023831946],[-99.105281778331289,16.027659340706123],[-99.251888065781486,16.071085579735836],[-99.398655202375608,16.116489500789953],[-99.545546599196086,16.163703087127885],[-99.692526291455067,16.212554412656175],[-99.839558314364638,16.262871551281194],[-99.986606701338076,16.314482576010221],[-100.13363548938622,16.367215559850365],[-100.28060871372105,16.420898578506751],[-100.42749040775601,16.475359703187905],[-100.57424460760245,16.530427009598952],[-100.72083534847246,16.585928570747058],[-100.86722666557807,16.641692460538763],[-101.01338259413131,16.697546751981179],[-101.15926716844496,16.753319518980732],[-101.3048444246304,16.808838835444021],[-101.45007839700031,16.863932775277476],[-101.59493312076683,16.918429411488262],[-101.73937263114192,16.972156817982921],[-101.883360964237,17.024943069567144],[-102.02686215346552,17.076616237449514],[-102.16984023493882,17.127004398234533],[-102.31225924386894,17.17593562313067],[-102.4540832154679,17.223237986943673],[-102.59527618404854,17.268739563580141],[-102.73580218482289,17.312268426047183],[-102.87562525390223,17.353652648251227],[-103.01470942559939,17.392720304098873],[-103.15301873512641,17.429299467496548],[-103.29051721859469,17.463218211451419],[-103.42716890941756,17.494304609869971],[-103.56293784280712,17.522386735759369],[-103.69778805577408,17.547292664824738],[-103.8316835817318,17.568850468274604],[-103.96458834527584,17.586889647239559],[-104.096459617817,17.601325230175348],[-104.22724435734114,17.612204817298618],[-104.3568886333037,17.619587413128727],[-104.48533851875754,17.623532023084522],[-104.61254008225887,17.624097650786098],[-104.7384393968606,17.621343300752869],[-104.86298253291744,17.615327979302947],[-104.98611556078441,17.606110688257786],[-105.10778455171561,17.593750434834817],[-105.22793557606587,17.578306221754872],[-105.3465147059888,17.559837053537308],[-105.46346801093983,17.538401936500293],[-105.57874156307258,17.514059874263921],[-105.69228143274182,17.486869870448288],[-105.80403369030245,17.456890930472184],[-105.91394440790799,17.424182059754401],[-106.02195965591329,17.388802261015655],[-106.12802550557251,17.350810540574116],[-106.23208802634122,17.310265901150558],[-106.33409329037295,17.267227349063035],[-106.43398736892186,17.221753888831017],[-106.53171633234274,17.173904523175338],[-106.62722625099059,17.123738258414051],[-106.72046319701883,17.071314099066569],[-106.81137324078236,17.016691048753046],[-106.89990245263596,16.959928111992895],[-106.98599690383395,16.901084294204963],[-107.06960266652976,16.84021859990861],[-107.15066580927959,16.777390032723986],[-107.22913240513628,16.712657598069825],[-107.30494852355542,16.646080300465655],[-107.37806023579117,16.577717144430835],[-107.44841362748684,16.507627137182794],[-107.51596816799645,16.435872335540012],[-107.58072183924139,16.362523564710898],[-107.64267950205726,16.287653218321509],[-107.70184601727976,16.211333688199318],[-107.75822624754318,16.133637368869643],[-107.81182505458253,16.05463665126058],[-107.86264730013272,15.974403929897562],[-107.9106978450294,15.893011596608062],[-107.95598155100765,15.810532045018022],[-107.99850328070175,15.727037667854233],[-108.03826789404798,15.642600857843433],[-108.07528025457998,15.557294007712414],[-108.10954522403279,15.471189511087232],[-108.14106766234266,15.384359760694565],[-108.16985243214395,15.296877149261149],[-108.1959043942723,15.208814069513835],[-108.21922841226132,15.1202429141793],[-108.23982934604737,15.031236076883602],[-108.25771205736544,14.941865949454154],[-108.27288140884986,14.852204926416334],[-108.28534226223553,14.762325399597671],[-108.29509947745885,14.672299761724787],[-108.30215791805335,14.582200406423738],[-108.30652244485486,14.492099725522053],[-108.30819791959823,14.402070113545051],[-108.30718920401847,14.312183962320148],[-108.30350115985055,14.22251366457408],[-108.29713864793018,14.13313161393296],[-108.28810653089158,14.044110203123523],[-108.27640967046983,13.955521823973129],[-108.26205292750052,13.867438871007209],[-108.24504116371861,13.779933736952557],[-108.2253792417585,13.693078813636475],[-108.20306387729602,13.606936639014805],[-108.17804620746642,13.521514605514767],[-108.15026152514918,13.436800932017547],[-108.11964510613666,13.3527838203172],[-108.08613222712052,13.269451470409194],[-108.04965816389307,13.186792084087529],[-108.01015819404535,13.104793860448467],[-107.96756759336967,13.023445002185213],[-107.92182163765835,12.942733708394087],[-107.87285560360311,12.862648181768293],[-107.82060476789565,12.783176621404095],[-107.7650044054289,12.704307228196171],[-107.70598979469315,12.626028203938574],[-107.64349621058153,12.548327749526152],[-107.577458930685,12.471194064954261],[-107.50781322989656,12.394615351117693],[-107.43449438490785,12.318579808911181],[-107.35743767241058,12.243075639229517],[-107.27657836909634,12.168091042967376],[-107.19185175075762,12.093614220120287],[-107.10319309408595,12.019633373381623],[-107.01053767577304,11.946136700948102],[-106.91382077071188,11.873112406412588],[-106.81297765649356,11.800548687971684],[-106.70794360891034,11.728433748318992],[-106.59865390465387,11.656755787449754],[-106.48504382041585,11.585503006258875],[-106.36704863198867,11.514663605641033],[-106.24460361516464,11.444225785591641],[-106.11764404753467,11.374177748804186],[-105.9861052048912,11.304507694374706],[-105.84992236302651,11.235203823197992],[-105.70903079863234,11.166254337068153],[-105.56337805335437,11.097651258099233],[-105.41305423926161,11.029431048404319],[-105.25824145288067,10.961658838684571],[-105.09912332138407,10.894400235382705],[-104.93588347464254,10.82772084853849],[-104.76870554072804,10.761686284594475],[-104.59777314861179,10.696362153590655],[-104.42326992636589,10.631814062868841],[-104.24537950386093,10.568107620670276],[-104.06428550826951,10.505308434336939],[-103.88017156856296,10.443482113908544],[-103.69322131371257,10.382694266727185],[-103.50361837179031,10.323010501033934],[-103.31154637266684,10.264496424170773],[-103.1171889435148,10.207217646177583],[-102.92072971330555,10.151239773496911],[-102.72235231190956,10.096628416168585],[-102.52224036560028,10.043449180635321],[-102.32057750514764,9.9917676751382487],[-102.11754735772428,9.9416495097172515],[-101.9133335532008,9.893160290814933],[-101.70811971964923,9.8463656275717995],[-101.50208948514154,9.8013311282290942],[-101.29542647864895,9.7581224001287978],[-101.08831432914286,9.7168050524113596],[-100.88093666469524,9.6774446933180798],[-100.67347711427732,9.6401069301908251],[-100.46611930686043,9.6048573721701018],[-100.25904687051656,9.5717616265979473],[-100.05244343331771,9.540885302614754],[-99.846492625134431,9.5122940075625593],[-99.641378074038812,9.4860533505818125],[-99.437283408102701,9.4622289390144374],[-99.234391241862227,9.4408857174020682],[-99.032853401563159,9.4220684989621759],[-98.832786120083256,9.4057988215585056],[-98.634303649094022,9.3920969253329645],[-98.437520240266792,9.3809830522262132],[-98.242550143474261,9.3724774441788554],[-98.04950761038782,9.3666003422321182],[-97.858506892678861,9.3633719874273993],[-97.669662240220134,9.3628126217052454],[-97.483087904682975,9.3649424861069974],[-97.298898136839455,9.3697818216738824],[-97.117207187461645,9.3773508703465041],[-96.93812930822088,9.3876698722669403],[-96.761778749889288,9.4007590711743205],[-96.588269764138204,9.416638706311403],[-96.417716600840379,9.4353290196186776],[-96.250233511667147,9.4568502521375422],[-96.085934747390581,9.4812226467079199],[-95.924934559682072,9.5084664434717183],[-95.76734719931369,9.5386018834702782],[-95.613286917057451,9.5716492086442031],[-95.462867963685483,9.6076286609340968],[-95.316204591768383,9.6465604804819236],[-95.17341105027964,9.6884649092282871],[-95.034601590890588,9.733362188214528],[-94.899890466171996,9.7812725602805699],[-94.769391925097182,9.8322162646690003],[-94.643220220236856,9.8862135442197996],[-94.521489601463827,9.9432846390749887],[-94.40431432044943,10.003449792074377],[-94.291808627965679,10.066729243360044],[-94.184086775684023,10.133143234872534],[-94.081263013477212,10.20271200855251],[-93.983451207207338,10.275455456504233],[-93.890702497721975,10.351336955636157],[-93.802936493724076,10.43020136929789],[-93.720056242901194,10.511878634791287],[-93.641964792940712,10.596198692116104],[-93.568565188832281,10.682991479473344],[-93.49976048006198,10.772086935963443],[-93.435453713418042,10.863315000686896],[-93.375547934789267,10.956505612743968],[-93.319946192762472,11.051488710335832],[-93.268551534125891,11.148094233462245],[-93.221267005667698,11.246152119424892],[-93.177995654176016,11.345492308223584],[-93.138640528237659,11.445944738059325],[-93.103104673741598,11.547339348931928],[-93.071291137475896,11.649506079042453],[-93.043102968926746,11.752274866591961],[-93.018443213083742,11.855475652479527],[-92.997214917634267,11.958938373107571],[-92.979321129366497,12.062492968475851],[-92.964664896867419,12.165969378584066],[-92.953149266025719,12.269197540734069],[-92.94467728452895,12.372007394026127],[-92.939151999165347,12.47422887846011],[-92.936476457622291,12.575691931337701],[-92.93655370668813,12.676226492658657],[-92.93928679405019,12.775662501523357],[-92.944578765597441,12.873829895233598],[-92.9523326699167,12.970558614688457],[-92.962451553796086,13.065678598088994],[-92.974838464023776,13.159019783636268],[-92.98939644738806,13.250412110430716],[-93.006028552475641,13.339685517572718],[-93.024637825175375,13.426669945062031]]]},"properties":{"objectid":2,"basin":"Pacific","prob2day":"0%","risk2day":"Low","prob7day":"80%","risk7day":"High","idp_source":"gtwo_areas_202610022329","idp_filedate":1790984277000,"idp_ingestdate":1790984291000,"st_area(shape)":91.634001935910689,"st_perimeter(shape)":38.273750957888339}}]}