{"type":"FeatureCollection","features":[{"type":"Feature","id":1,"geometry":{"type":"Polygon","coordinates":[[[-33.523372996366561,31.789923457501686],[-33.467546398647244,31.778176324977551],[-33.411130882584018,31.766540259625401],[-33.354153703030875,31.755049936605417],[-33.296642115740951,31.74374003197704],[-33.238623378266198,31.732645220900395],[-33.180124746359809,31.721800178535545],[-33.121173475775151,31.711239580042729],[-33.061796822265421,31.700998101481332],[-33.002022044281773,31.691110416212894],[-32.941876395778934,31.6816112002968],[-32.881387134308682,31.67253512979255],[-32.820581514725006,31.663916879860267],[-32.7594867945798,31.655791124760754],[-32.698130229626258,31.648192540553453],[-32.636539075617748,31.641155801499167],[-32.574740590106046,31.634715583657396],[-32.512762027945087,31.628906562188263],[-32.450630645787555,31.623763413151153],[-32.388373699386591,31.619320809907606],[-32.326018446294142,31.615613428517065],[-32.263592141364086,31.612675945038973],[-32.201122041249107,31.610543033734189],[-32.138635402601608,31.609249370662098],[-32.076159481175011,31.608829630083505],[-32.013721532722457,31.609318488057909],[-31.951348814795836,31.610750619745431],[-31.889068582249138,31.613160699406876],[-31.826908092634255,31.616583404001062],[-31.764894600805064,31.621053406889359],[-31.703055363414194,31.626605385030643],[-31.641417638013479,31.633274011786341],[-31.580008678557533,31.641093965014591],[-31.518855742598305,31.650099917177556],[-31.457986086788367,31.660326545234],[-31.397426965981595,31.671808523444724],[-31.33720563772988,31.684580528768549],[-31.277349356887214,31.698677234566844],[-31.217885381005431,31.714133315999902],[-31.158840964938463,31.730983450026315],[-31.10024336623826,31.749262310907056],[-31.042119840658017,31.769004573802192],[-30.984497643950988,31.790244913871845],[-30.92740403366912,31.813018006276138],[-30.870866263766914,31.837358527074514],[-30.814911592695751,31.863301150527832],[-30.759567275309394,31.890880552695478],[-30.704860568260472,31.920131408737689],[-30.650818727302294,31.951088392915153],[-30.597469009986696,31.983786181287371],[-30.544838659476454,32.018259382464691],[-30.492950934937596,32.054519910665476],[-30.441819322603521,32.092524054341766],[-30.391455842812775,32.132219731055898],[-30.341872510507812,32.173554861967432],[-30.293081346027179,32.21647736553814],[-30.245094365212651,32.260935161128941],[-30.197923586604134,32.306876169000134],[-30.151581027842042,32.354248307613432],[-30.106078707466281,32.402999496329812],[-30.061428642217948,32.453077655409629],[-30.017642850636946,32.504430704213746],[-29.974733350363692,32.557006561203991],[-29.932712159038772,32.610753146640548],[-29.891591294302657,32.665618379884449],[-29.851382774695196,32.721550179397411],[-29.812098616957485,32.778496465439673],[-29.773750839629429,32.836405157372269],[-29.73635145945218,32.895224174556176],[-29.699912495864851,32.954901436352372],[-29.664445965608707,33.015384862121834],[-29.629963886324163,33.076622371225596],[-29.596478276551125,33.138561883024636],[-29.564001153930008,33.201151317779249],[-29.532544536101341,33.264338593051775],[-29.502120440705653,33.328071630001887],[-29.472740885383416,33.392298347990504],[-29.44441788777516,33.456966665479399],[-29.417163466420732,33.522024501829435],[-29.390989638960548,33.587419777301022],[-29.365908423035194,33.653100410355819],[-29.341931836285085,33.719014321254065],[-29.319071896350806,33.785109428457474],[-29.29734062177215,33.851333653125721],[-29.276750030189646,33.917634912821143],[-29.257312138344389,33.983961127803923],[-29.239038964776285,34.050260217435209],[-29.221942527125805,34.116480100176602],[-29.206034843932798,34.182568697187776],[-29.191327931938361,34.24847392693033],[-29.177833809682454,34.3141437087653],[-29.165564494805494,34.379525962053663],[-29.154532004947953,34.444568606156395],[-29.144748357750359,34.50921956133385],[-29.136225570853298,34.57342674604763],[-29.128975662796449,34.637138079658769],[-29.123010650321135,34.700301482427619],[-29.118342551967089,34.762864872815783],[-29.114983386274162,34.824776170184236],[-29.112945169084185,34.885983295692711],[-29.112239845192562,34.946434344069871],[-29.112874845697434,35.006088062514209],[-29.114850614863883,35.064919704380998],[-29.118166994411126,35.122905941256306],[-29.122823826058607,35.180023447424333],[-29.12882095152554,35.236248894471032],[-29.13615821253137,35.291558954882021],[-29.144835450795313,35.345930302941269],[-29.154852508936017,35.399339610234961],[-29.166209227773493,35.451763550147859],[-29.178905449926447,35.503178795165411],[-29.192941016214775,35.553562017773061],[-29.20831577015656,35.602889892254893],[-29.225029551672321,35.651139089297658],[-29.243082204280199,35.698286282286233],[-29.262473568800033,35.744308145504647],[-29.283203487850585,35.789181349639705],[-29.305271802251752,35.832882568975549],[-29.328678353722921,35.875388475098191],[-29.353422985782061,35.916675742291829],[-29.379505538349804,35.956721042142533],[-29.40692585494412,35.995501047135747],[-29.4356837754857,36.032992431555613],[-29.465779143492568,36.069171866988199],[-29.497211799784623,36.104016026818329],[-29.529981586980512,36.137501582632069],[-29.564088346799622,36.169605208713563],[-29.599531920061963,36.200303577548198],[-29.636312149386072,36.229573361621476],[-29.674428876491334,36.257391233418844],[-29.713881943996398,36.283733865425688],[-29.754671192721219,36.308577931926152],[-29.796796464385181,36.33190010450636],[-29.84025760070756,36.353677056551078],[-29.885054445206379,36.373885459646374],[-29.931186837802215,36.392501988076447],[-29.978654621113776,36.409503314326628],[-30.027457636860333,36.424866110882476],[-30.077595726761274,36.438567050229324],[-30.12906873253587,36.450582804852729],[-30.181876496802772,36.460890049036664],[-30.236018861281309,36.469465453468047],[-30.291495666791491,36.476285693330226],[-30.34830675595191,36.481327439310007],[-30.406451970481953,36.484567365691532],[-30.465931152100893,36.48598214406087],[-30.526744142528059,36.485548447802785],[-30.588890783482725,36.483242950302042],[-30.652370917583653,36.479042323144824],[-30.717184385650739,36.472923239715897],[-30.783329748768779,36.46486381231523],[-30.850776092742365,36.454875281569116],[-30.919463029894814,36.443002011933459],[-30.989328890116042,36.429289809477268],[-31.060312004195509,36.41378447847103],[-31.132350702922452,36.396531824983867],[-31.205383316186953,36.377577655984169],[-31.279348173878986,36.356967774843099],[-31.354183608586538,36.334747988528989],[-31.429827949300318,36.310964102211699],[-31.506219525910296,36.285661921060978],[-31.583296670105142,36.258887251145893],[-31.660997711774883,36.230685897636192],[-31.73926098170881,36.201103666601057],[-31.818024810696329,36.170186362310915],[-31.897227527728091,36.137979792633473],[-31.976807465392085,36.10452976093984],[-32.056702951779698,36.069882073299198],[-32.136852319478862,36.034082535780556],[-32.217193897480286,35.997176953553719],[-32.297666017472579,35.959211132687756],[-32.378207008446566,35.92023087745315],[-32.458755202090799,35.880281994818347],[-32.539248929194628,35.839410289953037],[-32.619626518748703,35.797661568027081],[-32.699826302441807,35.755081634210171],[-32.779786610163796,35.711716295470808],[-32.859445772704134,35.667611356079362],[-32.938742119952735,35.62281262120564],[-33.017613982699004,35.577365897818083],[-33.095999692631608,35.531316991086442],[-33.173837577841823,35.484711705281143],[-33.251065970917693,35.437595847370631],[-33.327623200849928,35.390015222524653],[-33.403447599327137,35.342015636812334],[-33.47847749534003,35.293642894504103],[-33.552651221476594,35.244942801669083],[-33.625907105828162,35.195961164376399],[-33.698183480982721,35.146743787795742],[-33.769418675931036,35.09733647709686],[-33.839551021462341,35.047785038348991],[-33.908518848366043,34.998135276721769],[-33.976260487431432,34.948432998284375],[-34.042714268548536,34.898724008206557],[-34.107818522506705,34.849054111658063],[-34.171511579195908,34.799469114708018],[-34.233731769405495,34.750014823425488],[-34.29441742392487,34.700737042080959],[-34.353506872643948,34.651681576743499],[-34.410938446352077,34.602894233482232],[-34.466654195434671,34.554418758918757],[-34.520639407882243,34.50627496871499],[-34.572907268655399,34.458467238972048],[-34.623471428563448,34.410999688584923],[-34.672345534818476,34.363876437347869],[-34.719543239129052,34.317101603256503],[-34.76507819140528,34.270679306105251],[-34.808964038859187,34.224613664788933],[-34.851214434098722,34.178908797303279],[-34.891843025235289,34.133568823442602],[-34.930863461279614,34.088597862101778],[-34.968289393940267,34.044000032175916],[-35.004134471328655,33.999779452559835],[-35.038412343354821,33.955940242148586],[-35.071136660828131,33.912486520736479],[-35.102321071859876,33.869422406319131],[-35.131979226360102,33.826752017791534],[-35.160124775138115,33.784479474947943],[-35.186771366305379,33.742608895784031],[-35.211932650671145,33.701144400094108],[-35.235622278145513,33.660090106773168],[-35.257853897739039,33.619450134716089],[-35.278641158462563,33.579228602817921],[-35.297997711125333,33.539429629074277],[-35.315937205637397,33.500057334178791],[-35.332473291009478,33.461115836127078],[-35.347619616252189,33.42260925381413],[-35.361389832174893,33.384541707034316],[-35.373797588687637,33.346917313783138],[-35.384856533901768,33.309740192955701],[-35.394580318626709,33.273014464346204],[-35.402982592772332,33.236744246849639],[-35.410077005349422,33.200933659361056],[-35.415877206267908,33.165586819875955],[-35.420396845437949,33.130707849088083],[-35.423649571870101,33.096300864993054],[-35.425649036373784,33.062369985586486],[-35.426408887060347,33.028919331562065],[-35.425942774739156,32.995953020915351],[-35.42426434932014,32.963475173440656],[-35.421387258914763,32.931489907133653],[-35.417325155231595,32.900001340889332],[-35.412091686382098,32.86901359540127],[-35.405700503175581,32.838530787765762],[-35.398165254622654,32.808557036877914],[-35.389499589734157,32.779096463431188],[-35.379717160218661,32.750153184521992],[-35.368831613288194,32.721731320843901],[-35.356856600651497,32.693834990392645],[-35.343805770419863,32.666468312063103],[-35.329692315647719,32.639634121417714],[-35.314526385184422,32.613326717654047],[-35.298316886814746,32.587536920492653],[-35.281072722927718,32.56225553706355],[-35.262802800408792,32.537473375396075],[-35.24351602074762,32.513181244419059],[-35.22322128903113,32.489369951262404],[-35.201927509446875,32.466030303955506],[-35.179643585283088,32.44315311142708],[-35.156378421626755,32.4207291808072],[-35.132140920866675,32.398749320125148],[-35.106939988989154,32.377204338309696],[-35.080784528383163,32.356085042490861],[-35.053683444135515,32.335382241597301],[-35.025645638635183,32.315086742759092],[-34.996680018767734,32.295189354904949],[-34.966795486022761,32.275680886064208],[-34.936000944587818,32.256552143366889],[-34.904305300449153,32.237793935741706],[-34.871717455096359,32.219397070318678],[-34.838246314515686,32.201352356026575],[-34.803900781096047,32.18365060089468],[-34.76868976082369,32.166282612053067],[-34.73262215608753,32.149239199329713],[-34.695706871075117,32.132511168955432],[-34.657952809974063,32.116089328959504],[-34.619368877871295,32.099964489169963],[-34.579963977155671,32.084127456716885],[-34.539747012014857,32.068569038730288],[-34.498726887535724,32.053280045038207],[-34.45691250790577,32.038251281871283],[-34.414312775514077,32.023473558158344],[-34.370936595447404,32.008937681928614],[-34.326792870994097,31.994634462110866],[-34.281890507240973,31.980554704935855],[-34.236238407476378,31.966689219332125],[-34.189845476787184,31.95302881422856],[-34.142720616662984,31.939564296755009],[-34.094872733989348,31.92628647404166],[-34.046310731155188,31.913186155916492],[-33.997043512348114,31.900254149509522],[-33.947079981755621,31.887481263749464],[-33.896429043565377,31.874858305766338],[-33.845099601964932,31.862376082690218],[-33.793100560242522,31.850025405248402],[-33.740440822585754,31.837797078772326],[-33.687129294081558,31.825681913089966],[-33.633174877118734,31.813670716230718],[-33.57858647678438,31.80175429442528],[-33.523372996366561,31.789923457501686]]]},"properties":{"objectid":1,"basin":"Atlantic","prob2day":"60%","risk2day":"Medium","prob7day":"60%","risk7day":"Medium","idp_source":"gtwo_areas_202609181429","idp_filedate":1789741972000,"idp_ingestdate":1789742047000,"st_area(shape)":22.051327335174772,"st_perimeter(shape)":17.580799798545055}},{"type":"Feature","id":2,"geometry":{"type":"Polygon","coordinates":[[[-113.01897159676167,15.210016173507768],[-113.04784277252583,15.049265050341944],[-113.07226738443217,14.888725903677653],[-113.09231482327039,14.728356409620744],[-113.10805447803165,14.568114247874405],[-113.11955573860638,14.407957096343068],[-113.12688799488495,14.247842631132642],[-113.13012063585859,14.087728531046992],[-113.1293230514176,13.927572473990608],[-113.12456463145247,13.767332137867982],[-113.11591476495437,13.606965199684339],[-113.10344284271292,13.44642933824349],[-113.08721825282004,13.285682230550663],[-113.06731038696466,13.124681555409609],[-113.04378863233944,12.963384988926236],[-113.01672237973395,12.801750210803732],[-112.98618101903872,12.639734898047266],[-112.95223394014414,12.477296728561328],[-112.91495053114198,12.314393379351088],[-112.87440018282206,12.150982529220471],[-112.83065228507479,11.987021856073909],[-112.78377622689123,11.82246903691663],[-112.73384139816187,11.65728174965318],[-112.68091718787781,11.491417672187936],[-112.62507213427148,11.324869453462668],[-112.56637136174885,11.157769622969852],[-112.50487914485655,10.990285679440717],[-112.44065975724192,10.822585123404849],[-112.37377747165289,10.654835454492741],[-112.30429656173686,10.487204173234147],[-112.23228130114103,10.319858780158711],[-112.15779596261348,10.152966773098228],[-112.0809048198015,9.9866956534817746],[-112.00167214635235,9.8212129218389919],[-111.92016221591342,9.6566860760017335],[-111.83643930123264,9.4932826182983376],[-111.75056767595737,9.3311700465605441],[-111.6626116137349,9.1705158622174281],[-111.57263538821252,9.0114875639999923],[-111.48070327123889,8.854252652438106],[-111.38687953825996,8.6989786280613544],[-111.29122846202381,8.5458329896009104],[-111.1938143152783,8.394983237586473],[-111.09470137167085,8.246596872547741],[-110.99395390574807,8.1008413932158874],[-110.89163618935856,7.9578843001204973],[-110.78781249614968,7.8178930928920636],[-110.68253383926515,7.6810175850936275],[-110.57579818174059,7.5473368415221671],[-110.46759022880593,7.4169122427059619],[-110.35789468389243,7.2898051664753893],[-110.24669624863287,7.1660769915600326],[-110.13397962915644,7.0457890966895889],[-110.01972952709588,6.9290028623923376],[-109.90393064678182,6.8157796664985426],[-109.78656769164553,6.706180886838581],[-109.6676253651184,6.6002679039407326],[-109.54708837063168,6.4981020965346374],[-109.42494141161677,6.3997448433499926],[-109.30116919240419,6.3052575231163246],[-109.17575641462673,6.2147015136640675],[-109.04868778441363,6.128138196420764],[-108.91994800249824,6.0456289483174714],[-108.7895217750098,5.9672351480837733],[-108.6573938035811,5.8930181762479492],[-108.52354879254267,5.8230394106404333],[-108.38797144442651,5.7573602308900718],[-108.25064646446265,5.6960420148272419],[-108.11155855518308,5.6391461420809037],[-107.97069242001908,5.5867339922800738],[-107.82808851407356,5.5388564121938089],[-107.68401029913588,5.495522127943957],[-107.53877698776768,5.4567293363899125],[-107.39270779432917,5.4224762325922029],[-107.24612193048262,5.3927610116115261],[-107.09933861058829,5.3675818694078998],[-106.95267704720789,5.3469370010419084],[-106.80645645290286,5.3308246024735695],[-106.6609960411343,5.3192428687635243],[-106.51661502626234,5.3121899958717336],[-106.37363261905006,5.3096641788588954],[-106.23236803475692,5.3116636136849706],[-106.09314048594456,5.3181864954105436],[-105.95626918517468,5.3292310199956887],[-105.82207334500879,5.3447953816017275],[-105.69087218070649,5.3648777779872034],[-105.56298490303072,5.3894764033134948],[-105.43873072634187,5.4185894526412426],[-105.31842886410072,5.4522151228297844],[-105.20239852886891,5.4903516080404415],[-105.09095893320813,5.5329971042331181],[-104.98442929147853,5.5801498073678317],[-104.88312881534245,5.6318079134046002],[-104.78730589754906,5.6879423670467304],[-104.69692563900696,5.7484151196621838],[-104.61188232171168,5.8130608713622678],[-104.53207022586014,5.8817143240569294],[-104.45738363074986,5.9542101778575329],[-104.38771681927568,6.0303831337747624],[-104.32296406983585,6.1100678928191314],[-104.26301966442588,6.1930991569007006],[-104.20777788234329,6.2793116252314576],[-104.15713300558366,6.3685400006206692],[-104.11097931434381,6.4606189822803231],[-104.06921108792125,6.555383272120423],[-104.03172260831161,6.6526675702522766],[-103.99840815571173,6.7523065785858876],[-103.96916201121775,6.8541349981317694],[-103.94387845412723,6.9579875290014002],[-103.92245176553644,7.0636988722053502],[-103.90477622654151,7.1711037287541899],[-103.89074611644003,7.2800368005580367],[-103.88025571722744,7.3903327877280844],[-103.87319930910076,7.5018263903757543],[-103.869471173156,7.614352311310256],[-103.86896558779154,7.7277452497436343],[-103.87154134595625,7.8418742293123955],[-103.87691527631887,7.9567455542640459],[-103.88476871850145,8.0723998532707242],[-103.8947830121262,8.1888777532058725],[-103.90663949771454,8.3062198809428764],[-103.9200195139893,8.424466864254498],[-103.93460440147186,8.5436593300141794],[-103.95007549978436,8.6638379050953631],[-103.96611414764971,8.7850432172708111],[-103.98240168648852,8.9073158943132285],[-103.99861945412442,9.0306965621967379],[-104.01444879107873,9.1552258477947817],[-104.02957103787298,9.2809443806787613],[-104.04366753233063,9.4078927850241598],[-104.05641961587247,9.536111690402322],[-104.06750862812061,9.6656417236867469],[-104.0766159068985,9.7965235108515003],[-104.08342279452626,9.928797680568664],[-104.08761062882735,10.062504858812304],[-104.08886075032325,10.197685674254615],[-104.08685449863611,10.334380751970286],[-104.08127321338799,10.47263072153072],[-104.07179823330171,10.612476208910039],[-104.05821624908054,10.753916340866567],[-104.04073534496013,10.89678424639601],[-104.01966895625725,11.040871552580199],[-103.99533051649007,11.185969887400518],[-103.96803346097533,11.331870877938798],[-103.93809122413057,11.478366152176307],[-103.90581724037327,11.625247338993631],[-103.87152494412078,11.772306064573343],[-103.83552776979064,11.919333956896708],[-103.79813915359898,12.066122644844313],[-103.7596725272652,12.21246375459873],[-103.72044132790484,12.358148915040545],[-103.68075898903601,12.502969754150968],[-103.64093894507613,12.646717898112627],[-103.60129463134206,12.789184976705428],[-103.56213948135189,12.93016261521268],[-103.52378693042238,13.069442444313495],[-103.48655041207178,13.206816089291237],[-103.45074336251605,13.342075178127118],[-103.41667921527346,13.475011340601043],[-103.38467140476143,13.605416201996263],[-103.35503336629671,13.733081392092686],[-103.3280785333975,13.857798537072938],[-103.3040548833261,13.979418703810268],[-103.28294856022779,14.098030714745846],[-103.26468024839465,14.213782830313505],[-103.24917063481683,14.326823310947191],[-103.23634040378653,14.437300417980055],[-103.22611024229377,14.545362410946666],[-103.21840083553002,14.651157551180177],[-103.21313286868684,14.754834099114532],[-103.21022702875428,14.856540316082885],[-103.20960400002446,14.956424462519067],[-103.21118446768895,15.054634797957704],[-103.21488911963706,15.151319584631267],[-103.22063863926172,15.246627082074326],[-103.22835371355296,15.340705551620033],[-103.23795502770224,15.433703252803014],[-103.24936326690113,15.525768448755059],[-103.2624991172404,15.617049397212043],[-103.27728326571003,15.707694360406549],[-103.293636395703,15.797851599671731],[-103.31147919420937,15.887669373642836],[-103.33073234642058,15.977295945451658],[-103.35131653752808,16.066879573733502],[-103.37315245452209,16.156568519821462],[-103.39618575227053,16.246470382202517],[-103.42046196614672,16.336530112474861],[-103.44605160299898,16.426651997591762],[-103.47302516697778,16.516740328103822],[-103.50145316493149,16.606699392762891],[-103.53140610190997,16.696433478522351],[-103.56295448386226,16.785846875932691],[-103.59616881673742,16.874843872846611],[-103.63111960558524,16.963328758915225],[-103.66787735635484,17.051205821091912],[-103.70651257589458,17.1383793490279],[-103.74709576745562,17.224753632374359],[-103.78969743968497,17.310232958983988],[-103.83438809583384,17.394721617608695],[-103.88123824275061,17.478123897000387],[-103.93031838548501,17.56034408591097],[-103.98169903088547,17.641286473092407],[-104.03545068400177,17.720855348195926],[-104.09164384988367,17.798954998174793],[-104.15034903448026,17.875489712680235],[-104.21163674463997,17.950363781363535],[-104.27557748451318,18.023481491178018],[-104.34224176094841,18.094747132674172],[-104.41166936175154,18.164082996333377],[-104.48377720665269,18.231483387648382],[-104.55845149723871,18.296960613841406],[-104.63557843599591,18.360526984832632],[-104.71504422451125,18.422194807844221],[-104.79673506527092,18.481976390997772],[-104.88053716076126,18.539884042414769],[-104.96633671166978,18.595930070216696],[-105.05401992138218,18.650126781625829],[-105.14347299148528,18.702486486562236],[-105.23458212446536,18.753021491348875],[-105.3272335210101,18.801744105905925],[-105.42131338540429,18.848666636556175],[-105.51670791743635,18.89380139232054],[-105.61330332049175,18.937160681320506],[-105.71098579615744,18.978756812576989],[-105.80964154691975,19.018602092412777],[-105.90915677436556,19.056708828949411],[-106.00941768098107,19.093089332107127],[-106.11031046835336,19.127755909108032],[-106.21172133896852,19.160720868073724],[-106.3135364944136,19.191996516226368],[-106.41564213717481,19.221595162586823],[-106.51794642398818,19.249527402068111],[-106.62044533128693,19.275796970453939],[-106.72315678705598,19.300405892118363],[-106.82609872287765,19.32335619053589],[-106.9292890694349,19.344649890080518],[-107.03274575561204,19.364289012428117],[-107.13648671299131,19.382275582852003],[-107.24052987135639,19.398611624826742],[-107.34489316049087,19.413299160028373],[-107.44959451017843,19.426340214629363],[-107.55465185200126,19.437736810305694],[-107.66008311574308,19.447490970531987],[-107.7659062311875,19.455604719682185],[-107.87213912811819,19.462080081230908],[-107.97879973811735,19.466919078652722],[-108.08590599006931,19.470123735422192],[-108.19347581465701,19.471696075013995],[-108.30152714256349,19.471638120902696],[-108.4100779035723,19.469951896562918],[-108.51914602836644,19.466639425469225],[-108.62874944583018,19.461702731995615],[-108.73890608754579,19.455143838717333],[-108.84963388329697,19.446964769108945],[-108.96093256058913,19.437136025407369],[-109.07272903331813,19.425502019502744],[-109.18493201220252,19.411875642047391],[-109.29745020975929,19.39606978459301],[-109.41019233670687,19.377897335993396],[-109.52306710466303,19.357171188699567],[-109.63598322524552,19.33370423156515],[-109.74884940827349,19.307309355242694],[-109.8615743671632,19.277799451283784],[-109.97406681173391,19.244987410340855],[-110.08623545270387,19.208686121267647],[-110.19798900348962,19.168708476515121],[-110.30923617391022,19.124867364937074],[-110.41988567648269,19.076975678085205],[-110.52984622102616,19.024846306611892],[-110.63902651915845,18.968292141169513],[-110.74733528339652,18.907126071511129],[-110.85468122355951,18.841160988289118],[-110.96097305216455,18.77020978215586],[-111.06611947992997,18.694085343763732],[-111.17002921847353,18.61260056466449],[-111.27261097851374,18.525568332812441],[-111.37377347256762,18.432801541558035],[-111.47341884720191,18.334189017609219],[-111.57142299687371,18.229923344486906],[-111.66765525188828,18.120273041767575],[-111.76198494345027,18.005506629927197],[-111.85428140186508,17.885892629441457],[-111.94441395743809,17.761699560786269],[-112.03225194047457,17.633195944437432],[-112.11766468217922,17.500650299971483],[-112.20052151285745,17.364331148763654],[-112.28069176371383,17.224507010390369],[-112.35804476325512,17.081446405327483],[-112.43244984448467,16.935417854950174],[-112.50377633680841,16.786689877935657],[-112.57189357053176,16.635530995659053],[-112.6366708768594,16.482209728596217],[-112.69797758609661,16.326994597223006],[-112.75568302854884,16.170154121115957],[-112.80965653542069,16.011956820750811],[-112.8597674361182,15.852671216603483],[-112.90588506274537,15.692565830049148],[-112.94787874470819,15.531909180664286],[-112.98561781231211,15.370969788025434],[-113.01897159676167,15.210016173507768]]]},"properties":{"objectid":2,"basin":"Pacific","prob2day":"20%","risk2day":"Low","prob7day":"80%","risk7day":"High","idp_source":"gtwo_areas_202609181429","idp_filedate":1789741972000,"idp_ingestdate":1789742047000,"st_area(shape)":110.0652654900364,"st_perimeter(shape)":39.229907414060492}},{"type":"Feature","id":3,"geometry":{"type":"Polygon","coordinates":[[[-116.77791165799653,9.7196100513629062],[-116.67191885666978,9.791228717231661],[-116.57127335318262,9.8660188629802974],[-116.47591507372158,9.9438215127527201],[-116.3857839417754,10.024477689793684],[-116.30081988353072,10.107828418247038],[-116.22096282157685,10.193714721357424],[-116.1461526829998,10.281977623268858],[-116.07632939128825,10.372458146326551],[-116.0114328699309,10.464997314674463],[-115.9514030460137,10.559436152456612],[-115.89617984212595,10.655615682917585],[-115.84570318445429,10.753376929301965],[-115.79991299648748,10.85256091575377],[-115.7587492026135,10.953008665517643],[-115.722151729019,11.054561202737432],[-115.69006050009193,11.157059550657891],[-115.66241543842165,11.260344732523549],[-115.63915647109417,11.364257772478368],[-115.6202235224975,11.468639694666308],[-115.60555651522088,11.573331520533372],[-115.59509537635046,11.678174276022162],[-115.58878002937479,11.783008983477941],[-115.5865503995812,11.887676667044673],[-115.58834641045837,11.992018349966997],[-115.59410798729368,12.095875056388877],[-115.6037750553744,12.199087808655577],[-115.61728753818926,12.301497631810378],[-115.63458536192479,12.402945549097979],[-115.65560845006979,12.50327258376285],[-115.6802967333075,12.602319792324693],[-115.70859865350496,12.699971874502523],[-115.74048793157272,12.796243205959343],[-115.77594296669446,12.891172141880986],[-115.81494215535611,12.984797032956862],[-115.85746389674136,13.077156233473545],[-115.90348658733603,13.168288095919024],[-115.95298862452529,13.258230971881972],[-116.00594840659357,13.347023215649017],[-116.06234433092601,13.434703179708094],[-116.12215479490777,13.521309216547252],[-116.18535819592392,13.606879678654366],[-116.25193293315823,13.691452919416861],[-116.32185740219728,13.775067291322557],[-116.39511000222473,13.857761146859559],[-116.47166912972648,13.939572839415121],[-116.55151318298692,14.020540722376552],[-116.63462055939118,14.100703147332524],[-116.72096965632448,14.180098466770971],[-116.81053887207122,14.258765034978524],[-116.90330660401645,14.336741204443172],[-116.99925124954541,14.414065326753587],[-117.09835120604322,14.490775755297022],[-117.20058487179432,14.566910844360109],[-117.30593064418377,14.642508943732878],[-117.4143669196975,14.717608409500656],[-117.5258720975192,14.792247591453304],[-117.64042457503399,14.866464844776885],[-117.75800274962711,14.940298521060015],[-117.87858501868357,15.013786973690003],[-118.00214960961671,15.086968423853818],[-118.1286388048369,15.159853325270888],[-118.2579146798185,15.232390179163588],[-118.38982846061486,15.304519100576158],[-118.52423137058122,15.376180208150231],[-118.66097463756938,15.447313617829366],[-118.79990948403537,15.517859447355761],[-118.94088713603242,15.587757813572352],[-119.08375881781512,15.656948833322133],[-119.22837575633599,15.725372624347301],[-119.37458917405104,15.792969302591359],[-119.52225029791282,15.859678985796677],[-119.67121035307525,15.925441790806133],[-119.82132056289356,15.990197834462606],[-119.97243215252172,16.053887233609089],[-120.12439634891228,16.116450105987724],[-120.27706437542048,16.177826568441503],[-120.43028745720028,16.237956737813363],[-120.58391682030492,16.296780730946125],[-120.73780368898895,16.354238665582102],[-120.89179928750701,16.410270657664853],[-121.04575484191236,16.464816824936634],[-121.19952157735884,16.517817284240436],[-121.35295071900038,16.569212153318347],[-121.50589349019231,16.618941548114094],[-121.65820111788719,16.666945585470557],[-121.80972482633956,16.713164384029255],[-121.96031583980408,16.757538058834484],[-122.10982538433393,16.800006728527819],[-122.25810468508308,16.840510509952196],[-122.405005926782,16.87898990935696],[-122.55045555028335,16.915415626829827],[-122.69450587094911,16.949809541976947],[-122.8372213935524,16.98219848876937],[-122.97866662466492,17.012609303876388],[-123.11890607085837,17.04106882306786],[-123.25800423780521,17.067603882113588],[-123.39602563207717,17.092241316783486],[-123.53303475934655,17.115007962847358],[-123.6690961261852,17.135930655175741],[-123.80427423916473,17.155036230437815],[-123.93863360305824,17.172351524403496],[-124.07223872533683,17.187903371943207],[-124.20515411167281,17.201718610625505],[-124.33744426773865,17.213824073522289],[-124.46917370010607,17.224246599101434],[-124.60040691534675,17.233013021333988],[-124.73120841913317,17.240150175989982],[-124.86164271803693,17.245684899738478],[-124.99177431773046,17.249644028349394],[-125.1216677247856,17.252054396693211],[-125.25138744487458,17.252942841439108],[-125.38099798456926,17.25233619745768],[-125.51056384954194,17.25026130051873],[-125.6401495463644,17.246744987291493],[-125.76981958160832,17.241814092646393],[-125.89963846004679,17.235495452353405],[-126.02967069005024,17.227815903081591],[-126.15998077549233,17.218802279701606],[-126.29063322294479,17.208481418882513],[-126.4216904867265,17.196879561942353],[-126.55313519553278,17.18399991856154],[-126.68484628712633,17.169815768982687],[-126.81669576909439,17.154298398752246],[-126.94855564902389,17.137419088919955],[-127.08029793360265,17.119149123233569],[-127.21179463041778,17.09945978454158],[-127.34291774705628,17.078322355692308],[-127.47353929020596,17.055708119534245],[-127.60353126925258,17.031588359815089],[-127.73276568908517,17.005934357584692],[-127.86111455908951,16.978717397490016],[-127.9884498859534,16.949908762379607],[-128.11464367726381,16.919479734202525],[-128.23956793970854,16.887401596706468],[-128.36309468177404,16.85364563184055],[-128.48509591014806,16.818183124251902],[-128.60544363151831,16.780985354990264],[-128.72400985527054,16.742023607803389],[-128.84066658719314,16.701269166439033],[-128.9552858357726,16.658693312846253],[-129.06773960769664,16.614267329873542],[-129.17789990965304,16.567962500369219],[-129.28563875102742,16.519750108081155],[-129.39082813760837,16.469601435857726],[-129.49334007788218,16.417487765647991],[-129.59304657763738,16.363380381199761],[-129.68981964625959,16.307250565361414],[-129.78353128953728,16.249069600981443],[-129.87405351595692,16.188808770908167],[-129.96126188452826,16.12644115843284],[-130.04511363338736,16.061981238143744],[-130.12564768249445,15.995484879523701],[-130.20290650413176,15.927009751598916],[-130.27693256788359,15.856613522496218],[-130.34776834693156,15.784353860342492],[-130.41545630996063,15.710288435962696],[-130.48003893015243,15.634474915684962],[-130.54155867799051,15.556970969434815],[-130.60005802485784,15.477834265339197],[-130.65557944213748,15.397122472424314],[-130.70816539941359,15.314893258816994],[-130.75785836986779,15.231204293543442],[-130.80470082398375,15.1461132447306],[-130.84873523224508,15.059677782303936],[-130.89000406693407,14.971955573491073],[-130.92854979763496,14.883004287318158],[-130.96441489752942,14.792881592811398],[-130.99764183710101,14.701645158997053],[-131.02827308593407,14.609352653102576],[-131.05635111721023,14.516061745053605],[-131.08191840141302,14.421830103876346],[-131.10501740992544,14.32671539589893],[-131.12569061323114,14.230775292845635],[-131.14398048361232,14.134067461044651],[-131.15992949065338,14.036649569522126],[-131.17358010663651,13.938579288203698],[-131.18497480294474,13.839914284316933],[-131.19415605006157,13.740712226887922],[-131.20116631937003,13.641030784942927],[-131.20604628270968,13.5409282003763],[-131.20880967632542,13.440471292816028],[-131.20944950439105,13.339733484712667],[-131.20795823868167,13.238788368488542],[-131.20432834827454,13.137709536565978],[-131.19855230404551,13.036570583165997],[-131.19062257597102,12.935445099811659],[-131.18053163672556,12.834406678025914],[-131.16827195358769,12.733528912929103],[-131.15383600013121,12.632885395145024],[-131.13721624453399,12.532549717995209],[-131.11840515947046,12.432595473902154],[-131.09739521311849,12.333096255288069],[-131.07417887815262,12.23412565547477],[-131.04874862365,12.135757266884525],[-131.0210969204864,12.038064681040339],[-130.99121623953772,11.94112149216329],[-130.95909905078048,11.845001292675647],[-130.92473782509046,11.749777674100528],[-130.8881250333435,11.655524229759521],[-130.84925314551617,11.562314552075065],[-130.80811463158489,11.470222233469428],[-130.76470196332485,11.379320867264369],[-130.71900761071259,11.289684045882154],[-130.67102404372457,11.201385361745167],[-130.62074373323662,11.114498407275789],[-130.56815915012459,11.029096774896402],[-130.5132627652643,10.945254057928594],[-130.45604704773297,10.863043848794746],[-130.39650446930574,10.782539739917183],[-130.33462528492885,10.703810341474195],[-130.27037688158771,10.626872826020247],[-130.20371315643695,10.551714018487303],[-130.13458783036401,10.478320353501658],[-130.06295462605505,10.40667826568955],[-129.98876726529699,10.336774188777952],[-129.91197946987654,10.268594556493724],[-129.83254496247997,10.202125803463218],[-129.75041746399467,10.137354363413294],[-129.66555069710688,10.074266670970246],[-129.57789838360344,10.012849158961671],[-129.48741424527111,9.953088262913127],[-129.39405200389677,9.8949704156523239],[-129.29776538216657,9.8384820518053857],[-129.19850810186733,9.7836096050993433],[-129.09623388388655,9.7303395101603769],[-128.9908964518097,9.6786582007155175],[-128.88244952562502,9.6285521113909454],[-128.77084682981723,9.5800076759136346],[-128.65604208437458,9.5330113271111827],[-128.53798901108388,9.4875495014085232],[-128.41664133353061,9.4436086307338769],[-128.29195277260226,9.4011751497135378],[-128.16387705008572,9.3602354938730628],[-128.03236788866701,9.3207760951407863],[-127.89737901013314,9.2827833890423221],[-127.7588641362708,9.2462438084051541],[-127.61677698886683,9.2111437887550096],[-127.47107128970816,9.1774697638186922],[-127.32170076148088,9.1452081664238563],[-127.16863541539203,9.1143455256256516],[-127.01196565848824,9.0848690602590523],[-126.85183585713901,9.0567663003246253],[-126.6883906322218,9.0300247767222004],[-126.52177460641286,9.0046320212509272],[-126.35213240058971,8.980575563911259],[-126.17960863652928,8.9578429374017787],[-126.00434793600834,8.9364216708235631],[-125.82649491990452,8.9162992968751951],[-125.64619420999469,8.8974633464563908],[-125.46359042715642,8.8799013504670938],[-125.27882819496512,8.8636008398070203],[-125.09205213249982,8.8485493462754334],[-124.90340686243667,8.8347343998727865],[-124.7130370065525,8.8221435332975489],[-124.5210871848256,8.8107642765502874],[-124.32770202083151,8.800584161430038],[-124.13302613544772,8.7915907179374244],[-123.93720414955175,8.7837714787708592],[-123.74038068492058,8.7771139739309092],[-123.54270036333099,8.7716057352166672],[-123.34430780655993,8.767234293527963],[-123.14534763458556,8.7639871797646833],[-122.94596447098348,8.7618519257259209],[-122.74630293573182,8.7608160614122426],[-122.54650765150683,8.7608671195220609],[-122.34672323918602,8.761992629156623],[-122.14709431964707,8.764180123913718],[-121.947765515566,8.7674171328944794],[-121.74888144782045,8.7716911887974334],[-121.55058868701821,8.777000710614459],[-121.35304433662674,8.7834030247299211],[-121.15640904883844,8.7909752749890799],[-120.96084347854361,8.7997946232234199],[-120.7665082788339,8.8099382321638018],[-120.57356410370033,8.8214832627425039],[-120.38217160713384,8.834506874992428],[-120.1924914431255,8.849086231644435],[-120.00468426566624,8.8652984945300091],[-119.81891072964635,8.8832208236822225],[-119.63533148725821,8.9029303818317658],[-119.45410719429151,8.924504329011711],[-119.27539850293846,8.9480198279528622],[-119.09936606898879,8.9735540395873841],[-118.92617054463483,9.0011841248476117],[-118.7559725856662,9.0309872455650861],[-118.58893284517455,9.0630405635712918],[-118.4252119762516,9.097421239798507],[-118.26497063468696,9.1342064351789531],[-118.10836947357228,9.1734733124435479],[-117.95556914599922,9.2152990316251362],[-117.80673030775739,9.259760754555316],[-117.66201361103924,9.3069356430656285],[-117.52157971163427,9.3569008580882951],[-117.38558926173494,9.4097335623541767],[-117.25420291623152,9.4655109149968553],[-117.12758133001427,9.5243100787472486],[-117.00588515527562,9.5862082154369546],[-116.88927504690582,9.651282485998081],[-116.77791165799653,9.7196100513629062]]]},"properties":{"objectid":3,"basin":"Pacific","prob2day":"60%","risk2day":"Medium","prob7day":"80%","risk7day":"High","idp_source":"gtwo_areas_202609181429","idp_filedate":1789741972000,"idp_ingestdate":1789742047000,"st_area(shape)":106.59715991291961,"st_perimeter(shape)":39.527535840196506}},{"type":"Feature","id":4,"geometry":{"type":"Polygon","coordinates":[[[-139.29833341625408,12.032264811971629],[-139.07080121000774,12.089473196431015],[-138.85072524867121,12.145344409517008],[-138.63790628294851,12.200071594128929],[-138.43214506084581,12.253847894065188],[-138.23324233396647,12.306866452225108],[-138.04099885121593,12.359320413306591],[-137.85521536329827,12.41140291930941],[-137.67569262001831,12.463307114032204],[-137.50223137118076,12.515226141273558],[-137.33463236748969,12.567353143932564],[-137.17269635785055,12.619881265807919],[-137.01622409296743,12.673003649798716],[-136.86501632174577,12.726913439703594],[-136.71887379578897,12.781803779321081],[-136.57759726490178,12.837867810651062],[-136.44098747798961,12.895298678391441],[-136.30884518485732,12.954289525441368],[-136.1809711371082,13.015033494700162],[-136.05716608364776,13.077723730865614],[-135.93723077428069,13.142553375937666],[-135.82096595881188,13.209715574614222],[-135.70817238884456,13.279403468895111],[-135.59865081238502,13.351810203478237],[-135.49225229540701,13.42707388994819],[-135.38902915507134,13.5051125155303],[-135.28908402830518,13.585789036135225],[-135.19251954574037,13.668966407673736],[-135.09943834430408,13.754507587855016],[-135.00994305552751,13.842275530791255],[-134.92413631363985,13.932133194191692],[-134.84212075287036,14.023943533967042],[-134.76399900744815,14.117569505128699],[-134.68987370980375,14.212874064486641],[-134.61984749506576,14.309720167951525],[-134.55402299656396,14.407970772333442],[-134.4925028476282,14.507488833542993],[-134.43538968338709,14.608137307490892],[-134.38278613627108,14.709779149188535],[-134.3347948405094,14.812277317244536],[-134.2915184294319,14.915494765770973],[-134.25305953816707,15.019294450678501],[-134.21952079914547,15.123539329676476],[-134.19100484749561,15.228092358675553],[-134.16761431564805,15.33281649268713],[-134.14945183783198,15.437574688521181],[-134.13662004827654,15.542229902088422],[-134.12919036124606,15.646645191822302],[-134.12710930934708,15.750684021750317],[-134.13029220701964,15.854209961120944],[-134.13865436690543,15.957086576484471],[-134.15211110434387,16.059177435290565],[-134.17057773287598,16.160346104988889],[-134.19396956514322,16.260456152129848],[-134.22220191648518,16.359371144163106],[-134.25519009864405,16.456954649437648],[-134.29284942695938,16.553070234503878],[-134.33509521497211,16.647581466811403],[-134.38184277622304,16.740351913809889],[-134.43300742425316,16.831245142049795],[-134.48850447350259,16.92012471988005],[-134.54824923751221,17.006854214750376],[-134.61215702892366,17.091297193211062],[-134.68014316307642,17.173317223611093],[-134.75212295351139,17.252777871601609],[-134.82801171287014,17.329542705531594],[-134.90772475559288,17.403475293749921],[-134.99117739522052,17.474439201907785],[-135.07828494619321,17.542297997454739],[-135.1689627220519,17.606915248739881],[-135.26312721714726,17.668187452788857],[-135.36069964906949,17.726142827629531],[-135.46160241711777,17.780842521765123],[-135.56575791879283,17.832347683698799],[-135.67308855429326,17.88071946103446],[-135.78351672111967,17.926019002275268],[-135.8969648185714,17.968307456823823],[-136.01335524504844,18.00764597228391],[-136.13261039895065,18.04409569625949],[-136.25465267957742,18.077717778153101],[-136.3794044844293,18.108573365568532],[-136.50678821370502,18.136723607009003],[-136.63672626490512,18.162229651877055],[-136.76914103732895,18.18515264687727],[-136.90395492937643,18.205553740512869],[-137.04109033944752,18.223494082186278],[-137.18046966594227,18.239034820400775],[-137.32201530905917,18.252237101860885],[-137.46564966539967,18.263162075969149],[-137.61129513516227,18.271870890329467],[-137.75887411584768,18.278424694344324],[-137.90830900765451,18.282884635617563],[-138.05952220808337,18.285311862652463],[-138.21245429173212,18.285758699804319],[-138.36711854248665,18.284242172138647],[-138.5235464168336,18.28077048327134],[-138.68176937305805,18.275351834119988],[-138.84181887124385,18.26799442740105],[-139.00372636877682,18.258706464931549],[-139.16752332394213,18.247496148528569],[-139.33324119502504,18.23437168000919],[-139.50091144031063,18.21934126119038],[-139.67056551808412,18.202413094788653],[-139.84223488752997,18.183595382620979],[-140.01595100693334,18.162896326504381],[-140.1917453336801,18.140324128256054],[-140.3696493269548,18.115886990592287],[-140.54969444504252,18.089593114430841],[-140.73191214622847,18.06145070248806],[-140.91633388879785,18.031467957480402],[-141.10299113103576,17.999653079426196],[-141.29191533122747,17.966014271941219],[-141.48313794765807,17.930559736842497],[-141.67669043951207,17.89329767594711],[-141.8726042650747,17.854236290172821],[-142.07091088173172,17.813383783135237],[-142.27158725514761,17.770770117547045],[-142.47439237510793,17.726512301501657],[-142.67903074057614,17.680749102189452],[-142.88520684691838,17.633619291297407],[-143.09262519309812,17.585261635116524],[-143.30099027448148,17.535814904434403],[-143.51000659003199,17.485417867340857],[-143.71937863691448,17.434209292824733],[-143.92881091139435,17.382327949875105],[-144.13800791063647,17.329912608380312],[-144.34667413270498,17.277102035530675],[-144.55451407476465,17.224035002113794],[-144.76123223398034,17.170850275320106],[-144.96653310751682,17.117686625037834],[-145.17012119253891,17.064682821155429],[-145.37170098621147,17.011977629963781],[-145.57097698659857,16.959709823149979],[-145.76765368996573,16.908018168803608],[-145.96143559347777,16.857041435014366],[-146.15202719519883,16.806918390771273],[-146.33913299139437,16.757787806861927],[-146.52245748102783,16.709788449577445],[-146.70170515946546,16.66305909060469],[-146.8767294138313,16.617713609295777],[-147.04797918479147,16.573766339045449],[-147.21605230297132,16.531206723611547],[-147.38154659899627,16.490024208550551],[-147.54505990079369,16.450208238519508],[-147.70719004078768,16.411748258175692],[-147.86853484780491,16.374633712176205],[-148.02969215247077,16.338854045178209],[-148.19125978451137,16.30439870183875],[-148.35383557365273,16.271257127714421],[-148.51801735052024,16.239418766562949],[-148.68440294483995,16.208873063940871],[-148.85359018723727,16.179609464505347],[-149.02617690743824,16.151617412014105],[-149.20276093516893,16.12488635202368],[-149.38394010195407,16.099405730090496],[-149.57031223572102,16.07516498907313],[-149.76247516799452,16.052153575427326],[-149.96102672850063,16.030360932910867],[-150.16656474696541,16.00977650618097],[-150.37968705401425,15.990389740794058],[-150.60099147937319,15.972190080507971],[-150.83107585366764,15.955166971778453],[-151.07027088099628,15.939259161781024],[-151.31783877014306,15.924202619455457],[-151.57277460156652,15.909682616259886],[-151.83407345752397,15.895384424551708],[-152.10073042207125,15.880993316688375],[-152.37174057566696,15.866194565027286],[-152.64609900056834,15.850673440127309],[-152.92280077993198,15.834115215245106],[-153.20084099511575,15.816205162738186],[-153.47921472927626,15.796628554064682],[-153.7569170637714,15.775070661581879],[-154.03294308085842,15.751216757647398],[-154.30628786189521,15.724752112819885],[-154.57594649093772,15.695362001255489],[-154.84091404934381,15.662731694412287],[-155.10018561937076,15.626546464647788],[-155.35275628327577,15.586491582520637],[-155.5976211224168,15.542252321287719],[-155.83377521995035,15.493513953306433],[-156.06021365723441,15.439961750934174],[-156.27593151742551,15.381280984729813],[-156.47992388278089,15.317156927950009],[-156.67118583465847,15.247274852052897],[-156.8489557075398,15.17142891301404],[-157.01344484300503,15.08984879228808],[-157.16510783575794,15.002873055846976],[-157.30439927870367,14.910840270562176],[-157.43177376564668,14.814089002405694],[-157.54768589129077,14.712957815550908],[-157.65259024854106,14.607785276869151],[-157.74694143210132,14.498909951433234],[-157.83119403577604,14.38667040521517],[-157.90580265247036,14.271405205086296],[-157.9712218759887,14.153452915219987],[-158.02790630103488,14.033152101588371],[-158.07631052141335,13.910841331062727],[-158.11688913092857,13.786859167816488],[-158.15009672248567,13.661544179620307],[-158.17638789078845,13.535234929748356],[-158.19621722964135,13.408269985971231],[-158.21003933194953,13.280987913361628],[-158.21830879241676,13.153727276992356],[-158.22148020574681,13.026826643734751],[-158.22000816394552,12.900624578661507],[-158.21434726081736,12.775459647744697],[-158.2049520919654,12.651670416057016],[-158.19217015003233,12.529552432299056],[-158.17592052661092,12.409229169790478],[-158.15601521303157,12.290781082780882],[-158.13226620242321,12.174288627318447],[-158.10448548521688,12.059832258552035],[-158.07248505364223,11.947492432529884],[-158.0360768999289,11.837349604400856],[-157.99507301450794,11.729484228414549],[-157.94928538960897,11.623976760619144],[-157.89852601656233,11.520907656163558],[-157.8426068875977,11.420357370196598],[-157.78133999494472,11.322406358766557],[-157.71453732903441,11.227135077022297],[-157.64201088209646,11.134623980112735],[-157.56357264546114,11.044953522287358],[-157.47903461135814,10.958204160493722],[-157.38820877201712,10.874456349880802],[-157.29090711696981,10.793790544698027],[-157.18694164024441,10.71628720099369],[-157.07612433227203,10.642026773017278],[-156.9582671852823,10.571089717716461],[-156.83318219060553,10.503556490239987],[-156.70068133957207,10.439507544837454],[-156.56064783542919,10.379001680982924],[-156.41324972549435,10.322011071853638],[-156.2587262672034,10.268486234052602],[-156.09731671889139,10.21837768508226],[-155.92926033889344,10.171635941545617],[-155.75479638644399,10.128211519146419],[-155.57416411718017,10.088054937185746],[-155.38760279123574,10.051116709568646],[-155.19535166604646,10.017347355596144],[-154.99764999994747,9.9866973900726066],[-154.79473705037449,9.9591173313998524],[-154.586852076562,9.9345576961808888],[-154.37423433594577,9.9129690001194035],[-154.15712308686088,9.8943017616171574],[-153.93575758764248,9.8785064963778382],[-153.7103770957263,9.865533721903887],[-153.48122087034682,9.8553339538989917],[-153.24852816893977,9.8478577107648562],[-153.01253824984028,9.843055508205282],[-152.77349037048413,9.8408778637225964],[-152.53162379010575,9.8412752939198072],[-152.2871777661409,9.8441983154000923],[-152.04039155602541,9.8495974456657223],[-151.79146485691754,9.8574267851181503],[-151.54043910777852,9.8676547738488694],[-151.28731618909077,9.8802534357475906],[-151.0320979777394,9.8951947956034587],[-150.77478635240814,9.9124508764069788],[-150.51538319088147,9.9319937020478619],[-150.25389037184311,9.9537952973152528],[-149.99030977307748,9.9778276860989763],[-149.72464327416768,10.0040628922888],[-149.45689275199882,10.032472939774493],[-149.18706008615396,10.063029853345199],[-148.91514715351823,10.095705655991367],[-148.64115583277538,10.13047237250214],[-148.36508800260916,10.167302025867912],[-148.08694554080398,10.206166641777259],[-147.80673032514431,10.247038242321139],[-147.5244442352132,10.289888854087508],[-147.24008914879511,10.334690498268003],[-146.95366694457374,10.381415200551203],[-146.66517949943426,10.430034984826818],[-146.37462869206041,10.480521875883994],[-146.08201640203524,10.532847895813859],[-145.78734450624387,10.586985069405557],[-145.49068495584595,10.642886073433658],[-145.19238999190452,10.700426189916868],[-144.89288192975718,10.759461355557278],[-144.59258308204352,10.819847503459641],[-144.29191576410113,10.88144057032622],[-143.99130228767035,10.94409649016103],[-143.69116496898806,11.007671198766957],[-143.39192612069382,11.072020631047394],[-143.09400805812527,11.137000721905906],[-142.79783309302275,11.202467407145264],[-142.50382354162303,11.268276620769598],[-142.21240171746518,11.334284297682302],[-141.92398993318881,11.400346374585638],[-141.63901050413136,11.466318785483679],[-141.3578857438319,11.532057466179253],[-141.08103796582935,11.597418350676492],[-140.80888948546129,11.662257374778164],[-140.54186261536734,11.726430473387779],[-140.28037966998568,11.789793581408787],[-140.02486296285537,11.852202633744696],[-139.77573480931392,11.913513567097596],[-139.53341752200095,11.973582314572297],[-139.29833341625408,12.032264811971629]]]},"properties":{"objectid":4,"basin":"Pacific","prob2day":"10%","risk2day":"Low","prob7day":"40%","risk7day":"Medium","idp_source":"gtwo_areas_202609181429","idp_filedate":1789741972000,"idp_ingestdate":1789742047000,"st_area(shape)":136.98952433442503,"st_perimeter(shape)":54.799250969421848}}]}