{"type":"FeatureCollection","features":[{"type":"Feature","id":1,"geometry":{"type":"Polygon","coordinates":[[[-52.014130780510982,35.096501877459843],[-51.923675277491952,35.07593667733596],[-51.831539103446744,35.056699201207323],[-51.737722333019121,35.038646722168664],[-51.642225044450129,35.021636514213924],[-51.545047314182113,35.005525853135737],[-51.446189219556743,34.990172011129573],[-51.345650836117102,34.975432263987955],[-51.243432241204857,34.961163885704934],[-51.139533512161734,34.947224149375131],[-51.033954725430135,34.933470328992655],[-50.926695957452353,34.919759700350028],[-50.817757284670847,34.905949536542039],[-50.707138785326549,34.891897111562571],[-50.5948405349626,34.877459700305053],[-50.480862610920667,34.862494576763424],[-50.365205089643041,34.846859014032418],[-50.24786804757224,34.830410287904613],[-50.128851562949137,34.813005671474684],[-50.008155710417611,34.794502438736686],[-49.885780569117856,34.774757864583933],[-49.761726213693692,34.753629223010364],[-49.635992722386106,34.730973788010033],[-49.508580171637504,34.706648833576935],[-49.379488637890233,34.680511634604386],[-49.24871819848596,34.652419464187062],[-49.11626892986709,34.622229597218279],[-48.982140907576706,34.589799307692033],[-48.846334210755117,34.554985869602319],[-48.708848914945349,34.517646557842511],[-48.569685096589808,34.477638645507227],[-48.428842833030217,34.434819407489783],[-48.286322201608186,34.389046116884913],[-48.142123277866858,34.340176049485251],[-47.996249526894019,34.288099186728232],[-47.848731322392496,34.232965267533189],[-47.699611868692671,34.175047903438156],[-47.54893444746665,34.114621465908044],[-47.396742343084554,34.051960330005386],[-47.243078839916393,33.987338868094412],[-47.087987219634385,33.921031453438957],[-46.931510765709163,33.853312459302686],[-46.773692762510848,33.784456258949319],[-46.614576491711603,33.71473722564258],[-46.454205238580755,33.644429732646188],[-46.292622285689788,33.573808153223865],[-46.129870915610127,33.503146860639276],[-45.965994411812517,33.432720228156143],[-45.80103605866708,33.362802629038242],[-45.635039138745128,33.29366843654924],[-45.468046935517521,33.225592023053593],[-45.300102731555683,33.158847763613551],[-45.131249811229679,33.09371002969425],[-44.961531457110937,33.030453196358053],[-44.790990953569519,32.969351635070041],[-44.61967158317691,32.910679719993254],[-44.447616628504477,32.854711823491982],[-44.274869373922343,32.801722320628755],[-44.101473102901252,32.751985582868485],[-43.927471098012632,32.705775984374327],[-43.752906642727282,32.663367897510625],[-43.577823020515893,32.625035696440364],[-43.40226351484921,32.591053754427378],[-43.226271409198034,32.561696444735276],[-43.049889986133849,32.537238139728515],[-42.873162529127285,32.517953212670761],[-42.696132322548522,32.504116038624431],[-42.518848687916488,32.495987610739803],[-42.341469368116748,32.493588772603914],[-42.164245888237019,32.496732637001742],[-41.98743286163716,32.505225471078745],[-41.811284906173341,32.518873539282538],[-41.63605663610474,32.53748310695994],[-41.462002668388322,32.560860438558564],[-41.289377618182414,32.588811801223812],[-41.118436099746077,32.621143458503923],[-40.949432730935655,32.657661676645205],[-40.78262212690953,32.698172720095101],[-40.618258902825971,32.742482855099809],[-40.456597674742795,32.79039834700626],[-40.297893057818271,32.841725460261898],[-40.142399668110102,32.896270461113033],[-39.990372122575252,32.953839614007109],[-39.842065034573579,33.014239184291057],[-39.697733021061936,33.077275437311755],[-39.557630698098137,33.142754639315285],[-39.422012680840453,33.210483054749318],[-39.291133585346586,33.280266948061353],[-39.165248026774918,33.351912586396907],[-39.044610621183097,33.425226234203478],[-38.92947598462888,33.500014156828001],[-38.820098732270537,33.576082618718033],[-38.716733479266509,33.653237887019031],[-38.619634842573817,33.731286225279234],[-38.52905743735073,33.810033898845518],[-38.445255879655008,33.889287174863398],[-38.368484784644977,33.968852316881055],[-38.29899876837834,34.048535590245422],[-38.237052446013479,34.128143261202695],[-38.182900433607983,34.207481594200374],[-38.136795329141023,34.286357998522931],[-38.098868680045427,34.364648495431879],[-38.069064401001185,34.442335458214984],[-38.047310267454748,34.519410406265365],[-38.033534056651263,34.595864858976199],[-38.027663543137862,34.671690338438509],[-38.029626502361054,34.746878364944735],[-38.039350710666668,34.821420456988619],[-38.056763944400416,34.895308136661299],[-38.081793977210168,34.968532923355895],[-38.114368587240392,35.041086337364732],[-38.1544155481389,35.112959899879627],[-38.201862636251519,35.18414513119302],[-38.256637627924079,35.254633550697974],[-38.318668298602972,35.32441667958625],[-38.387882423734766,35.393486037250966],[-38.464207778765854,35.461833144883883],[-38.547572140042121,35.529449522777384],[-38.637903282110642,35.596326691223965],[-38.735128982216622,35.662456170516009],[-38.839177014907193,35.727829480046637],[-38.949975156528126,35.792438141906871],[-39.067451182525929,35.856273675489888],[-39.191532868347053,35.919327600188751],[-39.322147990337385,35.98159143809454],[-39.459224323043941,36.043056708600375],[-39.602689643711983,36.103714931998638],[-39.752471726888587,36.163557629481147],[-39.908498348020203,36.222576320440965],[-40.070697284352093,36.28076252517053],[-40.238996310431276,36.338107764861604],[-40.413323201704259,36.394603558907249],[-40.593605734516927,36.450241428499282],[-40.779771614168567,36.505012893930029],[-40.971678742379936,36.558910602342564],[-41.168984225641395,36.611930433942518],[-41.371309289292128,36.664068845401061],[-41.578275156872849,36.715322296986585],[-41.789503052823534,36.765687245370202],[-42.004614200684671,36.815160149921155],[-42.223229826695047,36.863737468209763],[-42.444971152596509,36.911415657806515],[-42.66945940462773,36.95819117897986],[-42.896315805429936,37.004060487501647],[-43.125161580342535,37.049020043640269],[-43.355617953805393,37.093066304966158],[-43.587306148459845,37.136195729049803],[-43.81984739054451,37.178404774361013],[-44.052862902700667,37.219689900268804],[-44.285973910267614,37.260047563444459],[-44.518801636786009,37.299474223256937],[-44.750967305796394,37.337966337276782],[-44.9820921435375,37.375520363973749],[-45.211797372650494,37.412132761817645],[-45.439704217575468,37.447799988378904],[-45.665433903651603,37.482518502127334],[-45.888607653520296,37.516284761532688],[-46.108846692520729,37.549095225064718],[-46.325772244193615,37.58094635119329],[-46.53900553297882,37.611834596589517],[-46.748167783316433,37.641756421521791],[-46.952880219646318,37.67070828266128],[-47.152764065509075,37.698686638477739],[-47.347440546244115,37.725687948340294],[-47.536530884492606,37.75170866892006],[-47.719656305593901,37.776745259586221],[-47.896438033987977,37.800794177909154],[-48.066564850287477,37.823854143254266],[-48.230103568724587,37.845936529347512],[-48.387252422361257,37.867057105800939],[-48.538209777359214,37.88723164942121],[-48.683173998081429,37.906475936115726],[-48.822343450689573,37.924805739993076],[-48.955916501345371,37.942236837859923],[-49.084091514411739,37.958785005623668],[-49.20706685694978,37.974466018292276],[-49.325040893322466,37.989295651773034],[-49.438211988792148,38.003289681973399],[-49.546778510419813,38.016463883901281],[-49.650938822568492,38.028834033464022],[-49.750891290500533,38.040415907468287],[-49.846834281276927,38.051225280022777],[-49.938966158361382,38.061277927934157],[-50.027485288814887,38.070589626210449],[-50.112590037899793,38.079176149859563],[-50.194478770878447,38.087053276587596],[-50.273349853912521,38.094236780503138],[-50.349401652264305,38.100742436614325],[-50.422832530296944,38.106586022626971],[-50.493840855071312,38.111783313549211],[-50.562624991849759,38.116350084389012],[-50.629383305894748,38.120302111053718],[-50.694314162468515,38.123655168551352],[-50.757615927732786,38.126425034587839],[-50.819486966949853,38.128627482372565],[-50.880125645382122,38.13027828961151],[-50.939730329191207,38.1313932313127],[-50.998499382740192,38.131988082484156],[-51.056631173090068,38.132078619033166],[-51.114324065503126,38.131680616867129],[-51.171766324056478,38.13080801098107],[-51.229028797341016,38.129453337901396],[-51.286106579554883,38.127595325064362],[-51.342993501348872,38.125212474176465],[-51.399683396071737,38.122283284246294],[-51.456170095273535,38.118786254282384],[-51.512447429605061,38.114699885091795],[-51.568509231515691,38.110002675683063],[-51.624349332555539,38.104673125964155],[-51.679961565173983,38.098689734943434],[-51.735339760921136,38.09203100342819],[-51.790477751347055,38.084675429527579],[-51.845369368001798,38.076601514048775],[-51.900008442435535,38.067787756000257],[-51.954388807996963,38.058212656189255],[-52.0085042944375,38.047854712724984],[-52.0623487351059,38.036692426414504],[-52.115915960652956,38.024704295367087],[-52.169199803527988,38.011868821289227],[-52.222194095281168,37.9981645031894],[-52.274892668361815,37.98356983917688],[-52.327289353420781,37.968063330958103],[-52.379377982907442,37.951623477541602],[-52.431152388371913,37.934228777935914],[-52.482606401364194,37.915857732048835],[-52.533733854333775,37.896488839788276],[-52.584528577931394,37.876100601062035],[-52.634984405505804,37.854671514878646],[-52.685095167707686,37.832180081145964],[-52.734854696986588,37.808604799771842],[-52.784256824892452,37.783924170664079],[-52.83329538207613,37.758116691931946],[-52.881964201886319,37.731160865281879],[-52.930255998915129,37.703036051272875],[-52.978129611192514,37.673747793326129],[-53.025504713071939,37.643331897049563],[-53.072298797151632,37.611825854279914],[-53.118429356029822,37.579267156853973],[-53.163813883204057,37.545693297507796],[-53.208369870373076,37.511141768078289],[-53.252014810135279,37.475650061301451],[-53.294666195988043,37.439255668114754],[-53.336241518731015,37.40199608215363],[-53.376658272760949,37.363908795254815],[-53.415833950676188,37.325031298355896],[-53.45368604417547,37.285401085092133],[-53.490132045857138,37.245055647300433],[-53.525089449218569,37.204032475918154],[-53.558475746858107,37.162369064580787],[-53.590208429575227,37.120102905125123],[-53.620204992666174,37.077271489387897],[-53.648382926930424,37.033912310105165],[-53.674659724966205,36.990062858214458],[-53.698952881170442,36.945760627351206],[-53.721179886342554,36.901043108452825],[-53.741258233080885,36.855947794255428],[-53.759105415782187,36.810512177495127],[-53.774638925246109,36.764773749109395],[-53.787776254970083,36.718770001834287],[-53.798434896653021,36.672538428405915],[-53.806532344691846,36.626116519761752],[-53.811986089886034,36.579541769537173],[-53.814713626632454,36.532851668669707],[-53.814632445730695,36.486083709895468],[-53.811660040678191,36.439275385051133],[-53.805713904073286,36.392464185973552],[-53.796711758740571,36.345687614392034],[-53.78460870063094,36.298984611850528],[-53.769438194417035,36.25239713891699],[-53.751243575730314,36.205967535673381],[-53.730068178403599,36.15973814489962],[-53.705955337168973,36.113751307576933],[-53.678948385859201,36.068049363787281],[-53.649090659206422,36.022674656310471],[-53.616425491043458,35.977669525228578],[-53.580996216102392,35.933076312422031],[-53.542846169115307,35.88893735887217],[-53.502018683015706,35.845295006459537],[-53.45855709343499,35.802191595266038],[-53.412504734205982,35.75966946807165],[-53.3639049391615,35.7177709640589],[-53.312801043932893,35.67653842600771],[-53.259236381453718,35.636014194899303],[-53.203254286456058,35.596240612614338],[-53.144898093671998,35.557260018335342],[-53.0842111369343,35.519114755741555],[-53.021236751874483,35.481847164015562],[-52.95601827052667,35.445499585937284],[-52.888599029421528,35.410114362488002],[-52.819022361492671,35.375733833749564],[-52.747331601472126,35.342400341602627],[-52.673570083192658,35.310156227927735],[-52.597781142285783,35.279043833706112],[-52.520008111684888,35.24910549991904],[-52.440294327021434,35.220383568447062],[-52.358683121228921,35.19292037847282],[-52.275217829039491,35.166758273675555],[-52.189941786084432,35.141939595036433],[-52.102898324398041,35.118506681738097],[-52.014130780510982,35.096501877459843]]]},"properties":{"objectid":1,"basin":"Atlantic","prob2day":"70%","risk2day":"High","prob7day":"80%","risk7day":"High","idp_source":"gtwo_areas_202609281150","idp_filedate":1790596689000,"idp_ingestdate":1790596769000,"st_area(shape)":54.25609294908832,"st_perimeter(shape)":35.059533345252824}},{"type":"Feature","id":2,"geometry":{"type":"Polygon","coordinates":[[[-132.05247308926158,11.474456292923719],[-131.94885019308185,11.512445544726233],[-131.84335972696971,11.551405914151758],[-131.73618181074187,11.591329730882535],[-131.62749656601363,11.632209328198087],[-131.51748411260161,11.674037035780714],[-131.40632457122189,11.716805186010674],[-131.29419806079176,11.760506107670892],[-131.18128470292663,11.805132134040889],[-131.06776461744306,11.850675594803022],[-130.95381792415776,11.897128822337436],[-130.83962474468615,11.944484146326431],[-130.72536519884477,11.992733899150267],[-130.61121940645035,12.041870410491185],[-130.49736748821891,12.091886012729447],[-130.38398956486645,12.142773036446613],[-130.27126575531025,12.194523812224304],[-130.15937618206505,12.247130671543403],[-130.04850096314885,12.300585945884848],[-129.93882022017692,12.354881965830202],[-129.83051407386534,12.410011061961086],[-129.72376264313141,12.465965566657701],[-129.61873788914215,12.522741603842064],[-129.51550821882915,12.580383444440542],[-129.41407085868309,12.638968450833488],[-129.31442163584973,12.698574639208346],[-129.21655637657545,12.759280023054771],[-129.12047090890525,12.821162616761512],[-129.02616105998482,12.884300434717431],[-128.93362265695998,12.94877149221071],[-128.84285152607697,13.014653802730948],[-128.75384349628024,13.082025381566268],[-128.66659439291681,13.150964243105477],[-128.5811000440317,13.221548400838174],[-128.49735627677069,13.293855870951802],[-128.41535891738005,13.367964666036642],[-128.33510379390486,13.443952802280137],[-128.25658673349085,13.52189829317183],[-128.17980356328371,13.601879153100583],[-128.10475011042917,13.683973397354521],[-128.03142220207286,13.768259039423242],[-127.95981566446125,13.854814093695609],[-127.88992632563935,13.943716576359066],[-127.82175057752704,14.035043641151276],[-127.75533401485279,14.128797653289212],[-127.6908089197957,14.224849202129121],[-127.62831639868278,14.323055464538186],[-127.56799755963959,14.423273618283019],[-127.50999350719451,14.525360840230746],[-127.45444534947319,14.629174307248604],[-127.40149419280266,14.734571196203888],[-127.35128114261056,14.84140868486304],[-127.3039473070225,14.949543950093357],[-127.25963379146623,15.058834168762019],[-127.21848170316798,15.169136518635582],[-127.18063214845478,15.28030817568191],[-127.14622623365369,15.392206317667558],[-127.1154050659909,15.504688121459765],[-127.08830975089421,15.617610763925768],[-127.06508139558986,15.730831423731331],[-127.04586110730418,15.844207275945166],[-127.03078999236419,15.957595498333717],[-127.02000915619749,16.070853268663541],[-127.01365970692984,16.183837762902556],[-127.01188274998884,16.296406158817319],[-127.01478309776166,16.408418062343856],[-127.02228557591849,16.519745118642447],[-127.03425932141045,16.630262702361961],[-127.05057345500086,16.739846186352565],[-127.07109709655367,16.848370944363751],[-127.09569936683221,16.955712351044326],[-127.1242493848012,17.061745780143781],[-127.15661627212319,17.166346605411661],[-127.19266914866216,17.2693902005974],[-127.23227713428224,17.37075193855128],[-127.2753093506459,17.470307195720636],[-127.32163491581861,17.567931343157113],[-127.37112295146295,17.663499757308102],[-127.42364257834225,17.756887810124454],[-127.47906291632046,17.84797087625509],[-127.53725308436225,17.936624329449387],[-127.59808220502964,18.022723544356211],[-127.66141939638794,18.106143892926468],[-127.72713378009979,18.186760751607551],[-127.79509447692845,18.264449492350309],[-127.86517060583867,18.339085489803665],[-127.93723532375111,18.410549068484841],[-128.01122958927402,18.478803727610057],[-128.08715062080444,18.543881975872637],[-128.16499733735714,18.605818414688201],[-128.24476865974577,18.66464764187532],[-128.32646350878383,18.720404257950293],[-128.41008080528485,18.773122862530215],[-128.4956194691631,18.822838054332863],[-128.58307842033275,18.86958443387465],[-128.67245658050672,18.913396600772671],[-128.76375286869984,18.954309153744589],[-128.85696620662503,18.992356693306874],[-128.95209551419651,19.027573817277982],[-129.04913971132851,19.059995127972911],[-129.14809771973387,19.089655222310796],[-129.2489684584275,19.116588701707371],[-129.35175084912231,19.140830164880356],[-129.45644381173241,19.162414211446844],[-129.56304626707146,19.181375441023931],[-129.67155713415434,19.197748454127975],[-129.78197533559319,19.211567848577488],[-129.89429954488799,19.222868261760993],[-130.00848475546701,19.231690893420136],[-130.12439231075643,19.23809101588779],[-130.24187145740177,19.242125717228191],[-130.36077143935034,19.243852088203425],[-130.48094150144902,19.243327217776994],[-130.60223088854457,19.240608194912397],[-130.72448884638305,19.23575211037172],[-130.84756461891192,19.228816052219202],[-130.97130745097797,19.219857111216868],[-131.09556658742798,19.208932375428901],[-131.22019127400802,19.196098936516819],[-131.34503075556484,19.181413881645483],[-131.46993427604593,19.16493430157692],[-131.59475108029801,19.146717286173953],[-131.71933041406726,19.126819923500818],[-131.84352152130106,19.105299304319601],[-131.96717364774554,19.082212517593746],[-132.09013603824746,19.05761665318613],[-132.21225793675427,19.031568800060199],[-132.33338858901209,19.004126047179454],[-132.45337723986762,18.975345486205356],[-132.57209531864396,18.945275935036534],[-132.68955116925099,18.913915180441336],[-132.80580530976715,18.88124156044978],[-132.9209183643909,18.847233372622213],[-133.03495095282415,18.811868918116204],[-133.14796369926523,18.77512649449227],[-133.26001722431533,18.736984401109339],[-133.3711721512737,18.697420937326513],[-133.48148910253997,18.656414401603513],[-133.59102869871538,18.613943094198589],[-133.69985156309906,18.569985313571522],[-133.80801831809083,18.524519359081296],[-133.91558958429181,18.477523529187636],[-134.02262598590045,18.42897612414896],[-134.12918814351792,18.378855441525559],[-134.23533668044337,18.327139781575795],[-134.3411322172779,18.273807442759392],[-134.44663537822004,18.218836725334768],[-134.55190678387089,18.162205926862157],[-134.65700705663028,18.103893346700715],[-134.76199681889801,18.043877285108749],[-134.86693354454735,17.982137768143616],[-134.97180229763785,17.918694549414056],[-135.07651573061639,17.85360711187883],[-135.18098335100075,17.786936666993711],[-135.28511466181209,17.718744423516455],[-135.38881917056818,17.649091592902835],[-135.49200638118947,17.57803938391055],[-135.5945857984957,17.505649007096167],[-135.6964669300047,17.431981673915232],[-135.79755927963697,17.357098592226407],[-135.89777235311152,17.281060974384616],[-135.99701565524822,17.203930028248351],[-136.09519869266546,17.125766966172705],[-136.19223096928374,17.046632996915434],[-136.28802199172145,16.966589331032935],[-136.38248126389914,16.88569717908166],[-136.47551829333446,16.804017749819423],[-136.5670425830487,16.721612254701938],[-136.65696363966015,16.638541904285603],[-136.74519096888804,16.554867907328173],[-136.83163407555207,16.470651474386159],[-136.9162025112368,16.385953795331545],[-136.99882911726985,16.300825656678853],[-137.07950785200569,16.215290546022004],[-137.1582425753345,16.129367528089062],[-137.2350371489452,16.043075667608093],[-137.30989543362728,15.956434029307161],[-137.38282128927102,15.869461677914217],[-137.45381857666587,15.782177677258119],[-137.52289115660153,15.694601092066875],[-137.59004289076671,15.606750987068551],[-137.65527763995101,15.518646426991154],[-137.71859926314539,15.430306475663485],[-137.78001162293793,15.341750199612136],[-137.83951857921897,15.252996660867325],[-137.89712399277795,15.164064925955699],[-137.95283172350514,15.074974058706005],[-138.00664563488806,14.985743123846248],[-138.05856958501823,14.896391185205175],[-138.10860743468527,14.80693730841017],[-138.15676304647735,14.717400557290034],[-138.2030402802846,14.627799996572719],[-138.2474429959974,14.538154690986346],[-138.28997161809559,14.448485439151852],[-138.33059995652269,14.358826461172384],[-138.36928941507438,14.269218235533287],[-138.40600132200331,14.179701278491336],[-138.44069700915958,14.09031610360546],[-138.47333780659443,14.001103227132376],[-138.50388504615785,13.912103162631013],[-138.53230005880056,13.823356425458826],[-138.55854417367459,13.734903531872646],[-138.58257872262988,13.646784994532027],[-138.60436503661708,13.559041330593061],[-138.62386444568756,13.471713053614678],[-138.64103828169124,13.384840678055014],[-138.65584787467958,13.298464720170841],[-138.66825455470382,13.21262569442041],[-138.67821965361401,13.127364115261855],[-138.68570450236081,13.042720498052688],[-138.69067043099551,12.958735357251101],[-138.69307877136811,12.875449208214548],[-138.69289085263068,12.792902565401221],[-138.69006800663311,12.711135945067952],[-138.68457318040788,12.630190356300034],[-138.67642272992498,12.550123205521629],[-138.66569737923061,12.471011653665016],[-138.65248168258347,12.392934037975635],[-138.6368601942425,12.31596869749751],[-138.61891746846629,12.240193969476252],[-138.5987380604131,12.165688192056564],[-138.57640652524088,12.092529702483944],[-138.55200741720847,12.020796838903152],[-138.52562529057462,11.950567939458949],[-138.49734470139674,11.881921342296266],[-138.46725020303438,11.81493538376111],[-138.43542635064546,11.749688402897618],[-138.4019576984889,11.686258737850608],[-138.36692880172274,11.624724725865519],[-138.33042421550505,11.565164704187907],[-138.29252849409465,11.507657011861738],[-138.25332619175026,11.452279986132567],[-138.21290186363001,11.39911196514521],[-138.17134006399266,11.348231286145051],[-138.12872534799635,11.299716288176285],[-138.08514225551062,11.253645298591778],[-138.04062579804207,11.210067644306491],[-137.99505091226968,11.168938907804488],[-137.94826025370764,11.130195768719886],[-137.90009647966872,11.093774909384706],[-137.85040224656632,11.059613007634312],[-137.7990202117133,11.027646745800837],[-137.74579303062376,10.997812803518229],[-137.6905633606105,10.97004786131987],[-137.63317385808699,10.944288598839876],[-137.57346718036598,10.920471697510948],[-137.511285983861,10.898533836067827],[-137.44647292498541,10.878411696842477],[-137.37887066015276,10.860041958569695],[-137.30832184667582,10.843361302682126],[-137.23466914006866,10.82830640881383],[-137.1577551985435,10.814813957498302],[-137.07742267761438,10.802820629268751],[-136.99351423369484,10.792263104658673],[-136.90587252499694,10.783078063302128],[-136.81434020613551,10.775202185732439],[-136.71875993532268,10.768572152482989],[-136.61900446748211,10.763127882545859],[-136.51524224563303,10.758841110229184],[-136.40780954157697,10.755701627328392],[-136.29704455526195,10.7536994342816],[-136.18328548393782,10.75282453062772],[-136.06687052845206,10.753066915006286],[-135.9481378860545,10.75441658875468],[-135.82742575579391,10.756863551411925],[-135.7050723367189,10.760397801617387],[-135.58141582787806,10.765009338909977],[-135.45679442742079,10.770688164627245],[-135.33154633439574,10.777424276509294],[-135.20600974785151,10.785207675893673],[-135.08052286683676,10.794028361419862],[-134.95542388950082,10.803876332626771],[-134.83105101489235,10.814741590851895],[-134.70774244205995,10.826614133835335],[-134.58583637005233,10.839483962015379],[-134.46567099611951,10.853341074930825],[-134.34758452110867,10.868175473019789],[-134.23191514226988,10.883977154921922],[-134.11899670683249,10.900736207410205],[-134.00894164444122,10.918447082566956],[-133.90154026826866,10.937110587084078],[-133.79655751082038,10.95672803037445],[-133.69375830190404,10.977300719152993],[-133.59290757402522,10.998829961034005],[-133.49377025789101,11.021317064531047],[-133.39611128510762,11.04476333725836],[-133.29969558548282,11.069170086830184],[-133.20428809152213,11.094538621760137],[-133.10965373303327,11.120870248763083],[-133.01555744162255,11.148166276352697],[-132.92176414979559,11.176428012143163],[-132.82803878736007,11.205656763748777],[-132.73414628502297,11.235853839683102],[-132.63985157528987,11.267020546661058],[-132.54491958796854,11.299158194095526],[-132.44911525556449,11.332268087802163],[-132.35220350788546,11.36635153719385],[-132.25394927743713,11.401409848985452],[-132.15411749402705,11.437444331690699],[-132.05247308926158,11.474456292923719]]]},"properties":{"objectid":2,"basin":"Pacific","prob2day":"90%","risk2day":"High","prob7day":"90%","risk7day":"High","idp_source":"gtwo_areas_202609281150","idp_filedate":1790596689000,"idp_ingestdate":1790596769000,"st_area(shape)":71.721101326801403,"st_perimeter(shape)":31.838801670328465}}]}