{"type":"FeatureCollection","features":[{"type":"Feature","id":1,"geometry":{"type":"Point","coordinates":[-52.244832896420917,36.83010057538138]},"properties":{"objectid":1,"basin":"Atlantic","prob2day":"70%","risk2day":"High","prob7day":"80%","risk7day":"High","idp_source":"gtwo_points_202609281150","idp_filedate":1790596689000,"idp_ingestdate":1790596777000}},{"type":"Feature","id":2,"geometry":{"type":"Point","coordinates":[-136.91013476200959,14.292897761822417]},"properties":{"objectid":2,"basin":"Pacific","prob2day":"90%","risk2day":"High","prob7day":"90%","risk7day":"High","idp_source":"gtwo_points_202609281150","idp_filedate":1790596689000,"idp_ingestdate":1790596777000}}]}