{
"type": "FeatureCollection",
"name": "al092021-011_5day_pgn",
"features": [
{ "type": "Feature", "properties": { "STORMNAME": "Ida", "STORMTYPE": "HU", "ADVDATE": "1000 PM CDT Sat Aug 28 2021", "ADVISNUM": "11", "STORMNUM": 9.0, "FCSTPRD": 120.0, "BASIN": "AL" }, "geometry": { "type": "Polygon", "coordinates": [ [ [ -88.0417, 26.9385 ], [ -88.0171, 26.9361 ], [ -87.9915, 26.9363 ], [ -87.979, 26.9379 ], [ -87.9389, 26.9442 ], [ -87.913, 26.9515 ], [ -87.888, 26.9606 ], [ -87.8642, 26.971 ], [ -87.8301, 26.9883 ], [ -87.809, 27.0015 ], [ -87.7892, 27.016 ], [ -87.7632, 27.0414 ], [ -87.7552, 27.0506 ], [ -87.7358, 27.0826 ], [ -87.73, 27.094 ], [ -87.7177, 27.1329 ], [ -87.7123, 27.1607 ], [ -87.7108, 27.1745 ], [ -87.7101, 27.219 ], [ -87.7137, 27.2472 ], [ -87.7204, 27.2737 ], [ -87.7259, 27.2851 ], [ -87.7425, 27.32 ], [ -87.7569, 27.3399 ], [ -87.7807, 27.3675 ], [ -87.7975, 27.3851 ], [ -87.8139, 27.4029 ], [ -87.8301, 27.421 ], [ -87.8377, 27.4305 ], [ -87.8602, 27.4595 ], [ -87.8747, 27.4792 ], [ -87.882, 27.4891 ], [ -87.8967, 27.5088 ], [ -87.9194, 27.5375 ], [ -87.9275, 27.5465 ], [ -87.952, 27.5734 ], [ -87.969, 27.5907 ], [ -87.986, 27.608 ], [ -88.0033, 27.625 ], [ -88.0118, 27.6337 ], [ -88.0376, 27.6594 ], [ -88.046, 27.668 ], [ -88.0632, 27.6852 ], [ -88.0888, 27.711 ], [ -88.0974, 27.7195 ], [ -88.1146, 27.7367 ], [ -88.1317, 27.7538 ], [ -88.1573, 27.7796 ], [ -88.166, 27.7881 ], [ -88.1916, 27.814 ], [ -88.2002, 27.8225 ], [ -88.2174, 27.8396 ], [ -88.2431, 27.8653 ], [ -88.2601, 27.8826 ], [ -88.2688, 27.8911 ], [ -88.2944, 27.9169 ], [ -88.3117, 27.9339 ], [ -88.3287, 27.9512 ], [ -88.3373, 27.9597 ], [ -88.3544, 27.9769 ], [ -88.3802, 28.0026 ], [ -88.3887, 28.0112 ], [ -88.4144, 28.0369 ], [ -88.4229, 28.0455 ], [ -88.4487, 28.0712 ], [ -88.4657, 28.0885 ], [ -88.4743, 28.097 ], [ -88.4915, 28.1142 ], [ -88.5172, 28.1399 ], [ -88.5342, 28.1572 ], [ -88.5515, 28.1742 ], [ -88.5685, 28.1915 ], [ -88.5858, 28.2085 ], [ -88.6028, 28.2258 ], [ -88.62, 28.2428 ], [ -88.637, 28.2601 ], [ -88.6543, 28.2772 ], [ -88.6628, 28.2858 ], [ -88.6799, 28.303 ], [ -88.7056, 28.3288 ], [ -88.7225, 28.3461 ], [ -88.7308, 28.355 ], [ -88.7552, 28.382 ], [ -88.7705, 28.401 ], [ -88.7853, 28.4205 ], [ -88.7998, 28.4402 ], [ -88.8144, 28.46 ], [ -88.8218, 28.4698 ], [ -88.8445, 28.4985 ], [ -88.8526, 28.5075 ], [ -88.8771, 28.5344 ], [ -88.8939, 28.552 ], [ -88.9021, 28.5609 ], [ -88.9265, 28.588 ], [ -88.9418, 28.6069 ], [ -88.9566, 28.6264 ], [ -88.9712, 28.6462 ], [ -88.9857, 28.6659 ], [ -88.9931, 28.6757 ], [ -89.0158, 28.7044 ], [ -89.0317, 28.7228 ], [ -89.0476, 28.7412 ], [ -89.0635, 28.7596 ], [ -89.0789, 28.7785 ], [ -89.0863, 28.7883 ], [ -89.1009, 28.8079 ], [ -89.1155, 28.8277 ], [ -89.1373, 28.8573 ], [ -89.1447, 28.8671 ], [ -89.1596, 28.8864 ], [ -89.1819, 28.9155 ], [ -89.1965, 28.9353 ], [ -89.2037, 28.9452 ], [ -89.2255, 28.9748 ], [ -89.2328, 28.9847 ], [ -89.2548, 29.0141 ], [ -89.2624, 29.0237 ], [ -89.2773, 29.0431 ], [ -89.2993, 29.0726 ], [ -89.3138, 29.0923 ], [ -89.3283, 29.1121 ], [ -89.3357, 29.1219 ], [ -89.3585, 29.1506 ], [ -89.3664, 29.1598 ], [ -89.3903, 29.1874 ], [ -89.3982, 29.1965 ], [ -89.4138, 29.2152 ], [ -89.4289, 29.2344 ], [ -89.4506, 29.2642 ], [ -89.4576, 29.2744 ], [ -89.4714, 29.2948 ], [ -89.4919, 29.3257 ], [ -89.5057, 29.3463 ], [ -89.5196, 29.3666 ], [ -89.5268, 29.3767 ], [ -89.5484, 29.4065 ], [ -89.5632, 29.426 ], [ -89.5708, 29.4356 ], [ -89.5931, 29.4647 ], [ -89.6076, 29.4844 ], [ -89.6219, 29.5045 ], [ -89.6358, 29.5248 ], [ -89.6496, 29.5454 ], [ -89.6564, 29.5557 ], [ -89.677, 29.5866 ], [ -89.6907, 29.6072 ], [ -89.6975, 29.6175 ], [ -89.7112, 29.6381 ], [ -89.7315, 29.6692 ], [ -89.7381, 29.6798 ], [ -89.7511, 29.7011 ], [ -89.7639, 29.7226 ], [ -89.7763, 29.7445 ], [ -89.7888, 29.7663 ], [ -89.808, 29.7985 ], [ -89.8211, 29.8197 ], [ -89.8277, 29.8303 ], [ -89.8475, 29.862 ], [ -89.8603, 29.8834 ], [ -89.8665, 29.8944 ], [ -89.8786, 29.9166 ], [ -89.8904, 29.9391 ], [ -89.902, 29.9618 ], [ -89.9134, 29.9847 ], [ -89.9248, 30.0076 ], [ -89.9363, 30.0304 ], [ -89.9475, 30.0535 ], [ -89.9585, 30.0768 ], [ -89.9693, 30.1003 ], [ -89.9796, 30.1243 ], [ -89.9892, 30.149 ], [ -89.9985, 30.174 ], [ -90.0075, 30.1993 ], [ -90.0162, 30.225 ], [ -90.0247, 30.2508 ], [ -90.0333, 30.2764 ], [ -90.0419, 30.3021 ], [ -90.0504, 30.3279 ], [ -90.0589, 30.3537 ], [ -90.0674, 30.3795 ], [ -90.0757, 30.4056 ], [ -90.0835, 30.4321 ], [ -90.091, 30.4589 ], [ -90.0982, 30.4859 ], [ -90.1052, 30.5133 ], [ -90.1121, 30.5407 ], [ -90.119, 30.5682 ], [ -90.1258, 30.5956 ], [ -90.1327, 30.6231 ], [ -90.1395, 30.6505 ], [ -90.1462, 30.6781 ], [ -90.1525, 30.7061 ], [ -90.1581, 30.7348 ], [ -90.1628, 30.7645 ], [ -90.1662, 30.7954 ], [ -90.1684, 30.8275 ], [ -90.1697, 30.8606 ], [ -90.1702, 30.8944 ], [ -90.1704, 30.9285 ], [ -90.1704, 30.9629 ], [ -90.1704, 30.9972 ], [ -90.1702, 31.0314 ], [ -90.1697, 31.0651 ], [ -90.1684, 31.0982 ], [ -90.1662, 31.1304 ], [ -90.1628, 31.1612 ], [ -90.1581, 31.1909 ], [ -90.1525, 31.2196 ], [ -90.1462, 31.2476 ], [ -90.1395, 31.2752 ], [ -90.1325, 31.3025 ], [ -90.1252, 31.3296 ], [ -90.1177, 31.3563 ], [ -90.1098, 31.3827 ], [ -90.1011, 31.4084 ], [ -90.092, 31.4335 ], [ -90.0825, 31.4583 ], [ -90.0726, 31.4828 ], [ -90.0625, 31.5069 ], [ -90.0526, 31.5314 ], [ -90.043, 31.5561 ], [ -90.0333, 31.5806 ], [ -90.0236, 31.6052 ], [ -90.0188, 31.6176 ], [ -90.0089, 31.642 ], [ -89.9926, 31.6772 ], [ -89.9812, 31.7001 ], [ -89.9755, 31.7115 ], [ -89.9567, 31.7442 ], [ -89.9437, 31.7654 ], [ -89.9305, 31.7866 ], [ -89.9173, 31.8077 ], [ -89.9108, 31.8183 ], [ -89.8979, 31.8397 ], [ -89.8791, 31.8724 ], [ -89.8666, 31.8942 ], [ -89.8539, 31.9158 ], [ -89.8474, 31.9265 ], [ -89.8276, 31.958 ], [ -89.8209, 31.9685 ], [ -89.8072, 31.9891 ], [ -89.7935, 32.0097 ], [ -89.7729, 32.0406 ], [ -89.766, 32.0508 ], [ -89.7523, 32.0714 ], [ -89.7386, 32.092 ], [ -89.7249, 32.1126 ], [ -89.7044, 32.1435 ], [ -89.6907, 32.1641 ], [ -89.6838, 32.1744 ], [ -89.6701, 32.195 ], [ -89.649, 32.2253 ], [ -89.6419, 32.2353 ], [ -89.62, 32.2649 ], [ -89.6126, 32.2746 ], [ -89.5975, 32.2938 ], [ -89.5827, 32.3133 ], [ -89.5609, 32.343 ], [ -89.5536, 32.3529 ], [ -89.5391, 32.3726 ], [ -89.5166, 32.4016 ], [ -89.5089, 32.4111 ], [ -89.4928, 32.4292 ], [ -89.4763, 32.4471 ], [ -89.4593, 32.4644 ], [ -89.4423, 32.4816 ], [ -89.4251, 32.4987 ], [ -89.4081, 32.516 ], [ -89.3908, 32.533 ], [ -89.3652, 32.5588 ], [ -89.3565, 32.5673 ], [ -89.348, 32.576 ], [ -89.3223, 32.6016 ], [ -89.3053, 32.6189 ], [ -89.288, 32.636 ], [ -89.271, 32.6533 ], [ -89.2538, 32.6703 ], [ -89.2368, 32.6876 ], [ -89.2195, 32.7046 ], [ -89.2025, 32.7219 ], [ -89.1852, 32.7389 ], [ -89.1682, 32.7562 ], [ -89.151, 32.7732 ], [ -89.134, 32.7905 ], [ -89.1167, 32.8076 ], [ -89.0997, 32.8249 ], [ -89.0824, 32.8419 ], [ -89.0654, 32.8592 ], [ -89.0482, 32.8762 ], [ -89.0312, 32.8935 ], [ -89.0139, 32.9105 ], [ -88.9969, 32.9278 ], [ -88.9796, 32.9449 ], [ -88.9627, 32.9621 ], [ -88.9454, 32.9792 ], [ -88.9284, 32.9965 ], [ -88.9111, 33.0135 ], [ -88.8939, 33.0305 ], [ -88.876, 33.047 ], [ -88.8579, 33.0632 ], [ -88.839, 33.0786 ], [ -88.8196, 33.0934 ], [ -88.7998, 33.1079 ], [ -88.7801, 33.1225 ], [ -88.7606, 33.1373 ], [ -88.7417, 33.1527 ], [ -88.7147, 33.1771 ], [ -88.7058, 33.1854 ], [ -88.6883, 33.2021 ], [ -88.6705, 33.2186 ], [ -88.6524, 33.2348 ], [ -88.6335, 33.2502 ], [ -88.614, 33.265 ], [ -88.5943, 33.2796 ], [ -88.5745, 33.2941 ], [ -88.5548, 33.3087 ], [ -88.5353, 33.3235 ], [ -88.5161, 33.3386 ], [ -88.4967, 33.3534 ], [ -88.4769, 33.368 ], [ -88.4572, 33.3825 ], [ -88.4375, 33.3971 ], [ -88.4177, 33.4116 ], [ -88.3983, 33.4265 ], [ -88.3791, 33.4415 ], [ -88.3596, 33.4564 ], [ -88.3399, 33.4709 ], [ -88.3199, 33.4852 ], [ -88.2996, 33.4992 ], [ -88.2791, 33.5129 ], [ -88.2688, 33.5198 ], [ -88.2379, 33.5404 ], [ -88.2277, 33.5473 ], [ -88.2071, 33.561 ], [ -88.1865, 33.5747 ], [ -88.166, 33.5884 ], [ -88.1351, 33.609 ], [ -88.1146, 33.6228 ], [ -88.1043, 33.6296 ], [ -88.0837, 33.6434 ], [ -88.0526, 33.6637 ], [ -88.0315, 33.6769 ], [ -88.0208, 33.6833 ], [ -87.9885, 33.7024 ], [ -87.9666, 33.7147 ], [ -87.9557, 33.7211 ], [ -87.9235, 33.7403 ], [ -87.913, 33.7469 ], [ -87.892, 33.7602 ], [ -87.861, 33.7806 ], [ -87.8508, 33.7875 ], [ -87.8199, 33.8081 ], [ -87.8096, 33.815 ], [ -87.7788, 33.8356 ], [ -87.7582, 33.8493 ], [ -87.748, 33.8562 ], [ -87.7171, 33.8767 ], [ -87.6966, 33.8905 ], [ -87.6757, 33.9039 ], [ -87.6547, 33.9171 ], [ -87.644, 33.9236 ], [ -87.6224, 33.9363 ], [ -87.6006, 33.9488 ], [ -87.5789, 33.9613 ], [ -87.5466, 33.9805 ], [ -87.5255, 33.9937 ], [ -87.5044, 34.0069 ], [ -87.4833, 34.0201 ], [ -87.4619, 34.033 ], [ -87.451, 34.0392 ], [ -87.4175, 34.0571 ], [ -87.4063, 34.063 ], [ -87.3837, 34.0747 ], [ -87.3608, 34.0861 ], [ -87.3379, 34.0975 ], [ -87.3041, 34.1151 ], [ -87.2928, 34.121 ], [ -87.2706, 34.1331 ], [ -87.2383, 34.1521 ], [ -87.2172, 34.1653 ], [ -87.1961, 34.1785 ], [ -87.1854, 34.1849 ], [ -87.1637, 34.1976 ], [ -87.1414, 34.2095 ], [ -87.1181, 34.2205 ], [ -87.094, 34.2307 ], [ -87.0574, 34.2455 ], [ -87.0327, 34.2551 ], [ -87.0205, 34.26 ], [ -86.9847, 34.2757 ], [ -86.9731, 34.2812 ], [ -86.9498, 34.2922 ], [ -86.9154, 34.3092 ], [ -86.904, 34.315 ], [ -86.8811, 34.3264 ], [ -86.8469, 34.3435 ], [ -86.8241, 34.355 ], [ -86.8125, 34.3605 ], [ -86.7892, 34.3715 ], [ -86.7657, 34.3824 ], [ -86.7417, 34.3927 ], [ -86.7049, 34.4072 ], [ -86.6927, 34.4122 ], [ -86.6681, 34.4219 ], [ -86.6314, 34.4366 ], [ -86.6078, 34.4473 ], [ -86.5962, 34.4528 ], [ -86.561, 34.469 ], [ -86.5377, 34.48 ], [ -86.5141, 34.4907 ], [ -86.5019, 34.4956 ], [ -86.4774, 34.5054 ], [ -86.4406, 34.5201 ], [ -86.4283, 34.5249 ], [ -86.4036, 34.5345 ], [ -86.3792, 34.5444 ], [ -86.3551, 34.5545 ], [ -86.3184, 34.5692 ], [ -86.3061, 34.574 ], [ -86.2693, 34.5887 ], [ -86.2447, 34.5983 ], [ -86.22, 34.6079 ], [ -86.2079, 34.613 ], [ -86.1718, 34.6282 ], [ -86.1594, 34.633 ], [ -86.1346, 34.6425 ], [ -86.1097, 34.6519 ], [ -86.0844, 34.6609 ], [ -86.0588, 34.6696 ], [ -86.0331, 34.6781 ], [ -86.0074, 34.6867 ], [ -85.9818, 34.6954 ], [ -85.956, 34.7039 ], [ -85.9303, 34.7124 ], [ -85.9045, 34.7209 ], [ -85.8785, 34.7291 ], [ -85.852, 34.737 ], [ -85.8253, 34.7445 ], [ -85.7983, 34.7518 ], [ -85.771, 34.7588 ], [ -85.7436, 34.7657 ], [ -85.7162, 34.7725 ], [ -85.6888, 34.7794 ], [ -85.6614, 34.7863 ], [ -85.634, 34.7931 ], [ -85.6066, 34.8 ], [ -85.5791, 34.8069 ], [ -85.5517, 34.8137 ], [ -85.5243, 34.8206 ], [ -85.4969, 34.8274 ], [ -85.4695, 34.8343 ], [ -85.4421, 34.8412 ], [ -85.4147, 34.848 ], [ -85.3873, 34.8549 ], [ -85.3599, 34.8618 ], [ -85.3324, 34.8686 ], [ -85.2913, 34.8789 ], [ -85.2776, 34.8824 ], [ -85.2502, 34.8892 ], [ -85.2228, 34.8961 ], [ -85.1954, 34.9029 ], [ -85.168, 34.9098 ], [ -85.1269, 34.9201 ], [ -85.1132, 34.9235 ], [ -85.0858, 34.9304 ], [ -85.0584, 34.9373 ], [ -85.0172, 34.9476 ], [ -85.0035, 34.951 ], [ -84.9761, 34.9579 ], [ -84.9487, 34.9647 ], [ -84.9213, 34.9716 ], [ -84.8939, 34.9785 ], [ -84.8665, 34.9853 ], [ -84.8391, 34.9922 ], [ -84.8117, 34.999 ], [ -84.7842, 35.0059 ], [ -84.7568, 35.0128 ], [ -84.7294, 35.0196 ], [ -84.702, 35.0265 ], [ -84.6746, 35.0334 ], [ -84.6472, 35.0402 ], [ -84.6198, 35.0471 ], [ -84.5924, 35.054 ], [ -84.565, 35.0608 ], [ -84.5376, 35.0677 ], [ -84.5101, 35.0746 ], [ -84.4827, 35.0814 ], [ -84.4553, 35.0883 ], [ -84.4279, 35.0951 ], [ -84.4005, 35.102 ], [ -84.3731, 35.1089 ], [ -84.3457, 35.1157 ], [ -84.3183, 35.1226 ], [ -84.2909, 35.1295 ], [ -84.2634, 35.1363 ], [ -84.236, 35.1432 ], [ -84.2086, 35.1501 ], [ -84.1812, 35.1569 ], [ -84.1538, 35.1638 ], [ -84.1264, 35.1707 ], [ -84.0989, 35.1774 ], [ -84.071, 35.1838 ], [ -84.0429, 35.19 ], [ -84.0146, 35.1959 ], [ -83.9859, 35.2015 ], [ -83.9573, 35.2072 ], [ -83.9289, 35.2131 ], [ -83.9008, 35.2193 ], [ -83.873, 35.2257 ], [ -83.8454, 35.2324 ], [ -83.818, 35.2393 ], [ -83.8043, 35.2427 ], [ -83.7632, 35.253 ], [ -83.7358, 35.2599 ], [ -83.7084, 35.2668 ], [ -83.681, 35.2736 ], [ -83.6536, 35.2805 ], [ -83.6262, 35.2874 ], [ -83.585, 35.2976 ], [ -83.5713, 35.3011 ], [ -83.5439, 35.3079 ], [ -83.5165, 35.3148 ], [ -83.4891, 35.3217 ], [ -83.4617, 35.3285 ], [ -83.4343, 35.3354 ], [ -83.4069, 35.3423 ], [ -83.3795, 35.3491 ], [ -83.3521, 35.356 ], [ -83.3109, 35.3663 ], [ -83.2972, 35.3697 ], [ -83.2698, 35.3766 ], [ -83.2424, 35.3835 ], [ -83.215, 35.3903 ], [ -83.1876, 35.3972 ], [ -83.1602, 35.404 ], [ -83.1191, 35.4143 ], [ -83.1054, 35.4178 ], [ -83.078, 35.4246 ], [ -83.0505, 35.4315 ], [ -83.0094, 35.4418 ], [ -82.9957, 35.4452 ], [ -82.9683, 35.4521 ], [ -82.9409, 35.459 ], [ -82.9135, 35.4658 ], [ -82.8861, 35.4727 ], [ -82.8587, 35.4796 ], [ -82.8311, 35.4863 ], [ -82.8033, 35.4927 ], [ -82.7752, 35.4989 ], [ -82.7468, 35.5048 ], [ -82.7182, 35.5104 ], [ -82.6896, 35.5161 ], [ -82.6612, 35.522 ], [ -82.6331, 35.5281 ], [ -82.6053, 35.5346 ], [ -82.5777, 35.5413 ], [ -82.5503, 35.5482 ], [ -82.5229, 35.5551 ], [ -82.4955, 35.5619 ], [ -82.4681, 35.5688 ], [ -82.427, 35.5791 ], [ -82.4133, 35.5825 ], [ -82.3859, 35.5894 ], [ -82.3584, 35.5962 ], [ -82.331, 35.6031 ], [ -82.3036, 35.61 ], [ -82.2762, 35.6168 ], [ -82.2488, 35.6237 ], [ -82.2214, 35.6306 ], [ -82.194, 35.6374 ], [ -82.1666, 35.6443 ], [ -82.1392, 35.6512 ], [ -82.1118, 35.658 ], [ -82.0843, 35.6649 ], [ -82.0569, 35.6718 ], [ -82.0295, 35.6786 ], [ -82.0021, 35.6855 ], [ -81.9747, 35.6923 ], [ -81.9473, 35.6992 ], [ -81.9199, 35.7061 ], [ -81.8925, 35.7129 ], [ -81.8651, 35.7198 ], [ -81.8377, 35.7267 ], [ -81.7965, 35.737 ], [ -81.7828, 35.7404 ], [ -81.7554, 35.7473 ], [ -81.728, 35.7541 ], [ -81.7005, 35.7608 ], [ -81.6726, 35.7673 ], [ -81.6445, 35.7735 ], [ -81.6162, 35.7794 ], [ -81.5875, 35.785 ], [ -81.5589, 35.7906 ], [ -81.5305, 35.7965 ], [ -81.5024, 35.8027 ], [ -81.4746, 35.8092 ], [ -81.4471, 35.8159 ], [ -81.4196, 35.8228 ], [ -81.3922, 35.8296 ], [ -81.3648, 35.8365 ], [ -81.3374, 35.8434 ], [ -81.31, 35.8502 ], [ -81.2826, 35.8571 ], [ -81.2552, 35.864 ], [ -81.2278, 35.8708 ], [ -81.2004, 35.8777 ], [ -81.1729, 35.8845 ], [ -81.1455, 35.8914 ], [ -81.1181, 35.8983 ], [ -81.0907, 35.9051 ], [ -81.0633, 35.912 ], [ -81.0359, 35.9189 ], [ -81.0085, 35.9257 ], [ -80.9811, 35.9326 ], [ -80.9537, 35.9395 ], [ -80.9263, 35.9463 ], [ -80.8988, 35.9532 ], [ -80.8714, 35.96 ], [ -80.844, 35.9669 ], [ -80.8166, 35.9738 ], [ -80.7892, 35.9806 ], [ -80.7618, 35.9875 ], [ -80.7344, 35.9944 ], [ -80.7068, 36.0011 ], [ -80.679, 36.0076 ], [ -80.6509, 36.0137 ], [ -80.6226, 36.0196 ], [ -80.5939, 36.0253 ], [ -80.5653, 36.0309 ], [ -80.5369, 36.0368 ], [ -80.5088, 36.043 ], [ -80.481, 36.0494 ], [ -80.4534, 36.0561 ], [ -80.426, 36.063 ], [ -80.3986, 36.0699 ], [ -80.3712, 36.0767 ], [ -80.3438, 36.0836 ], [ -80.3164, 36.0905 ], [ -80.2753, 36.1008 ], [ -80.2616, 36.1042 ], [ -80.2342, 36.1111 ], [ -80.2067, 36.1179 ], [ -80.1793, 36.1248 ], [ -80.1519, 36.1317 ], [ -80.1245, 36.1385 ], [ -80.0971, 36.1454 ], [ -80.0697, 36.1522 ], [ -80.0423, 36.1591 ], [ -80.0149, 36.166 ], [ -79.9875, 36.1728 ], [ -79.9601, 36.1797 ], [ -79.9326, 36.1866 ], [ -79.9052, 36.1934 ], [ -79.8778, 36.2003 ], [ -79.8367, 36.2106 ], [ -79.823, 36.214 ], [ -79.7956, 36.2209 ], [ -79.7682, 36.2278 ], [ -79.7408, 36.2346 ], [ -79.7134, 36.2415 ], [ -79.6859, 36.2483 ], [ -79.6585, 36.2552 ], [ -79.6311, 36.2621 ], [ -79.6039, 36.2691 ], [ -79.5768, 36.2764 ], [ -79.5501, 36.2839 ], [ -79.5237, 36.2917 ], [ -79.4976, 36.3 ], [ -79.4719, 36.3085 ], [ -79.4461, 36.317 ], [ -79.4203, 36.3255 ], [ -79.3947, 36.3341 ], [ -79.3691, 36.3428 ], [ -79.3433, 36.3513 ], [ -79.3177, 36.36 ], [ -79.2925, 36.369 ], [ -79.2675, 36.3784 ], [ -79.2304, 36.3926 ], [ -79.2063, 36.4028 ], [ -79.1942, 36.4079 ], [ -79.1575, 36.4226 ], [ -79.1451, 36.4274 ], [ -79.1206, 36.4371 ], [ -79.0961, 36.4469 ], [ -79.0715, 36.4566 ], [ -79.0476, 36.4669 ], [ -79.0125, 36.4832 ], [ -79.0008, 36.4887 ], [ -78.9778, 36.5 ], [ -78.9551, 36.5115 ], [ -78.9207, 36.5286 ], [ -78.8979, 36.5401 ], [ -78.8752, 36.5516 ], [ -78.8521, 36.5629 ], [ -78.8294, 36.5744 ], [ -78.8181, 36.5803 ], [ -78.7844, 36.598 ], [ -78.7625, 36.6104 ], [ -78.7518, 36.6168 ], [ -78.72, 36.6365 ], [ -78.7096, 36.6432 ], [ -78.6889, 36.6568 ], [ -78.6581, 36.6774 ], [ -78.6478, 36.6842 ], [ -78.6272, 36.698 ], [ -78.6067, 36.7117 ], [ -78.5758, 36.7323 ], [ -78.5553, 36.746 ], [ -78.5347, 36.7597 ], [ -78.5142, 36.7735 ], [ -78.4936, 36.7872 ], [ -78.4833, 36.7941 ], [ -78.4528, 36.8149 ], [ -78.4327, 36.8292 ], [ -78.4038, 36.8517 ], [ -78.3944, 36.8594 ], [ -78.3674, 36.8838 ], [ -78.3497, 36.9005 ], [ -78.3409, 36.9088 ], [ -78.3231, 36.9253 ], [ -78.305, 36.9415 ], [ -78.2861, 36.9569 ], [ -78.2568, 36.979 ], [ -78.2469, 36.9863 ], [ -78.2272, 37.0008 ], [ -78.2077, 37.0156 ], [ -78.1888, 37.031 ], [ -78.1618, 37.0554 ], [ -78.1529, 37.0637 ], [ -78.1356, 37.0807 ], [ -78.1186, 37.098 ], [ -78.1022, 37.1159 ], [ -78.0783, 37.1434 ], [ -78.0633, 37.1627 ], [ -78.0559, 37.1724 ], [ -78.0341, 37.2021 ], [ -78.0268, 37.2119 ], [ -78.0043, 37.2409 ], [ -77.9886, 37.2595 ], [ -77.9723, 37.2774 ], [ -77.964, 37.2864 ], [ -77.9391, 37.3129 ], [ -77.9228, 37.3308 ], [ -77.907, 37.3494 ], [ -77.8919, 37.3686 ], [ -77.8845, 37.3783 ], [ -77.8633, 37.4085 ], [ -77.8563, 37.4187 ], [ -77.8358, 37.4496 ], [ -77.8289, 37.4599 ], [ -77.8083, 37.4908 ], [ -77.7946, 37.5114 ], [ -77.7809, 37.532 ], [ -77.7674, 37.5527 ], [ -77.7607, 37.5631 ], [ -77.7475, 37.5843 ], [ -77.7346, 37.6057 ], [ -77.7164, 37.6389 ], [ -77.7046, 37.6614 ], [ -77.693, 37.6841 ], [ -77.6872, 37.6955 ], [ -77.6702, 37.7299 ], [ -77.6587, 37.7527 ], [ -77.6475, 37.7758 ], [ -77.6365, 37.7991 ], [ -77.6256, 37.8226 ], [ -77.6154, 37.8466 ], [ -77.6058, 37.8713 ], [ -77.5965, 37.8963 ], [ -77.5874, 37.9216 ], [ -77.5788, 37.9472 ], [ -77.5703, 37.9731 ], [ -77.5617, 37.9987 ], [ -77.553, 38.0244 ], [ -77.5445, 38.0502 ], [ -77.536, 38.076 ], [ -77.5275, 38.1018 ], [ -77.5194, 38.1281 ], [ -77.512, 38.155 ], [ -77.5052, 38.1824 ], [ -77.4989, 38.2104 ], [ -77.4931, 38.239 ], [ -77.4875, 38.2677 ], [ -77.4818, 38.2962 ], [ -77.4761, 38.3249 ], [ -77.4709, 38.354 ], [ -77.4664, 38.3838 ], [ -77.463, 38.4147 ], [ -77.4608, 38.4468 ], [ -77.4595, 38.4799 ], [ -77.459, 38.5137 ], [ -77.4589, 38.5479 ], [ -77.4589, 38.5822 ], [ -77.4589, 38.6165 ], [ -77.4589, 38.6508 ], [ -77.4589, 38.6852 ], [ -77.4589, 38.7195 ], [ -77.4589, 38.7538 ], [ -77.459, 38.788 ], [ -77.4595, 38.8218 ], [ -77.4608, 38.8548 ], [ -77.463, 38.887 ], [ -77.4664, 38.9179 ], [ -77.4711, 38.9475 ], [ -77.4767, 38.9762 ], [ -77.483, 39.0042 ], [ -77.4897, 39.0318 ], [ -77.4966, 39.0593 ], [ -77.5034, 39.0867 ], [ -77.5103, 39.1142 ], [ -77.5171, 39.1416 ], [ -77.524, 39.1691 ], [ -77.5309, 39.1964 ], [ -77.5382, 39.2235 ], [ -77.5458, 39.2502 ], [ -77.5537, 39.2766 ], [ -77.5623, 39.3023 ], [ -77.5715, 39.3274 ], [ -77.5811, 39.3521 ], [ -77.5914, 39.3761 ], [ -77.6022, 39.3996 ], [ -77.6132, 39.4229 ], [ -77.6244, 39.446 ], [ -77.6359, 39.4688 ], [ -77.6473, 39.4917 ], [ -77.6587, 39.5146 ], [ -77.6702, 39.5374 ], [ -77.6758, 39.549 ], [ -77.693, 39.5833 ], [ -77.6988, 39.5945 ], [ -77.7164, 39.6284 ], [ -77.7284, 39.6507 ], [ -77.7349, 39.6614 ], [ -77.7541, 39.6937 ], [ -77.7674, 39.7147 ], [ -77.7809, 39.7354 ], [ -77.7948, 39.7559 ], [ -77.8089, 39.776 ], [ -77.8233, 39.7959 ], [ -77.8379, 39.8156 ], [ -77.8529, 39.8349 ], [ -77.8678, 39.8543 ], [ -77.8825, 39.8739 ], [ -77.897, 39.8937 ], [ -77.9115, 39.9135 ], [ -77.9262, 39.9331 ], [ -77.9413, 39.9523 ], [ -77.9571, 39.9708 ], [ -77.9734, 39.9888 ], [ -77.9901, 40.0064 ], [ -78.0071, 40.0237 ], [ -78.0242, 40.0409 ], [ -78.0413, 40.058 ], [ -78.0585, 40.0752 ], [ -78.0841, 40.101 ], [ -78.0927, 40.1095 ], [ -78.1099, 40.1267 ], [ -78.127, 40.1438 ], [ -78.1441, 40.161 ], [ -78.1613, 40.1781 ], [ -78.1784, 40.1953 ], [ -78.1955, 40.2125 ], [ -78.2128, 40.2295 ], [ -78.2303, 40.2462 ], [ -78.2483, 40.2626 ], [ -78.2668, 40.2784 ], [ -78.286, 40.2935 ], [ -78.3056, 40.3081 ], [ -78.3253, 40.3227 ], [ -78.3549, 40.3445 ], [ -78.3646, 40.3519 ], [ -78.384, 40.3669 ], [ -78.4033, 40.3819 ], [ -78.4229, 40.3966 ], [ -78.4428, 40.411 ], [ -78.473, 40.4321 ], [ -78.4936, 40.4458 ], [ -78.5039, 40.4527 ], [ -78.5347, 40.4733 ], [ -78.5553, 40.487 ], [ -78.5758, 40.5008 ], [ -78.5964, 40.5145 ], [ -78.6172, 40.5279 ], [ -78.6383, 40.5411 ], [ -78.6597, 40.554 ], [ -78.6929, 40.5723 ], [ -78.7041, 40.5782 ], [ -78.7266, 40.59 ], [ -78.7491, 40.6018 ], [ -78.7715, 40.6136 ], [ -78.7935, 40.626 ], [ -78.8151, 40.6386 ], [ -78.8259, 40.6449 ], [ -78.8587, 40.6636 ], [ -78.8928, 40.6809 ], [ -78.9045, 40.6864 ], [ -78.9281, 40.6971 ], [ -78.9522, 40.7072 ], [ -78.9763, 40.7174 ], [ -78.9999, 40.7281 ], [ -79.0115, 40.7336 ], [ -79.0584, 40.7553 ], [ -79.07, 40.7608 ], [ -79.0936, 40.7715 ], [ -79.1058, 40.7764 ], [ -79.1554, 40.7954 ], [ -79.1679, 40.8 ], [ -79.2063, 40.8131 ], [ -79.2192, 40.8173 ], [ -79.2449, 40.8259 ], [ -79.2833, 40.8389 ], [ -79.3091, 40.8474 ], [ -79.3219, 40.8517 ], [ -79.3477, 40.8602 ], [ -79.3861, 40.8732 ], [ -79.399, 40.8775 ], [ -79.4247, 40.886 ], [ -79.4634, 40.8988 ], [ -79.4894, 40.907 ], [ -79.5026, 40.911 ], [ -79.5426, 40.9224 ], [ -79.5696, 40.9296 ], [ -79.5969, 40.9366 ], [ -79.6106, 40.9401 ], [ -79.6517, 40.9504 ], [ -79.6654, 40.9538 ], [ -79.7065, 40.9641 ], [ -79.7339, 40.971 ], [ -79.7476, 40.9744 ], [ -79.7894, 40.984 ], [ -79.8179, 40.9898 ], [ -79.8323, 40.9925 ], [ -79.8766, 40.9997 ], [ -79.8915, 41.0019 ], [ -79.9361, 41.0087 ], [ -79.9653, 41.0138 ], [ -79.9943, 41.019 ], [ -80.0235, 41.0241 ], [ -80.0532, 41.0286 ], [ -80.0841, 41.0321 ], [ -80.1161, 41.0343 ], [ -80.149, 41.0356 ], [ -80.1822, 41.0367 ], [ -80.2151, 41.0381 ], [ -80.2472, 41.0403 ], [ -80.2629, 41.0417 ], [ -80.3077, 41.0483 ], [ -80.3369, 41.0533 ], [ -80.3661, 41.0584 ], [ -80.3808, 41.0609 ], [ -80.4267, 41.0664 ], [ -80.4588, 41.0686 ], [ -80.4918, 41.0698 ], [ -80.5255, 41.0704 ], [ -80.5597, 41.0705 ], [ -80.5939, 41.0705 ], [ -80.6282, 41.0705 ], [ -80.6624, 41.0705 ], [ -80.6966, 41.0704 ], [ -80.7303, 41.0698 ], [ -80.7633, 41.0686 ], [ -80.7954, 41.0664 ], [ -80.8104, 41.0643 ], [ -80.8559, 41.0584 ], [ -80.8851, 41.0533 ], [ -80.9143, 41.0483 ], [ -80.9441, 41.0437 ], [ -80.9749, 41.0403 ], [ -81.0068, 41.038 ], [ -81.0393, 41.0362 ], [ -81.0718, 41.0344 ], [ -81.0876, 41.033 ], [ -81.1346, 41.0286 ], [ -81.1643, 41.0241 ], [ -81.1935, 41.019 ], [ -81.2226, 41.0138 ], [ -81.2518, 41.0087 ], [ -81.2814, 41.004 ], [ -81.3112, 40.9997 ], [ -81.3408, 40.995 ], [ -81.37, 40.9899 ], [ -81.3989, 40.9846 ], [ -81.4276, 40.9789 ], [ -81.4561, 40.9732 ], [ -81.4847, 40.9675 ], [ -81.5132, 40.9618 ], [ -81.5412, 40.9554 ], [ -81.5686, 40.9486 ], [ -81.5955, 40.9412 ], [ -81.6218, 40.9332 ], [ -81.6611, 40.9211 ], [ -81.6744, 40.9173 ], [ -81.7146, 40.906 ], [ -81.7281, 40.9025 ], [ -81.7553, 40.8953 ], [ -81.7823, 40.888 ], [ -81.809, 40.8805 ], [ -81.8355, 40.8727 ], [ -81.8615, 40.8644 ], [ -81.8873, 40.8559 ], [ -81.913, 40.8474 ], [ -81.9386, 40.8388 ], [ -81.9763, 40.825 ], [ -81.9888, 40.8204 ], [ -82.0259, 40.8061 ], [ -82.038, 40.801 ], [ -82.0621, 40.7908 ], [ -82.0865, 40.781 ], [ -82.1112, 40.7714 ], [ -82.1357, 40.7616 ], [ -82.1603, 40.7519 ], [ -82.197, 40.7372 ], [ -82.2206, 40.7265 ], [ -82.2322, 40.721 ], [ -82.2672, 40.7045 ], [ -82.2785, 40.6987 ], [ -82.3013, 40.6872 ], [ -82.3242, 40.6758 ], [ -82.3471, 40.6644 ], [ -82.3812, 40.6471 ], [ -82.3927, 40.6415 ], [ -82.4156, 40.6301 ], [ -82.4382, 40.6184 ], [ -82.4719, 40.6007 ], [ -82.4829, 40.5945 ], [ -82.5152, 40.5754 ], [ -82.5363, 40.5623 ], [ -82.5574, 40.5491 ], [ -82.5785, 40.5359 ], [ -82.5999, 40.523 ], [ -82.6219, 40.5106 ], [ -82.6443, 40.4988 ], [ -82.6668, 40.487 ], [ -82.6782, 40.4813 ], [ -82.7126, 40.4642 ], [ -82.724, 40.4585 ], [ -82.7581, 40.4412 ], [ -82.7811, 40.4299 ], [ -82.7925, 40.4242 ], [ -82.8266, 40.4069 ], [ -82.8381, 40.4012 ], [ -82.8724, 40.3841 ], [ -82.8951, 40.3725 ], [ -82.9067, 40.3669 ], [ -82.9295, 40.3555 ], [ -82.9637, 40.3382 ], [ -82.9752, 40.3326 ], [ -82.9981, 40.3212 ], [ -83.0208, 40.3097 ], [ -83.0437, 40.2983 ], [ -83.0666, 40.2869 ], [ -83.1007, 40.2696 ], [ -83.1122, 40.2639 ], [ -83.1351, 40.2525 ], [ -83.1692, 40.2352 ], [ -83.1807, 40.2296 ], [ -83.2036, 40.2182 ], [ -83.2378, 40.2009 ], [ -83.2493, 40.1953 ], [ -83.2835, 40.1781 ], [ -83.3063, 40.1666 ], [ -83.3293, 40.1554 ], [ -83.3521, 40.1438 ], [ -83.3634, 40.1381 ], [ -83.3863, 40.1267 ], [ -83.4206, 40.1095 ], [ -83.4433, 40.098 ], [ -83.4664, 40.0867 ], [ -83.4891, 40.0752 ], [ -83.5005, 40.0694 ], [ -83.5234, 40.058 ], [ -83.5463, 40.0466 ], [ -83.5804, 40.0293 ], [ -83.5919, 40.0237 ], [ -83.6262, 40.0065 ], [ -83.6375, 40.0008 ], [ -83.6719, 39.9837 ], [ -83.6947, 39.9722 ], [ -83.7061, 39.9664 ], [ -83.7289, 39.9551 ], [ -83.7632, 39.9379 ], [ -83.7746, 39.9321 ], [ -83.7975, 39.9207 ], [ -83.8317, 39.9036 ], [ -83.8545, 39.892 ], [ -83.866, 39.8864 ], [ -83.8889, 39.875 ], [ -83.923, 39.8577 ], [ -83.9345, 39.8521 ], [ -83.9574, 39.8407 ], [ -83.9915, 39.8234 ], [ -84.003, 39.8178 ], [ -84.0259, 39.8064 ], [ -84.0487, 39.7948 ], [ -84.0716, 39.7834 ], [ -84.1058, 39.7663 ], [ -84.1171, 39.7604 ], [ -84.1396, 39.7486 ], [ -84.1727, 39.7303 ], [ -84.1941, 39.7174 ], [ -84.2047, 39.7108 ], [ -84.2363, 39.691 ], [ -84.2574, 39.6779 ], [ -84.2788, 39.665 ], [ -84.3007, 39.6526 ], [ -84.3235, 39.6411 ], [ -84.3465, 39.6298 ], [ -84.3583, 39.6245 ], [ -84.3821, 39.614 ], [ -84.4183, 39.5988 ], [ -84.4301, 39.5934 ], [ -84.4535, 39.5826 ], [ -84.4877, 39.5653 ], [ -84.5096, 39.5529 ], [ -84.5313, 39.5403 ], [ -84.5529, 39.5277 ], [ -84.5639, 39.5215 ], [ -84.5861, 39.5094 ], [ -84.6085, 39.4976 ], [ -84.6312, 39.486 ], [ -84.654, 39.4746 ], [ -84.6883, 39.4574 ], [ -84.6997, 39.4516 ], [ -84.7226, 39.4402 ], [ -84.7568, 39.4231 ], [ -84.7796, 39.4115 ], [ -84.7911, 39.4059 ], [ -84.814, 39.3945 ], [ -84.8367, 39.383 ], [ -84.8711, 39.366 ], [ -84.8939, 39.3544 ], [ -84.9053, 39.3487 ], [ -84.9397, 39.3316 ], [ -84.951, 39.3259 ], [ -84.9738, 39.3143 ], [ -84.9967, 39.3029 ], [ -85.0309, 39.2858 ], [ -85.0423, 39.28 ], [ -85.0652, 39.2686 ], [ -85.0995, 39.2515 ], [ -85.1222, 39.2399 ], [ -85.1452, 39.2287 ], [ -85.1566, 39.2229 ], [ -85.1907, 39.2056 ], [ -85.2023, 39.2 ], [ -85.2251, 39.1886 ], [ -85.2479, 39.1771 ], [ -85.2823, 39.16 ], [ -85.2937, 39.1543 ], [ -85.3164, 39.1427 ], [ -85.3393, 39.1313 ], [ -85.3736, 39.1142 ], [ -85.3849, 39.1084 ], [ -85.4193, 39.0914 ], [ -85.4421, 39.0799 ], [ -85.4648, 39.0683 ], [ -85.4764, 39.0627 ], [ -85.5106, 39.0455 ], [ -85.522, 39.0398 ], [ -85.5449, 39.0284 ], [ -85.5791, 39.0112 ], [ -85.5905, 39.0055 ], [ -85.6134, 38.9941 ], [ -85.6477, 38.9769 ], [ -85.659, 38.9711 ], [ -85.6819, 38.9597 ], [ -85.7162, 38.9426 ], [ -85.7389, 38.931 ], [ -85.762, 38.9198 ], [ -85.7847, 38.9083 ], [ -85.8075, 38.8967 ], [ -85.8305, 38.8855 ], [ -85.8532, 38.8739 ], [ -85.876, 38.8624 ], [ -85.8875, 38.8568 ], [ -85.9218, 38.8396 ], [ -85.9331, 38.8338 ], [ -85.956, 38.8224 ], [ -85.9903, 38.8053 ], [ -86.0017, 38.7995 ], [ -86.0246, 38.7881 ], [ -86.0474, 38.7767 ], [ -86.0701, 38.7651 ], [ -86.0925, 38.7533 ], [ -86.1147, 38.7412 ], [ -86.1471, 38.7221 ], [ -86.1576, 38.7155 ], [ -86.1893, 38.6957 ], [ -86.2104, 38.6826 ], [ -86.2318, 38.6697 ], [ -86.2537, 38.6573 ], [ -86.2649, 38.6514 ], [ -86.2987, 38.6337 ], [ -86.31, 38.6279 ], [ -86.3444, 38.6109 ], [ -86.3672, 38.5994 ], [ -86.3786, 38.5936 ], [ -86.4014, 38.5822 ], [ -86.4357, 38.565 ], [ -86.4585, 38.5535 ], [ -86.47, 38.5479 ], [ -86.4929, 38.5365 ], [ -86.5267, 38.5189 ], [ -86.538, 38.513 ], [ -86.5711, 38.4947 ], [ -86.5818, 38.4883 ], [ -86.603, 38.4753 ], [ -86.6347, 38.4555 ], [ -86.6558, 38.4423 ], [ -86.6772, 38.4294 ], [ -86.6991, 38.417 ], [ -86.7216, 38.4052 ], [ -86.7328, 38.3993 ], [ -86.7555, 38.3877 ], [ -86.7899, 38.3706 ], [ -86.8012, 38.3649 ], [ -86.8354, 38.3476 ], [ -86.8469, 38.3419 ], [ -86.8698, 38.3306 ], [ -86.8923, 38.3189 ], [ -86.9261, 38.3012 ], [ -86.937, 38.295 ], [ -86.9694, 38.2759 ], [ -86.9905, 38.2627 ], [ -87.0116, 38.2496 ], [ -87.0221, 38.243 ], [ -87.0434, 38.2299 ], [ -87.076, 38.2111 ], [ -87.0985, 38.1993 ], [ -87.1097, 38.1934 ], [ -87.1322, 38.1816 ], [ -87.1659, 38.1639 ], [ -87.1878, 38.1515 ], [ -87.2092, 38.1386 ], [ -87.2198, 38.132 ], [ -87.2514, 38.1123 ], [ -87.262, 38.1057 ], [ -87.2939, 38.0862 ], [ -87.3156, 38.0736 ], [ -87.3265, 38.0674 ], [ -87.3592, 38.0486 ], [ -87.3698, 38.0421 ], [ -87.4016, 38.0225 ], [ -87.4122, 38.0159 ], [ -87.4439, 37.9961 ], [ -87.4545, 37.9897 ], [ -87.4869, 37.9706 ], [ -87.5088, 37.9582 ], [ -87.5305, 37.9456 ], [ -87.5519, 37.9327 ], [ -87.573, 37.9195 ], [ -87.5938, 37.9061 ], [ -87.6143, 37.8923 ], [ -87.6349, 37.8786 ], [ -87.6555, 37.8649 ], [ -87.676, 37.8511 ], [ -87.6968, 37.8377 ], [ -87.718, 37.8245 ], [ -87.7286, 37.8181 ], [ -87.7502, 37.8053 ], [ -87.772, 37.7928 ], [ -87.7937, 37.7803 ], [ -87.826, 37.7611 ], [ -87.8471, 37.7479 ], [ -87.8679, 37.7345 ], [ -87.8884, 37.7207 ], [ -87.909, 37.707 ], [ -87.9193, 37.7001 ], [ -87.9501, 37.6795 ], [ -87.971, 37.6661 ], [ -87.9921, 37.6529 ], [ -88.0134, 37.64 ], [ -88.0244, 37.6338 ], [ -88.0579, 37.6158 ], [ -88.0691, 37.6099 ], [ -88.1031, 37.5925 ], [ -88.1146, 37.5869 ], [ -88.1488, 37.5697 ], [ -88.1601, 37.5638 ], [ -88.1826, 37.552 ], [ -88.2048, 37.5399 ], [ -88.2371, 37.5208 ], [ -88.2582, 37.5077 ], [ -88.2688, 37.5011 ], [ -88.2899, 37.4879 ], [ -88.3111, 37.4749 ], [ -88.3326, 37.4621 ], [ -88.3654, 37.4434 ], [ -88.3762, 37.4371 ], [ -88.4084, 37.4179 ], [ -88.419, 37.4113 ], [ -88.4401, 37.3981 ], [ -88.4717, 37.3783 ], [ -88.4824, 37.3719 ], [ -88.5148, 37.3528 ], [ -88.5367, 37.3404 ], [ -88.5475, 37.3341 ], [ -88.5691, 37.3214 ], [ -88.6008, 37.3017 ], [ -88.622, 37.2886 ], [ -88.6325, 37.282 ], [ -88.6644, 37.2625 ], [ -88.6753, 37.2562 ], [ -88.697, 37.2437 ], [ -88.7297, 37.2249 ], [ -88.7511, 37.2119 ], [ -88.7616, 37.2054 ], [ -88.793, 37.1853 ], [ -88.8135, 37.1716 ], [ -88.8341, 37.1579 ], [ -88.8444, 37.151 ], [ -88.8752, 37.1304 ], [ -88.8855, 37.1235 ], [ -88.9163, 37.1029 ], [ -88.9266, 37.0961 ], [ -88.9574, 37.0755 ], [ -88.9677, 37.0686 ], [ -88.9883, 37.0549 ], [ -89.0191, 37.0343 ], [ -89.0394, 37.0203 ], [ -89.0693, 36.9987 ], [ -89.0792, 36.9915 ], [ -89.1082, 36.9691 ], [ -89.1275, 36.9541 ], [ -89.1471, 36.9394 ], [ -89.157, 36.9322 ], [ -89.1767, 36.9176 ], [ -89.1965, 36.9031 ], [ -89.2259, 36.8811 ], [ -89.2357, 36.8737 ], [ -89.2548, 36.8586 ], [ -89.2842, 36.8365 ], [ -89.294, 36.8292 ], [ -89.3138, 36.8146 ], [ -89.3335, 36.8001 ], [ -89.353, 36.7853 ], [ -89.3719, 36.7699 ], [ -89.3903, 36.754 ], [ -89.4178, 36.7301 ], [ -89.427, 36.7221 ], [ -89.4459, 36.7067 ], [ -89.4556, 36.6993 ], [ -89.4851, 36.6774 ], [ -89.5048, 36.6628 ], [ -89.5243, 36.648 ], [ -89.5432, 36.6326 ], [ -89.5613, 36.6164 ], [ -89.5791, 36.5999 ], [ -89.5964, 36.5829 ], [ -89.6137, 36.5659 ], [ -89.6306, 36.5486 ], [ -89.6479, 36.5316 ], [ -89.6652, 36.5145 ], [ -89.683, 36.4981 ], [ -89.7011, 36.4819 ], [ -89.72, 36.4665 ], [ -89.7395, 36.4517 ], [ -89.7592, 36.4371 ], [ -89.7789, 36.4226 ], [ -89.7984, 36.4077 ], [ -89.8173, 36.3924 ], [ -89.8354, 36.3762 ], [ -89.8532, 36.3597 ], [ -89.8705, 36.3427 ], [ -89.8878, 36.3256 ], [ -89.9047, 36.3083 ], [ -89.922, 36.2913 ], [ -89.939, 36.274 ], [ -89.9563, 36.257 ], [ -89.9733, 36.2397 ], [ -89.9903, 36.2224 ], [ -90.0148, 36.1955 ], [ -90.0229, 36.1864 ], [ -90.0382, 36.1675 ], [ -90.053, 36.148 ], [ -90.0748, 36.1183 ], [ -90.0895, 36.0987 ], [ -90.0969, 36.089 ], [ -90.1122, 36.07 ], [ -90.1284, 36.0519 ], [ -90.1449, 36.034 ], [ -90.1618, 36.0167 ], [ -90.1788, 35.9994 ], [ -90.1961, 35.9824 ], [ -90.2131, 35.9651 ], [ -90.2304, 35.9481 ], [ -90.2474, 35.9308 ], [ -90.2646, 35.9138 ], [ -90.2816, 35.8965 ], [ -90.2989, 35.8795 ], [ -90.3159, 35.8622 ], [ -90.3332, 35.8451 ], [ -90.3502, 35.8278 ], [ -90.3674, 35.8108 ], [ -90.3844, 35.7935 ], [ -90.4014, 35.7762 ], [ -90.4179, 35.7584 ], [ -90.434, 35.7403 ], [ -90.4494, 35.7213 ], [ -90.4642, 35.7018 ], [ -90.486, 35.6722 ], [ -90.4932, 35.6623 ], [ -90.5157, 35.6333 ], [ -90.5234, 35.6238 ], [ -90.5396, 35.6057 ], [ -90.556, 35.5879 ], [ -90.5815, 35.5619 ], [ -90.59, 35.5533 ], [ -90.6073, 35.5362 ], [ -90.6243, 35.5189 ], [ -90.6415, 35.5019 ], [ -90.6585, 35.4846 ], [ -90.6755, 35.4673 ], [ -90.692, 35.4495 ], [ -90.7081, 35.4314 ], [ -90.7309, 35.4027 ], [ -90.7383, 35.3929 ], [ -90.7528, 35.3732 ], [ -90.7747, 35.3436 ], [ -90.7821, 35.3339 ], [ -90.7975, 35.3149 ], [ -90.8213, 35.2874 ], [ -90.8372, 35.2689 ], [ -90.8452, 35.2597 ], [ -90.8679, 35.2311 ], [ -90.8826, 35.2114 ], [ -90.8899, 35.2015 ], [ -90.9044, 35.1818 ], [ -90.9192, 35.1623 ], [ -90.9425, 35.1341 ], [ -90.9584, 35.1157 ], [ -90.9743, 35.0973 ], [ -90.9899, 35.0787 ], [ -90.9976, 35.0692 ], [ -91.0195, 35.0397 ], [ -91.0336, 35.0195 ], [ -91.0475, 34.999 ], [ -91.0612, 34.9785 ], [ -91.0749, 34.9579 ], [ -91.0887, 34.9374 ], [ -91.0957, 34.9273 ], [ -91.1172, 34.8973 ], [ -91.1319, 34.8777 ], [ -91.1393, 34.8679 ], [ -91.1618, 34.839 ], [ -91.1764, 34.8193 ], [ -91.1908, 34.7994 ], [ -91.198, 34.7894 ], [ -91.2188, 34.7588 ], [ -91.2325, 34.7382 ], [ -91.2393, 34.7279 ], [ -91.2599, 34.697 ], [ -91.2668, 34.6867 ], [ -91.2805, 34.6661 ], [ -91.3009, 34.6351 ], [ -91.3142, 34.6141 ], [ -91.3272, 34.5928 ], [ -91.3336, 34.5821 ], [ -91.3524, 34.5494 ], [ -91.3649, 34.5276 ], [ -91.3776, 34.5061 ], [ -91.3841, 34.4954 ], [ -91.4038, 34.4636 ], [ -91.417, 34.4425 ], [ -91.4235, 34.4319 ], [ -91.4427, 34.3997 ], [ -91.4552, 34.3778 ], [ -91.4614, 34.3669 ], [ -91.4804, 34.3344 ], [ -91.4934, 34.3132 ], [ -91.5, 34.3026 ], [ -91.5132, 34.2815 ], [ -91.5328, 34.2496 ], [ -91.5392, 34.2389 ], [ -91.5574, 34.2057 ], [ -91.5692, 34.1832 ], [ -91.5809, 34.1605 ], [ -91.5923, 34.1376 ], [ -91.5979, 34.1261 ], [ -91.6151, 34.0919 ], [ -91.6265, 34.0689 ], [ -91.6379, 34.046 ], [ -91.6494, 34.0232 ], [ -91.6608, 34.0003 ], [ -91.6722, 33.9774 ], [ -91.6837, 33.9546 ], [ -91.695, 33.9317 ], [ -91.7064, 33.9087 ], [ -91.7179, 33.8859 ], [ -91.7293, 33.863 ], [ -91.7407, 33.8401 ], [ -91.7522, 33.8173 ], [ -91.7579, 33.8059 ], [ -91.7744, 33.7709 ], [ -91.7852, 33.7474 ], [ -91.7955, 33.7234 ], [ -91.8052, 33.6988 ], [ -91.815, 33.6742 ], [ -91.8199, 33.662 ], [ -91.8344, 33.6251 ], [ -91.8447, 33.6011 ], [ -91.85, 33.5893 ], [ -91.8664, 33.5541 ], [ -91.8772, 33.5306 ], [ -91.888, 33.5072 ], [ -91.8983, 33.4831 ], [ -91.9032, 33.4709 ], [ -91.9177, 33.434 ], [ -91.9275, 33.4094 ], [ -91.9371, 33.3847 ], [ -91.947, 33.3603 ], [ -91.9571, 33.3361 ], [ -91.967, 33.3117 ], [ -91.9764, 33.2868 ], [ -91.9857, 33.2618 ], [ -91.9948, 33.2366 ], [ -91.9992, 33.2238 ], [ -92.0119, 33.1851 ], [ -92.0205, 33.1594 ], [ -92.0292, 33.1338 ], [ -92.0377, 33.1079 ], [ -92.0419, 33.095 ], [ -92.0548, 33.0565 ], [ -92.0592, 33.0437 ], [ -92.0719, 33.005 ], [ -92.0804, 32.9792 ], [ -92.0847, 32.9663 ], [ -92.0934, 32.9407 ], [ -92.1062, 32.902 ], [ -92.1104, 32.8891 ], [ -92.1189, 32.8633 ], [ -92.1314, 32.8243 ], [ -92.1392, 32.7978 ], [ -92.1468, 32.771 ], [ -92.154, 32.744 ], [ -92.161, 32.7167 ], [ -92.1677, 32.6891 ], [ -92.1742, 32.6612 ], [ -92.1803, 32.6331 ], [ -92.1862, 32.6047 ], [ -92.1919, 32.576 ], [ -92.1975, 32.5473 ], [ -92.2032, 32.5187 ], [ -92.209, 32.4902 ], [ -92.2147, 32.4616 ], [ -92.2205, 32.433 ], [ -92.2261, 32.4044 ], [ -92.2317, 32.3757 ], [ -92.2375, 32.3471 ], [ -92.2431, 32.3184 ], [ -92.2483, 32.2893 ], [ -92.253, 32.2597 ], [ -92.2569, 32.2293 ], [ -92.2604, 32.1984 ], [ -92.2638, 32.1675 ], [ -92.2678, 32.1372 ], [ -92.2724, 32.1075 ], [ -92.2775, 32.0783 ], [ -92.2826, 32.0491 ], [ -92.2871, 32.0193 ], [ -92.2905, 31.9884 ], [ -92.2927, 31.9563 ], [ -92.294, 31.9232 ], [ -92.2945, 31.8894 ], [ -92.2946, 31.8552 ], [ -92.2946, 31.8209 ], [ -92.2946, 31.7866 ], [ -92.2946, 31.7523 ], [ -92.2946, 31.7179 ], [ -92.2946, 31.6836 ], [ -92.2946, 31.6493 ], [ -92.2946, 31.615 ], [ -92.2945, 31.5808 ], [ -92.294, 31.547 ], [ -92.2927, 31.5139 ], [ -92.2905, 31.4818 ], [ -92.2871, 31.4509 ], [ -92.2826, 31.4211 ], [ -92.2775, 31.3919 ], [ -92.2723, 31.3628 ], [ -92.2672, 31.3335 ], [ -92.2626, 31.3039 ], [ -92.2582, 31.274 ], [ -92.2535, 31.2443 ], [ -92.2483, 31.2152 ], [ -92.2426, 31.1866 ], [ -92.2363, 31.1586 ], [ -92.2295, 31.131 ], [ -92.2227, 31.1036 ], [ -92.2158, 31.0761 ], [ -92.2124, 31.0624 ], [ -92.2021, 31.0212 ], [ -92.1953, 30.9938 ], [ -92.1883, 30.9664 ], [ -92.181, 30.9394 ], [ -92.1735, 30.9126 ], [ -92.1694, 30.8996 ], [ -92.1569, 30.8606 ], [ -92.1477, 30.8355 ], [ -92.1383, 30.8106 ], [ -92.1284, 30.7862 ], [ -92.1183, 30.762 ], [ -92.1036, 30.7252 ], [ -92.0988, 30.7129 ], [ -92.0891, 30.6883 ], [ -92.0793, 30.6637 ], [ -92.0696, 30.6391 ], [ -92.0593, 30.6151 ], [ -92.0485, 30.5916 ], [ -92.0375, 30.5683 ], [ -92.0263, 30.5452 ], [ -92.0148, 30.5225 ], [ -92.0034, 30.4995 ], [ -91.992, 30.4766 ], [ -91.9805, 30.4538 ], [ -91.9691, 30.4309 ], [ -91.9578, 30.408 ], [ -91.9461, 30.3853 ], [ -91.9343, 30.3628 ], [ -91.9223, 30.3405 ], [ -91.9097, 30.3189 ], [ -91.8966, 30.2976 ], [ -91.8835, 30.2764 ], [ -91.8703, 30.2553 ], [ -91.8573, 30.234 ], [ -91.8446, 30.2125 ], [ -91.8321, 30.1906 ], [ -91.8196, 30.1688 ], [ -91.8069, 30.1473 ], [ -91.7939, 30.126 ], [ -91.7806, 30.105 ], [ -91.767, 30.0842 ], [ -91.7531, 30.0638 ], [ -91.7319, 30.0336 ], [ -91.7246, 30.0237 ], [ -91.71, 30.0041 ], [ -91.695, 29.9847 ], [ -91.6727, 29.9556 ], [ -91.6582, 29.9358 ], [ -91.6509, 29.9259 ], [ -91.6291, 29.8963 ], [ -91.6146, 29.8765 ], [ -91.5998, 29.857 ], [ -91.5847, 29.8378 ], [ -91.5699, 29.8183 ], [ -91.5554, 29.7985 ], [ -91.5409, 29.7788 ], [ -91.5263, 29.759 ], [ -91.5115, 29.7395 ], [ -91.4962, 29.7206 ], [ -91.4882, 29.7114 ], [ -91.4644, 29.6838 ], [ -91.4564, 29.6746 ], [ -91.4331, 29.6464 ], [ -91.4257, 29.6367 ], [ -91.4111, 29.6171 ], [ -91.3893, 29.5874 ], [ -91.3819, 29.5777 ], [ -91.3591, 29.549 ], [ -91.343, 29.5308 ], [ -91.3265, 29.513 ], [ -91.318, 29.5043 ], [ -91.2925, 29.4784 ], [ -91.2755, 29.4611 ], [ -91.2673, 29.4522 ], [ -91.251, 29.4342 ], [ -91.2275, 29.4062 ], [ -91.2202, 29.3964 ], [ -91.1982, 29.3669 ], [ -91.191, 29.357 ], [ -91.1689, 29.3277 ], [ -91.1612, 29.3182 ], [ -91.1455, 29.2996 ], [ -91.1209, 29.2727 ], [ -91.1124, 29.2641 ], [ -91.0869, 29.2381 ], [ -91.0783, 29.2296 ], [ -91.0527, 29.2038 ], [ -91.0354, 29.1868 ], [ -91.0184, 29.1695 ], [ -91.0011, 29.1525 ], [ -90.9927, 29.1438 ], [ -90.9669, 29.1182 ], [ -90.9499, 29.1009 ], [ -90.9413, 29.0923 ], [ -90.9156, 29.0665 ], [ -90.8984, 29.0495 ], [ -90.8814, 29.0322 ], [ -90.8727, 29.0237 ], [ -90.8471, 28.9979 ], [ -90.8385, 28.9894 ], [ -90.8128, 28.9636 ], [ -90.7956, 28.9466 ], [ -90.7783, 28.9295 ], [ -90.7694, 28.9213 ], [ -90.7514, 28.905 ], [ -90.7329, 28.8892 ], [ -90.704, 28.8667 ], [ -90.6843, 28.8521 ], [ -90.6646, 28.8375 ], [ -90.6451, 28.8227 ], [ -90.6356, 28.815 ], [ -90.6081, 28.7911 ], [ -90.5903, 28.7747 ], [ -90.5816, 28.7662 ], [ -90.5557, 28.7406 ], [ -90.5472, 28.732 ], [ -90.5215, 28.7063 ], [ -90.5042, 28.6893 ], [ -90.4953, 28.681 ], [ -90.4773, 28.6647 ], [ -90.4494, 28.6412 ], [ -90.4299, 28.6264 ], [ -90.4201, 28.6191 ], [ -90.3904, 28.5973 ], [ -90.371, 28.5825 ], [ -90.3521, 28.5671 ], [ -90.334, 28.5509 ], [ -90.3162, 28.5344 ], [ -90.3074, 28.526 ], [ -90.2808, 28.5012 ], [ -90.2718, 28.4931 ], [ -90.2438, 28.4696 ], [ -90.2243, 28.4548 ], [ -90.2046, 28.4402 ], [ -90.1849, 28.4257 ], [ -90.1654, 28.4109 ], [ -90.1465, 28.3955 ], [ -90.1284, 28.3793 ], [ -90.1106, 28.3628 ], [ -90.0931, 28.3461 ], [ -90.0752, 28.3296 ], [ -90.0662, 28.3215 ], [ -90.0382, 28.298 ], [ -90.0188, 28.2832 ], [ -89.999, 28.2686 ], [ -89.9892, 28.2614 ], [ -89.9598, 28.2393 ], [ -89.9504, 28.2316 ], [ -89.9226, 28.208 ], [ -89.9042, 28.192 ], [ -89.895, 28.1841 ], [ -89.8669, 28.1607 ], [ -89.8475, 28.1459 ], [ -89.8277, 28.1314 ], [ -89.808, 28.1168 ], [ -89.7883, 28.1022 ], [ -89.7688, 28.0874 ], [ -89.7496, 28.0723 ], [ -89.7301, 28.0575 ], [ -89.7104, 28.0429 ], [ -89.6907, 28.0284 ], [ -89.6709, 28.0138 ], [ -89.6515, 27.999 ], [ -89.6326, 27.9836 ], [ -89.6142, 27.9677 ], [ -89.605, 27.9597 ], [ -89.5775, 27.9359 ], [ -89.5586, 27.9205 ], [ -89.5391, 27.9057 ], [ -89.5292, 27.8984 ], [ -89.5095, 27.8838 ], [ -89.4799, 27.862 ], [ -89.4702, 27.8546 ], [ -89.4412, 27.8321 ], [ -89.4218, 27.8172 ], [ -89.4119, 27.81 ], [ -89.382, 27.7884 ], [ -89.3617, 27.7744 ], [ -89.3412, 27.7607 ], [ -89.3206, 27.747 ], [ -89.3001, 27.7332 ], [ -89.2795, 27.7195 ], [ -89.259, 27.7058 ], [ -89.2384, 27.692 ], [ -89.2178, 27.6783 ], [ -89.1973, 27.6646 ], [ -89.1767, 27.6509 ], [ -89.1562, 27.6371 ], [ -89.1356, 27.6234 ], [ -89.1151, 27.6097 ], [ -89.0945, 27.5959 ], [ -89.0739, 27.5822 ], [ -89.0534, 27.5685 ], [ -89.0328, 27.5548 ], [ -89.0123, 27.541 ], [ -88.9917, 27.5273 ], [ -88.9712, 27.5136 ], [ -88.9506, 27.4998 ], [ -88.93, 27.4861 ], [ -88.9095, 27.4724 ], [ -88.8889, 27.4587 ], [ -88.8684, 27.4449 ], [ -88.8478, 27.4312 ], [ -88.8272, 27.4175 ], [ -88.8067, 27.4037 ], [ -88.7861, 27.39 ], [ -88.7656, 27.3763 ], [ -88.745, 27.3626 ], [ -88.7245, 27.3488 ], [ -88.7039, 27.3351 ], [ -88.6834, 27.3214 ], [ -88.6628, 27.3076 ], [ -88.6422, 27.2939 ], [ -88.6217, 27.2802 ], [ -88.6011, 27.2665 ], [ -88.5806, 27.2527 ], [ -88.56, 27.239 ], [ -88.5394, 27.2253 ], [ -88.5189, 27.2115 ], [ -88.4983, 27.1978 ], [ -88.4778, 27.1841 ], [ -88.4572, 27.1704 ], [ -88.4367, 27.1566 ], [ -88.4161, 27.1429 ], [ -88.3955, 27.1292 ], [ -88.375, 27.1154 ], [ -88.3544, 27.1017 ], [ -88.3339, 27.088 ], [ -88.3133, 27.0743 ], [ -88.2928, 27.0605 ], [ -88.2722, 27.0468 ], [ -88.2516, 27.0331 ], [ -88.2308, 27.0196 ], [ -88.2097, 27.0064 ], [ -88.1771, 26.9879 ], [ -88.1662, 26.982 ], [ -88.1439, 26.9713 ], [ -88.1217, 26.9614 ], [ -88.0994, 26.9529 ], [ -88.0651, 26.943 ], [ -88.0417, 26.9385 ] ] ] } }
]
}
