{
"type": "FeatureCollection",
"name": "al092021_2021082903_initialradii",
"features": [
{ "type": "Feature", "properties": { "RADII": 34.0, "STORMID": "al092021", "BASIN": "al", "STORMNUM": 9.0, "ADVNUM": "11", "VALIDTIME": "2021082903", "SYNOPTIME": "2021082900", "TIMEZONE": "UTC", "TAU": 0.0, "NE": 120.0, "SE": 100.0, "SW": 80.0, "NW": 110.0 }, "geometry": { "type": "Polygon", "coordinates": [ [ [ -87.9807, 29.1121 ], [ -88.0188, 29.1103 ], [ -88.0569, 29.1078 ], [ -88.0949, 29.1048 ], [ -88.1328, 29.1012 ], [ -88.1706, 29.097 ], [ -88.2082, 29.0922 ], [ -88.2458, 29.0869 ], [ -88.2831, 29.0809 ], [ -88.3203, 29.0744 ], [ -88.3573, 29.0673 ], [ -88.3941, 29.0597 ], [ -88.4307, 29.0515 ], [ -88.4671, 29.0427 ], [ -88.5033, 29.0334 ], [ -88.5393, 29.0235 ], [ -88.575, 29.0131 ], [ -88.6104, 29.0021 ], [ -88.6456, 28.9906 ], [ -88.6805, 28.9785 ], [ -88.7151, 28.966 ], [ -88.7494, 28.9529 ], [ -88.7834, 28.9392 ], [ -88.8171, 28.9251 ], [ -88.8505, 28.9105 ], [ -88.8835, 28.8953 ], [ -88.9162, 28.8797 ], [ -88.9485, 28.8636 ], [ -88.9804, 28.847 ], [ -89.012, 28.8299 ], [ -89.0432, 28.8123 ], [ -89.0739, 28.7943 ], [ -89.1043, 28.7758 ], [ -89.1343, 28.7569 ], [ -89.1638, 28.7375 ], [ -89.1929, 28.7177 ], [ -89.2216, 28.6974 ], [ -89.2498, 28.6768 ], [ -89.2776, 28.6557 ], [ -89.3049, 28.6342 ], [ -89.3317, 28.6123 ], [ -89.358, 28.5901 ], [ -89.3837, 28.5673 ], [ -89.4086, 28.5438 ], [ -89.4326, 28.5197 ], [ -89.4557, 28.495 ], [ -89.478, 28.4697 ], [ -89.4993, 28.4438 ], [ -89.5197, 28.4174 ], [ -89.5392, 28.3905 ], [ -89.5577, 28.363 ], [ -89.5755, 28.3352 ], [ -89.5926, 28.3071 ], [ -89.609, 28.2789 ], [ -89.6249, 28.2506 ], [ -89.6401, 28.222 ], [ -89.6546, 28.1933 ], [ -89.6686, 28.1645 ], [ -89.6819, 28.1356 ], [ -89.6945, 28.1065 ], [ -89.7065, 28.0773 ], [ -89.7179, 28.048 ], [ -89.7286, 28.0187 ], [ -89.7387, 27.9892 ], [ -89.7482, 27.9597 ], [ -89.757, 27.9302 ], [ -89.7652, 27.9006 ], [ -89.7727, 27.8709 ], [ -89.7796, 27.8413 ], [ -89.7859, 27.8116 ], [ -89.7916, 27.7819 ], [ -89.7967, 27.7522 ], [ -89.8011, 27.7226 ], [ -89.8049, 27.693 ], [ -89.8081, 27.6634 ], [ -89.8106, 27.6339 ], [ -89.8126, 27.6044 ], [ -89.814, 27.575 ], [ -89.8147, 27.5457 ], [ -89.8149, 27.5164 ], [ -89.8144, 27.4873 ], [ -89.8134, 27.4582 ], [ -89.8118, 27.4293 ], [ -89.8096, 27.4005 ], [ -89.8068, 27.3719 ], [ -89.8035, 27.3433 ], [ -89.7996, 27.315 ], [ -89.7951, 27.2868 ], [ -89.7901, 27.2587 ], [ -89.7845, 27.2309 ], [ -89.7784, 27.2032 ], [ -89.7717, 27.1758 ], [ -89.7645, 27.1485 ], [ -89.7568, 27.1214 ], [ -89.7486, 27.0946 ], [ -89.7399, 27.068 ], [ -89.7306, 27.0416 ], [ -89.7209, 27.0155 ], [ -89.7107, 26.9896 ], [ -89.6999, 26.964 ], [ -89.6888, 26.9386 ], [ -89.6771, 26.9135 ], [ -89.665, 26.8887 ], [ -89.6524, 26.8642 ], [ -89.6394, 26.84 ], [ -89.6259, 26.816 ], [ -89.612, 26.7924 ], [ -89.5977, 26.7691 ], [ -89.583, 26.7461 ], [ -89.5678, 26.7234 ], [ -89.5523, 26.7011 ], [ -89.5364, 26.6791 ], [ -89.5201, 26.6574 ], [ -89.5034, 26.6361 ], [ -89.4863, 26.6151 ], [ -89.4689, 26.5945 ], [ -89.4512, 26.5742 ], [ -89.4331, 26.5543 ], [ -89.4147, 26.5348 ], [ -89.396, 26.5156 ], [ -89.3769, 26.4968 ], [ -89.3576, 26.4784 ], [ -89.338, 26.4604 ], [ -89.318, 26.4428 ], [ -89.2978, 26.4255 ], [ -89.2774, 26.4087 ], [ -89.2566, 26.3923 ], [ -89.2357, 26.3762 ], [ -89.2145, 26.3606 ], [ -89.193, 26.3453 ], [ -89.1714, 26.3305 ], [ -89.1495, 26.3161 ], [ -89.1279, 26.3017 ], [ -89.1068, 26.287 ], [ -89.0863, 26.2719 ], [ -89.0663, 26.2565 ], [ -89.0468, 26.2406 ], [ -89.0279, 26.2243 ], [ -89.0094, 26.2076 ], [ -88.9914, 26.1904 ], [ -88.9738, 26.1727 ], [ -88.9562, 26.1549 ], [ -88.9382, 26.1373 ], [ -88.9198, 26.1199 ], [ -88.9011, 26.1028 ], [ -88.8819, 26.086 ], [ -88.8624, 26.0694 ], [ -88.8425, 26.0531 ], [ -88.8223, 26.0371 ], [ -88.8016, 26.0213 ], [ -88.7806, 26.0058 ], [ -88.7593, 25.9907 ], [ -88.7376, 25.9758 ], [ -88.7156, 25.9613 ], [ -88.6932, 25.947 ], [ -88.6705, 25.9331 ], [ -88.6475, 25.9195 ], [ -88.6241, 25.9063 ], [ -88.6005, 25.8934 ], [ -88.5765, 25.8808 ], [ -88.5522, 25.8686 ], [ -88.5277, 25.8567 ], [ -88.5028, 25.8452 ], [ -88.4777, 25.8341 ], [ -88.4522, 25.8234 ], [ -88.4266, 25.813 ], [ -88.4006, 25.803 ], [ -88.3744, 25.7934 ], [ -88.348, 25.7842 ], [ -88.3213, 25.7754 ], [ -88.2943, 25.767 ], [ -88.2672, 25.759 ], [ -88.2398, 25.7514 ], [ -88.2122, 25.7442 ], [ -88.1845, 25.7375 ], [ -88.1565, 25.7312 ], [ -88.1283, 25.7253 ], [ -88.1, 25.7198 ], [ -88.0715, 25.7148 ], [ -88.0428, 25.7102 ], [ -88.014, 25.7061 ], [ -87.985, 25.7024 ], [ -87.9559, 25.6992 ], [ -87.9267, 25.6964 ], [ -87.8973, 25.6941 ], [ -87.8679, 25.6922 ], [ -87.8383, 25.6908 ], [ -87.8086, 25.6899 ], [ -87.7789, 25.6894 ], [ -87.7491, 25.6894 ], [ -87.7192, 25.6899 ], [ -87.6892, 25.6908 ], [ -87.6592, 25.6923 ], [ -87.6292, 25.6942 ], [ -87.5992, 25.6966 ], [ -87.5691, 25.6994 ], [ -87.539, 25.7028 ], [ -87.5089, 25.7066 ], [ -87.4788, 25.7109 ], [ -87.4487, 25.7157 ], [ -87.4187, 25.721 ], [ -87.3887, 25.7268 ], [ -87.3587, 25.7331 ], [ -87.3288, 25.7398 ], [ -87.299, 25.7471 ], [ -87.2692, 25.7548 ], [ -87.2396, 25.763 ], [ -87.21, 25.7717 ], [ -87.1805, 25.7809 ], [ -87.1512, 25.7906 ], [ -87.1219, 25.8008 ], [ -87.0928, 25.8114 ], [ -87.0639, 25.8225 ], [ -87.0351, 25.8341 ], [ -87.0064, 25.8462 ], [ -86.978, 25.8588 ], [ -86.9497, 25.8718 ], [ -86.9216, 25.8854 ], [ -86.8937, 25.8993 ], [ -86.866, 25.9138 ], [ -86.8386, 25.9287 ], [ -86.8113, 25.9441 ], [ -86.7844, 25.96 ], [ -86.7576, 25.9763 ], [ -86.7311, 25.993 ], [ -86.7049, 26.0103 ], [ -86.679, 26.0279 ], [ -86.6534, 26.046 ], [ -86.628, 26.0646 ], [ -86.603, 26.0836 ], [ -86.5783, 26.103 ], [ -86.5539, 26.1228 ], [ -86.5299, 26.1431 ], [ -86.5062, 26.1638 ], [ -86.4828, 26.1849 ], [ -86.4598, 26.2064 ], [ -86.4372, 26.2284 ], [ -86.415, 26.2507 ], [ -86.3931, 26.2734 ], [ -86.3717, 26.2965 ], [ -86.3506, 26.32 ], [ -86.33, 26.3439 ], [ -86.3098, 26.3681 ], [ -86.29, 26.3928 ], [ -86.2707, 26.4177 ], [ -86.2518, 26.443 ], [ -86.2334, 26.4687 ], [ -86.2154, 26.4947 ], [ -86.1979, 26.5211 ], [ -86.1809, 26.5477 ], [ -86.1644, 26.5747 ], [ -86.1483, 26.602 ], [ -86.1328, 26.6296 ], [ -86.1178, 26.6575 ], [ -86.1033, 26.6857 ], [ -86.0893, 26.7142 ], [ -86.0759, 26.743 ], [ -86.063, 26.772 ], [ -86.0506, 26.8012 ], [ -86.0388, 26.8308 ], [ -86.0276, 26.8605 ], [ -86.0169, 26.8905 ], [ -86.0068, 26.9208 ], [ -85.9973, 26.9512 ], [ -85.9883, 26.9818 ], [ -85.9799, 27.0127 ], [ -85.9722, 27.0437 ], [ -85.965, 27.0749 ], [ -85.9584, 27.1063 ], [ -85.9525, 27.1378 ], [ -85.9471, 27.1695 ], [ -85.9424, 27.2014 ], [ -85.9383, 27.2334 ], [ -85.9348, 27.2654 ], [ -85.9319, 27.2977 ], [ -85.9297, 27.33 ], [ -85.9281, 27.3624 ], [ -85.9272, 27.3949 ], [ -85.9269, 27.4274 ], [ -85.9273, 27.46 ], [ -85.9283, 27.4927 ], [ -85.93, 27.5254 ], [ -85.9323, 27.5582 ], [ -85.9353, 27.591 ], [ -85.9389, 27.6238 ], [ -85.9433, 27.6565 ], [ -85.9482, 27.6893 ], [ -85.9539, 27.7221 ], [ -85.9602, 27.7548 ], [ -85.9672, 27.7875 ], [ -85.9748, 27.8201 ], [ -85.9831, 27.8527 ], [ -85.9921, 27.8852 ], [ -86.0018, 27.9176 ], [ -86.0121, 27.95 ], [ -86.0231, 27.9822 ], [ -86.0348, 28.0143 ], [ -86.0472, 28.0462 ], [ -86.0602, 28.0781 ], [ -86.0739, 28.1098 ], [ -86.0882, 28.1413 ], [ -86.1033, 28.1726 ], [ -86.1189, 28.2038 ], [ -86.1353, 28.2348 ], [ -86.1523, 28.2656 ], [ -86.17, 28.2961 ], [ -86.1883, 28.3265 ], [ -86.2072, 28.3566 ], [ -86.2269, 28.3864 ], [ -86.2471, 28.416 ], [ -86.268, 28.4453 ], [ -86.2896, 28.4744 ], [ -86.312, 28.5029 ], [ -86.3355, 28.5307 ], [ -86.3601, 28.5577 ], [ -86.3858, 28.584 ], [ -86.4126, 28.6094 ], [ -86.4403, 28.634 ], [ -86.4691, 28.6577 ], [ -86.4988, 28.6805 ], [ -86.5294, 28.7024 ], [ -86.5608, 28.7236 ], [ -86.5925, 28.7442 ], [ -86.6246, 28.7644 ], [ -86.6571, 28.784 ], [ -86.6899, 28.8031 ], [ -86.7232, 28.8217 ], [ -86.7567, 28.8397 ], [ -86.7906, 28.8572 ], [ -86.8248, 28.8742 ], [ -86.8594, 28.8906 ], [ -86.8942, 28.9064 ], [ -86.9293, 28.9217 ], [ -86.9647, 28.9364 ], [ -87.0004, 28.9506 ], [ -87.0363, 28.9642 ], [ -87.0725, 28.9772 ], [ -87.1089, 28.9896 ], [ -87.1455, 29.0015 ], [ -87.1823, 29.0128 ], [ -87.2193, 29.0234 ], [ -87.2565, 29.0335 ], [ -87.2938, 29.0431 ], [ -87.3313, 29.052 ], [ -87.369, 29.0603 ], [ -87.4068, 29.068 ], [ -87.4447, 29.0752 ], [ -87.4827, 29.0817 ], [ -87.5208, 29.0876 ], [ -87.5589, 29.093 ], [ -87.5972, 29.0977 ], [ -87.6355, 29.1019 ], [ -87.6738, 29.1054 ], [ -87.7122, 29.1083 ], [ -87.7506, 29.1107 ], [ -87.789, 29.1124 ], [ -87.8274, 29.1135 ], [ -87.8658, 29.1141 ], [ -87.9041, 29.114 ], [ -87.9424, 29.1134 ], [ -87.9807, 29.1121 ] ] ] } },
{ "type": "Feature", "properties": { "RADII": 50.0, "STORMID": "al092021", "BASIN": "al", "STORMNUM": 9.0, "ADVNUM": "11", "VALIDTIME": "2021082903", "SYNOPTIME": "2021082900", "TIMEZONE": "UTC", "TAU": 0.0, "NE": 70.0, "SE": 60.0, "SW": 40.0, "NW": 60.0 }, "geometry": { "type": "Polygon", "coordinates": [ [ [ -87.989, 28.2812 ], [ -88.0105, 28.2793 ], [ -88.0318, 28.2772 ], [ -88.053, 28.2747 ], [ -88.0742, 28.2718 ], [ -88.0953, 28.2687 ], [ -88.1162, 28.2652 ], [ -88.1371, 28.2614 ], [ -88.1578, 28.2573 ], [ -88.1784, 28.2528 ], [ -88.1989, 28.2481 ], [ -88.2192, 28.243 ], [ -88.2394, 28.2376 ], [ -88.2595, 28.232 ], [ -88.2794, 28.226 ], [ -88.2991, 28.2197 ], [ -88.3187, 28.2131 ], [ -88.3381, 28.2062 ], [ -88.3573, 28.1991 ], [ -88.3764, 28.1916 ], [ -88.3952, 28.1839 ], [ -88.4139, 28.1759 ], [ -88.4324, 28.1676 ], [ -88.4506, 28.159 ], [ -88.4687, 28.1502 ], [ -88.4865, 28.1411 ], [ -88.5042, 28.1317 ], [ -88.5216, 28.1221 ], [ -88.5387, 28.1123 ], [ -88.5557, 28.1021 ], [ -88.5724, 28.0918 ], [ -88.5888, 28.0812 ], [ -88.605, 28.0703 ], [ -88.621, 28.0592 ], [ -88.6367, 28.0479 ], [ -88.6521, 28.0364 ], [ -88.6673, 28.0247 ], [ -88.6822, 28.0127 ], [ -88.6969, 28.0005 ], [ -88.7112, 27.9881 ], [ -88.7253, 27.9756 ], [ -88.7391, 27.9628 ], [ -88.7526, 27.9498 ], [ -88.7656, 27.9364 ], [ -88.7781, 27.9227 ], [ -88.7901, 27.9087 ], [ -88.8017, 27.8945 ], [ -88.8127, 27.8799 ], [ -88.8233, 27.8651 ], [ -88.8333, 27.85 ], [ -88.8429, 27.8346 ], [ -88.852, 27.8191 ], [ -88.8607, 27.8035 ], [ -88.8691, 27.7878 ], [ -88.8772, 27.7721 ], [ -88.8848, 27.7563 ], [ -88.8922, 27.7404 ], [ -88.8991, 27.7244 ], [ -88.9057, 27.7084 ], [ -88.912, 27.6924 ], [ -88.9179, 27.6763 ], [ -88.9234, 27.6602 ], [ -88.9286, 27.6441 ], [ -88.9334, 27.6279 ], [ -88.9379, 27.6117 ], [ -88.942, 27.5955 ], [ -88.9458, 27.5794 ], [ -88.9492, 27.5632 ], [ -88.9523, 27.547 ], [ -88.9551, 27.5308 ], [ -88.9574, 27.5147 ], [ -88.9595, 27.4986 ], [ -88.9612, 27.4825 ], [ -88.9626, 27.4664 ], [ -88.9636, 27.4504 ], [ -88.9643, 27.4345 ], [ -88.9646, 27.4186 ], [ -88.9647, 27.4027 ], [ -88.9644, 27.387 ], [ -88.9638, 27.3713 ], [ -88.9628, 27.3556 ], [ -88.9616, 27.3401 ], [ -88.96, 27.3246 ], [ -88.9581, 27.3092 ], [ -88.9559, 27.294 ], [ -88.9534, 27.2788 ], [ -88.9506, 27.2637 ], [ -88.9475, 27.2488 ], [ -88.9441, 27.2339 ], [ -88.9404, 27.2192 ], [ -88.9364, 27.2046 ], [ -88.9322, 27.1901 ], [ -88.9276, 27.1758 ], [ -88.9228, 27.1616 ], [ -88.9177, 27.1475 ], [ -88.9123, 27.1336 ], [ -88.9067, 27.1198 ], [ -88.9008, 27.1062 ], [ -88.8947, 27.0927 ], [ -88.8883, 27.0794 ], [ -88.8816, 27.0663 ], [ -88.8748, 27.0533 ], [ -88.8676, 27.0405 ], [ -88.8603, 27.0279 ], [ -88.8527, 27.0155 ], [ -88.8449, 27.0032 ], [ -88.8369, 26.9912 ], [ -88.8287, 26.9793 ], [ -88.8202, 26.9676 ], [ -88.8116, 26.9561 ], [ -88.8027, 26.9448 ], [ -88.7937, 26.9337 ], [ -88.7845, 26.9228 ], [ -88.7751, 26.9121 ], [ -88.7655, 26.9016 ], [ -88.7557, 26.8913 ], [ -88.7458, 26.8812 ], [ -88.7357, 26.8713 ], [ -88.7255, 26.8617 ], [ -88.7151, 26.8523 ], [ -88.7046, 26.8431 ], [ -88.6939, 26.8341 ], [ -88.6831, 26.8253 ], [ -88.6721, 26.8168 ], [ -88.6611, 26.8084 ], [ -88.6499, 26.8003 ], [ -88.6386, 26.7925 ], [ -88.6272, 26.7848 ], [ -88.6157, 26.7774 ], [ -88.6041, 26.7702 ], [ -88.5924, 26.7633 ], [ -88.5806, 26.7566 ], [ -88.5691, 26.7498 ], [ -88.5581, 26.7427 ], [ -88.5476, 26.7351 ], [ -88.5377, 26.7272 ], [ -88.5282, 26.7188 ], [ -88.5192, 26.71 ], [ -88.5107, 26.7007 ], [ -88.5026, 26.6909 ], [ -88.4949, 26.6807 ], [ -88.4873, 26.6702 ], [ -88.4794, 26.6599 ], [ -88.4713, 26.6496 ], [ -88.4629, 26.6393 ], [ -88.4543, 26.6292 ], [ -88.4454, 26.6192 ], [ -88.4362, 26.6093 ], [ -88.4268, 26.5995 ], [ -88.4172, 26.5898 ], [ -88.4073, 26.5802 ], [ -88.3971, 26.5708 ], [ -88.3867, 26.5615 ], [ -88.3761, 26.5523 ], [ -88.3652, 26.5432 ], [ -88.3541, 26.5343 ], [ -88.3428, 26.5256 ], [ -88.3312, 26.517 ], [ -88.3194, 26.5085 ], [ -88.3074, 26.5002 ], [ -88.2951, 26.4921 ], [ -88.2826, 26.4841 ], [ -88.2699, 26.4763 ], [ -88.257, 26.4687 ], [ -88.2438, 26.4613 ], [ -88.2305, 26.4541 ], [ -88.2169, 26.447 ], [ -88.2032, 26.4402 ], [ -88.1892, 26.4335 ], [ -88.1751, 26.4271 ], [ -88.1607, 26.4209 ], [ -88.1462, 26.4149 ], [ -88.1315, 26.4091 ], [ -88.1166, 26.4035 ], [ -88.1015, 26.3981 ], [ -88.0863, 26.393 ], [ -88.0709, 26.3881 ], [ -88.0553, 26.3834 ], [ -88.0395, 26.379 ], [ -88.0237, 26.3748 ], [ -88.0076, 26.3709 ], [ -87.9914, 26.3672 ], [ -87.9751, 26.3637 ], [ -87.9586, 26.3606 ], [ -87.942, 26.3577 ], [ -87.9253, 26.355 ], [ -87.9085, 26.3526 ], [ -87.8915, 26.3505 ], [ -87.8745, 26.3486 ], [ -87.8573, 26.3471 ], [ -87.84, 26.3458 ], [ -87.8227, 26.3447 ], [ -87.8052, 26.344 ], [ -87.7877, 26.3436 ], [ -87.7701, 26.3434 ], [ -87.7524, 26.3435 ], [ -87.7347, 26.3439 ], [ -87.7169, 26.3446 ], [ -87.699, 26.3456 ], [ -87.6811, 26.3469 ], [ -87.6632, 26.3485 ], [ -87.6452, 26.3504 ], [ -87.6272, 26.3526 ], [ -87.6092, 26.3551 ], [ -87.5911, 26.3579 ], [ -87.5731, 26.361 ], [ -87.555, 26.3644 ], [ -87.537, 26.3681 ], [ -87.519, 26.3722 ], [ -87.5009, 26.3765 ], [ -87.4829, 26.3812 ], [ -87.465, 26.3861 ], [ -87.447, 26.3914 ], [ -87.4291, 26.397 ], [ -87.4113, 26.4029 ], [ -87.3935, 26.4091 ], [ -87.3758, 26.4156 ], [ -87.3581, 26.4224 ], [ -87.3406, 26.4296 ], [ -87.3231, 26.437 ], [ -87.3056, 26.4448 ], [ -87.2883, 26.4528 ], [ -87.2712, 26.4613 ], [ -87.2544, 26.4702 ], [ -87.2378, 26.4795 ], [ -87.2215, 26.4893 ], [ -87.2056, 26.4995 ], [ -87.19, 26.5102 ], [ -87.1747, 26.5212 ], [ -87.1597, 26.5327 ], [ -87.1452, 26.5445 ], [ -87.1309, 26.5567 ], [ -87.1168, 26.5692 ], [ -87.1029, 26.5818 ], [ -87.0893, 26.5947 ], [ -87.0759, 26.6079 ], [ -87.0627, 26.6213 ], [ -87.0498, 26.6349 ], [ -87.0371, 26.6487 ], [ -87.0247, 26.6627 ], [ -87.0125, 26.677 ], [ -87.0005, 26.6915 ], [ -86.9889, 26.7062 ], [ -86.9775, 26.7211 ], [ -86.9664, 26.7362 ], [ -86.9555, 26.7515 ], [ -86.945, 26.767 ], [ -86.9347, 26.7827 ], [ -86.9247, 26.7986 ], [ -86.9151, 26.8146 ], [ -86.9057, 26.8309 ], [ -86.8966, 26.8473 ], [ -86.8878, 26.8639 ], [ -86.8794, 26.8806 ], [ -86.8712, 26.8975 ], [ -86.8634, 26.9146 ], [ -86.8559, 26.9318 ], [ -86.8487, 26.9491 ], [ -86.8419, 26.9666 ], [ -86.8353, 26.9843 ], [ -86.8292, 27.002 ], [ -86.8233, 27.0199 ], [ -86.8178, 27.0379 ], [ -86.8127, 27.056 ], [ -86.8079, 27.0742 ], [ -86.8035, 27.0926 ], [ -86.7994, 27.111 ], [ -86.7956, 27.1295 ], [ -86.7923, 27.1481 ], [ -86.7892, 27.1668 ], [ -86.7866, 27.1856 ], [ -86.7843, 27.2044 ], [ -86.7824, 27.2233 ], [ -86.7809, 27.2423 ], [ -86.7797, 27.2613 ], [ -86.7789, 27.2803 ], [ -86.7785, 27.2994 ], [ -86.7785, 27.3186 ], [ -86.7788, 27.3377 ], [ -86.7796, 27.3569 ], [ -86.7807, 27.3761 ], [ -86.7822, 27.3954 ], [ -86.7841, 27.4146 ], [ -86.7863, 27.4338 ], [ -86.789, 27.453 ], [ -86.792, 27.4722 ], [ -86.7954, 27.4914 ], [ -86.7992, 27.5106 ], [ -86.8035, 27.5297 ], [ -86.808, 27.5488 ], [ -86.813, 27.5678 ], [ -86.8184, 27.5868 ], [ -86.8242, 27.6058 ], [ -86.8303, 27.6247 ], [ -86.8368, 27.6435 ], [ -86.8437, 27.6622 ], [ -86.851, 27.6809 ], [ -86.8587, 27.6994 ], [ -86.8668, 27.7179 ], [ -86.8752, 27.7363 ], [ -86.8841, 27.7546 ], [ -86.8933, 27.7727 ], [ -86.9029, 27.7908 ], [ -86.9128, 27.8087 ], [ -86.9232, 27.8265 ], [ -86.9339, 27.8441 ], [ -86.945, 27.8616 ], [ -86.9565, 27.879 ], [ -86.9683, 27.8962 ], [ -86.9805, 27.9132 ], [ -86.993, 27.9301 ], [ -87.0059, 27.9468 ], [ -87.0193, 27.9632 ], [ -87.0334, 27.9791 ], [ -87.0482, 27.9945 ], [ -87.0636, 28.0094 ], [ -87.0796, 28.0238 ], [ -87.0962, 28.0376 ], [ -87.1135, 28.0508 ], [ -87.1313, 28.0635 ], [ -87.1496, 28.0756 ], [ -87.1684, 28.0873 ], [ -87.1873, 28.0986 ], [ -87.2065, 28.1096 ], [ -87.2258, 28.1203 ], [ -87.2453, 28.1307 ], [ -87.265, 28.1408 ], [ -87.2849, 28.1505 ], [ -87.3049, 28.1599 ], [ -87.3251, 28.169 ], [ -87.3454, 28.1777 ], [ -87.3659, 28.1861 ], [ -87.3865, 28.1942 ], [ -87.4072, 28.2019 ], [ -87.428, 28.2093 ], [ -87.449, 28.2164 ], [ -87.4701, 28.2231 ], [ -87.4913, 28.2295 ], [ -87.5125, 28.2355 ], [ -87.5339, 28.2412 ], [ -87.5553, 28.2466 ], [ -87.5768, 28.2516 ], [ -87.5983, 28.2562 ], [ -87.62, 28.2605 ], [ -87.6416, 28.2645 ], [ -87.6633, 28.2681 ], [ -87.6851, 28.2714 ], [ -87.7068, 28.2743 ], [ -87.7286, 28.2769 ], [ -87.7504, 28.2792 ], [ -87.7722, 28.281 ], [ -87.794, 28.2826 ], [ -87.8158, 28.2838 ], [ -87.8376, 28.2847 ], [ -87.8593, 28.2852 ], [ -87.8811, 28.2854 ], [ -87.9028, 28.2852 ], [ -87.9244, 28.2847 ], [ -87.946, 28.2839 ], [ -87.9676, 28.2827 ], [ -87.989, 28.2812 ] ] ] } },
{ "type": "Feature", "properties": { "RADII": 64.0, "STORMID": "al092021", "BASIN": "al", "STORMNUM": 9.0, "ADVNUM": "11", "VALIDTIME": "2021082903", "SYNOPTIME": "2021082900", "TIMEZONE": "UTC", "TAU": 0.0, "NE": 35.0, "SE": 30.0, "SW": 20.0, "NW": 30.0 }, "geometry": { "type": "Polygon", "coordinates": [ [ [ -87.9946, 27.7406 ], [ -88.0052, 27.7397 ], [ -88.0158, 27.7386 ], [ -88.0264, 27.7373 ], [ -88.0369, 27.7359 ], [ -88.0474, 27.7343 ], [ -88.0578, 27.7326 ], [ -88.0682, 27.7307 ], [ -88.0785, 27.7287 ], [ -88.0888, 27.7264 ], [ -88.099, 27.7241 ], [ -88.1091, 27.7216 ], [ -88.1191, 27.7189 ], [ -88.1291, 27.716 ], [ -88.139, 27.7131 ], [ -88.1489, 27.7099 ], [ -88.1586, 27.7067 ], [ -88.1683, 27.7032 ], [ -88.1778, 27.6997 ], [ -88.1873, 27.6959 ], [ -88.1967, 27.6921 ], [ -88.206, 27.6881 ], [ -88.2152, 27.684 ], [ -88.2243, 27.6797 ], [ -88.2333, 27.6753 ], [ -88.2422, 27.6708 ], [ -88.251, 27.6661 ], [ -88.2597, 27.6613 ], [ -88.2682, 27.6564 ], [ -88.2767, 27.6513 ], [ -88.285, 27.6462 ], [ -88.2932, 27.6409 ], [ -88.3013, 27.6355 ], [ -88.3093, 27.63 ], [ -88.3171, 27.6243 ], [ -88.3248, 27.6186 ], [ -88.3324, 27.6127 ], [ -88.3399, 27.6068 ], [ -88.3472, 27.6007 ], [ -88.3543, 27.5945 ], [ -88.3614, 27.5883 ], [ -88.3683, 27.5819 ], [ -88.375, 27.5754 ], [ -88.3815, 27.5687 ], [ -88.3878, 27.5619 ], [ -88.3938, 27.5549 ], [ -88.3996, 27.5478 ], [ -88.4051, 27.5405 ], [ -88.4104, 27.5331 ], [ -88.4154, 27.5256 ], [ -88.4202, 27.518 ], [ -88.4248, 27.5102 ], [ -88.4292, 27.5024 ], [ -88.4334, 27.4946 ], [ -88.4374, 27.4867 ], [ -88.4413, 27.4788 ], [ -88.445, 27.4709 ], [ -88.4485, 27.4629 ], [ -88.4518, 27.455 ], [ -88.455, 27.4469 ], [ -88.4579, 27.4389 ], [ -88.4607, 27.4309 ], [ -88.4634, 27.4228 ], [ -88.4658, 27.4147 ], [ -88.4681, 27.4066 ], [ -88.4702, 27.3986 ], [ -88.4721, 27.3905 ], [ -88.4738, 27.3824 ], [ -88.4754, 27.3743 ], [ -88.4768, 27.3662 ], [ -88.478, 27.3582 ], [ -88.4791, 27.3501 ], [ -88.48, 27.3421 ], [ -88.4807, 27.334 ], [ -88.4813, 27.326 ], [ -88.4816, 27.3181 ], [ -88.4818, 27.3101 ], [ -88.4819, 27.3022 ], [ -88.4818, 27.2943 ], [ -88.4815, 27.2865 ], [ -88.4811, 27.2786 ], [ -88.4805, 27.2709 ], [ -88.4797, 27.2631 ], [ -88.4788, 27.2554 ], [ -88.4778, 27.2478 ], [ -88.4765, 27.2402 ], [ -88.4752, 27.2327 ], [ -88.4736, 27.2252 ], [ -88.472, 27.2178 ], [ -88.4702, 27.2104 ], [ -88.4682, 27.2031 ], [ -88.4661, 27.1958 ], [ -88.4639, 27.1887 ], [ -88.4615, 27.1815 ], [ -88.459, 27.1745 ], [ -88.4563, 27.1675 ], [ -88.4535, 27.1606 ], [ -88.4506, 27.1538 ], [ -88.4475, 27.1471 ], [ -88.4444, 27.1404 ], [ -88.4411, 27.1338 ], [ -88.4377, 27.1273 ], [ -88.4341, 27.1209 ], [ -88.4305, 27.1146 ], [ -88.4267, 27.1084 ], [ -88.4228, 27.1022 ], [ -88.4188, 27.0962 ], [ -88.4147, 27.0902 ], [ -88.4105, 27.0844 ], [ -88.4062, 27.0786 ], [ -88.4018, 27.073 ], [ -88.3973, 27.0674 ], [ -88.3927, 27.0619 ], [ -88.388, 27.0566 ], [ -88.3833, 27.0513 ], [ -88.3784, 27.0461 ], [ -88.3734, 27.0411 ], [ -88.3684, 27.0362 ], [ -88.3633, 27.0313 ], [ -88.3581, 27.0266 ], [ -88.3528, 27.022 ], [ -88.3475, 27.0175 ], [ -88.3421, 27.0131 ], [ -88.3366, 27.0088 ], [ -88.3311, 27.0046 ], [ -88.3255, 27.0005 ], [ -88.3199, 26.9966 ], [ -88.3142, 26.9928 ], [ -88.3084, 26.989 ], [ -88.3026, 26.9854 ], [ -88.2968, 26.982 ], [ -88.2909, 26.9786 ], [ -88.2851, 26.9752 ], [ -88.2796, 26.9716 ], [ -88.2744, 26.9678 ], [ -88.2694, 26.9638 ], [ -88.2647, 26.9596 ], [ -88.2602, 26.9552 ], [ -88.2559, 26.9506 ], [ -88.2519, 26.9457 ], [ -88.248, 26.9406 ], [ -88.2442, 26.9353 ], [ -88.2403, 26.9301 ], [ -88.2362, 26.925 ], [ -88.232, 26.9199 ], [ -88.2277, 26.9148 ], [ -88.2233, 26.9098 ], [ -88.2187, 26.9048 ], [ -88.214, 26.8999 ], [ -88.2091, 26.8951 ], [ -88.2042, 26.8903 ], [ -88.1991, 26.8855 ], [ -88.1939, 26.8809 ], [ -88.1886, 26.8763 ], [ -88.1832, 26.8717 ], [ -88.1776, 26.8673 ], [ -88.1719, 26.8629 ], [ -88.1661, 26.8586 ], [ -88.1602, 26.8543 ], [ -88.1542, 26.8502 ], [ -88.148, 26.8461 ], [ -88.1418, 26.8421 ], [ -88.1354, 26.8382 ], [ -88.1289, 26.8344 ], [ -88.1223, 26.8307 ], [ -88.1156, 26.8271 ], [ -88.1088, 26.8236 ], [ -88.1019, 26.8201 ], [ -88.0949, 26.8168 ], [ -88.0878, 26.8136 ], [ -88.0807, 26.8105 ], [ -88.0734, 26.8074 ], [ -88.066, 26.8045 ], [ -88.0585, 26.8017 ], [ -88.0509, 26.7991 ], [ -88.0433, 26.7965 ], [ -88.0356, 26.794 ], [ -88.0277, 26.7917 ], [ -88.0198, 26.7895 ], [ -88.0119, 26.7874 ], [ -88.0038, 26.7854 ], [ -87.9957, 26.7836 ], [ -87.9875, 26.7819 ], [ -87.9792, 26.7803 ], [ -87.9709, 26.7788 ], [ -87.9625, 26.7775 ], [ -87.9541, 26.7763 ], [ -87.9456, 26.7753 ], [ -87.937, 26.7743 ], [ -87.9284, 26.7736 ], [ -87.9197, 26.7729 ], [ -87.911, 26.7724 ], [ -87.9022, 26.772 ], [ -87.8934, 26.7718 ], [ -87.8846, 26.7717 ], [ -87.8757, 26.7718 ], [ -87.8668, 26.772 ], [ -87.8579, 26.7724 ], [ -87.8489, 26.7729 ], [ -87.84, 26.7736 ], [ -87.831, 26.7744 ], [ -87.8219, 26.7753 ], [ -87.8129, 26.7764 ], [ -87.8039, 26.7777 ], [ -87.7948, 26.7791 ], [ -87.7858, 26.7807 ], [ -87.7767, 26.7824 ], [ -87.7677, 26.7843 ], [ -87.7586, 26.7863 ], [ -87.7496, 26.7885 ], [ -87.7405, 26.7908 ], [ -87.7315, 26.7933 ], [ -87.7225, 26.796 ], [ -87.7136, 26.7988 ], [ -87.7046, 26.8017 ], [ -87.6957, 26.8049 ], [ -87.6868, 26.8081 ], [ -87.678, 26.8116 ], [ -87.6692, 26.8152 ], [ -87.6604, 26.8189 ], [ -87.6517, 26.8228 ], [ -87.643, 26.8269 ], [ -87.6344, 26.8311 ], [ -87.626, 26.8356 ], [ -87.6177, 26.8403 ], [ -87.6096, 26.8452 ], [ -87.6016, 26.8503 ], [ -87.5938, 26.8557 ], [ -87.5861, 26.8612 ], [ -87.5786, 26.867 ], [ -87.5714, 26.8729 ], [ -87.5642, 26.879 ], [ -87.5572, 26.8853 ], [ -87.5502, 26.8916 ], [ -87.5434, 26.8981 ], [ -87.5367, 26.9047 ], [ -87.5302, 26.9114 ], [ -87.5237, 26.9182 ], [ -87.5174, 26.9252 ], [ -87.5112, 26.9322 ], [ -87.5051, 26.9394 ], [ -87.4992, 26.9466 ], [ -87.4933, 26.954 ], [ -87.4877, 26.9615 ], [ -87.4821, 26.969 ], [ -87.4767, 26.9767 ], [ -87.4715, 26.9845 ], [ -87.4664, 26.9924 ], [ -87.4614, 27.0003 ], [ -87.4566, 27.0084 ], [ -87.4519, 27.0165 ], [ -87.4474, 27.0247 ], [ -87.4431, 27.033 ], [ -87.4389, 27.0414 ], [ -87.4348, 27.0499 ], [ -87.431, 27.0584 ], [ -87.4273, 27.0671 ], [ -87.4237, 27.0757 ], [ -87.4203, 27.0845 ], [ -87.4171, 27.0933 ], [ -87.4141, 27.1022 ], [ -87.4112, 27.1112 ], [ -87.4085, 27.1202 ], [ -87.406, 27.1293 ], [ -87.4036, 27.1384 ], [ -87.4014, 27.1476 ], [ -87.3994, 27.1568 ], [ -87.3976, 27.166 ], [ -87.396, 27.1754 ], [ -87.3945, 27.1847 ], [ -87.3933, 27.1941 ], [ -87.3922, 27.2035 ], [ -87.3913, 27.213 ], [ -87.3906, 27.2225 ], [ -87.39, 27.232 ], [ -87.3897, 27.2415 ], [ -87.3895, 27.251 ], [ -87.3896, 27.2606 ], [ -87.3898, 27.2702 ], [ -87.3902, 27.2798 ], [ -87.3908, 27.2894 ], [ -87.3916, 27.299 ], [ -87.3926, 27.3086 ], [ -87.3938, 27.3182 ], [ -87.3952, 27.3278 ], [ -87.3967, 27.3374 ], [ -87.3985, 27.347 ], [ -87.4005, 27.3566 ], [ -87.4026, 27.3661 ], [ -87.405, 27.3757 ], [ -87.4075, 27.3852 ], [ -87.4102, 27.3947 ], [ -87.4132, 27.4041 ], [ -87.4163, 27.4135 ], [ -87.4196, 27.4229 ], [ -87.4231, 27.4323 ], [ -87.4268, 27.4416 ], [ -87.4306, 27.4509 ], [ -87.4347, 27.4601 ], [ -87.439, 27.4693 ], [ -87.4434, 27.4784 ], [ -87.4481, 27.4875 ], [ -87.4529, 27.4965 ], [ -87.4579, 27.5054 ], [ -87.4631, 27.5143 ], [ -87.4685, 27.5231 ], [ -87.4741, 27.5318 ], [ -87.4798, 27.5405 ], [ -87.4858, 27.549 ], [ -87.4919, 27.5575 ], [ -87.4982, 27.566 ], [ -87.5046, 27.5743 ], [ -87.5114, 27.5825 ], [ -87.5184, 27.5904 ], [ -87.5258, 27.5981 ], [ -87.5335, 27.6055 ], [ -87.5415, 27.6126 ], [ -87.5498, 27.6195 ], [ -87.5585, 27.6261 ], [ -87.5674, 27.6324 ], [ -87.5765, 27.6385 ], [ -87.5859, 27.6443 ], [ -87.5953, 27.6499 ], [ -87.6049, 27.6554 ], [ -87.6145, 27.6607 ], [ -87.6243, 27.6659 ], [ -87.6341, 27.6709 ], [ -87.644, 27.6757 ], [ -87.654, 27.6804 ], [ -87.664, 27.6849 ], [ -87.6742, 27.6892 ], [ -87.6844, 27.6934 ], [ -87.6946, 27.6974 ], [ -87.705, 27.7013 ], [ -87.7153, 27.705 ], [ -87.7258, 27.7085 ], [ -87.7363, 27.7118 ], [ -87.7468, 27.715 ], [ -87.7574, 27.718 ], [ -87.7681, 27.7208 ], [ -87.7787, 27.7235 ], [ -87.7894, 27.7259 ], [ -87.8001, 27.7283 ], [ -87.8109, 27.7304 ], [ -87.8217, 27.7324 ], [ -87.8325, 27.7342 ], [ -87.8433, 27.7358 ], [ -87.8541, 27.7372 ], [ -87.865, 27.7385 ], [ -87.8758, 27.7396 ], [ -87.8867, 27.7406 ], [ -87.8975, 27.7413 ], [ -87.9084, 27.7419 ], [ -87.9192, 27.7424 ], [ -87.93, 27.7426 ], [ -87.9408, 27.7427 ], [ -87.9516, 27.7426 ], [ -87.9624, 27.7424 ], [ -87.9731, 27.7419 ], [ -87.9839, 27.7413 ], [ -87.9946, 27.7406 ] ] ] } }
]
}
