{"type":"FeatureCollection","features":[{"type":"Feature","id":1,"geometry":{"type":"Point","coordinates":[-55.170331517885131,41.541981340466634]},"properties":{"objectid":1,"basin":"Atlantic","prob2day":"0%","risk2day":"nearZero","prob7day":"0%","risk7day":"nearZero","idp_source":"gtwo_points_202608260532","idp_filedate":1787722663000,"idp_ingestdate":1787722669000}},{"type":"Feature","id":2,"geometry":{"type":"Point","coordinates":[-26.821570200903921,11.639361607652233]},"properties":{"objectid":2,"basin":"Atlantic","prob2day":"70%","risk2day":"High","prob7day":"70%","risk7day":"High","idp_source":"gtwo_points_202608260532","idp_filedate":1787722663000,"idp_ingestdate":1787722669000}},{"type":"Feature","id":3,"geometry":{"type":"Point","coordinates":[-107.29737220836063,8.9280191925318491]},"properties":{"objectid":3,"basin":"Pacific","prob2day":"70%","risk2day":"High","prob7day":"90%","risk7day":"High","idp_source":"gtwo_points_202608260532","idp_filedate":1787722663000,"idp_ingestdate":1787722669000}},{"type":"Feature","id":4,"geometry":{"type":"Point","coordinates":[-134.83154038098371,9.4887243082803252]},"properties":{"objectid":4,"basin":"Pacific","prob2day":"40%","risk2day":"Medium","prob7day":"70%","risk7day":"High","idp_source":"gtwo_points_202608260532","idp_filedate":1787722663000,"idp_ingestdate":1787722669000}}]}