{
"type": "FeatureCollection",
"name": "al092021-018A_5day_pgn",
"features": [
{ "type": "Feature", "properties": { "STORMNAME": "Ida", "STORMTYPE": "TS", "ADVDATE": "100 PM CDT Mon Aug 30 2021", "ADVISNUM": "18A", "STORMNUM": 9.0, "FCSTPRD": 120.0, "BASIN": "AL" }, "geometry": { "type": "Polygon", "coordinates": [ [ [ -90.6041, 31.9546 ], [ -90.5789, 31.9506 ], [ -90.5654, 31.9491 ], [ -90.5365, 31.9476 ], [ -90.4899, 31.9472 ], [ -90.4582, 31.9484 ], [ -90.4271, 31.9512 ], [ -90.3978, 31.9559 ], [ -90.3709, 31.9632 ], [ -90.3466, 31.973 ], [ -90.3145, 31.992 ], [ -90.2957, 32.0073 ], [ -90.2777, 32.0234 ], [ -90.2605, 32.0403 ], [ -90.2436, 32.0575 ], [ -90.2272, 32.0753 ], [ -90.2111, 32.0933 ], [ -90.1961, 32.1124 ], [ -90.1753, 32.1428 ], [ -90.1623, 32.1639 ], [ -90.1561, 32.1747 ], [ -90.1443, 32.1971 ], [ -90.1326, 32.2195 ], [ -90.1212, 32.2422 ], [ -90.1043, 32.2764 ], [ -90.0927, 32.299 ], [ -90.0868, 32.3102 ], [ -90.0751, 32.3326 ], [ -90.0564, 32.365 ], [ -90.05, 32.3757 ], [ -90.0369, 32.3967 ], [ -90.0173, 32.4283 ], [ -90.0044, 32.4494 ], [ -89.9979, 32.4601 ], [ -89.9793, 32.4926 ], [ -89.9731, 32.5035 ], [ -89.9536, 32.5352 ], [ -89.947, 32.5456 ], [ -89.9328, 32.5655 ], [ -89.9097, 32.5936 ], [ -89.9017, 32.6026 ], [ -89.8854, 32.6204 ], [ -89.86, 32.6462 ], [ -89.8515, 32.6548 ], [ -89.8344, 32.6718 ], [ -89.8174, 32.689 ], [ -89.8003, 32.7059 ], [ -89.7834, 32.7231 ], [ -89.7662, 32.74 ], [ -89.749, 32.757 ], [ -89.7313, 32.7734 ], [ -89.7133, 32.7895 ], [ -89.6945, 32.8048 ], [ -89.6751, 32.8195 ], [ -89.6555, 32.834 ], [ -89.6359, 32.8485 ], [ -89.6162, 32.8629 ], [ -89.5969, 32.8777 ], [ -89.5778, 32.8927 ], [ -89.5584, 32.9074 ], [ -89.5388, 32.9219 ], [ -89.5192, 32.9364 ], [ -89.4996, 32.9509 ], [ -89.4802, 32.9656 ], [ -89.4614, 32.9809 ], [ -89.4431, 32.9967 ], [ -89.4249, 33.0126 ], [ -89.4066, 33.0284 ], [ -89.3878, 33.0437 ], [ -89.3684, 33.0585 ], [ -89.3485, 33.0727 ], [ -89.3283, 33.0866 ], [ -89.3181, 33.0934 ], [ -89.2875, 33.1139 ], [ -89.2772, 33.1207 ], [ -89.2468, 33.1415 ], [ -89.2269, 33.1557 ], [ -89.2073, 33.1702 ], [ -89.1879, 33.1849 ], [ -89.1689, 33.1999 ], [ -89.1495, 33.2147 ], [ -89.1299, 33.2292 ], [ -89.11, 33.2434 ], [ -89.0999, 33.2503 ], [ -89.0693, 33.2709 ], [ -89.0591, 33.2778 ], [ -89.0284, 33.2983 ], [ -89.008, 33.3119 ], [ -88.9875, 33.3256 ], [ -88.9671, 33.3392 ], [ -88.9466, 33.3529 ], [ -88.9262, 33.3665 ], [ -88.9058, 33.3802 ], [ -88.8853, 33.3938 ], [ -88.8751, 33.4007 ], [ -88.8444, 33.4211 ], [ -88.8342, 33.428 ], [ -88.8035, 33.4485 ], [ -88.7831, 33.4621 ], [ -88.7728, 33.4689 ], [ -88.7419, 33.4892 ], [ -88.7209, 33.5023 ], [ -88.6996, 33.5151 ], [ -88.6889, 33.5214 ], [ -88.6672, 33.5338 ], [ -88.6347, 33.5525 ], [ -88.6135, 33.5653 ], [ -88.5925, 33.5784 ], [ -88.5718, 33.5918 ], [ -88.5513, 33.6055 ], [ -88.5309, 33.6191 ], [ -88.5104, 33.6328 ], [ -88.49, 33.6465 ], [ -88.4693, 33.6598 ], [ -88.4483, 33.6729 ], [ -88.427, 33.6858 ], [ -88.4052, 33.6981 ], [ -88.394, 33.704 ], [ -88.3605, 33.7216 ], [ -88.3493, 33.7274 ], [ -88.3269, 33.7392 ], [ -88.3049, 33.7512 ], [ -88.2727, 33.7702 ], [ -88.2622, 33.7767 ], [ -88.2307, 33.7964 ], [ -88.2097, 33.8095 ], [ -88.1885, 33.8223 ], [ -88.1666, 33.8346 ], [ -88.1443, 33.8464 ], [ -88.1219, 33.8581 ], [ -88.1106, 33.8639 ], [ -88.0878, 33.8752 ], [ -88.0651, 33.8865 ], [ -88.0425, 33.898 ], [ -88.0082, 33.9149 ], [ -87.9969, 33.9207 ], [ -87.963, 33.9379 ], [ -87.9515, 33.9435 ], [ -87.9287, 33.9548 ], [ -87.9061, 33.9663 ], [ -87.8834, 33.9776 ], [ -87.8493, 33.9947 ], [ -87.838, 34.0004 ], [ -87.8152, 34.0117 ], [ -87.7924, 34.0231 ], [ -87.7585, 34.0403 ], [ -87.7353, 34.0512 ], [ -87.7237, 34.0567 ], [ -87.6887, 34.0728 ], [ -87.6766, 34.0777 ], [ -87.6399, 34.0922 ], [ -87.6278, 34.0971 ], [ -87.6034, 34.1068 ], [ -87.5668, 34.1214 ], [ -87.5434, 34.132 ], [ -87.5318, 34.1375 ], [ -87.4968, 34.1536 ], [ -87.4736, 34.1645 ], [ -87.4501, 34.1752 ], [ -87.438, 34.1801 ], [ -87.4013, 34.1946 ], [ -87.3771, 34.2044 ], [ -87.3648, 34.2092 ], [ -87.3403, 34.2187 ], [ -87.304, 34.2336 ], [ -87.28, 34.2437 ], [ -87.2678, 34.2485 ], [ -87.2432, 34.2581 ], [ -87.2067, 34.2727 ], [ -87.1944, 34.2775 ], [ -87.1699, 34.287 ], [ -87.1336, 34.3019 ], [ -87.1216, 34.307 ], [ -87.0974, 34.3168 ], [ -87.0728, 34.3264 ], [ -87.0484, 34.336 ], [ -87.0117, 34.3505 ], [ -86.9995, 34.3553 ], [ -86.9632, 34.3702 ], [ -86.9512, 34.3752 ], [ -86.9147, 34.3899 ], [ -86.8901, 34.3994 ], [ -86.878, 34.4043 ], [ -86.8536, 34.414 ], [ -86.8168, 34.4283 ], [ -86.8048, 34.4334 ], [ -86.7808, 34.4435 ], [ -86.7566, 34.4533 ], [ -86.7319, 34.4628 ], [ -86.7071, 34.4721 ], [ -86.6693, 34.4854 ], [ -86.6565, 34.4897 ], [ -86.631, 34.4983 ], [ -86.6059, 34.5073 ], [ -86.5687, 34.5212 ], [ -86.5564, 34.526 ], [ -86.5322, 34.5358 ], [ -86.5082, 34.5459 ], [ -86.4716, 34.5605 ], [ -86.4594, 34.5653 ], [ -86.435, 34.575 ], [ -86.4106, 34.5847 ], [ -86.3738, 34.599 ], [ -86.3618, 34.6041 ], [ -86.3378, 34.6142 ], [ -86.3135, 34.624 ], [ -86.2888, 34.6335 ], [ -86.264, 34.6427 ], [ -86.239, 34.6518 ], [ -86.2135, 34.6604 ], [ -86.188, 34.669 ], [ -86.1629, 34.678 ], [ -86.1381, 34.6873 ], [ -86.1011, 34.7015 ], [ -86.0891, 34.7065 ], [ -86.0532, 34.7217 ], [ -86.0409, 34.7264 ], [ -86.0163, 34.736 ], [ -85.9798, 34.7506 ], [ -85.9675, 34.7554 ], [ -85.943, 34.765 ], [ -85.9067, 34.7798 ], [ -85.8947, 34.7849 ], [ -85.8705, 34.7947 ], [ -85.846, 34.8043 ], [ -85.8215, 34.814 ], [ -85.7971, 34.8237 ], [ -85.7726, 34.8332 ], [ -85.7483, 34.8431 ], [ -85.7243, 34.8532 ], [ -85.7001, 34.863 ], [ -85.6755, 34.8725 ], [ -85.639, 34.8872 ], [ -85.6267, 34.8919 ], [ -85.6022, 34.9015 ], [ -85.5779, 34.9113 ], [ -85.554, 34.9214 ], [ -85.5297, 34.9313 ], [ -85.5051, 34.9408 ], [ -85.4807, 34.9505 ], [ -85.4441, 34.965 ], [ -85.4318, 34.9698 ], [ -85.4075, 34.9796 ], [ -85.3716, 34.9948 ], [ -85.3593, 34.9996 ], [ -85.3347, 35.0091 ], [ -85.2982, 35.0237 ], [ -85.2737, 35.0333 ], [ -85.2615, 35.0382 ], [ -85.226, 35.0538 ], [ -85.2144, 35.0592 ], [ -85.1793, 35.0753 ], [ -85.1562, 35.0863 ], [ -85.1444, 35.0916 ], [ -85.1085, 35.1067 ], [ -85.0962, 35.1115 ], [ -85.0718, 35.1212 ], [ -85.0474, 35.1309 ], [ -85.023, 35.1406 ], [ -84.9991, 35.1508 ], [ -84.9758, 35.1616 ], [ -84.9525, 35.1724 ], [ -84.9292, 35.1832 ], [ -84.9059, 35.194 ], [ -84.8699, 35.2092 ], [ -84.8454, 35.2187 ], [ -84.8211, 35.2286 ], [ -84.8088, 35.2333 ], [ -84.7844, 35.243 ], [ -84.7488, 35.2586 ], [ -84.7373, 35.2641 ], [ -84.7025, 35.2804 ], [ -84.6912, 35.2862 ], [ -84.6572, 35.3034 ], [ -84.6457, 35.3088 ], [ -84.6225, 35.3198 ], [ -84.5874, 35.3359 ], [ -84.5753, 35.3408 ], [ -84.5509, 35.3505 ], [ -84.5265, 35.3602 ], [ -84.5021, 35.3699 ], [ -84.4656, 35.3845 ], [ -84.4539, 35.3898 ], [ -84.4305, 35.4006 ], [ -84.3958, 35.417 ], [ -84.3845, 35.4227 ], [ -84.3618, 35.4342 ], [ -84.3274, 35.4509 ], [ -84.3158, 35.4563 ], [ -84.2807, 35.4724 ], [ -84.2686, 35.4773 ], [ -84.2442, 35.487 ], [ -84.2198, 35.4967 ], [ -84.1954, 35.5064 ], [ -84.171, 35.5161 ], [ -84.1471, 35.5264 ], [ -84.1238, 35.5372 ], [ -84.1005, 35.5479 ], [ -84.0656, 35.5642 ], [ -84.0539, 35.5695 ], [ -84.03, 35.5798 ], [ -83.9934, 35.5942 ], [ -83.9812, 35.5991 ], [ -83.9568, 35.6088 ], [ -83.9203, 35.6235 ], [ -83.9086, 35.6288 ], [ -83.8737, 35.645 ], [ -83.8505, 35.656 ], [ -83.8392, 35.6617 ], [ -83.8166, 35.6732 ], [ -83.7821, 35.6898 ], [ -83.7705, 35.6953 ], [ -83.7354, 35.7114 ], [ -83.7233, 35.7163 ], [ -83.6989, 35.726 ], [ -83.6624, 35.7406 ], [ -83.6501, 35.7454 ], [ -83.6136, 35.76 ], [ -83.6019, 35.7653 ], [ -83.567, 35.7816 ], [ -83.5552, 35.7869 ], [ -83.5319, 35.7977 ], [ -83.5086, 35.8085 ], [ -83.4848, 35.8187 ], [ -83.4481, 35.8332 ], [ -83.4238, 35.843 ], [ -83.4116, 35.8478 ], [ -83.3872, 35.8575 ], [ -83.3633, 35.8677 ], [ -83.34, 35.8785 ], [ -83.305, 35.8947 ], [ -83.2934, 35.9001 ], [ -83.2701, 35.9109 ], [ -83.2462, 35.9211 ], [ -83.2218, 35.9308 ], [ -83.1974, 35.9405 ], [ -83.173, 35.9502 ], [ -83.1365, 35.9648 ], [ -83.1247, 35.9701 ], [ -83.1014, 35.981 ], [ -83.0781, 35.9917 ], [ -83.0432, 36.008 ], [ -83.0315, 36.0133 ], [ -82.9955, 36.0285 ], [ -82.9833, 36.0333 ], [ -82.9589, 36.0429 ], [ -82.9222, 36.0574 ], [ -82.9099, 36.0622 ], [ -82.8856, 36.072 ], [ -82.8617, 36.0821 ], [ -82.8374, 36.092 ], [ -82.8128, 36.1015 ], [ -82.7763, 36.1161 ], [ -82.7518, 36.1257 ], [ -82.7397, 36.1306 ], [ -82.7158, 36.1409 ], [ -82.6925, 36.1516 ], [ -82.6692, 36.1624 ], [ -82.6343, 36.1787 ], [ -82.6225, 36.184 ], [ -82.5987, 36.1942 ], [ -82.5742, 36.2038 ], [ -82.5369, 36.2177 ], [ -82.5243, 36.2221 ], [ -82.486, 36.2349 ], [ -82.4606, 36.2437 ], [ -82.4482, 36.2483 ], [ -82.411, 36.2622 ], [ -82.3987, 36.267 ], [ -82.3745, 36.2769 ], [ -82.3385, 36.292 ], [ -82.3262, 36.2968 ], [ -82.3017, 36.3064 ], [ -82.2651, 36.321 ], [ -82.2529, 36.3257 ], [ -82.2283, 36.3353 ], [ -82.204, 36.3451 ], [ -82.1681, 36.3603 ], [ -82.1558, 36.3651 ], [ -82.1311, 36.3745 ], [ -82.1063, 36.3838 ], [ -82.0685, 36.3972 ], [ -82.0557, 36.4014 ], [ -82.0301, 36.4099 ], [ -82.0046, 36.4185 ], [ -81.9791, 36.4271 ], [ -81.9535, 36.4355 ], [ -81.9279, 36.444 ], [ -81.9024, 36.4526 ], [ -81.8769, 36.4612 ], [ -81.8513, 36.4697 ], [ -81.8256, 36.4781 ], [ -81.8001, 36.4867 ], [ -81.7746, 36.4953 ], [ -81.749, 36.5038 ], [ -81.7234, 36.5123 ], [ -81.6979, 36.5209 ], [ -81.6724, 36.5295 ], [ -81.634, 36.5422 ], [ -81.6212, 36.5464 ], [ -81.5957, 36.555 ], [ -81.5702, 36.5636 ], [ -81.5445, 36.5721 ], [ -81.5189, 36.5806 ], [ -81.4934, 36.5891 ], [ -81.4551, 36.602 ], [ -81.4423, 36.6062 ], [ -81.4167, 36.6147 ], [ -81.3912, 36.6233 ], [ -81.3657, 36.6319 ], [ -81.3401, 36.6404 ], [ -81.3016, 36.6531 ], [ -81.2889, 36.6574 ], [ -81.2634, 36.666 ], [ -81.2378, 36.6745 ], [ -81.2122, 36.683 ], [ -81.174, 36.6959 ], [ -81.1612, 36.7002 ], [ -81.1356, 36.7086 ], [ -81.11, 36.7171 ], [ -81.0845, 36.7257 ], [ -81.059, 36.7343 ], [ -81.0205, 36.747 ], [ -81.0077, 36.7512 ], [ -80.9822, 36.7598 ], [ -80.9567, 36.7684 ], [ -80.9311, 36.7769 ], [ -80.9055, 36.7854 ], [ -80.88, 36.794 ], [ -80.8417, 36.8068 ], [ -80.8161, 36.8153 ], [ -80.8032, 36.8195 ], [ -80.7778, 36.8281 ], [ -80.7523, 36.8367 ], [ -80.7266, 36.8452 ], [ -80.701, 36.8537 ], [ -80.6754, 36.8621 ], [ -80.6495, 36.8703 ], [ -80.6232, 36.8781 ], [ -80.5966, 36.8856 ], [ -80.5697, 36.8928 ], [ -80.5427, 36.8999 ], [ -80.5159, 36.9072 ], [ -80.4893, 36.9147 ], [ -80.463, 36.9225 ], [ -80.4371, 36.9307 ], [ -80.4115, 36.9391 ], [ -80.373, 36.9518 ], [ -80.3602, 36.9561 ], [ -80.3346, 36.9645 ], [ -80.3087, 36.9727 ], [ -80.2824, 36.9805 ], [ -80.2558, 36.988 ], [ -80.2289, 36.9953 ], [ -80.2019, 37.0024 ], [ -80.1751, 37.0096 ], [ -80.1485, 37.0171 ], [ -80.1222, 37.0249 ], [ -80.0963, 37.0331 ], [ -80.0707, 37.0415 ], [ -80.0322, 37.0542 ], [ -80.0066, 37.0627 ], [ -79.9938, 37.0669 ], [ -79.9679, 37.0751 ], [ -79.9416, 37.0829 ], [ -79.915, 37.0904 ], [ -79.8881, 37.0977 ], [ -79.8474, 37.1081 ], [ -79.8337, 37.1115 ], [ -79.8065, 37.1183 ], [ -79.7792, 37.1251 ], [ -79.7519, 37.1319 ], [ -79.7248, 37.1389 ], [ -79.6846, 37.1498 ], [ -79.6714, 37.1537 ], [ -79.6451, 37.1614 ], [ -79.6061, 37.1736 ], [ -79.593, 37.1775 ], [ -79.5667, 37.1853 ], [ -79.5401, 37.1928 ], [ -79.5133, 37.2001 ], [ -79.4863, 37.2072 ], [ -79.4594, 37.2144 ], [ -79.4328, 37.2219 ], [ -79.4065, 37.2297 ], [ -79.3805, 37.2378 ], [ -79.3544, 37.2458 ], [ -79.3281, 37.2536 ], [ -79.3015, 37.2611 ], [ -79.2747, 37.2684 ], [ -79.2339, 37.2787 ], [ -79.2203, 37.2822 ], [ -79.193, 37.289 ], [ -79.1658, 37.2958 ], [ -79.1385, 37.3026 ], [ -79.1113, 37.3095 ], [ -79.084, 37.3163 ], [ -79.0567, 37.3231 ], [ -79.0295, 37.3299 ], [ -79.0022, 37.3368 ], [ -78.9613, 37.347 ], [ -78.9477, 37.3504 ], [ -78.934, 37.3538 ], [ -78.8931, 37.3641 ], [ -78.8659, 37.3709 ], [ -78.8386, 37.3777 ], [ -78.8113, 37.3846 ], [ -78.7841, 37.3914 ], [ -78.7568, 37.3982 ], [ -78.7296, 37.405 ], [ -78.7023, 37.4119 ], [ -78.675, 37.4187 ], [ -78.6478, 37.4255 ], [ -78.6205, 37.4324 ], [ -78.5932, 37.4392 ], [ -78.566, 37.446 ], [ -78.5386, 37.4527 ], [ -78.5109, 37.4591 ], [ -78.483, 37.4653 ], [ -78.4547, 37.4711 ], [ -78.4263, 37.4767 ], [ -78.3978, 37.4823 ], [ -78.3694, 37.4881 ], [ -78.3411, 37.4938 ], [ -78.3127, 37.4995 ], [ -78.2843, 37.5053 ], [ -78.2559, 37.5109 ], [ -78.2274, 37.5165 ], [ -78.199, 37.5222 ], [ -78.1707, 37.5279 ], [ -78.1423, 37.5337 ], [ -78.1139, 37.5394 ], [ -78.0855, 37.545 ], [ -78.057, 37.5506 ], [ -78.0286, 37.5563 ], [ -78.0001, 37.5619 ], [ -77.9714, 37.5673 ], [ -77.9423, 37.5723 ], [ -77.9129, 37.577 ], [ -77.8832, 37.5813 ], [ -77.8537, 37.586 ], [ -77.8247, 37.591 ], [ -77.7958, 37.5962 ], [ -77.7667, 37.6013 ], [ -77.7373, 37.6059 ], [ -77.7072, 37.6099 ], [ -77.6765, 37.6133 ], [ -77.6458, 37.6167 ], [ -77.6157, 37.6207 ], [ -77.5862, 37.6253 ], [ -77.5572, 37.6304 ], [ -77.5282, 37.6354 ], [ -77.4986, 37.6399 ], [ -77.4679, 37.6433 ], [ -77.436, 37.6455 ], [ -77.4032, 37.6467 ], [ -77.3696, 37.6473 ], [ -77.3358, 37.6476 ], [ -77.3023, 37.6481 ], [ -77.2694, 37.6493 ], [ -77.2376, 37.6515 ], [ -77.2069, 37.6549 ], [ -77.1773, 37.6594 ], [ -77.1483, 37.6645 ], [ -77.1192, 37.6695 ], [ -77.0897, 37.6741 ], [ -77.059, 37.6775 ], [ -77.0271, 37.6797 ], [ -76.9942, 37.6809 ], [ -76.9607, 37.6814 ], [ -76.9267, 37.6816 ], [ -76.8927, 37.6816 ], [ -76.8586, 37.6816 ], [ -76.8246, 37.6817 ], [ -76.7911, 37.6822 ], [ -76.7583, 37.6835 ], [ -76.7264, 37.6857 ], [ -76.6957, 37.6891 ], [ -76.6661, 37.6936 ], [ -76.6371, 37.6986 ], [ -76.608, 37.7037 ], [ -76.5785, 37.7082 ], [ -76.5478, 37.7116 ], [ -76.5159, 37.7138 ], [ -76.483, 37.715 ], [ -76.4495, 37.7156 ], [ -76.4155, 37.7157 ], [ -76.3816, 37.7158 ], [ -76.3481, 37.7164 ], [ -76.3152, 37.7176 ], [ -76.2833, 37.7198 ], [ -76.2526, 37.7232 ], [ -76.2231, 37.7277 ], [ -76.194, 37.7328 ], [ -76.165, 37.7378 ], [ -76.1354, 37.7423 ], [ -76.1047, 37.7457 ], [ -76.0885, 37.7466 ], [ -76.0401, 37.7493 ], [ -76.0071, 37.7504 ], [ -75.9744, 37.7518 ], [ -75.9587, 37.7531 ], [ -75.9119, 37.7574 ], [ -75.8823, 37.7619 ], [ -75.8532, 37.7669 ], [ -75.8242, 37.772 ], [ -75.7946, 37.7765 ], [ -75.7639, 37.7799 ], [ -75.7322, 37.7822 ], [ -75.6999, 37.784 ], [ -75.6676, 37.7858 ], [ -75.6358, 37.7881 ], [ -75.6051, 37.7915 ], [ -75.5756, 37.796 ], [ -75.5465, 37.801 ], [ -75.5175, 37.8061 ], [ -75.4879, 37.8106 ], [ -75.4572, 37.814 ], [ -75.441, 37.8148 ], [ -75.3925, 37.8174 ], [ -75.3589, 37.818 ], [ -75.325, 37.8181 ], [ -75.2909, 37.8181 ], [ -75.2568, 37.8181 ], [ -75.2228, 37.8181 ], [ -75.1887, 37.8181 ], [ -75.1546, 37.8181 ], [ -75.1205, 37.8181 ], [ -75.0864, 37.8181 ], [ -75.0524, 37.8181 ], [ -75.0183, 37.8181 ], [ -74.9842, 37.8181 ], [ -74.9501, 37.8181 ], [ -74.916, 37.8181 ], [ -74.882, 37.8181 ], [ -74.8479, 37.8181 ], [ -74.8138, 37.8181 ], [ -74.7797, 37.8181 ], [ -74.7456, 37.8181 ], [ -74.7116, 37.8181 ], [ -74.6775, 37.8181 ], [ -74.6435, 37.8183 ], [ -74.61, 37.8188 ], [ -74.5772, 37.82 ], [ -74.5615, 37.8214 ], [ -74.5146, 37.8256 ], [ -74.485, 37.8301 ], [ -74.456, 37.8352 ], [ -74.4269, 37.8402 ], [ -74.3974, 37.8447 ], [ -74.3667, 37.8482 ], [ -74.3348, 37.8503 ], [ -74.3019, 37.8516 ], [ -74.2684, 37.8521 ], [ -74.2344, 37.8523 ], [ -74.2004, 37.8523 ], [ -74.1663, 37.8523 ], [ -74.1322, 37.8523 ], [ -74.0981, 37.8523 ], [ -74.064, 37.8523 ], [ -74.03, 37.8523 ], [ -73.9959, 37.8523 ], [ -73.9618, 37.8523 ], [ -73.9277, 37.8523 ], [ -73.8936, 37.8523 ], [ -73.8597, 37.8524 ], [ -73.8262, 37.8529 ], [ -73.7933, 37.8542 ], [ -73.7614, 37.8564 ], [ -73.7307, 37.8598 ], [ -73.7012, 37.8643 ], [ -73.6721, 37.8693 ], [ -73.6431, 37.8744 ], [ -73.6135, 37.8789 ], [ -73.5828, 37.8823 ], [ -73.5509, 37.8845 ], [ -73.5181, 37.8857 ], [ -73.4846, 37.8862 ], [ -73.4506, 37.8864 ], [ -73.4165, 37.8864 ], [ -73.3825, 37.8864 ], [ -73.3484, 37.8864 ], [ -73.3143, 37.8864 ], [ -73.2802, 37.8864 ], [ -73.2461, 37.8864 ], [ -73.2121, 37.8864 ], [ -73.1781, 37.8865 ], [ -73.1446, 37.8871 ], [ -73.1117, 37.8883 ], [ -73.0961, 37.8897 ], [ -73.0492, 37.8939 ], [ -73.0196, 37.8984 ], [ -72.9905, 37.9035 ], [ -72.9615, 37.9085 ], [ -72.9319, 37.913 ], [ -72.9013, 37.9164 ], [ -72.8694, 37.9186 ], [ -72.8365, 37.9198 ], [ -72.803, 37.9204 ], [ -72.769, 37.9205 ], [ -72.7349, 37.9205 ], [ -72.7009, 37.9205 ], [ -72.6668, 37.9205 ], [ -72.6327, 37.9205 ], [ -72.5986, 37.9205 ], [ -72.5645, 37.9205 ], [ -72.5306, 37.9207 ], [ -72.4971, 37.9212 ], [ -72.4642, 37.9224 ], [ -72.4323, 37.9246 ], [ -72.4016, 37.928 ], [ -72.3721, 37.9325 ], [ -72.343, 37.9376 ], [ -72.314, 37.9427 ], [ -72.2844, 37.9472 ], [ -72.2687, 37.9485 ], [ -72.2218, 37.9528 ], [ -72.189, 37.954 ], [ -72.1721, 37.9541 ], [ -72.1215, 37.9547 ], [ -72.0874, 37.9547 ], [ -72.0533, 37.9547 ], [ -72.0193, 37.9547 ], [ -71.9852, 37.9547 ], [ -71.9511, 37.9547 ], [ -71.9172, 37.9548 ], [ -71.8836, 37.9554 ], [ -71.8508, 37.9566 ], [ -71.8189, 37.9588 ], [ -71.7882, 37.9622 ], [ -71.7586, 37.9667 ], [ -71.7296, 37.9717 ], [ -71.7006, 37.9768 ], [ -71.671, 37.9813 ], [ -71.6403, 37.9847 ], [ -71.6084, 37.9869 ], [ -71.5756, 37.9881 ], [ -71.542, 37.9887 ], [ -71.5081, 37.9888 ], [ -71.474, 37.9888 ], [ -71.4399, 37.9888 ], [ -71.4058, 37.9888 ], [ -71.3718, 37.9888 ], [ -71.3377, 37.9888 ], [ -71.3036, 37.9888 ], [ -71.2695, 37.9888 ], [ -71.2356, 37.9889 ], [ -71.202, 37.9895 ], [ -71.1692, 37.9907 ], [ -71.1535, 37.9921 ], [ -71.1066, 37.9963 ], [ -71.077, 38.0008 ], [ -71.048, 38.0059 ], [ -71.019, 38.0109 ], [ -70.9894, 38.0154 ], [ -70.9587, 38.0188 ], [ -70.9425, 38.0197 ], [ -70.894, 38.0223 ], [ -70.8604, 38.0228 ], [ -70.8265, 38.0229 ], [ -70.7924, 38.0229 ], [ -70.7583, 38.0229 ], [ -70.7242, 38.0229 ], [ -70.6902, 38.0229 ], [ -70.6561, 38.0229 ], [ -70.622, 38.0229 ], [ -70.5879, 38.0229 ], [ -70.554, 38.0231 ], [ -70.5205, 38.0236 ], [ -70.4876, 38.0249 ], [ -70.4719, 38.0262 ], [ -70.425, 38.0305 ], [ -70.3954, 38.035 ], [ -70.3664, 38.04 ], [ -70.3374, 38.0451 ], [ -70.3078, 38.0496 ], [ -70.2771, 38.053 ], [ -70.2452, 38.0552 ], [ -70.2124, 38.0564 ], [ -70.1788, 38.0569 ], [ -70.145, 38.0572 ], [ -70.1115, 38.0578 ], [ -70.0786, 38.059 ], [ -70.0467, 38.0612 ], [ -70.0161, 38.0646 ], [ -69.9865, 38.0691 ], [ -69.9574, 38.0741 ], [ -69.9285, 38.0793 ], [ -69.8995, 38.0844 ], [ -69.8701, 38.089 ], [ -69.8404, 38.0934 ], [ -69.8109, 38.0981 ], [ -69.7819, 38.1031 ], [ -69.7531, 38.1084 ], [ -69.7246, 38.114 ], [ -69.6963, 38.1198 ], [ -69.6678, 38.1254 ], [ -69.6393, 38.131 ], [ -69.6111, 38.1368 ], [ -69.5831, 38.143 ], [ -69.5554, 38.1494 ], [ -69.528, 38.1561 ], [ -69.5009, 38.163 ], [ -69.4741, 38.1703 ], [ -69.4475, 38.1778 ], [ -69.4212, 38.1856 ], [ -69.3951, 38.1936 ], [ -69.3691, 38.2017 ], [ -69.3428, 38.2095 ], [ -69.3162, 38.217 ], [ -69.2895, 38.2244 ], [ -69.2629, 38.2319 ], [ -69.2367, 38.2398 ], [ -69.2111, 38.2483 ], [ -69.1739, 38.2622 ], [ -69.1618, 38.2671 ], [ -69.1374, 38.2768 ], [ -69.1128, 38.2864 ], [ -69.0763, 38.301 ], [ -69.064, 38.3057 ], [ -69.0272, 38.3201 ], [ -69.0032, 38.3302 ], [ -68.9912, 38.3352 ], [ -68.967, 38.3451 ], [ -68.9424, 38.3546 ], [ -68.918, 38.3643 ], [ -68.8936, 38.374 ], [ -68.8571, 38.3886 ], [ -68.8336, 38.3993 ], [ -68.822, 38.4047 ], [ -68.7989, 38.4157 ], [ -68.776, 38.4269 ], [ -68.742, 38.4441 ], [ -68.7191, 38.4553 ], [ -68.7078, 38.461 ], [ -68.6742, 38.4785 ], [ -68.663, 38.4844 ], [ -68.6409, 38.4964 ], [ -68.6193, 38.5089 ], [ -68.5982, 38.5219 ], [ -68.5772, 38.535 ], [ -68.5457, 38.5547 ], [ -68.5351, 38.5611 ], [ -68.5029, 38.5801 ], [ -68.4811, 38.5924 ], [ -68.4703, 38.5986 ], [ -68.4383, 38.6178 ], [ -68.4173, 38.6309 ], [ -68.407, 38.6376 ], [ -68.3864, 38.6511 ], [ -68.3661, 38.6649 ], [ -68.3263, 38.6933 ], [ -68.3068, 38.7079 ], [ -68.2971, 38.7153 ], [ -68.2683, 38.7377 ], [ -68.2488, 38.7523 ], [ -68.239, 38.7595 ], [ -68.2194, 38.774 ], [ -68.1998, 38.7885 ], [ -68.171, 38.8108 ], [ -68.1526, 38.8266 ], [ -68.1347, 38.8428 ], [ -68.1259, 38.851 ], [ -68.1001, 38.8764 ], [ -68.0915, 38.8849 ], [ -68.066, 38.9105 ], [ -68.0574, 38.919 ], [ -68.0405, 38.9362 ], [ -68.0234, 38.9531 ], [ -67.9979, 38.9788 ], [ -67.9893, 38.9873 ], [ -67.9724, 39.0045 ], [ -67.9467, 39.03 ], [ -67.9297, 39.0471 ], [ -67.9211, 39.0555 ], [ -67.8956, 39.0812 ], [ -67.887, 39.0897 ], [ -67.8615, 39.1154 ], [ -67.853, 39.1238 ], [ -67.8361, 39.141 ], [ -67.8189, 39.158 ], [ -67.7935, 39.1838 ], [ -67.7851, 39.1924 ], [ -67.7607, 39.2191 ], [ -67.7526, 39.2282 ], [ -67.7374, 39.247 ], [ -67.7154, 39.2762 ], [ -67.701, 39.2959 ], [ -67.6937, 39.3057 ], [ -67.6719, 39.3351 ], [ -67.6646, 39.3448 ], [ -67.6496, 39.3639 ], [ -67.6282, 39.3937 ], [ -67.6145, 39.4141 ], [ -67.6079, 39.4245 ], [ -67.5889, 39.4567 ], [ -67.5828, 39.4677 ], [ -67.5702, 39.4892 ], [ -67.5509, 39.5211 ], [ -67.5378, 39.5421 ], [ -67.5312, 39.5526 ], [ -67.5182, 39.5736 ], [ -67.4992, 39.6058 ], [ -67.4874, 39.6281 ], [ -67.4816, 39.6394 ], [ -67.4651, 39.6741 ], [ -67.4549, 39.698 ], [ -67.4452, 39.7225 ], [ -67.4356, 39.7469 ], [ -67.4259, 39.7714 ], [ -67.4163, 39.7959 ], [ -67.4065, 39.8202 ], [ -67.3964, 39.8443 ], [ -67.3866, 39.8686 ], [ -67.3772, 39.8933 ], [ -67.3681, 39.9183 ], [ -67.3595, 39.9438 ], [ -67.3516, 39.97 ], [ -67.3441, 39.9967 ], [ -67.3369, 40.0236 ], [ -67.3299, 40.0507 ], [ -67.3232, 40.0782 ], [ -67.3168, 40.1059 ], [ -67.3107, 40.1339 ], [ -67.3048, 40.1622 ], [ -67.2992, 40.1907 ], [ -67.2936, 40.2192 ], [ -67.2879, 40.2476 ], [ -67.2823, 40.2762 ], [ -67.2772, 40.3051 ], [ -67.2726, 40.3348 ], [ -67.2692, 40.3655 ], [ -67.2671, 40.3974 ], [ -67.2658, 40.4304 ], [ -67.2653, 40.4639 ], [ -67.2652, 40.4979 ], [ -67.2652, 40.5321 ], [ -67.2652, 40.5662 ], [ -67.2652, 40.6004 ], [ -67.2653, 40.6344 ], [ -67.2658, 40.668 ], [ -67.2671, 40.7009 ], [ -67.2692, 40.7328 ], [ -67.2726, 40.7635 ], [ -67.2772, 40.7932 ], [ -67.2823, 40.8221 ], [ -67.2879, 40.8507 ], [ -67.2936, 40.8791 ], [ -67.2992, 40.9076 ], [ -67.3048, 40.9361 ], [ -67.3107, 40.9644 ], [ -67.3168, 40.9924 ], [ -67.3232, 41.0201 ], [ -67.33, 41.0474 ], [ -67.3374, 41.0742 ], [ -67.3415, 41.0872 ], [ -67.3538, 41.1261 ], [ -67.3629, 41.1511 ], [ -67.3678, 41.1632 ], [ -67.3823, 41.2 ], [ -67.3918, 41.2245 ], [ -67.3967, 41.2367 ], [ -67.4112, 41.2734 ], [ -67.4208, 41.2979 ], [ -67.4311, 41.3218 ], [ -67.4418, 41.3451 ], [ -67.4527, 41.3683 ], [ -67.4639, 41.3913 ], [ -67.4754, 41.4139 ], [ -67.4867, 41.4367 ], [ -67.498, 41.4595 ], [ -67.5039, 41.4707 ], [ -67.5213, 41.5045 ], [ -67.5333, 41.5266 ], [ -67.5458, 41.5482 ], [ -67.5588, 41.5693 ], [ -67.572, 41.5902 ], [ -67.5855, 41.6108 ], [ -67.5993, 41.6312 ], [ -67.6133, 41.6513 ], [ -67.6276, 41.6711 ], [ -67.6422, 41.6906 ], [ -67.6571, 41.7098 ], [ -67.6719, 41.7291 ], [ -67.6865, 41.7486 ], [ -67.701, 41.7683 ], [ -67.7154, 41.788 ], [ -67.73, 41.8075 ], [ -67.745, 41.8266 ], [ -67.7607, 41.845 ], [ -67.7769, 41.8629 ], [ -67.7935, 41.8804 ], [ -67.8104, 41.8976 ], [ -67.8275, 41.9147 ], [ -67.853, 41.9403 ], [ -67.8615, 41.9488 ], [ -67.8786, 41.9659 ], [ -67.8956, 41.9829 ], [ -67.9127, 42.0 ], [ -67.9297, 42.0171 ], [ -67.9468, 42.0341 ], [ -67.9638, 42.0512 ], [ -67.9808, 42.0683 ], [ -67.9979, 42.0854 ], [ -68.0234, 42.111 ], [ -68.032, 42.1195 ], [ -68.0491, 42.1364 ], [ -68.0666, 42.1531 ], [ -68.0844, 42.1693 ], [ -68.1028, 42.185 ], [ -68.1316, 42.2074 ], [ -68.1414, 42.2147 ], [ -68.1709, 42.2364 ], [ -68.1807, 42.2436 ], [ -68.2002, 42.2582 ], [ -68.2194, 42.2731 ], [ -68.2386, 42.288 ], [ -68.2581, 42.3026 ], [ -68.2779, 42.317 ], [ -68.308, 42.338 ], [ -68.3182, 42.3448 ], [ -68.3388, 42.3583 ], [ -68.3597, 42.3716 ], [ -68.3914, 42.391 ], [ -68.4022, 42.3972 ], [ -68.4239, 42.4097 ], [ -68.4455, 42.4221 ], [ -68.4669, 42.4348 ], [ -68.4881, 42.4478 ], [ -68.5196, 42.4674 ], [ -68.5406, 42.4805 ], [ -68.5618, 42.4934 ], [ -68.5727, 42.4995 ], [ -68.606, 42.5174 ], [ -68.6172, 42.5233 ], [ -68.6624, 42.5462 ], [ -68.6739, 42.5518 ], [ -68.7078, 42.569 ], [ -68.7191, 42.5748 ], [ -68.7539, 42.5911 ], [ -68.7655, 42.5966 ], [ -68.7772, 42.6019 ], [ -68.8132, 42.6171 ], [ -68.8377, 42.6267 ], [ -68.862, 42.6365 ], [ -68.8865, 42.646 ], [ -68.8988, 42.6508 ], [ -68.9351, 42.6657 ], [ -68.9713, 42.6806 ], [ -68.996, 42.69 ], [ -69.0208, 42.6993 ], [ -69.0459, 42.7083 ], [ -69.0586, 42.7127 ], [ -69.0842, 42.7211 ], [ -69.1098, 42.7296 ], [ -69.148, 42.7426 ], [ -69.1608, 42.7468 ], [ -69.1992, 42.7595 ], [ -69.2121, 42.7638 ], [ -69.2502, 42.7767 ], [ -69.263, 42.781 ], [ -69.3015, 42.7937 ], [ -69.3271, 42.8021 ], [ -69.3399, 42.8064 ], [ -69.3793, 42.8181 ], [ -69.4059, 42.8256 ], [ -69.4328, 42.8328 ], [ -69.4599, 42.8398 ], [ -69.4873, 42.8465 ], [ -69.515, 42.8529 ], [ -69.5289, 42.8561 ], [ -69.5711, 42.8649 ], [ -69.5996, 42.8705 ], [ -69.6139, 42.8733 ], [ -69.6565, 42.8819 ], [ -69.6706, 42.8847 ], [ -69.7137, 42.8928 ], [ -69.7427, 42.8978 ], [ -69.7722, 42.9025 ], [ -69.8019, 42.9069 ], [ -69.8168, 42.909 ], [ -69.8604, 42.9165 ], [ -69.8893, 42.9217 ], [ -69.9037, 42.9243 ], [ -69.9479, 42.9313 ], [ -69.9629, 42.9333 ], [ -70.0105, 42.9369 ], [ -70.0267, 42.9377 ], [ -70.0767, 42.9388 ], [ -70.1101, 42.9395 ], [ -70.143, 42.9407 ], [ -70.1749, 42.9429 ], [ -70.2056, 42.9463 ], [ -70.2351, 42.9508 ], [ -70.2642, 42.9559 ], [ -70.2932, 42.9609 ], [ -70.3228, 42.9654 ], [ -70.3535, 42.9689 ], [ -70.3854, 42.971 ], [ -70.4182, 42.9723 ], [ -70.4348, 42.9727 ], [ -70.4857, 42.9729 ], [ -70.5198, 42.9729 ], [ -70.5537, 42.9728 ], [ -70.5872, 42.9723 ], [ -70.6201, 42.971 ], [ -70.6358, 42.9697 ], [ -70.6827, 42.9654 ], [ -70.7123, 42.9609 ], [ -70.7413, 42.9559 ], [ -70.7703, 42.9508 ], [ -70.7999, 42.9463 ], [ -70.8306, 42.9429 ], [ -70.8625, 42.9407 ], [ -70.8952, 42.9394 ], [ -70.9282, 42.9383 ], [ -70.9609, 42.9369 ], [ -70.9928, 42.9347 ], [ -71.0235, 42.9313 ], [ -71.053, 42.9268 ], [ -71.0821, 42.9217 ], [ -71.1111, 42.9167 ], [ -71.1406, 42.912 ], [ -71.1707, 42.9081 ], [ -71.2014, 42.9047 ], [ -71.232, 42.9013 ], [ -71.2622, 42.8973 ], [ -71.2915, 42.8925 ], [ -71.32, 42.8869 ], [ -71.3478, 42.8806 ], [ -71.3752, 42.874 ], [ -71.4024, 42.8671 ], [ -71.4297, 42.8603 ], [ -71.457, 42.8535 ], [ -71.4842, 42.8466 ], [ -71.5115, 42.8398 ], [ -71.5387, 42.833 ], [ -71.566, 42.8262 ], [ -71.5933, 42.8193 ], [ -71.6205, 42.8125 ], [ -71.6478, 42.8057 ], [ -71.6749, 42.7987 ], [ -71.7018, 42.7915 ], [ -71.7284, 42.784 ], [ -71.7547, 42.7762 ], [ -71.7806, 42.768 ], [ -71.8062, 42.7595 ], [ -71.8318, 42.7511 ], [ -71.8575, 42.7426 ], [ -71.8829, 42.734 ], [ -71.9084, 42.7254 ], [ -71.9341, 42.7169 ], [ -71.9725, 42.7042 ], [ -71.9852, 42.6998 ], [ -72.0107, 42.6912 ], [ -72.0363, 42.6828 ], [ -72.0618, 42.6742 ], [ -72.0869, 42.6651 ], [ -72.1117, 42.6559 ], [ -72.1364, 42.6465 ], [ -72.1606, 42.6366 ], [ -72.1846, 42.6265 ], [ -72.2089, 42.6167 ], [ -72.2336, 42.6073 ], [ -72.2584, 42.598 ], [ -72.2835, 42.589 ], [ -72.3089, 42.5804 ], [ -72.3346, 42.5719 ], [ -72.3601, 42.5633 ], [ -72.3856, 42.5547 ], [ -72.4112, 42.5462 ], [ -72.4496, 42.5335 ], [ -72.4623, 42.5292 ], [ -72.4878, 42.5206 ], [ -72.5134, 42.5121 ], [ -72.5391, 42.5036 ], [ -72.5645, 42.495 ], [ -72.6028, 42.4822 ], [ -72.6157, 42.4779 ], [ -72.6541, 42.4652 ], [ -72.6668, 42.4609 ], [ -72.6923, 42.4523 ], [ -72.7179, 42.4438 ], [ -72.7563, 42.4311 ], [ -72.769, 42.4267 ], [ -72.7945, 42.4181 ], [ -72.8201, 42.4097 ], [ -72.8583, 42.3967 ], [ -72.8707, 42.3921 ], [ -72.8955, 42.3828 ], [ -72.9202, 42.3733 ], [ -72.9445, 42.3635 ], [ -72.9684, 42.3534 ], [ -72.9927, 42.3436 ], [ -73.0174, 42.3342 ], [ -73.0422, 42.3249 ], [ -73.08, 42.3115 ], [ -73.0928, 42.3073 ], [ -73.1184, 42.2988 ], [ -73.1439, 42.2902 ], [ -73.1694, 42.2816 ], [ -73.195, 42.2731 ], [ -73.2206, 42.2647 ], [ -73.2461, 42.2561 ], [ -73.2716, 42.2474 ], [ -73.2973, 42.239 ], [ -73.3229, 42.2305 ], [ -73.3484, 42.2219 ], [ -73.3739, 42.2133 ], [ -73.3995, 42.2048 ], [ -73.4251, 42.1964 ], [ -73.4506, 42.1878 ], [ -73.4761, 42.1792 ], [ -73.5017, 42.1707 ], [ -73.5274, 42.1622 ], [ -73.5528, 42.1536 ], [ -73.5783, 42.145 ], [ -73.604, 42.1366 ], [ -73.6296, 42.1281 ], [ -73.6551, 42.1195 ], [ -73.6806, 42.1109 ], [ -73.7062, 42.1024 ], [ -73.7318, 42.094 ], [ -73.7573, 42.0854 ], [ -73.7828, 42.0767 ], [ -73.8084, 42.0683 ], [ -73.8339, 42.0597 ], [ -73.859, 42.0507 ], [ -73.8838, 42.0414 ], [ -73.9085, 42.032 ], [ -73.9328, 42.0221 ], [ -73.9688, 42.007 ], [ -73.9933, 41.9974 ], [ -74.0057, 41.9928 ], [ -74.0305, 41.9835 ], [ -74.0683, 41.9701 ], [ -74.0811, 41.9659 ], [ -74.1067, 41.9574 ], [ -74.1322, 41.9488 ], [ -74.1577, 41.9402 ], [ -74.1833, 41.9317 ], [ -74.209, 41.9233 ], [ -74.2345, 41.9147 ], [ -74.2599, 41.9061 ], [ -74.2856, 41.8976 ], [ -74.3112, 41.8891 ], [ -74.3367, 41.8805 ], [ -74.3622, 41.8719 ], [ -74.3878, 41.8635 ], [ -74.4262, 41.8508 ], [ -74.4389, 41.8464 ], [ -74.4644, 41.8378 ], [ -74.4901, 41.8293 ], [ -74.5157, 41.8209 ], [ -74.5412, 41.8123 ], [ -74.5667, 41.8037 ], [ -74.5923, 41.7952 ], [ -74.6307, 41.7825 ], [ -74.6434, 41.7781 ], [ -74.6689, 41.7695 ], [ -74.6945, 41.7611 ], [ -74.72, 41.7524 ], [ -74.7451, 41.7434 ], [ -74.7699, 41.7342 ], [ -74.8069, 41.7199 ], [ -74.8308, 41.7098 ], [ -74.8428, 41.7048 ], [ -74.8671, 41.695 ], [ -74.8918, 41.6855 ], [ -74.9166, 41.6763 ], [ -74.9417, 41.6672 ], [ -74.98, 41.6544 ], [ -74.9928, 41.6502 ], [ -75.0183, 41.6416 ], [ -75.0566, 41.6287 ], [ -75.0694, 41.6245 ], [ -75.095, 41.616 ], [ -75.1205, 41.6074 ], [ -75.1588, 41.5946 ], [ -75.1716, 41.5904 ], [ -75.1973, 41.5819 ], [ -75.2228, 41.5733 ], [ -75.2483, 41.5647 ], [ -75.2739, 41.5562 ], [ -75.2994, 41.5476 ], [ -75.3369, 41.534 ], [ -75.3493, 41.5293 ], [ -75.3739, 41.5199 ], [ -75.3982, 41.5101 ], [ -75.4342, 41.4949 ], [ -75.4465, 41.4901 ], [ -75.4711, 41.4807 ], [ -75.4959, 41.4714 ], [ -75.5337, 41.458 ], [ -75.5593, 41.4496 ], [ -75.5721, 41.4453 ], [ -75.5976, 41.4367 ], [ -75.6359, 41.4239 ], [ -75.6488, 41.4197 ], [ -75.6869, 41.4067 ], [ -75.6993, 41.4021 ], [ -75.7241, 41.3928 ], [ -75.7488, 41.3834 ], [ -75.7851, 41.3685 ], [ -75.7971, 41.3634 ], [ -75.8336, 41.3488 ], [ -75.846, 41.3442 ], [ -75.8708, 41.3349 ], [ -75.9086, 41.3215 ], [ -75.9214, 41.3173 ], [ -75.9469, 41.3087 ], [ -75.972, 41.2996 ], [ -75.9968, 41.2903 ], [ -76.0215, 41.2809 ], [ -76.0457, 41.2711 ], [ -76.0697, 41.261 ], [ -76.094, 41.2512 ], [ -76.1186, 41.2417 ], [ -76.1435, 41.2325 ], [ -76.1685, 41.2234 ], [ -76.194, 41.2148 ], [ -76.2195, 41.2062 ], [ -76.2446, 41.1972 ], [ -76.2694, 41.1879 ], [ -76.2941, 41.1785 ], [ -76.3304, 41.1636 ], [ -76.3424, 41.1586 ], [ -76.3789, 41.144 ], [ -76.3911, 41.1392 ], [ -76.4155, 41.1295 ], [ -76.4399, 41.1198 ], [ -76.4645, 41.1102 ], [ -76.4888, 41.1004 ], [ -76.5127, 41.0903 ], [ -76.5493, 41.0757 ], [ -76.5617, 41.0711 ], [ -76.5866, 41.0619 ], [ -76.6121, 41.0533 ], [ -76.6515, 41.0416 ], [ -76.6649, 41.0379 ], [ -76.6917, 41.0306 ], [ -76.7189, 41.0237 ], [ -76.7461, 41.0168 ], [ -76.7734, 41.01 ], [ -76.8006, 41.0032 ], [ -76.8279, 40.9964 ], [ -76.8688, 40.9861 ], [ -76.8824, 40.9827 ], [ -76.9097, 40.9759 ], [ -76.937, 40.969 ], [ -76.9642, 40.9622 ], [ -76.9915, 40.9554 ], [ -77.0188, 40.9486 ], [ -77.046, 40.9417 ], [ -77.0733, 40.9349 ], [ -77.1006, 40.9281 ], [ -77.1278, 40.9213 ], [ -77.1551, 40.9144 ], [ -77.1823, 40.9076 ], [ -77.2096, 40.9008 ], [ -77.2369, 40.8939 ], [ -77.2641, 40.8871 ], [ -77.2914, 40.8803 ], [ -77.3187, 40.8735 ], [ -77.3459, 40.8666 ], [ -77.3732, 40.8598 ], [ -77.4005, 40.853 ], [ -77.4277, 40.8462 ], [ -77.455, 40.8393 ], [ -77.4822, 40.8325 ], [ -77.5095, 40.8257 ], [ -77.5366, 40.8187 ], [ -77.5635, 40.8115 ], [ -77.6033, 40.8001 ], [ -77.6164, 40.7962 ], [ -77.6424, 40.7881 ], [ -77.6685, 40.7801 ], [ -77.6948, 40.7723 ], [ -77.7213, 40.7648 ], [ -77.7482, 40.7575 ], [ -77.7753, 40.7506 ], [ -77.8026, 40.7437 ], [ -77.8298, 40.7369 ], [ -77.8571, 40.7301 ], [ -77.8844, 40.7233 ], [ -77.9115, 40.7163 ], [ -77.9384, 40.7091 ], [ -77.9649, 40.7015 ], [ -77.9913, 40.6938 ], [ -78.0173, 40.6857 ], [ -78.0433, 40.6777 ], [ -78.0696, 40.6699 ], [ -78.0962, 40.6624 ], [ -78.1231, 40.6551 ], [ -78.1501, 40.648 ], [ -78.1769, 40.6408 ], [ -78.2035, 40.6333 ], [ -78.2298, 40.6255 ], [ -78.2557, 40.6173 ], [ -78.2942, 40.6046 ], [ -78.307, 40.6004 ], [ -78.3326, 40.5919 ], [ -78.3582, 40.5834 ], [ -78.3841, 40.5752 ], [ -78.4104, 40.5675 ], [ -78.437, 40.5599 ], [ -78.4639, 40.5527 ], [ -78.4909, 40.5456 ], [ -78.5177, 40.5384 ], [ -78.5443, 40.5309 ], [ -78.5706, 40.5231 ], [ -78.5965, 40.5149 ], [ -78.6221, 40.5064 ], [ -78.6606, 40.4937 ], [ -78.6734, 40.4895 ], [ -78.6989, 40.4809 ], [ -78.7244, 40.4723 ], [ -78.75, 40.4638 ], [ -78.7756, 40.4553 ], [ -78.8011, 40.4467 ], [ -78.8266, 40.4381 ], [ -78.8522, 40.4297 ], [ -78.8777, 40.4211 ], [ -78.9028, 40.4121 ], [ -78.9276, 40.4028 ], [ -78.9523, 40.3933 ], [ -78.9886, 40.3785 ], [ -79.0006, 40.3734 ], [ -79.0248, 40.3636 ], [ -79.0495, 40.3541 ], [ -79.0743, 40.3449 ], [ -79.0994, 40.3359 ], [ -79.1249, 40.3273 ], [ -79.1633, 40.3145 ], [ -79.176, 40.3102 ], [ -79.2015, 40.3016 ], [ -79.2271, 40.2931 ], [ -79.2526, 40.2845 ], [ -79.2777, 40.2755 ], [ -79.3025, 40.2662 ], [ -79.3272, 40.2568 ], [ -79.3514, 40.247 ], [ -79.3874, 40.2318 ], [ -79.412, 40.2222 ], [ -79.4244, 40.2176 ], [ -79.4616, 40.2037 ], [ -79.4743, 40.1993 ], [ -79.4998, 40.1907 ], [ -79.5253, 40.1821 ], [ -79.5503, 40.1731 ], [ -79.5751, 40.1638 ], [ -79.5998, 40.1544 ], [ -79.6361, 40.1395 ], [ -79.6601, 40.1294 ], [ -79.6723, 40.1246 ], [ -79.6969, 40.115 ], [ -79.7213, 40.1054 ], [ -79.7457, 40.0957 ], [ -79.7702, 40.0861 ], [ -79.7945, 40.0763 ], [ -79.8305, 40.0611 ], [ -79.8427, 40.0563 ], [ -79.8673, 40.0468 ], [ -79.8917, 40.0371 ], [ -79.9161, 40.0274 ], [ -79.9406, 40.0178 ], [ -79.9769, 40.0029 ], [ -79.9889, 39.9979 ], [ -80.0131, 39.9881 ], [ -80.0377, 39.9785 ], [ -80.0742, 39.9639 ], [ -80.0865, 39.9591 ], [ -80.1109, 39.9494 ], [ -80.1465, 39.9339 ], [ -80.158, 39.9284 ], [ -80.1814, 39.9176 ], [ -80.2047, 39.9068 ], [ -80.2397, 39.8907 ], [ -80.2518, 39.8858 ], [ -80.2762, 39.8761 ], [ -80.3006, 39.8664 ], [ -80.325, 39.8567 ], [ -80.3494, 39.847 ], [ -80.3733, 39.8368 ], [ -80.4082, 39.8205 ], [ -80.4316, 39.8099 ], [ -80.4432, 39.8044 ], [ -80.4665, 39.7936 ], [ -80.4904, 39.7834 ], [ -80.5148, 39.7737 ], [ -80.5513, 39.7591 ], [ -80.5636, 39.7543 ], [ -80.588, 39.7446 ], [ -80.6119, 39.7343 ], [ -80.6467, 39.7181 ], [ -80.6702, 39.7074 ], [ -80.6818, 39.702 ], [ -80.7168, 39.6859 ], [ -80.7289, 39.681 ], [ -80.7533, 39.6713 ], [ -80.7899, 39.6567 ], [ -80.8144, 39.6471 ], [ -80.8266, 39.6422 ], [ -80.8504, 39.6319 ], [ -80.8737, 39.6211 ], [ -80.9088, 39.605 ], [ -80.9203, 39.5996 ], [ -80.9554, 39.5835 ], [ -80.9796, 39.5736 ], [ -80.9919, 39.5688 ], [ -81.0284, 39.5542 ], [ -81.0407, 39.5495 ], [ -81.0651, 39.5398 ], [ -81.1007, 39.5242 ], [ -81.1123, 39.5187 ], [ -81.147, 39.5023 ], [ -81.1583, 39.4966 ], [ -81.181, 39.4851 ], [ -81.2152, 39.4682 ], [ -81.2378, 39.4567 ], [ -81.2491, 39.451 ], [ -81.272, 39.4398 ], [ -81.2952, 39.4289 ], [ -81.3303, 39.4128 ], [ -81.3424, 39.4079 ], [ -81.3668, 39.3982 ], [ -81.3912, 39.3885 ], [ -81.4156, 39.3788 ], [ -81.4521, 39.3642 ], [ -81.4638, 39.3588 ], [ -81.4872, 39.348 ], [ -81.5219, 39.3317 ], [ -81.5332, 39.3259 ], [ -81.5672, 39.3087 ], [ -81.5901, 39.2975 ], [ -81.6014, 39.2918 ], [ -81.624, 39.2803 ], [ -81.6469, 39.2691 ], [ -81.6701, 39.2582 ], [ -81.7051, 39.2421 ], [ -81.7173, 39.2372 ], [ -81.7539, 39.2227 ], [ -81.7661, 39.2178 ], [ -81.7905, 39.2081 ], [ -81.827, 39.1935 ], [ -81.8387, 39.1881 ], [ -81.862, 39.1773 ], [ -81.8968, 39.161 ], [ -81.9081, 39.1552 ], [ -81.9307, 39.1438 ], [ -81.9535, 39.1324 ], [ -81.9876, 39.1154 ], [ -81.9989, 39.1096 ], [ -82.0331, 39.0927 ], [ -82.0557, 39.0812 ], [ -82.0671, 39.0755 ], [ -82.1013, 39.0585 ], [ -82.1239, 39.0471 ], [ -82.1352, 39.0413 ], [ -82.158, 39.03 ], [ -82.1807, 39.0187 ], [ -82.2034, 39.0072 ], [ -82.2261, 38.9959 ], [ -82.2602, 38.9788 ], [ -82.2715, 38.9731 ], [ -82.2943, 38.9617 ], [ -82.3171, 38.9504 ], [ -82.351, 38.9332 ], [ -82.3624, 38.9276 ], [ -82.3965, 38.9105 ], [ -82.4078, 38.9048 ], [ -82.4421, 38.8879 ], [ -82.4647, 38.8764 ], [ -82.4873, 38.8649 ], [ -82.4988, 38.8593 ], [ -82.5329, 38.8423 ], [ -82.5442, 38.8365 ], [ -82.5784, 38.8196 ], [ -82.5897, 38.8139 ], [ -82.6123, 38.8024 ], [ -82.6465, 38.7855 ], [ -82.6579, 38.7797 ], [ -82.6805, 38.7682 ], [ -82.7033, 38.7569 ], [ -82.7373, 38.7398 ], [ -82.7486, 38.7341 ], [ -82.7829, 38.7172 ], [ -82.8055, 38.7057 ], [ -82.8281, 38.6942 ], [ -82.8396, 38.6886 ], [ -82.8623, 38.6773 ], [ -82.885, 38.6658 ], [ -82.9077, 38.6545 ], [ -82.9305, 38.6432 ], [ -82.9644, 38.626 ], [ -82.9759, 38.6204 ], [ -83.01, 38.6033 ], [ -83.0213, 38.5976 ], [ -83.0555, 38.5806 ], [ -83.0668, 38.5749 ], [ -83.0894, 38.5634 ], [ -83.1237, 38.5465 ], [ -83.1463, 38.535 ], [ -83.1576, 38.5293 ], [ -83.1804, 38.5179 ], [ -83.2145, 38.5009 ], [ -83.2371, 38.4894 ], [ -83.2485, 38.4838 ], [ -83.2826, 38.4667 ], [ -83.2939, 38.461 ], [ -83.3281, 38.4441 ], [ -83.3395, 38.4383 ], [ -83.3734, 38.4211 ], [ -83.3848, 38.4155 ], [ -83.4076, 38.4042 ], [ -83.4416, 38.387 ], [ -83.453, 38.3814 ], [ -83.4871, 38.3643 ], [ -83.5097, 38.3528 ], [ -83.5212, 38.3473 ], [ -83.5439, 38.3359 ], [ -83.5664, 38.3243 ], [ -83.6, 38.3067 ], [ -83.6109, 38.3006 ], [ -83.643, 38.2816 ], [ -83.6535, 38.275 ], [ -83.685, 38.2554 ], [ -83.6955, 38.2488 ], [ -83.7273, 38.2294 ], [ -83.7491, 38.2171 ], [ -83.7603, 38.2112 ], [ -83.7826, 38.1995 ], [ -83.8051, 38.1879 ], [ -83.8279, 38.1766 ], [ -83.8507, 38.1652 ], [ -83.8733, 38.1538 ], [ -83.9075, 38.1368 ], [ -83.9188, 38.1311 ], [ -83.9525, 38.1136 ], [ -83.9636, 38.1077 ], [ -83.9857, 38.0957 ], [ -84.0179, 38.0767 ], [ -84.0389, 38.0636 ], [ -84.0599, 38.0505 ], [ -84.0704, 38.044 ], [ -84.1021, 38.0246 ], [ -84.124, 38.0123 ], [ -84.1352, 38.0064 ], [ -84.1687, 37.9888 ], [ -84.191, 37.9771 ], [ -84.2022, 37.9712 ], [ -84.2243, 37.9592 ], [ -84.2565, 37.9402 ], [ -84.267, 37.9336 ], [ -84.2985, 37.914 ], [ -84.3089, 37.9074 ], [ -84.3301, 37.8945 ], [ -84.3516, 37.8819 ], [ -84.3849, 37.864 ], [ -84.3961, 37.8581 ], [ -84.4184, 37.8464 ], [ -84.4408, 37.8346 ], [ -84.4738, 37.8165 ], [ -84.495, 37.8036 ], [ -84.516, 37.7905 ], [ -84.537, 37.7774 ], [ -84.5475, 37.7709 ], [ -84.5793, 37.7515 ], [ -84.6008, 37.7389 ], [ -84.6117, 37.7328 ], [ -84.6334, 37.7203 ], [ -84.6548, 37.7076 ], [ -84.6759, 37.6947 ], [ -84.6969, 37.6816 ], [ -84.7179, 37.6685 ], [ -84.7497, 37.6491 ], [ -84.7604, 37.6428 ], [ -84.793, 37.6242 ], [ -84.8038, 37.6179 ], [ -84.8252, 37.6052 ], [ -84.8463, 37.5923 ], [ -84.8778, 37.5726 ], [ -84.8883, 37.566 ], [ -84.9201, 37.5467 ], [ -84.9419, 37.5344 ], [ -84.9642, 37.5226 ], [ -84.9866, 37.5109 ], [ -84.9978, 37.505 ], [ -85.0313, 37.4874 ], [ -85.0422, 37.4812 ], [ -85.0744, 37.4623 ], [ -85.0954, 37.4492 ], [ -85.1057, 37.4425 ], [ -85.1365, 37.4221 ], [ -85.157, 37.4085 ], [ -85.1774, 37.3948 ], [ -85.1979, 37.3812 ], [ -85.2186, 37.3678 ], [ -85.2291, 37.3612 ], [ -85.2609, 37.3418 ], [ -85.2824, 37.3293 ], [ -85.2933, 37.3231 ], [ -85.3257, 37.3044 ], [ -85.3364, 37.298 ], [ -85.368, 37.2785 ], [ -85.3785, 37.2719 ], [ -85.41, 37.2522 ], [ -85.4313, 37.2394 ], [ -85.442, 37.2331 ], [ -85.4746, 37.2146 ], [ -85.4961, 37.202 ], [ -85.5068, 37.1956 ], [ -85.5279, 37.1826 ], [ -85.5489, 37.1695 ], [ -85.5804, 37.1498 ], [ -85.6017, 37.137 ], [ -85.6124, 37.1307 ], [ -85.645, 37.1121 ], [ -85.6558, 37.1059 ], [ -85.6878, 37.0867 ], [ -85.7088, 37.0736 ], [ -85.7295, 37.0603 ], [ -85.75, 37.0466 ], [ -85.7602, 37.0398 ], [ -85.7909, 37.0193 ], [ -85.8113, 37.0056 ], [ -85.8217, 36.9989 ], [ -85.8425, 36.9857 ], [ -85.8743, 36.9663 ], [ -85.8851, 36.96 ], [ -85.9067, 36.9476 ], [ -85.9392, 36.9289 ], [ -85.9604, 36.9161 ], [ -85.9709, 36.9095 ], [ -85.9918, 36.8963 ], [ -86.0226, 36.8759 ], [ -86.043, 36.8623 ], [ -86.0635, 36.8486 ], [ -86.084, 36.8349 ], [ -86.0943, 36.8282 ], [ -86.1257, 36.8085 ], [ -86.1363, 36.802 ], [ -86.1577, 36.7893 ], [ -86.1794, 36.7769 ], [ -86.2118, 36.7582 ], [ -86.2331, 36.7454 ], [ -86.2541, 36.7323 ], [ -86.2751, 36.7192 ], [ -86.2856, 36.7126 ], [ -86.3067, 36.6996 ], [ -86.3389, 36.6806 ], [ -86.3498, 36.6745 ], [ -86.3822, 36.6558 ], [ -86.3929, 36.6494 ], [ -86.4245, 36.6298 ], [ -86.4452, 36.6165 ], [ -86.4554, 36.6096 ], [ -86.4861, 36.5891 ], [ -86.5065, 36.5755 ], [ -86.527, 36.5618 ], [ -86.5477, 36.5485 ], [ -86.5687, 36.5354 ], [ -86.59, 36.5225 ], [ -86.6007, 36.5162 ], [ -86.6224, 36.5038 ], [ -86.6549, 36.4851 ], [ -86.6655, 36.4787 ], [ -86.6971, 36.4592 ], [ -86.7181, 36.446 ], [ -86.7391, 36.4329 ], [ -86.7497, 36.4265 ], [ -86.7819, 36.4075 ], [ -86.7928, 36.4014 ], [ -86.8253, 36.3827 ], [ -86.8359, 36.3763 ], [ -86.8675, 36.3567 ], [ -86.8885, 36.3436 ], [ -86.9095, 36.3305 ], [ -86.9308, 36.3177 ], [ -86.9415, 36.3114 ], [ -86.9741, 36.2928 ], [ -86.9957, 36.2803 ], [ -87.0063, 36.2739 ], [ -87.0379, 36.2543 ], [ -87.0589, 36.2412 ], [ -87.0694, 36.2347 ], [ -87.1012, 36.2153 ], [ -87.1227, 36.2027 ], [ -87.1445, 36.1904 ], [ -87.1661, 36.1779 ], [ -87.1767, 36.1714 ], [ -87.1978, 36.1585 ], [ -87.229, 36.1385 ], [ -87.2393, 36.1317 ], [ -87.2699, 36.1112 ], [ -87.2904, 36.0976 ], [ -87.3006, 36.0907 ], [ -87.3212, 36.0772 ], [ -87.342, 36.064 ], [ -87.3632, 36.051 ], [ -87.3953, 36.032 ], [ -87.4062, 36.0259 ], [ -87.4387, 36.0072 ], [ -87.46, 35.9943 ], [ -87.4705, 35.9878 ], [ -87.5019, 35.9681 ], [ -87.5229, 35.955 ], [ -87.5336, 35.9486 ], [ -87.5657, 35.9296 ], [ -87.5875, 35.9173 ], [ -87.6091, 35.9048 ], [ -87.6304, 35.8919 ], [ -87.6513, 35.8788 ], [ -87.6723, 35.8657 ], [ -87.6933, 35.8526 ], [ -87.704, 35.8462 ], [ -87.7361, 35.8272 ], [ -87.7579, 35.8149 ], [ -87.7687, 35.8086 ], [ -87.7901, 35.7959 ], [ -87.8218, 35.7764 ], [ -87.8321, 35.7697 ], [ -87.8629, 35.7494 ], [ -87.8833, 35.7357 ], [ -87.8936, 35.7289 ], [ -87.9243, 35.7084 ], [ -87.9345, 35.7016 ], [ -87.9549, 35.6879 ], [ -87.9754, 35.6743 ], [ -87.9958, 35.6606 ], [ -88.0163, 35.6469 ], [ -88.0472, 35.6267 ], [ -88.0682, 35.6136 ], [ -88.0788, 35.6072 ], [ -88.111, 35.5882 ], [ -88.1328, 35.5759 ], [ -88.1544, 35.5634 ], [ -88.165, 35.557 ], [ -88.1966, 35.5374 ], [ -88.2173, 35.524 ], [ -88.2378, 35.5104 ], [ -88.248, 35.5036 ], [ -88.2787, 35.4831 ], [ -88.2889, 35.4763 ], [ -88.3196, 35.4558 ], [ -88.34, 35.4421 ], [ -88.3602, 35.4282 ], [ -88.3801, 35.414 ], [ -88.3997, 35.3995 ], [ -88.4191, 35.3848 ], [ -88.4382, 35.3697 ], [ -88.4575, 35.355 ], [ -88.4772, 35.3405 ], [ -88.4971, 35.3263 ], [ -88.5172, 35.3124 ], [ -88.5275, 35.3056 ], [ -88.5581, 35.2851 ], [ -88.5786, 35.2714 ], [ -88.5988, 35.2575 ], [ -88.6187, 35.2433 ], [ -88.6383, 35.2288 ], [ -88.6577, 35.2141 ], [ -88.6767, 35.1991 ], [ -88.6961, 35.1843 ], [ -88.7157, 35.1698 ], [ -88.7354, 35.1554 ], [ -88.7452, 35.1481 ], [ -88.7746, 35.1264 ], [ -88.794, 35.1117 ], [ -88.8131, 35.0966 ], [ -88.8227, 35.0893 ], [ -88.852, 35.0674 ], [ -88.8717, 35.0529 ], [ -88.8913, 35.0385 ], [ -88.9107, 35.0237 ], [ -88.9295, 35.0084 ], [ -88.9477, 34.9926 ], [ -88.966, 34.9767 ], [ -88.9843, 34.9609 ], [ -89.0031, 34.9456 ], [ -89.0224, 34.9309 ], [ -89.0421, 34.9164 ], [ -89.0617, 34.9019 ], [ -89.0811, 34.8872 ], [ -89.0999, 34.8719 ], [ -89.1179, 34.8558 ], [ -89.1356, 34.8394 ], [ -89.153, 34.8227 ], [ -89.1708, 34.8063 ], [ -89.1888, 34.7902 ], [ -89.2076, 34.7749 ], [ -89.2269, 34.7602 ], [ -89.2466, 34.7457 ], [ -89.2662, 34.7312 ], [ -89.2855, 34.7165 ], [ -89.3043, 34.7012 ], [ -89.3223, 34.6851 ], [ -89.3401, 34.6687 ], [ -89.3572, 34.6518 ], [ -89.3744, 34.6348 ], [ -89.3913, 34.6176 ], [ -89.4085, 34.6007 ], [ -89.4254, 34.5835 ], [ -89.4426, 34.5665 ], [ -89.4598, 34.5496 ], [ -89.4775, 34.5332 ], [ -89.4952, 34.5168 ], [ -89.5135, 34.501 ], [ -89.532, 34.4854 ], [ -89.5505, 34.4699 ], [ -89.5688, 34.454 ], [ -89.5873, 34.4385 ], [ -89.6059, 34.4229 ], [ -89.6242, 34.4071 ], [ -89.6427, 34.3915 ], [ -89.652, 34.3837 ], [ -89.6795, 34.3601 ], [ -89.6972, 34.3437 ], [ -89.7149, 34.3273 ], [ -89.7321, 34.3104 ], [ -89.7493, 34.2934 ], [ -89.7662, 34.2762 ], [ -89.7834, 34.2593 ], [ -89.8003, 34.2421 ], [ -89.8175, 34.2252 ], [ -89.8344, 34.2079 ], [ -89.8515, 34.191 ], [ -89.8684, 34.1738 ], [ -89.8853, 34.1566 ], [ -89.9097, 34.1298 ], [ -89.9254, 34.1114 ], [ -89.933, 34.102 ], [ -89.955, 34.0728 ], [ -89.9622, 34.0629 ], [ -89.9767, 34.0433 ], [ -89.999, 34.0145 ], [ -90.0147, 33.996 ], [ -90.0227, 33.987 ], [ -90.0391, 33.9693 ], [ -90.056, 33.9521 ], [ -90.0729, 33.9349 ], [ -90.0901, 33.9179 ], [ -90.107, 33.9007 ], [ -90.1242, 33.8838 ], [ -90.1411, 33.8666 ], [ -90.1582, 33.8496 ], [ -90.1751, 33.8324 ], [ -90.1921, 33.8152 ], [ -90.2084, 33.7975 ], [ -90.2321, 33.77 ], [ -90.2471, 33.7509 ], [ -90.2617, 33.7314 ], [ -90.2689, 33.7216 ], [ -90.2834, 33.7019 ], [ -90.3057, 33.6731 ], [ -90.3134, 33.6637 ], [ -90.3371, 33.6362 ], [ -90.3529, 33.6179 ], [ -90.3608, 33.6088 ], [ -90.3761, 33.5899 ], [ -90.3908, 33.5705 ], [ -90.4053, 33.5509 ], [ -90.4269, 33.5214 ], [ -90.4415, 33.5019 ], [ -90.4564, 33.4826 ], [ -90.4712, 33.4633 ], [ -90.4858, 33.4438 ], [ -90.493, 33.434 ], [ -90.5142, 33.4039 ], [ -90.5279, 33.3836 ], [ -90.5348, 33.3734 ], [ -90.5552, 33.3426 ], [ -90.5688, 33.3221 ], [ -90.5757, 33.3119 ], [ -90.5961, 33.2812 ], [ -90.6029, 33.2709 ], [ -90.6163, 33.2502 ], [ -90.6358, 33.2185 ], [ -90.6483, 33.1969 ], [ -90.6602, 33.1747 ], [ -90.6715, 33.1519 ], [ -90.6824, 33.1287 ], [ -90.6877, 33.1169 ], [ -90.7022, 33.0802 ], [ -90.7114, 33.0553 ], [ -90.7161, 33.0429 ], [ -90.729, 33.0047 ], [ -90.7333, 32.9918 ], [ -90.7459, 32.9533 ], [ -90.7501, 32.9405 ], [ -90.7619, 32.901 ], [ -90.7694, 32.8744 ], [ -90.7766, 32.8475 ], [ -90.7835, 32.8203 ], [ -90.7869, 32.8067 ], [ -90.7965, 32.765 ], [ -90.8021, 32.7365 ], [ -90.8047, 32.722 ], [ -90.8101, 32.6763 ], [ -90.8123, 32.6443 ], [ -90.8135, 32.6114 ], [ -90.8141, 32.5778 ], [ -90.8142, 32.5438 ], [ -90.8142, 32.5097 ], [ -90.8142, 32.4755 ], [ -90.8142, 32.4414 ], [ -90.8142, 32.4073 ], [ -90.8142, 32.3731 ], [ -90.8142, 32.339 ], [ -90.8141, 32.305 ], [ -90.8135, 32.2714 ], [ -90.8123, 32.2385 ], [ -90.81, 32.2067 ], [ -90.806, 32.1765 ], [ -90.8002, 32.1482 ], [ -90.7924, 32.1219 ], [ -90.7826, 32.0976 ], [ -90.7707, 32.0753 ], [ -90.7571, 32.0548 ], [ -90.742, 32.036 ], [ -90.7165, 32.0108 ], [ -90.6981, 31.9964 ], [ -90.679, 31.9835 ], [ -90.6592, 31.9726 ], [ -90.6384, 31.9639 ], [ -90.6041, 31.9546 ] ] ] } }
]
}
