{"type":"FeatureCollection","features":[{"type":"Feature","id":1,"geometry":{"type":"Polygon","coordinates":[[[-116.98672624931686,19.495083377396099],[-117.21216459372096,19.561123018013006],[-117.43187651488915,19.622263950720878],[-117.64602378377049,19.678420816367748],[-117.85476816861598,19.729508256700854],[-118.05827143857596,19.775440912568229],[-118.25669536369998,19.816133426616489],[-118.45020171223911,19.851500439693666],[-118.63895225424307,19.881456592647794],[-118.82310875886202,19.905916526326791],[-119.00283299524642,19.92479488427665],[-119.17828673164723,19.938006305546708],[-119.34963173901343,19.945465432783635],[-119.51702978559604,19.947086907734729],[-119.68064264054533,19.942785370348702],[-119.84063207391097,19.932475463272169],[-119.99715985394403,19.916071827353107],[-120.15038774979473,19.893489104338812],[-120.3004775315128,19.864641935077373],[-120.44759096824851,19.829444961316028],[-120.59188982915219,19.787812823902868],[-120.7335358833742,19.739660164585075],[-120.87269090006487,19.684901625110058],[-121.00951664837453,19.623451847225112],[-121.14417489835279,19.555225470878895],[-121.27682741735134,19.480137137818815],[-121.40763597721849,19.398101490691374],[-121.53676234440655,19.309033169445343],[-121.66431780552222,19.212888243997384],[-121.79006156708755,19.109911693270192],[-121.91360290425052,19.000471531536107],[-122.03455053997533,18.88493622452728],[-122.15251319542756,18.763674240673822],[-122.26709959267197,18.637054044808451],[-122.37791845557217,18.505444106260654],[-122.48457850349507,18.369212889863093],[-122.58668846030412,18.22872886494531],[-122.68385704716491,18.084360497239288],[-122.77569298704162,17.936476253376554],[-122.86180500109981,17.785444601787106],[-122.94180181140439,17.631634008203037],[-123.01529214091948,17.475412940155195],[-123.08188470991132,17.317149864274938],[-123.14118824224352,17.157213248992377],[-123.19281145998082,16.995971560039607],[-123.23636308338951,16.83379326404804],[-123.27145183633309,16.671046829447732],[-123.29768643907784,16.508100722870211],[-123.31467561548715,16.345323410946776],[-123.32202808672673,16.183083360308956],[-123.31935257486134,16.021749038487485],[-123.30625780195589,15.86168891301304],[-123.28235249007525,15.70327145051715],[-123.24724536128429,15.546865118530548],[-123.20054513764791,15.392838382785271],[-123.14189968242431,15.24154126571699],[-123.07146581849264,15.093083938772907],[-122.98975629521675,14.947408841744789],[-122.89729116625421,14.80445497092029],[-122.79459048526257,14.664161325285079],[-122.68217430589942,14.526466901126696],[-122.56056268002357,14.391310695632228],[-122.43027566309127,14.258631707787231],[-122.29183330786077,14.128368932980038],[-122.14575566709027,14.000461369296886],[-121.99256279443733,13.874848013924861],[-121.83277474445879,13.751467865849463],[-121.66691156991294,13.630259919559762],[-121.49549332355792,13.511163174940691],[-121.31904005995074,13.394116628279903],[-121.13807183184946,13.279059276764372],[-120.95310869381109,13.165930118480333],[-120.76467069769444,13.054668150614816],[-120.57327789715714,12.945212370354739],[-120.37945034675602,12.83750177488713],[-120.18370810014864,12.731475361398964],[-119.98657120919387,12.627072128875795],[-119.7885597284486,12.524231071806639],[-119.59019371067114,12.422891190975804],[-119.39199321041821,12.322991480872304],[-119.19447827954889,12.224470940481638],[-118.99816897351923,12.127268566091573],[-118.80357590130671,12.031323907072817],[-118.6109380217722,11.936592357051779],[-118.42018842085884,11.843047153103782],[-118.23124386810991,11.750662483786755],[-118.04402113037077,11.659412537658625],[-117.85843697718468,11.569271503277378],[-117.6744081762962,11.480213569200998],[-117.49185149724872,11.392212923088096],[-117.31068370778678,11.30524375529518],[-117.13082157565509,11.219280253481031],[-116.9521818712962,11.134296605304201],[-116.77468136155551,11.05026700112137],[-116.59823681597618,10.967165628591033],[-116.42276500230292,10.884966675371913],[-116.24818268917966,10.803644331820578],[-116.07440664525041,10.723172785595693],[-115.90135363825971,10.643526225255243],[-115.72894043865023,10.5646788393571],[-115.5570838132673,10.486604816459248],[-115.38570053075478,10.409278346018993],[-115.21470735975674,10.332673614795624],[-115.04402106891712,10.256764813145764],[-114.87355842687981,10.181526128728024],[-114.70323620228879,10.10693175010033],[-114.53297116288877,10.032955865820668],[-114.36268007822292,9.959572665346343],[-114.19227971513664,9.8867563363359636],[-114.02168691421963,9.8144812274268247],[-113.85082534731185,9.7427372895944018],[-113.67963116344731,9.6715429517459484],[-113.50804183816018,9.6009196726049595],[-113.33599484698448,9.5308889117939657],[-113.16342766725296,9.4614721280364051],[-112.99027777270095,9.3926907800556023],[-112.81648264066126,9.3245663274741446],[-112.64197974666786,9.2571202281161504],[-112.46670656715423,9.1903739434029035],[-112.29060057585582,9.1243489293597122],[-112.11359925100453,9.059066647407974],[-111.93564006723523,8.9945485562710132],[-111.75666050098124,8.930816113772778],[-111.57659802687732,8.8678907795359692],[-111.39539012225623,8.8057940131832879],[-111.21297426175266,8.7445472734380587],[-111.02928792269938,8.684172019023606],[-110.84426857973108,8.6246897095625741],[-110.65785370838182,8.5661218028790245],[-110.46998078508506,8.5084897594949211],[-110.28058728627417,8.4518150381336454],[-110.0896106865838,8.396119097518465],[-109.89698846334682,8.3414233963727611],[-109.70265809029854,8.2877493943192349],[-109.506557045671,8.2351185500811539],[-109.30862280319968,8.1835523232812193],[-109.10879287708951,8.1330721816360096],[-108.90706747058721,8.0837157347934863],[-108.70363810421503,8.0355698509679883],[-108.4987326625822,7.9887307594171375],[-108.29257903119725,7.9432946902978756],[-108.08540509287064,7.8993578746662934],[-107.87743873401024,7.8570165417801263],[-107.66890783832599,7.8163669208968258],[-107.46004029042695,7.777505243971973],[-107.25106397492243,7.740527739363813],[-107.04220677732081,7.7055306381286073],[-106.83369658043273,7.672610169523864],[-106.62576127066603,7.6418625646057876],[-106.41862873262983,7.6133840526320569],[-106.21252684913469,7.5872708637594997],[-106.00768350658848,7.5636192281450008],[-105.80432658960035,7.5425253768448215],[-105.60268398098083,7.5240855382171503],[-105.40298356713782,7.5083959433182486],[-105.20545323268044,7.4955528223050578],[-105.01032086041926,7.4856524044350294],[-104.81781433766145,7.4787909207645384],[-104.62816154631821,7.4750646014503559],[-104.44159037279735,7.4745696748507271],[-104.25832870170814,7.47740237292129],[-104.0786044167603,7.4836589249196095],[-103.90264540256317,7.4934355610024568],[-103.73067954552448,7.5068285104275674],[-103.56291078940131,7.5239147893361746],[-103.39941714048854,7.5446703183806108],[-103.2402353333938,7.5690378907861486],[-103.08540208024169,7.5969602808924037],[-102.93495409135812,7.6283802639381406],[-102.78892807796831,7.6632406133637687],[-102.64736075129753,7.7014841044080526],[-102.510288822571,7.743053511410551],[-102.37774900391332,7.7878916096102557],[-102.24977800475102,7.8359411715479723],[-102.12641253630943,7.8871449724626359],[-102.00768931161235,7.9414457875931816],[-101.89364504008643,7.9987863912790544],[-101.78431643295693,8.0591095569606068],[-101.67974020234834,8.1223580589773974],[-101.57995305858668,8.1884746734675673],[-101.48499171379643,8.2574021729720357],[-101.39489287740429,8.3290833336290575],[-101.309693262434,8.4034609288789284],[-101.22942957921163,8.4804777330610932],[-101.15413853896229,8.5600765214144872],[-101.08385685201199,8.6422000682786688],[-101.0186212313846,8.726791147093877],[-100.95846838650675,8.813792533099047],[-100.90343502950293,8.9031470006336804],[-100.85355787069909,8.9947973240373926],[-100.80887362221978,9.0886862776497424],[-100.76941514978921,9.1847510330338764],[-100.73517919876093,9.2828761055479845],[-100.70614272041013,9.3829171611981792],[-100.68228246276533,9.4847295710130197],[-100.66357517655308,9.588168706021122],[-100.64999761070106,9.6930899363516119],[-100.64152651323792,9.7993486321337855],[-100.63813863399065,9.9068001652955218],[-100.63981072278654,10.015299905066684],[-100.64651952765399,10.124703222475887],[-100.65824179842014,10.234865488551577],[-100.67495428311355,10.345642074322427],[-100.69663373246067,10.456888349018243],[-100.72325689448996,10.568459684566903],[-100.75480051902861,10.680211451097705],[-100.79124135410513,10.791999018739887],[-100.8325561504459,10.903677758521894],[-100.87872165518013,11.015103041472344],[-100.92971461993369,11.126130237720417],[-100.98551179183562,11.236614718294732],[-101.04608992071314,11.346411853324526],[-101.11142575549411,11.455377013838245],[-101.18149604600563,11.563365569965242],[-101.25627754117551,11.670232892733964],[-101.3357469890322,11.775834352273648],[-101.41988113940295,11.880025319612969],[-101.50865674211485,11.982661165780314],[-101.60204642270412,12.083602949116937],[-101.6999455225677,12.1828183713709],[-101.80218074324659,12.280369840096171],[-101.90857640307843,12.376323057063587],[-102.01895681680355,12.470743724943077],[-102.13314630275954,12.563697543706837],[-102.25096917568681,12.655250216024797],[-102.37224975392292,12.745467443667735],[-102.49681235310749,12.834414926607735],[-102.62448128977962,12.922158368414102],[-102.75508088047815,13.008763469058977],[-102.88843544264148,13.094295930313081],[-103.02436929190918,13.17882145394708],[-103.1627067448203,13.262405741731754],[-103.30327211881314,13.34511449543777],[-103.44588973042664,13.427013415936528],[-103.59038389530042,13.50816820499881],[-103.73657892997352,13.588644563495961],[-103.88429915278357,13.668508194098024],[-104.03336887847087,13.747824797676401],[-104.18361242447372,13.826660076001872],[-104.33485410733107,13.905079730845046],[-104.48691824268263,13.983149463077382],[-104.63962914886605,14.06093497446966],[-104.79281114152087,14.138501966792489],[-104.94628853718615,14.215916141816649],[-105.09988565150149,14.293243200413485],[-105.2534299648209,14.370548921695502],[-105.40690304104243,14.447902891605281],[-105.56050678066327,14.52538013518523],[-105.71446002830754,14.603056094763076],[-105.86898163129717,14.681006215364675],[-106.02429043335673,14.759305941116452],[-106.18060528090888,14.838030714346132],[-106.338145019477,14.917255979180254],[-106.49712849368495,14.997057179745184],[-106.65777454995543,15.077509759268139],[-106.82030203381169,15.158689161875486],[-106.98492978987781,15.240670831693649],[-107.151876663677,15.323530211949844],[-107.32136150163188,15.407342745871176],[-107.4936031483665,15.492183877584011],[-107.66882044940411,15.578129050315567],[-107.84723225116738,15.66525370909153],[-108.0290573982802,15.753633296239741],[-108.21451473626598,15.843343256786],[-108.40382311064792,15.93445903305809],[-108.59720136694943,16.027056070081699],[-108.79486835069372,16.121209810184723],[-108.99704290740414,16.216995698392907],[-109.20394388170467,16.314489177933353],[-109.41579012091722,16.413765692033223],[-109.6328004687665,16.514900684818883],[-109.85519377167515,16.61796960041687],[-110.08318822585585,16.723047552902358],[-110.31682631618145,16.830120540730491],[-110.55573791227471,16.938965298210064],[-110.79949371826041,17.049328551071937],[-111.04766443736378,17.160957025946118],[-111.29982077460897,17.273597448563521],[-111.55553343322129,17.386996544654949],[-111.81437311822475,17.500901041749842],[-112.0759105319454,17.615057664679625],[-112.33971637850794,17.729213140074478],[-112.60536136383575,17.843114194564578],[-112.87241618935553,17.956507554779989],[-113.14045156099064,18.069139945552195],[-113.4090381810671,18.180758093511372],[-113.67774675460896,18.291108725287586],[-113.94614798574088,18.399938567511015],[-114.2138125776882,18.50699434501314],[-114.48031123457571,18.612022785323404],[-114.74521466052806,18.714770614172664],[-115.00809355877061,18.814984557291609],[-115.26851863522671,18.912411342209793],[-115.52606059132313,19.006797692859379],[-115.78029013298317,19.097890337669071],[-116.03077796253285,19.185436002369727],[-116.27709478589554,19.269181411792886],[-116.51881130539732,19.348873293467875],[-116.75549822516285,19.424258373125554],[-116.98672624931686,19.495083377396099]]]},"properties":{"objectid":1,"basin":"Pacific","prob2day":"10%","risk2day":"Low","prob7day":"80%","risk7day":"High","idp_source":"gtwo_areas_202608200530","idp_filedate":1787203962000,"idp_ingestdate":1787204033000,"st_area(shape)":160.65079581065919,"st_perimeter(shape)":54.725155547946194}},{"type":"Feature","id":2,"geometry":{"type":"Polygon","coordinates":[[[-147.19317383790221,10.358977146977907],[-147.09771637491068,10.305243117875705],[-147.00042251878412,10.252019457632002],[-146.90136010898175,10.19934042592007],[-146.80059698406347,10.147240287809154],[-146.6982009834885,10.095753302972696],[-146.59423994671607,10.044913734681245],[-146.48878171230609,9.9947558453061447],[-146.38189411971777,9.9453138972187389],[-146.27364500841031,9.8966221518909379],[-146.16410221694366,9.8487148707947654],[-146.05333358567634,9.8016263181002614],[-145.94140695226895,9.7553907552792793],[-145.82839015618069,9.7100424438038999],[-145.71435103777009,9.6656156460453531],[-145.59935743469777,9.6221446243750393],[-145.48347718642293,9.5796636411642453],[-145.36677813240479,9.5382069587842579],[-145.2493281121026,9.4978088387071011],[-145.13119496407626,9.4585035433040048],[-145.01244652778493,9.4203253349463694],[-144.89315064268791,9.3833084760054817],[-144.77337514734509,9.3474872288526853],[-144.65318788031635,9.3128958549598906],[-144.53265668285954,9.279568616698441],[-144.41184939173596,9.2475397764396803],[-144.29083384820345,9.2168435965548952],[-144.16967788902326,9.1875143385160527],[-144.0484493554533,9.1595862655938163],[-143.92721608605342,9.1330936392601529],[-143.80604592028288,9.1080707218864632],[-143.68500669580226,9.0845517749446003],[-143.5641662529701,9.0625710617052846],[-143.44359243124563,9.0421628436404831],[-143.32335306918873,9.0233613831214825],[-143.20351600535929,9.0062009434189463],[-143.08414908011588,8.990715784206202],[-142.96532013201841,8.9769401696532327],[-142.84709668936063,8.9649073458974158],[-142.72954205452208,8.9546367571807082],[-142.6127164856772,8.9461379048405547],[-142.49668017445043,8.9394200716790806],[-142.381493311567,8.9344925378005087],[-142.26721608775216,8.9313645842083247],[-142.15390869373113,8.9300454928053909],[-142.04163132022916,8.9305445454945129],[-141.93044415887073,8.9328710223799135],[-141.82040740038116,8.9370342053643981],[-141.71158123548554,8.9430433763508859],[-141.60402585580852,8.950907815443486],[-141.49780145117592,8.9606368054443806],[-141.39296821231306,8.9722396264577355],[-141.28958633174375,8.9857255603864132],[-141.18771599929386,9.0011038882340131],[-141.08741740658797,9.0183838919032269],[-140.98875074345199,9.0375748514983343],[-140.89177620151042,9.0586860507207803],[-140.79655397148849,9.0817267678761482],[-140.70314424411151,9.1067062866659398],[-140.6116072110039,9.1336338871942644],[-140.52200306289097,9.162518851364041],[-140.43439199049789,9.1933704601787554],[-140.3488341845499,9.226197995541213],[-140.26538983577223,9.2610107375556368],[-140.18411913578939,9.2978179690242087],[-140.10508227622597,9.3366289709503576],[-140.02833944600854,9.3774530234384201],[-139.95395083676163,9.4202994092904646],[-139.88197664010977,9.465177408610657],[-139.81247704677821,9.5120963033019166],[-139.74551224749212,9.5610653752669919],[-139.6811424329768,9.6120939055094823],[-139.61942779485673,9.6651911750328168],[-139.56042852295786,9.7203664648405947],[-139.50420480890472,9.7776290568356217],[-139.45081661589404,9.8369880098888984],[-139.40029629523775,9.8984254355855228],[-139.35262258066746,9.9618711112628944],[-139.30776804016284,10.027248802290558],[-139.26570524530075,10.09448227403783],[-139.22640676585945,10.16349529007573],[-139.18984517161726,10.234211616672894],[-139.15599303325178,10.306555016500965],[-139.12482292144057,10.380449256727957],[-139.09630740596191,10.455818100924773],[-139.07041905659412,10.532585313561526],[-139.04713044491399,10.610674660907023],[-139.02641413980064,10.690009906532111],[-139.00824271193153,10.770514814906903],[-138.99258873198431,10.852113152300262],[-138.97942476973725,10.9347286831823],[-138.96872339586793,11.018285171123864],[-138.96045718015466,11.102706382393762],[-138.95459869327499,11.187916081462106],[-138.95112050500722,11.2738380318998],[-138.94999518512958,11.360395999975538],[-138.95119530521907,11.447513750159601],[-138.95469343505391,11.535115047821364],[-138.96046214441236,11.623123656531675],[-138.96847400397201,11.711463341660021],[-138.97870158351117,11.800057868575891],[-138.99111745370743,11.888831000850132],[-139.00569418433906,11.977706504751552],[-139.02240434698297,12.066608143850885],[-139.04122050961871,12.155459684417053],[-139.06211524472269,12.24418488912147],[-139.08506112117374,12.332707525132321],[-139.11003070964944,12.420951356020396],[-139.13699658082743,12.508840146255864],[-139.16593130358672,12.596297661208212],[-139.19680744950409,12.683247666246928],[-139.22959758835793,12.769613925842123],[-139.26427429082577,12.855320203564702],[-139.30081508015172,12.940298275944826],[-139.33922641616607,13.024526692353106],[-139.37952522950565,13.108000932796926],[-139.42172846249844,13.190716501565419],[-139.46585306286846,13.272668902048338],[-139.51191597384303,13.353853639434078],[-139.55993414044815,13.434266217112395],[-139.60992450860908,13.513902138473043],[-139.66190402245257,13.59275690780521],[-139.71588962610525,13.670826028498539],[-139.77189826639182,13.748105005741536],[-139.82994688653952,13.824589342024638],[-139.89005243247368,13.900274541636918],[-139.95223184742173,13.975156109766772],[-140.01650207910757,14.049229548904691],[-140.08288006985924,14.12249036333975],[-140.15138276560208,14.194934056461648],[-140.2220271104627,14.266556133458948],[-140.29483005126576,14.337352096821974],[-140.36980853123862,14.407317451739118],[-140.44697949540728,14.476447701600307],[-140.52635988879774,14.544738350694445],[-140.60796665643596,14.612184901512137],[-140.69181674334794,14.678782860141041],[-140.77792709455969,14.744527729071592],[-140.86631465419782,14.809415011693545],[-140.95699636818773,14.873440213195408],[-141.0499891806561,14.93659883696688],[-141.14531003662881,14.998886387297091],[-141.24297588113194,15.06029836757574],[-141.34300365919142,15.120830282091958],[-141.44541031493401,15.180477634235558],[-141.55021279428496,15.239235929194933],[-141.65742804227023,15.297100669460463],[-141.76707300211729,15.354067359321334],[-141.87916462065061,15.410131503066566],[-141.99371984109769,15.46528860408597],[-142.11075215328918,15.519533524552628],[-142.23019553889293,15.572846360671122],[-142.35190447591077,15.625192441777926],[-142.47572998445116,15.676536455992789],[-142.6015230864212,15.726843090536363],[-142.72913480103017,15.776077033528395],[-142.85841615108444,15.824202973088859],[-142.9892181557932,15.871185596438238],[-143.12139183706353,15.916989591696449],[-143.25478821500406,15.961579646083919],[-143.38925830972312,16.004920448619941],[-143.5246531440273,16.04697668562568],[-143.66082373622635,16.087713046120314],[-143.79762110912679,16.127094216425064],[-143.93489628283709,16.165084885559168],[-144.07250027836506,16.201649740743107],[-144.21028411491989,16.236753470996007],[-144.34809881620731,16.27036076173988],[-144.48579540053723,16.302436302893227],[-144.62322488981673,16.332944780777154],[-144.76023830415434,16.361850883511579],[-144.89668666545717,16.389119299216418],[-145.03242099293439,16.414714716011474],[-145.16729230939248,16.438601821117288],[-145.30115163314127,16.46074530265372],[-145.43384998788656,16.481109847841367],[-145.56523839193815,16.499660144799975],[-145.69516786720322,16.516360881649518],[-145.82348943379026,16.53117674561048],[-145.95005411360637,16.544072423903401],[-146.07471292676007,16.55501260644678],[-146.19731689425919,16.563961978662519],[-146.31771703621217,16.570885229569853],[-146.43576437452617,16.57574704638921],[-146.5513099293097,16.578512117240564],[-146.66420472157057,16.579145130243717],[-146.77429977141722,16.577610772619209],[-146.88144616730668,16.573873756768592],[-146.98554341000028,16.567916554905196],[-147.0866247573266,16.559770709850511],[-147.18474637014879,16.549476163194527],[-147.27996441022927,16.537072859225191],[-147.37233504022984,16.522600742230622],[-147.46191442101363,16.506099755599394],[-147.54875871434311,16.48760984182087],[-147.63292408198072,16.467170946082433],[-147.7144666856889,16.444823010873392],[-147.79344268812946,16.420605979582433],[-147.86990825016554,16.39455979739688],[-147.94391953355955,16.366724405906723],[-148.01553270007398,16.3371397502994],[-148.08480391057194,16.305845773064107],[-148.15178932861454,16.272882419388282],[-148.21654511506492,16.238289630861914],[-148.27912743168554,16.202107352672328],[-148.33959244023885,16.164375527308891],[-148.39799630158797,16.125134098160231],[-148.45439517839469,16.08442301041373],[-148.50884523332078,16.042282206558752],[-148.56140262543073,15.998751630883191],[-148.61212351918499,15.953871225876526],[-148.66106407454731,15.907680935826647],[-148.70828045507886,15.860220705021675],[-148.75382881984407,15.81153047595086],[-148.79776533240408,15.76165019200289],[-148.84014615452134,15.710619798365144],[-148.88102744795827,15.658479236627613],[-148.92046537357805,15.605268451977622],[-148.95851609314309,15.551027387803856],[-148.99523576931523,15.495795986595624],[-149.03068056295754,15.439614193540365],[-149.06490663673182,15.382521950227954],[-149.09797015150122,15.324559202745149],[-149.12992726992749,15.265765892681941],[-149.16083415197446,15.206181964326333],[-149.19074129457499,15.145846506711052],[-149.21964986235119,15.084791160683665],[-149.2475356248691,15.023043736879117],[-149.27437414035421,14.960632013556733],[-149.30014096703192,14.897583766277933],[-149.3248116649263,14.833926774201416],[-149.34836179226281,14.769688813787866],[-149.37076690636755,14.704897663296663],[-149.3920025672646,14.63958110008781],[-149.41204433228003,14.573766901521424],[-149.43086776143795,14.507482844957451],[-149.44844841296381,14.440756708655329],[-149.46476184508299,14.373616269075683],[-149.47978361602097,14.30608930537727],[-149.49348928580181,14.238203594020774],[-149.50585441175161,14.169986912366255],[-149.51685455299514,14.101467037773716],[-149.52646526775783,14.032671749401857],[-149.53466211516439,13.963628822812041],[-149.54142065344033,13.894366037163024],[-149.54671644171034,13.824911168915435],[-149.55052503819988,13.755291996328708],[-149.55282200203368,13.685536295863528],[-149.55358289053788,13.615671846678538],[-149.55278326373656,13.545726424335157],[-149.55039867985511,13.475727807992087],[-149.54640469801831,13.405703775009329],[-149.54077687555227,13.335682102747],[-149.53349077158177,13.265690567665729],[-149.52452194433218,13.195756948924213],[-149.51384595382763,13.125909022983137],[-149.50143835829351,13.056174568101994],[-149.48727471505597,12.986581361640674],[-149.47133058323973,12.917157180959293],[-149.45358152286889,12.847929803417856],[-149.43400309126957,12.778927007275684],[-149.41257084666717,12.710176568993575],[-149.38926056042644,12.641706064483401],[-149.36405762126213,12.573533913659332],[-149.33696075753286,12.505665830813598],[-149.30796968505283,12.4381065940442],[-149.27708411603905,12.370860983247894],[-149.24430376450704,12.303933776522683],[-149.20962834447243,12.237329753765266],[-149.17305756905148,12.171053692174269],[-149.13459115136047,12.105110371646447],[-149.0942288072136,12.03950457027986],[-149.05197024792852,11.974241067971036],[-149.00781518842012,11.909324642818149],[-148.9617633418047,11.844760073818463],[-148.91381442209783,11.780552139070096],[-148.86396814331508,11.716705619368952],[-148.81222421767342,11.653225291014508],[-148.75858236008776,11.590115934802668],[-148.70304228367436,11.52738232883155],[-148.6456037015495,11.465029252098418],[-148.58626632862808,11.403061482701389],[-148.52502987802637,11.341483799637786],[-148.46189406375996,11.280300982804249],[-148.39685859804578,11.219517810298839],[-148.32992319579876,11.159139061118935],[-148.26108757103449,11.099169513362483],[-148.19035143596992,11.039613946926238],[-148.11771450462061,10.980477140807523],[-148.04317649190151,10.921763872205076],[-147.96673711002953,10.863478921015542],[-147.88839607391958,10.805627066236241],[-147.80815309578867,10.74821308596529],[-147.72600788965229,10.691241760099274],[-147.64196017042545,10.63471786673631],[-147.55600965032502,10.578646183974342],[-147.46815604336663,10.523031492609448],[-147.37839906266652,10.467878569840252],[-147.28673842403896,10.413192194664191],[-147.19317383790221,10.358977146977907]]]},"properties":{"objectid":2,"basin":"Pacific","prob2day":"90%","risk2day":"High","prob7day":"90%","risk7day":"High","idp_source":"gtwo_areas_202608200530","idp_filedate":1787203962000,"idp_ingestdate":1787204033000,"st_area(shape)":61.102464512002783,"st_perimeter(shape)":29.008978076987319}},{"type":"Feature","id":3,"geometry":{"type":"Polygon","coordinates":[[[-109.93431721077059,8.6505029925192503],[-109.88200673921955,8.7017462466920392],[-109.83148950953313,8.7535110977590875],[-109.78282703533932,8.8058170691026021],[-109.73608082846738,8.8586836877021824],[-109.69131240344456,8.9121304769400922],[-109.64858327210021,8.9661769628966681],[-109.60795494896161,9.0208426698534936],[-109.56948894495872,9.0761471238907916],[-109.53324677461887,9.1321098492902593],[-109.49928995067057,9.1887503712327998],[-109.46767998584255,9.2460882139999967],[-109.43847839376275,9.3041429036721865],[-109.41174668626047,9.3629339654302726],[-109.38754637786298,9.4224809235558951],[-109.36593898039951,9.4828033032300141],[-109.34698600749817,9.5439206287341563],[-109.33074897098811,9.6058524270480348],[-109.31728938629607,9.6686182215537997],[-109.30666876435191,9.7322375374325247],[-109.29894861878364,9.7967299007644328],[-109.29419046321919,9.8621148358311643],[-109.29245580948793,9.9284118669142458],[-109.29380617211706,9.9956405200940708],[-109.29830306293593,10.063820320551486],[-109.30600799467311,10.132970792568187],[-109.31698248185597,10.203111461325022],[-109.33128803631371,10.274261852902328],[-109.34898617077505,10.346441490682366],[-109.37013839976726,10.419669899846156],[-109.39480623511957,10.493966606473862],[-109.42305118956068,10.569351135746444],[-109.45493477761778,10.645843011046281],[-109.49051851112029,10.723461759352858],[-109.52986390279676,10.802226904048496],[-109.57303246627521,10.88215797121353],[-109.62008571518351,10.963274485129546],[-109.67108516135102,11.045595970977388],[-109.72609231840568,11.129141954837507],[-109.78516869997543,11.213931960091998],[-109.84837581788958,11.299985513720628],[-109.91577518487679,11.38732213820623],[-109.98742831546429,11.475961360528515],[-110.06339672238073,11.565922705868331],[-110.14374191745543,11.657225697607998],[-110.22852541431632,11.749889861827796],[-110.31780872659135,11.843934723708685],[-110.41165336700919,11.939379807532248],[-110.51012084829841,12.036244639378765],[-110.61327268318769,12.13454874352982],[-110.72117022522559,12.234311553435589],[-110.83382055927132,12.335521613531796],[-110.95109773976878,12.438091743539246],[-111.07285581034728,12.541923374164526],[-111.19894881733393,12.646917934315354],[-111.3292308034587,12.752976855597524],[-111.46355581504872,12.860001567818244],[-111.6017778948339,12.967893499885236],[-111.74375108824205,13.076554082505027],[-111.88932943980171,13.18588474638409],[-112.03836699404144,13.295786920430146],[-112.19071779548977,13.4061620362491],[-112.34623588867521,13.516911523648048],[-112.50477531722703,13.627936811534767],[-112.66619012657299,13.739139330615728],[-112.83033436124168,13.850420511597463],[-112.99706206576161,13.961681783387746],[-113.16622728376205,14.072824577592314],[-113.33768406067077,14.183750323119057],[-113.51128644011703,14.29436045067439],[-113.68688846842798,14.404556390065466],[-113.86434418833352,14.514239571998814],[-114.04350764436219,14.623311425382099],[-114.22423288194187,14.731673380921904],[-114.40637394470167,14.839226869324705],[-114.58978487806957,14.945873319498219],[-114.77431972657405,15.051514163048353],[-114.95983253384429,15.156050828882769],[-115.14617734440884,15.259384747708054],[-115.33320820369556,15.361417349331361],[-115.520779156233,15.46205006355973],[-115.70874424475102,15.561184321099688],[-115.89695751557679,15.658721551758333],[-116.08527301323886,15.754563185342874],[-116.27354478136647,15.848610652559728],[-116.4616268644881,15.940765383215989],[-116.64937330713235,16.030928807118869],[-116.83663815382766,16.119002354974839],[-117.0232754500019,16.204887456590995],[-117.20913923928435,16.288485542673811],[-117.39408356620351,16.369698042131063],[-117.57796247618722,16.448426385669279],[-117.76063001196536,16.524572003095614],[-117.94194021986516,16.598036325116425],[-118.12174714351579,16.66872078153898],[-118.29990482744574,16.736526802170317],[-118.47626731618362,16.801355817716967],[-118.6506886533586,16.863109257986025],[-118.8230228852978,16.921688552784644],[-118.99312405563057,16.976995132819241],[-119.16084722871653,17.028931254374015],[-119.32610861921734,17.077448770444562],[-119.48891923033813,17.122576410772865],[-119.64929821763855,17.164349515118147],[-119.8072647375775,17.202803425937475],[-119.96283794571451,17.237973482990014],[-120.11603699760929,17.269895029632039],[-120.26688105061987,17.298603405622828],[-120.41538925940671,17.324133952520015],[-120.56158078042859,17.346522011881461],[-120.70547476924509,17.365802924365596],[-120.84709038231517,17.382012032429486],[-120.98644677429911,17.39518467583224],[-121.12356310345439,17.405356197030983],[-121.25845852354195,17.412561936684142],[-121.39115219192001,17.416837236349522],[-121.52166326324891,17.418217437584815],[-121.6500108948868,17.416737880149185],[-121.77621424149396,17.41243390739902],[-121.90029245952928,17.405340859093485],[-122.02226470545168,17.395494077689648],[-122.14215013482078,17.382928902946674],[-122.25996790319607,17.367680678220836],[-122.37573716703656,17.349784742372094],[-122.48947708190173,17.329276437857459],[-122.60120680425052,17.306191107134055],[-122.71094548874322,17.280564089061613],[-122.81871229273804,17.252430726097259],[-122.92452637179451,17.221826360698117],[-123.02840688237166,17.188786331723975],[-123.13037297912962,17.153345982531221],[-123.23044381852731,17.115540652878963],[-123.32863855612436,17.075405685224325],[-123.42497634927901,17.032976420225737],[-123.51947635265145,16.988288198541682],[-123.61215772270066,16.941376362629171],[-123.70303961498615,16.89227625404601],[-123.79214118596684,16.841023212551363],[-123.87948159120236,16.787652579702922],[-123.96507998715157,16.73219969795781],[-124.04895552847478,16.674699907075194],[-124.1311273725301,16.615188549512084],[-124.21161467487724,16.553700965926964],[-124.29043659107572,16.49027249877696],[-124.36761227758444,16.424938486921747],[-124.44316088906368,16.357734273717881],[-124.51710158377097,16.288695199823735],[-124.58945351546726,16.217856605897794],[-124.66023584061145,16.145253834397067],[-124.72946771656177,16.070922225980098],[-124.79716611982047,15.994897344337119],[-124.86329794544372,15.917219887388057],[-124.92778000434362,15.837935681886336],[-124.99052692927427,15.757090782114062],[-125.05145335388909,15.674731237856463],[-125.1104739100428,15.590903101597007],[-125.16750323228825,15.505652425818937],[-125.2224559515808,15.419025261206968],[-125.27524670247323,15.331067660244457],[-125.32579011771969,15.241825674515383],[-125.37400083007418,15.151345355603837],[-125.41979347229085,15.059672755993006],[-125.46308267802306,14.966853926367719],[-125.50378308002502,14.872934919211275],[-125.54180931105077,14.77796178700703],[-125.57707600475374,14.681980580439586],[-125.60949779298869,14.585037351093035],[-125.638989309409,14.487178152349998],[-125.66546518766819,14.388449033995869],[-125.68884005962099,14.288896049413268],[-125.70902855892075,14.188565250186286],[-125.72594531832169,14.087502687898848],[-125.73950497147717,13.985754413235725],[-125.7496221511413,13.883366479579479],[-125.75621148916878,13.78038493851426],[-125.75918762011247,13.676855840724613],[-125.7584651758271,13.572825239593271],[-125.75395878996608,13.468339185804894],[-125.74558309528351,13.363443730943573],[-125.73325272543286,13.25818492749255],[-125.71688231226881,13.152608827035863],[-125.69638649034414,13.046761482056866],[-125.67167989061437,12.940688942340955],[-125.64267714763218,12.83443726217007],[-125.60929289415168,12.728052492228869],[-125.57144176292695,12.621580684101446],[-125.5290383867121,12.515067889371721],[-125.48199739916055,12.408560160523109],[-125.43023343302644,12.302103549139645],[-125.37366112106378,12.19574410680525],[-125.31219509692608,12.089527886003282],[-125.24574999246806,11.983500937418455],[-125.17424044224254,11.877709313534126],[-125.09758107720484,11.772199065934274],[-125.01568653280714,11.667016247102254],[-124.92847144000484,11.562206907722725],[-124.83585043245142,11.457817100279101],[-124.73773814380019,11.353892876355303],[-124.63404920680534,11.250480288434687],[-124.52469825332162,11.14762538720197],[-124.40961307318469,11.045373831237441],[-124.28887437874948,10.943766700672825],[-124.16266154789201,10.842842120467594],[-124.03115559885174,10.742638169715917],[-123.89453755436455,10.643192923015135],[-123.75298843446859,10.54454445945936],[-123.60668925920186,10.446730855444741],[-123.45582104860244,10.349790187367375],[-123.30056482450698,10.253760532522676],[-123.1411016069535,10.158679968206116],[-122.9776124159801,10.06458657171305],[-122.81027827252416,9.9715184194396329],[-122.6392801966237,9.8795135886813341],[-122.46479921011536,9.7886101558341352],[-122.28701633213791,9.6988461990929409],[-122.10611258362871,9.6102597939544694],[-121.92226898552519,9.5228890195127747],[-121.73566655786527,9.4367719503653689],[-121.54648632158637,9.3519466656062491],[-121.35490929762591,9.2684512407323041],[-121.16111650512249,9.1863237539382112],[-120.96528896591298,9.1056022816201221],[-120.76760769913591,9.0263249010734512],[-120.56825372752741,8.9485296886942933],[-120.36740806932687,8.8722547217781198],[-120.16525174637093,8.7975380776203451],[-119.96196577959694,8.7244178335163269],[-119.75773118814374,8.6529320658622737],[-119.55272899294857,8.5831188510542802],[-119.34714021584819,8.5150162681863435],[-119.14114587598129,8.4486623918560326],[-118.93492699428526,8.3840953011573447],[-118.72866459079813,8.3213530715871116],[-118.52253968645726,8.2604737813400675],[-118.31673330220002,8.2014955068123072],[-118.11142645896382,8.1444563243999823],[-117.90680017588733,8.0893943122978271],[-117.7030354739079,8.0363475469018795],[-117.50031337396297,7.9853541046084047],[-117.29881489698982,7.9364520636119664],[-117.09872106302652,7.88967950030883],[-116.9002128921112,7.8450744928936729],[-116.70347140518112,7.8026751159639502],[-116.5086776231737,7.762519448613773],[-116.31601256612691,7.7246455672392926],[-116.12565725407893,7.6890915482364903],[-115.93779270886631,7.655895469800214],[-115.75259995052721,7.6250954074272386],[-115.57025999909956,7.5967294402116181],[-115.39095387552084,7.5708356427508647],[-115.21484221219822,7.5474445218473534],[-115.04195009841823,7.5265362474499966],[-114.87224732955053,7.5080704543880756],[-114.70570353908698,7.4920067163370163],[-114.54228836051931,7.4783046105694666],[-114.38197142733941,7.4669237089621561],[-114.224722370341,7.4578235887877327],[-114.07051082481462,7.4509638237216222],[-113.91930642245336,7.4463039883385136],[-113.77107879584963,7.443803658112472],[-113.62579757939466,7.4434224076181295],[-113.4834324056809,7.4451198105309686],[-113.34395290730072,7.4488554432242609],[-113.20732871684669,7.4545888802727518],[-113.07352946870992,7.4622796953518105],[-112.94252479458351,7.4718874648347651],[-112.81428432795929,7.4833717623970415],[-112.68877770142967,7.4966921626133285],[-112.56597454848651,7.5118082409576914],[-112.44584450172226,7.5286795720047621],[-112.32835719462872,7.5472657312286628],[-112.21348225979835,7.5675262923047057],[-112.10118933072295,7.5894208298075796],[-111.99144803909564,7.6129089201107263],[-111.88422801930756,7.637950136889458],[-111.77949890395115,7.6645040547184635],[-111.67723032651827,7.6925302499711847],[-111.57739191870201,7.7219882954236141],[-111.47995331399414,7.7528377665498169],[-111.38488414588653,7.785038237924482],[-111.29215404697158,7.8185492859209376],[-111.20173265074112,7.8533304833152897],[-111.11358958888832,7.8893414064808667],[-111.02769449580427,7.9265416281937178],[-110.94401700408139,7.9648907257265478],[-110.8625267463122,8.004348271855406],[-110.78319335688781,8.0448738429536206],[-110.70598646660204,8.0864270126966176],[-110.63087570984601,8.1289673556590856],[-110.55783071921223,8.1724544482143529],[-110.48682112729307,8.2168478631385256],[-110.41781656758042,8.2621071768048751],[-110.35078667356606,8.3081919628888841],[-110.28570107784236,8.3550617968645611],[-110.22252941300189,8.4026762542059146],[-110.16124131253645,8.4509949076889939],[-110.10180640903843,8.4999773336871272],[-110.04419433510037,8.5495831067751169],[-109.98837472511337,8.5997718015275382],[-109.93431721077059,8.6505029925192503]]]},"properties":{"objectid":3,"basin":"Pacific","prob2day":"10%","risk2day":"Low","prob7day":"20%","risk7day":"Low","idp_source":"gtwo_areas_202608200530","idp_filedate":1787203962000,"idp_ingestdate":1787204033000,"st_area(shape)":110.0149534813781,"st_perimeter(shape)":41.249023847870625}}]}