{"type":"FeatureCollection","features":[{"type":"Feature","id":1,"geometry":{"type":"Polygon","coordinates":[[[-105.00517101952681,11.243672975427614],[-104.9406975581457,11.333888667028475],[-104.87839255107525,11.427288126845724],[-104.81843054593287,11.523733473521133],[-104.760986091235,11.62308682389795],[-104.70623373549842,11.725210294819362],[-104.65434802634024,11.829966002229355],[-104.60550351317647,11.9372160647697],[-104.55987474452377,12.046822597485004],[-104.51763626799925,12.158647719017154],[-104.47896263301902,12.272553546209338],[-104.44402838720021,12.388402195904746],[-104.41300807995884,12.506055784047305],[-104.38607625801279,12.625376428379582],[-104.36340747167736,12.746226245744765],[-104.34517626767052,12.868467353885421],[-104.33155719630747,12.991961869644683],[-104.32272480430618,13.116571908966591],[-104.31885364108257,13.242159588694221],[-104.32011825515326,13.368587027469459],[-104.32669319503481,13.495716341236289],[-104.33875300744523,13.623409646837843],[-104.35647224359906,13.751529062016743],[-104.38002544931493,13.879936702716805],[-104.4095871749081,14.008494686680592],[-104.44533196799586,14.137065130751296],[-104.4874343770947,14.265510151772219],[-104.53606895072141,14.393691867485813],[-104.59141023649312,14.521472392936744],[-104.65363278472512,14.648713847666102],[-104.72291114213539,14.775278346718437],[-104.79941985813986,14.90102800783643],[-104.88333348125508,15.025824947863214],[-104.97482655909835,15.149531283641977],[-105.07404111530514,15.272019396877795],[-105.18086087742745,15.393243190121268],[-105.29504639287666,15.513195440017682],[-105.41635745453283,15.631869162432054],[-105.54455385347745,15.749257372330021],[-105.67939538169139,15.86535308737524],[-105.8206418284575,15.98014932253335],[-105.96805298755521,16.093639094568687],[-106.12138864826738,16.205815418446946],[-106.2804086034742,16.316671311831726],[-106.44487264335771,16.426199788789347],[-106.61454055989884,16.534393866983521],[-106.78917214507834,16.64124656137983],[-106.96852718817911,16.746750888742667],[-107.15236548298054,16.850899864037615],[-107.34044681966492,16.953686504928385],[-107.53253098931361,17.055103826380616],[-107.72837778300817,17.155144844259269],[-107.92774699362877,17.253802575328734],[-108.13039841135748,17.351070035453915],[-108.33609182727594,17.446940239600508],[-108.54458703336479,17.541406205432168],[-108.75564382070564,17.634460947914533],[-108.96902198037998,17.726097483811941],[-109.1844813043686,17.816308828090087],[-109.40178158375301,17.905087997513192],[-109.620682610514,17.99242800794633],[-109.84094417393436,18.07832187615378],[-110.06232606779372,18.162762617101237],[-110.28458808227407,18.24574324665366],[-110.50749000845701,18.327256781575329],[-110.73079163742403,18.407296238630636],[-110.95425276205521,18.4858546318859],[-111.17763938504947,18.562924181306073],[-111.40082904572381,18.638482775260002],[-111.62379575636896,18.712495913056102],[-111.84651671017792,18.784928682113105],[-112.06896910124294,18.855746171648661],[-112.29113012185752,18.924913469980822],[-112.51297696701334,18.99239566722639],[-112.73448682990318,19.058157850804321],[-112.95563690282069,19.122165109932041],[-113.17640438075745,19.184382532927714],[-113.39676645690639,19.244775209908141],[-113.61670032356096,19.303308228292224],[-113.8361831757129,19.359946677297444],[-114.05519220565566,19.414655645241965],[-114.27370460838085,19.467400222242588],[-114.4916975761821,19.518145495718215],[-114.70914830225223,19.566856554886215],[-114.92603398158286,19.61349848806492],[-115.14233180646761,19.65803638537102],[-115.35801897099861,19.700435334223414],[-115.57307266836887,19.740660423839643],[-115.78747009177124,19.778676742537755],[-116.00118843529793,19.814449380434723],[-116.21420489214194,19.847943424949221],[-116.4264966563955,19.879123965298902],[-116.63804092035213,19.907956090701191],[-116.84881487900338,19.934404888574875],[-117.05879572464289,19.958435449936189],[-117.2679606513629,19.980012861304658],[-117.47628685235628,19.999102211897707],[-117.68375152171524,20.015668591832195],[-117.89033185173349,20.029677088526967],[-118.09600503740245,20.041092792098823],[-118.30074789509916,20.049881014797108],[-118.50451467361319,20.056020599171461],[-118.70722463810648,20.059511351867513],[-118.90879404640805,20.060354884470485],[-119.10913915544756,20.058552806766784],[-119.30817622035619,20.054106731240779],[-119.50582149986224,20.04701826767905],[-119.70199125089545,20.037289027666645],[-119.8966017285868,20.024920621889351],[-120.08956919076547,20.009914661032894],[-120.28080989436103,19.992272757581816],[-120.47024009630331,19.971996520423204],[-120.65777605352196,19.949087561142164],[-120.84333402204737,19.923547491323802],[-121.02683025970862,19.895377921653903],[-121.20818102253605,19.864580462818253],[-121.38730256745941,19.831156726401957],[-121.56411115230776,19.795108323090801],[-121.73852303221207,19.756436862671194],[-121.91045446590078,19.715143957627674],[-122.07982170850494,19.671231218645971],[-122.24654101875291,19.62470025641187],[-122.41052865177579,19.5755526816111],[-122.57170086540253,19.52379010582888],[-122.72997391566361,19.469414139750882],[-122.88526405948863,19.412426394062948],[-123.03748755470679,19.35282848035024],[-123.18656065734837,19.290622008399112],[-123.33239962524243,19.225808590694044],[-123.47492071352002,19.158389837021502],[-123.61404018001019,19.088367358966593],[-123.74967428164268,19.015742768114421],[-123.88173927534717,18.940517673352076],[-124.01015143514053,18.862693702452532],[-124.13484468963065,18.78228746949128],[-124.25580374674541,18.699358702042616],[-124.37302239037092,18.613974833971554],[-124.48649440349385,18.526203299143106],[-124.59621356910083,18.436111529623531],[-124.70217367107796,18.3437669592779],[-124.80436849151261,18.249237021071792],[-124.90279181519003,18.152589148870277],[-124.99743742509702,18.053890774739614],[-125.0882991042202,17.953209333444136],[-125.1753706355463,17.850612257050159],[-125.25864580296133,17.746166979422696],[-125.33811839035133,17.639940932628065],[-125.41378217890434,17.532001551430596],[-125.48563095430501,17.422416268795928],[-125.55365849774137,17.311252517689695],[-125.61785859399885,17.198577731077592],[-125.67822502606401,17.084459341925253],[-125.73475157692366,16.968964784996956],[-125.78743203046372,16.85216149145981],[-125.83626016877167,16.734116896078035],[-125.88122977663278,16.614898431817323],[-125.92233463703377,16.494573531643312],[-125.95956853206201,16.373209628521693],[-125.99292524650281,16.250874157216742],[-126.02239856244358,16.127634548895458],[-126.04798226377039,16.003558237422851],[-126.06967013436912,15.878712656663936],[-126.08745595632723,15.753165239584291],[-126.10133351353073,15.62698342004893],[-126.11129658986562,15.500234629224906],[-126.1173389674193,15.372986302775814],[-126.1194544309771,15.245305872767972],[-126.11763491541893,15.117265020564389],[-126.11186202601158,14.988959200207034],[-126.10211377433114,14.860492128708927],[-126.08836816655753,14.731967532975432],[-126.0706032124682,14.603489137214069],[-126.04879691914243,14.475160669229638],[-126.0229272954582,14.347085853229657],[-125.9929723475957,14.219368416119664],[-125.95891008443277,14.092112083905704],[-125.92071851394815,13.965420581694616],[-125.8783756450199,13.839397636391936],[-125.831859483828,13.714146973104448],[-125.7811480383512,13.58977231783831],[-125.72621931836676,13.466377396599739],[-125.66705133005473,13.344065935394724],[-125.60362208229316,13.222941660229594],[-125.53590958306074,13.103108297110339],[-125.46389183853745,12.984669572043231],[-125.38754685939995,12.867729210135053],[-125.30685265182831,12.752390937391965],[-125.22178722380124,12.638758480719446],[-125.13232858329741,12.526935565224278],[-125.03845473919478,12.417025916912678],[-124.94014369857274,12.309133261790748],[-124.83737346941001,12.203361325864648],[-124.73012205968519,12.099813834241218],[-124.61836747737709,11.998594514725198],[-124.50208773046432,11.899807090624847],[-124.38126082602622,11.803555290644283],[-124.25586477384013,11.709942838091649],[-124.12587758008618,11.619073460771745],[-123.99127725454156,11.531050883791409],[-123.85204180248712,11.445978832257424],[-123.70815443807675,11.363952327637946],[-123.55965887016066,11.284965176301966],[-123.40663783636694,11.208945889341464],[-123.24917472723178,11.135821888769271],[-123.08735293239181,11.06552059569907],[-122.9212558414838,10.997969433043011],[-122.75096684414444,10.933095821914776],[-122.57656932911118,10.870827185226574],[-122.39814668781929,10.811090944091916],[-122.21578230810695,10.753814520523861],[-122.02955958051012,10.698925337434503],[-121.83956189466562,10.646350815038204],[-121.64587264021009,10.596018377146549],[-121.44857520588096,10.547855444872994],[-121.24775298311357,10.501789440230596],[-121.04348935974605,10.457747785232243],[-120.8358677263144,10.415657900991448],[-120.6249714724554,10.375447211319909],[-120.41088398690636,10.33704313643176],[-120.19368866020341,10.300373099239266],[-119.97346888198325,10.26536452085611],[-119.75030804188253,10.231944824194443],[-119.52428952863875,10.200041431267152],[-119.29549673368723,10.169581763187978],[-119.06401304486604,10.140493241969693],[-118.82992185181195,10.112703290524564],[-118.59330654596022,10.086139329966215],[-118.35425051514903,10.060728782307592],[-118.11283714901509,10.036399069561526],[-117.86914983899379,10.013077614640338],[-117.62327197292313,9.9906918377582201],[-117.37528694043988,9.9691691618274945],[-117.12527813297936,9.9484370088609921],[-116.87333100322314,9.9284241228751284],[-116.61959364253249,9.9090993378642906],[-116.36428655388124,9.8904778352840026],[-116.10763427370267,9.8725773803419656],[-115.84986133932927,9.8554157373465614],[-115.59119228629487,9.8390106697067949],[-115.3318516528314,9.8233799426303676],[-115.07206397447277,9.8085413204257179],[-114.8120537885514,9.7945125656025311],[-114.55204563150062,9.781311445167205],[-114.29226404065287,9.7689557207300481],[-114.03293355244142,9.7574631583981954],[-113.77427870419876,9.7468515215805951],[-113.51652403055948,9.7371385736863658],[-113.25989407065475,9.7283420808225287],[-113.0046133609178,9.7204798063980888],[-112.75090643688247,9.7135695147214847],[-112.49899783588131,9.707628970101041],[-112.24911209434759,9.7026759359458197],[-112.00147374961375,9.698728177463579],[-111.75630733901238,9.6958034589625868],[-111.51383739807738,9.6939195447513384],[-111.27428846324187,9.6930941973394624],[-111.03788507273782,9.6933451837333564],[-110.80485176209902,9.6946902655434428],[-110.57541306865812,9.6971472097760625],[-110.3497935297475,9.700733778041581],[-110.12821768090117,9.7054677355476997],[-109.91091005945157,9.71136684750212],[-109.69809520183202,9.7184488764146408],[-109.48999764537496,9.7267315883922265],[-109.28684192561428,9.7362327468439389],[-109.08885258078186,9.7469701151787831],[-108.89625354026856,9.7589615395435771],[-108.70917012100421,9.7722379485226156],[-108.52752085430387,9.7868577090162034],[-108.35119823251233,9.8028826431196308],[-108.1800947470748,9.8203745720290385],[-108.01410289123532,9.8393953187390935],[-107.85311515733855,9.8600067053453131],[-107.69702403682976,9.882270552144405],[-107.54572202205355,9.9062486830304124],[-107.39910160625402,9.9320029174008368],[-107.25705528087639,9.9595950800490414],[-107.11947553826536,9.9890869903724706],[-106.98625487076555,10.020540472265111],[-106.85728577072166,10.054017346023841],[-106.73246072957892,10.089579433744007],[-106.61167224148068,10.127288558420389],[-106.49481279697289,10.167206541249016],[-106.38177488929961,10.209395204325347],[-106.27245100990609,10.253916369744786],[-106.16673365203633,10.300831857804155],[-106.06451530713559,10.350203492397384],[-105.96568846844798,10.402093095619989],[-105.87014562741865,10.456562486869416],[-105.77777927549306,10.51367349093897],[-105.68848190681445,10.573487927226211],[-105.60214601282814,10.636067619625067],[-105.51866408587875,10.701474389331736],[-105.43792861741167,10.769770057542246],[-105.35983210067081,10.841016447251377],[-105.28426702800084,10.915275379655156],[-105.21112589084709,10.992608676849102],[-105.14030118245353,11.073078160029183],[-105.07168539426544,11.156745653089558],[-105.00517101952681,11.243672975427614]]]},"properties":{"objectid":1,"basin":"Pacific","prob2day":"0%","risk2day":"Low","prob7day":"50%","risk7day":"Medium","idp_source":"gtwo_areas_202609042325","idp_filedate":1788564473000,"idp_ingestdate":1788564481000,"st_area(shape)":178.3035434865163,"st_perimeter(shape)":53.081748048170574}}]}