{
"type": "FeatureCollection",
"name": "al092021_2021082712_initialradii",
"features": [
{ "type": "Feature", "properties": { "RADII": 34.0, "STORMID": "al092021", "BASIN": "al", "STORMNUM": 9.0, "ADVNUM": "4A", "VALIDTIME": "2021082712", "SYNOPTIME": "2021082706", "TIMEZONE": "UTC", "TAU": 0.0, "NE": 70.0, "SE": 0.0, "SW": 0.0, "NW": 0.0 }, "geometry": { "type": "Polygon", "coordinates": [ [ [ -81.6929, 20.8881 ], [ -81.7038, 20.8752 ], [ -81.7141, 20.8622 ], [ -81.724, 20.8489 ], [ -81.7334, 20.8355 ], [ -81.7423, 20.822 ], [ -81.7508, 20.8084 ], [ -81.7587, 20.7946 ], [ -81.7661, 20.7808 ], [ -81.773, 20.7668 ], [ -81.7794, 20.7528 ], [ -81.7853, 20.7388 ], [ -81.7907, 20.7246 ], [ -81.7956, 20.7105 ], [ -81.8001, 20.6963 ], [ -81.804, 20.6821 ], [ -81.8074, 20.6678 ], [ -81.8103, 20.6536 ], [ -81.8127, 20.6395 ], [ -81.8146, 20.6253 ], [ -81.816, 20.6112 ], [ -81.817, 20.5971 ], [ -81.8174, 20.5832 ], [ -81.8174, 20.5692 ], [ -81.8169, 20.5554 ], [ -81.8159, 20.5417 ], [ -81.8144, 20.5281 ], [ -81.8125, 20.5147 ], [ -81.8101, 20.5013 ], [ -81.8073, 20.4881 ], [ -81.8039, 20.4751 ], [ -81.8002, 20.4622 ], [ -81.796, 20.4496 ], [ -81.7913, 20.4371 ], [ -81.7862, 20.4248 ], [ -81.7807, 20.4127 ], [ -81.7748, 20.4008 ], [ -81.7684, 20.3892 ], [ -81.7617, 20.3778 ], [ -81.7545, 20.3667 ], [ -81.747, 20.3558 ], [ -81.7391, 20.3452 ], [ -81.7313, 20.3354 ], [ -81.7243, 20.3268 ], [ -81.7181, 20.3195 ], [ -81.7128, 20.3134 ], [ -81.7083, 20.3085 ], [ -81.7047, 20.3047 ], [ -81.7021, 20.3021 ], [ -81.7005, 20.3005 ], [ -81.7, 20.3 ], [ -81.7, 20.3 ], [ -81.7, 20.3 ], [ -81.7, 20.3 ], [ -81.7, 20.3 ], [ -81.7, 20.3 ], [ -81.7, 20.3 ], [ -81.7, 20.3 ], [ -81.7, 20.3 ], [ -81.7, 20.3 ], [ -81.7, 20.3 ], [ -81.7, 20.3 ], [ -81.7, 20.3 ], [ -81.7, 20.3 ], [ -81.7, 20.3 ], [ -81.7, 20.3 ], [ -81.7, 20.3 ], [ -81.7, 20.3 ], [ -81.7, 20.3 ], [ -81.7, 20.3 ], [ -81.7, 20.3 ], [ -81.7, 20.3 ], [ -81.7, 20.3 ], [ -81.7, 20.3 ], [ -81.7, 20.3 ], [ -81.7, 20.3 ], [ -81.7, 20.3 ], [ -81.7, 20.3 ], [ -81.7, 20.3 ], [ -81.7, 20.3 ], [ -81.7, 20.3 ], [ -81.7, 20.3 ], [ -81.7, 20.3 ], [ -81.7, 20.3 ], [ -81.7, 20.3 ], [ -81.7, 20.3 ], [ -81.7, 20.3 ], [ -81.7, 20.3 ], [ -81.7, 20.3 ], [ -81.7, 20.3 ], [ -81.7, 20.3 ], [ -81.7, 20.3 ], [ -81.7, 20.3 ], [ -81.7, 20.3 ], [ -81.7, 20.3 ], [ -81.7, 20.3 ], [ -81.7, 20.3 ], [ -81.7, 20.3 ], [ -81.7, 20.3 ], [ -81.7, 20.3 ], [ -81.7, 20.3 ], [ -81.7, 20.3 ], [ -81.7, 20.3 ], [ -81.7, 20.3 ], [ -81.7, 20.3 ], [ -81.7, 20.3 ], [ -81.7, 20.3 ], [ -81.7, 20.3 ], [ -81.7, 20.3 ], [ -81.7, 20.3 ], [ -81.7, 20.3 ], [ -81.7, 20.3 ], [ -81.7, 20.3 ], [ -81.7, 20.3 ], [ -81.7, 20.3 ], [ -81.7, 20.3 ], [ -81.7, 20.3 ], [ -81.7, 20.3 ], [ -81.7, 20.3 ], [ -81.7, 20.3 ], [ -81.7, 20.3 ], [ -81.7, 20.3 ], [ -81.7, 20.3 ], [ -81.7, 20.3 ], [ -81.7, 20.3 ], [ -81.7, 20.3 ], [ -81.7, 20.3 ], [ -81.7, 20.3 ], [ -81.7, 20.3 ], [ -81.7, 20.3 ], [ -81.7, 20.3 ], [ -81.7, 20.3 ], [ -81.7, 20.3 ], [ -81.7, 20.3 ], [ -81.7, 20.3 ], [ -81.7, 20.3 ], [ -81.7, 20.3 ], [ -81.7, 20.3 ], [ -81.7, 20.3 ], [ -81.7, 20.3 ], [ -81.7, 20.3 ], [ -81.7, 20.3 ], [ -81.7, 20.3 ], [ -81.7, 20.3 ], [ -81.7, 20.3 ], [ -81.7, 20.3 ], [ -81.7, 20.3 ], [ -81.7, 20.3 ], [ -81.7, 20.3 ], [ -81.7, 20.3 ], [ -81.7, 20.3 ], [ -81.7, 20.3 ], [ -81.7, 20.3 ], [ -81.7, 20.3 ], [ -81.7, 20.3 ], [ -81.7, 20.3 ], [ -81.7, 20.3 ], [ -81.7, 20.3 ], [ -81.7, 20.3 ], [ -81.7, 20.3 ], [ -81.7, 20.3 ], [ -81.7, 20.3 ], [ -81.7, 20.3 ], [ -81.7, 20.3 ], [ -81.7, 20.3 ], [ -81.7, 20.3 ], [ -81.7, 20.3 ], [ -81.7, 20.3 ], [ -81.7, 20.3 ], [ -81.7, 20.3 ], [ -81.7, 20.3 ], [ -81.7, 20.3 ], [ -81.7, 20.3 ], [ -81.7, 20.3 ], [ -81.7, 20.3 ], [ -81.7, 20.3 ], [ -81.7, 20.3 ], [ -81.7, 20.3 ], [ -81.7, 20.3 ], [ -81.7, 20.3 ], [ -81.7, 20.3 ], [ -81.7, 20.3 ], [ -81.7, 20.3 ], [ -81.7, 20.3 ], [ -81.7, 20.3 ], [ -81.7, 20.3 ], [ -81.7, 20.3 ], [ -81.7, 20.3 ], [ -81.7, 20.3 ], [ -81.7, 20.3 ], [ -81.7, 20.3 ], [ -81.7, 20.3 ], [ -81.7, 20.3 ], [ -81.7, 20.3 ], [ -81.7, 20.3 ], [ -81.7, 20.3 ], [ -81.7, 20.3 ], [ -81.7, 20.3 ], [ -81.7, 20.3 ], [ -81.7, 20.3 ], [ -81.7, 20.3 ], [ -81.7, 20.3 ], [ -81.7, 20.3 ], [ -81.7, 20.3 ], [ -81.7, 20.3 ], [ -81.7, 20.3 ], [ -81.7, 20.3 ], [ -81.7, 20.3 ], [ -81.7, 20.3 ], [ -81.7, 20.3 ], [ -81.7, 20.3 ], [ -81.7, 20.3 ], [ -81.7, 20.3 ], [ -81.7, 20.3 ], [ -81.7, 20.3 ], [ -81.7, 20.3 ], [ -81.7, 20.3 ], [ -81.7, 20.3 ], [ -81.7, 20.3 ], [ -81.7, 20.3 ], [ -81.7, 20.3 ], [ -81.7, 20.3 ], [ -81.6995, 20.2995 ], [ -81.6978, 20.298 ], [ -81.695, 20.2956 ], [ -81.691, 20.2923 ], [ -81.6857, 20.288 ], [ -81.6792, 20.283 ], [ -81.6714, 20.2772 ], [ -81.6623, 20.2706 ], [ -81.6518, 20.2634 ], [ -81.6405, 20.2559 ], [ -81.6289, 20.2489 ], [ -81.6171, 20.2422 ], [ -81.6049, 20.2358 ], [ -81.5925, 20.2299 ], [ -81.5799, 20.2243 ], [ -81.567, 20.2192 ], [ -81.5539, 20.2144 ], [ -81.5406, 20.21 ], [ -81.5271, 20.2061 ], [ -81.5134, 20.2025 ], [ -81.4995, 20.1994 ], [ -81.4855, 20.1968 ], [ -81.4713, 20.1945 ], [ -81.4569, 20.1927 ], [ -81.4424, 20.1913 ], [ -81.4278, 20.1903 ], [ -81.4131, 20.1899 ], [ -81.3983, 20.1898 ], [ -81.3834, 20.1902 ], [ -81.3684, 20.1911 ], [ -81.3534, 20.1924 ], [ -81.3383, 20.1942 ], [ -81.3232, 20.1964 ], [ -81.308, 20.1991 ], [ -81.2929, 20.2023 ], [ -81.2777, 20.2059 ], [ -81.2626, 20.21 ], [ -81.2475, 20.2146 ], [ -81.2324, 20.2196 ], [ -81.2174, 20.2251 ], [ -81.2024, 20.231 ], [ -81.1876, 20.2375 ], [ -81.1728, 20.2444 ], [ -81.1581, 20.2517 ], [ -81.1435, 20.2595 ], [ -81.1291, 20.2678 ], [ -81.1148, 20.2766 ], [ -81.1007, 20.2858 ], [ -81.0867, 20.2954 ], [ -81.0729, 20.3055 ], [ -81.0593, 20.3161 ], [ -81.0459, 20.3271 ], [ -81.0327, 20.3385 ], [ -81.0198, 20.3504 ], [ -81.007, 20.3627 ], [ -80.9946, 20.3754 ], [ -80.9824, 20.3886 ], [ -80.9705, 20.4022 ], [ -80.9589, 20.4162 ], [ -80.9475, 20.4306 ], [ -80.9365, 20.4454 ], [ -80.9258, 20.4606 ], [ -80.9155, 20.4762 ], [ -80.9055, 20.4922 ], [ -80.8958, 20.5086 ], [ -80.8865, 20.5254 ], [ -80.8776, 20.5425 ], [ -80.8691, 20.5599 ], [ -80.861, 20.5777 ], [ -80.8533, 20.5959 ], [ -80.8461, 20.6144 ], [ -80.8392, 20.6332 ], [ -80.8328, 20.6523 ], [ -80.8269, 20.6718 ], [ -80.8214, 20.6915 ], [ -80.8164, 20.7115 ], [ -80.8119, 20.7318 ], [ -80.8079, 20.7524 ], [ -80.8043, 20.7732 ], [ -80.8013, 20.7943 ], [ -80.7988, 20.8157 ], [ -80.7968, 20.8372 ], [ -80.7954, 20.859 ], [ -80.7945, 20.881 ], [ -80.7941, 20.9032 ], [ -80.7943, 20.9255 ], [ -80.7951, 20.9481 ], [ -80.7964, 20.9708 ], [ -80.7983, 20.9936 ], [ -80.8008, 21.0166 ], [ -80.8049, 21.0387 ], [ -80.8118, 21.0589 ], [ -80.8213, 21.0769 ], [ -80.8333, 21.0928 ], [ -80.8479, 21.1066 ], [ -80.8648, 21.118 ], [ -80.8841, 21.127 ], [ -80.9056, 21.1336 ], [ -80.9292, 21.1377 ], [ -80.9539, 21.1403 ], [ -80.9783, 21.1423 ], [ -81.0027, 21.1438 ], [ -81.0268, 21.1447 ], [ -81.0508, 21.1451 ], [ -81.0746, 21.145 ], [ -81.0982, 21.1443 ], [ -81.1215, 21.1432 ], [ -81.1447, 21.1415 ], [ -81.1676, 21.1393 ], [ -81.1902, 21.1367 ], [ -81.2126, 21.1336 ], [ -81.2346, 21.13 ], [ -81.2565, 21.1259 ], [ -81.278, 21.1214 ], [ -81.2992, 21.1164 ], [ -81.32, 21.111 ], [ -81.3406, 21.1052 ], [ -81.3608, 21.0989 ], [ -81.3807, 21.0923 ], [ -81.4002, 21.0852 ], [ -81.4193, 21.0777 ], [ -81.4381, 21.0699 ], [ -81.4565, 21.0617 ], [ -81.4745, 21.0531 ], [ -81.4921, 21.0441 ], [ -81.5093, 21.0349 ], [ -81.5261, 21.0253 ], [ -81.5425, 21.0153 ], [ -81.5584, 21.0051 ], [ -81.5739, 20.9945 ], [ -81.5889, 20.9837 ], [ -81.6035, 20.9726 ], [ -81.6177, 20.9613 ], [ -81.6314, 20.9496 ], [ -81.6446, 20.9378 ], [ -81.6574, 20.9257 ], [ -81.6697, 20.9134 ], [ -81.6815, 20.9008 ], [ -81.6929, 20.8881 ] ] ] } }
]
}
