<?xml version="1.0" ?>
<kml xmlns="http://earth.google.com/kml/2.1">
    <Document>
        <name>Graphical Tropical Weather Outlook - eastern North Pacific basin - Tue Aug 18 17:26:27 2026</name>
        <description>
            <TABLE>
                <TR><TD><B>Title:</B> Graphical Tropical Weather Outlook for the eastern North Pacific basin, issued: Tue Aug 18 17:26:27 2026</TD></TR>
                <TR><TD><B>Description:</B>The Graphical Tropical Weather Outlook ...</TD></TR>
                <TR><TD><B>Date Created:</B> Tue Aug 18 17:26:27 2026 </TD></TR>
                <TR><TD><B>Created:</B> National Hurricane Center </TD></TR>
                <TR><TD><B>For More Information: </B><a href="http://www.nhc.noaa.gov">http://www.nhc.noaa.gov</a></TD></TR>
            </TABLE>
        </description>
        <Style id="0">
            <LineStyle>
                <color>99e6e6e6</color>
                <width>2</width>
            </LineStyle>
            <PolyStyle>
                <color>66e6e6e6</color>
            </PolyStyle>
        </Style>
        <Style id="1">
            <LineStyle>
                <color>9900e6ff</color>
                <width>2</width>
            </LineStyle>
            <PolyStyle>
                <color>9900ffff</color>
            </PolyStyle>
        </Style>
        <Style id="2">
            <LineStyle>
                <color>990092e6</color>
                <width>2</width>
            </LineStyle>
            <PolyStyle>
                <color>990092ff</color>
            </PolyStyle>
        </Style>
        <Style id="3">
            <LineStyle>
                <color>990000f5</color>
                <width>2</width>
            </LineStyle>
            <PolyStyle>
                <color>990000e8</color>
            </PolyStyle>
        </Style>
        <Style id="lowx">
            <IconStyle>
                <scale>3.0</scale>
                <Icon>
                    <href>xl54.png</href>
                </Icon>
                <hotSpot x="15" y="17" xunits="pixels" yunits="pixels"/>
            </IconStyle>
            <LabelStyle>
                <scale>1.0</scale>
            </LabelStyle>
        </Style>
        <Style id="zerox">
            <IconStyle>
                <scale>3.0</scale>
                <Icon>
                    <href>x054.png</href>
                </Icon>
                <hotSpot x="15" y="17" xunits="pixels" yunits="pixels"/>
            </IconStyle>
            <LabelStyle>
                <scale>1.0</scale>
            </LabelStyle>
        </Style>
        <Style id="medx">
            <IconStyle>
                <scale>3.0</scale>
                <Icon>
                    <href>xm54.png</href>
                </Icon>
                <hotSpot x="15" y="17" xunits="pixels" yunits="pixels"/>
            </IconStyle>
            <LabelStyle>
                <scale>1.0</scale>
            </LabelStyle>
        </Style>
        <Style id="higx">
            <IconStyle>
                <scale>3.0</scale>
                <Icon>
                    <href>xh54.png</href>
                </Icon>
                <hotSpot x="15" y="17" xunits="pixels" yunits="pixels"/>
            </IconStyle>
            <LabelStyle>
                <scale>1.0</scale>
            </LabelStyle>
        </Style>
        <Placemark>
            <styleUrl>#3</styleUrl>
            <Polygon>
                <outerBoundaryIs>
                    <LinearRing>
                        <coordinates>-99.22922233917598,8.157971460078068,0 -99.38856244434955,8.068483575353172,0 -99.55835945421919,7.984926207192983,0 -99.73779817753913,7.90715861089279,0 -99.92606342306362,7.8350400417478765,0 -100.12233999954685,7.768429755053532,0 -100.32581271574303,7.707187006105046,0 -100.53566638040641,7.651171050197702,0 -100.7510858022912,7.60024114262679,0 -100.9712557901516,7.554256538687596,0 -101.19536115274185,7.513076493675411,0 -101.42258669881618,7.476560262885517,0 -101.65211723712878,7.444567101613205,0 -101.88313757643388,7.416956265153763,0 -102.11483252548571,7.393587008802474,0 -102.34638689303848,7.37431858785463,0 -102.57698548784641,7.359010257605516,0 -102.80581311866374,7.347521273350421,0 -103.03205459424466,7.339710890384632,0 -103.25490098242399,7.335438499449673,0 -103.47398203747687,7.33457298444293,0 -103.68964650678384,7.336998788241934,0 -103.90230978441556,7.342601795955748,0 -104.11238726444273,7.351267892693432,0 -104.32029434093597,7.36288296356405,0 -104.52644640796596,7.377332893676662,0 -104.73125885960339,7.394503568140329,0 -104.9351470899189,7.414280872064115,0 -105.13852649298313,7.436550690557082,0 -105.3418124628668,7.461198908728292,0 -105.54542039364054,7.488111411686806,0 -105.74976567937502,7.517174084541687,0 -105.9552637141409,7.548272812401995,0 -106.16232989200886,7.581293480376793,0 -106.37137960704956,7.616121973575143,0 -106.58282825333364,7.652644177106108,0 -106.7970912249318,7.690745976078747,0 -107.0145839159147,7.730313255602126,0 -107.23569824147077,7.771242006532486,0 -107.46050736748379,7.813565415349808,0 -107.68885474245403,7.857415543164507,0 -107.92057874344323,7.90292663392838,0 -108.15551774751314,7.950232931593226,0 -108.39351013172552,7.9994686801108505,0 -108.6343942731421,8.050768123433052,0 -108.87800854882462,8.10426550551163,0 -109.12419133583482,8.160095070298388,0 -109.37278101123448,8.218391061745121,0 -109.62361595208529,8.279287723803636,0 -109.87653453544903,8.342919300425729,0 -110.13137513838741,8.409420035563205,0 -110.38797613796221,8.47892417316786,0 -110.64617591123516,8.551565957191498,0 -110.90581283526801,8.62747963158592,0 -111.16672528712249,8.706799440302923,0 -111.42875164386035,8.789659627294311,0 -111.69173028254332,8.876194436511884,0 -111.95544838646589,8.966489959335245,0 -112.21944602850405,9.060399856461418,0 -112.48318881925121,9.157707749779458,0 -112.74614235413229,9.25819724691098,0 -113.00777222857225,9.361651955477612,0 -113.26754403799599,9.467855483100971,0 -113.52492337782843,9.576591437402678,0 -113.77937584349449,9.687643426004358,0 -114.0303670304191,9.800795056527631,0 -114.27736253402719,9.915829936594118,0 -114.51982794974367,10.032531673825439,0 -114.75722887299347,10.150683875843217,0 -114.9890308992015,10.270070150269072,0 -115.21469962379268,10.390474104724628,0 -115.43370064219197,10.511679346831503,0 -115.64549954982427,10.633469484211322,0 -115.84956194211448,10.755628124485703,0 -116.04535341448752,10.87793887527627,0 -116.23234153858756,11.000186069287638,0 -116.41023300857879,11.122241774267028,0 -116.57919893013172,11.244148452465893,0 -116.73946376683445,11.36596814337659,0 -116.89125198227515,11.487762886491478,0 -117.034788040042,11.609594721302917,0 -117.17029640372314,11.73152568730327,0 -117.29800153690672,11.853617823984893,0 -117.41812790318095,11.975933170840149,0 -117.53089996613389,12.098533767361396,0 -117.63654218935378,12.221481653040994,0 -117.73527903642875,12.344838867371305,0 -117.82733497094695,12.468667449844688,0 -117.91293445649657,12.5930294399535,0 -117.99230195666571,12.717986877190105,0 -118.06566193504256,12.843601801046866,0 -118.1332388552153,12.969936251016135,0 -118.19525718077205,13.097052266590273,0 -118.251941375301,13.225011887261644,0 -118.30350666935564,13.35387284827575,0 -118.35000732965268,13.483617846917483,0 -118.39136090053738,13.61416584337324,0 -118.42748058214251,13.745433772648788,0 -118.45827957460088,13.877338569749906,0 -118.48367107804528,14.009797169682367,0 -118.50356829260848,14.142726507451945,0 -118.51788441842328,14.276043518064416,0 -118.52653265562249,14.40966513652555,0 -118.52942620433889,14.543508297841123,0 -118.52647826470528,14.677489937016912,0 -118.51760203685443,14.811526989058686,0 -118.50271072091914,14.945536388972226,0 -118.48171751703221,15.079435071763296,0 -118.45453562532646,15.213139972437679,0 -118.42107824593462,15.346568026001146,0 -118.38125857898953,15.479636167459468,0 -118.33498982462399,15.612261331818425,0 -118.28218518297072,15.744360454083788,0 -118.22281563578177,15.87583113664663,0 -118.15718958924987,16.006458086191763,0 -118.08573758272787,16.135985146005584,0 -118.00889032402816,16.264156103011185,0 -117.9270785209631,16.39071474413164,0 -117.84073288134506,16.515404856290036,0 -117.7502841129864,16.637970226409468,0 -117.65616292369951,16.75815464141301,0 -117.55880002129676,16.875701888223762,0 -117.45862611359051,16.9903557537648,0 -117.35607190839315,17.101860024959205,0 -117.25156811351702,17.209958488730074,0 -117.14554543677451,17.314394932000482,0 -117.03843458597798,17.41491314169352,0 -116.93066626893983,17.511256904732278,0 -116.8226711934724,17.603170008039836,0 -116.71488006738811,17.690396238539282,0 -116.60772359849925,17.7726793831537,0 -116.50163171674282,17.849763740092,0 -116.39683985438987,17.921521447956543,0 -116.29313397576803,17.98812007387552,0 -116.19023674919366,18.0497687884943,0 -116.0878708429832,18.10667676245825,0 -115.98575892545296,18.15905316641273,0 -115.8836236649194,18.207107171003113,0 -115.78118772969886,18.251047946874756,0 -115.67817378810776,18.291084664673036,0 -115.57430450846245,18.327426495043305,0 -115.46930255907935,18.36028260863094,0 -115.36289060827482,18.3898621760813,0 -115.25479132436526,18.416374368039754,0 -115.14472737566706,18.440028355151668,0 -115.03242143049658,18.4610333080624,0 -114.91759615717024,18.47959839741733,0 -114.79997422400439,18.495932793861805,0 -114.67927829931546,18.510245668041208,0 -114.55523105141978,18.52274619060089,0 -114.42756638369,18.53363814119305,0 -114.29627660579153,18.543001306626817,0 -114.16161243368266,18.55079148086824,0 -114.02383581837792,18.55695906689022,0 -113.88320871089174,18.561454467665637,0 -113.73999306223865,18.56422808616738,0 -113.59445082343316,18.565230325368336,0 -113.44684394548972,18.564411588241388,0 -113.29743437942288,18.56172227775943,0 -113.1464840762471,18.557112796895343,0 -112.99425498697688,18.550533548622017,0 -112.84100906262671,18.54193493591234,0 -112.68700825421111,18.531267361739197,0 -112.53251451274454,18.518481229075473,0 -112.37778978924153,18.50352694089406,0 -112.22309603471655,18.48635490016784,0 -112.06869520018411,18.466915509869704,0 -111.91484923665868,18.445159172972534,0 -111.76182009515479,18.42103629244922,0 -111.60983801807828,18.394512825059905,0 -111.45890808351865,18.365665175737167,0 -111.30893793450994,18.3346175435045,0 -111.15983482440367,18.301494318533457,0 -111.01150600655141,18.266419890995568,0 -110.86385873430467,18.22951865106237,0 -110.71680026101502,18.19091498890542,0 -110.57023784003404,18.15073329469624,0 -110.4240787247132,18.109097958606384,0 -110.27823016840408,18.066133370807382,0 -110.13259942445823,18.021963921470782,0 -109.98709374622719,17.976714000768116,0 -109.8416203870625,17.930507998870933,0 -109.6960866003157,17.88347030595077,0 -109.55039963933834,17.835725312179164,0 -109.40446675748198,17.78739740772766,0 -109.25819520809814,17.738610982767803,0 -109.11149224453835,17.689490427471117,0 -108.96426519449514,17.64016009897181,0 -108.81647528284073,17.590720402326212,0 -108.66823263934538,17.54120556878109,0 -108.51967289272099,17.4916384977726,0 -108.3709316716794,17.442042088736873,0 -108.22214460493251,17.392439241110058,0 -108.07344732119216,17.342852854328292,0 -107.92497544917025,17.29330582782773,0 -107.77686461757861,17.243821061044503,0 -107.62925045512914,17.194421453414765,0 -107.48226859053372,17.145129904374652,0 -107.33605465250419,17.095969313360314,0 -107.19074426975246,17.046962579807886,0 -107.04647307099036,16.99813260315352,0 -106.90337668492977,16.94950228283335,0 -106.76159074028257,16.90109451828353,0 -106.62125086576066,16.852932208940196,0 -106.48249269007584,16.80503825423949,0 -106.34545184194003,16.75743555361756,0 -106.21025966403442,16.710146016885524,0 -106.07691260778255,16.663160408075303,0 -105.9452483165494,16.616432823158878,0 -105.81509532432275,16.569915254794367,0 -105.68628216509035,16.52355969563989,0 -105.55863737284002,16.477318138353564,0 -105.4319894815595,16.43114257559351,0 -105.30616702523658,16.38498500001784,0 -105.18099853785901,16.338797404284676,0 -105.0563125534146,16.292531781052144,0 -104.9319376058911,16.246140122978357,0 -104.80770222927627,16.19957442272143,0 -104.68343495755794,16.152786672939488,0 -104.55896432472379,16.10572886629065,0 -104.4341188647617,16.058352995433033,0 -104.30872711165935,16.01061105302475,0 -104.18261759940461,15.962455031723929,0 -104.05561886198517,15.913836924188685,0 -103.92755943338884,15.864708723077134,0 -103.79828468623461,15.815019901207691,0 -103.66778655159837,15.76469799946056,0 -103.53613242256992,15.713659266100963,0 -103.40339031589214,15.66181985606672,0 -103.26962824830791,15.609095924295646,0 -103.13491423656004,15.555403625725567,0 -102.9993162973914,15.500659115294305,0 -102.86290244754484,15.444778547939679,0 -102.72574070376321,15.387678078599514,0 -102.58789908278938,15.329273862211625,0 -102.44944560136621,15.26948205371384,0 -102.31044827623651,15.208218808043975,0 -102.17097512414317,15.145400280139855,0 -102.03109416182903,15.080942624939299,0 -101.89087340603695,15.014761997380125,0 -101.75038087350977,14.94677455240016,0 -101.60968458099035,14.876896444937223,0 -101.46885254522155,14.805043829929136,0 -101.3279527901472,14.731132865866266,0 -101.1870886892811,14.655097150711516,0 -101.0464809271667,14.576928157034992,0 -100.90637449162688,14.496629347266214,0 -100.76701437048455,14.414204183834682,0 -100.62864555156256,14.329656129169914,0 -100.4915130226838,14.242988645701411,0 -100.35586177167119,14.15420519585869,0 -100.22193678634754,14.063309242071256,0 -100.08998305453582,13.970304246768622,0 -99.96024556405884,13.875193672380291,0 -99.8329693027395,13.77798098133578,0 -99.70839925840073,13.678669636064596,0 -99.58678041886536,13.577263098996248,0 -99.46835777195629,13.473764832560244,0 -99.35337630549638,13.368178299186097,0 -99.24208100730857,13.260506961303314,0 -99.1347168652157,13.150754281341406,0 -99.03152886704063,13.03892372172988,0 -98.93276031303115,12.925019293913829,0 -98.83857806253076,12.809069877710822,0 -98.74904290765946,12.69113885958445,0 -98.66420782768932,12.571292167737122,0 -98.58412580189238,12.449595730371227,0 -98.50884980954072,12.326115475689177,0 -98.43843282990638,12.200917331893361,0 -98.3729278422614,12.074067227186188,0 -98.31238782587788,11.945631089770057,0 -98.25686576002785,11.815674847847367,0 -98.20641462398338,11.684264429620521,0 -98.1610873970165,11.551465763291915,0 -98.1209370583993,11.417344777063954,0 -98.08601658740383,11.28196739913904,0 -98.05637896330215,11.14539955771957,0 -98.03207716536632,11.007707181007946,0 -98.01316417286836,10.868956197206566,0 -97.99969296508037,10.729212534517835,0 -97.9917165212744,10.588542121144151,0 -97.9893014932956,10.447027344982478,0 -97.99266203447472,10.304928163241732,0 -98.00210229469617,10.162612875267625,0 -98.01792770789524,10.020451326207377,0 -98.0404437080072,9.878813361208213,0 -98.0699557289673,9.738068825417352,0 -98.10676920471083,9.598587563982015,0 -98.15118956917301,9.46073942204943,0 -98.20352225628916,9.324894244766817,0 -98.26407269999451,9.191421877281396,0 -98.33314633422434,9.060692164740393,0 -98.4110485929139,8.93307495229103,0 -98.49808490999848,8.808940085080526,0 -98.59456071941334,8.688657408256105,0 -98.70078145509373,8.572596766964995,0 -98.8170525509749,8.461128006354414,0 -98.94367944099217,8.354620971571583,0 -99.08096755908078,8.253445507763727,0 -99.22922233917598,8.157971460078068,0 </coordinates>
                    </LinearRing>
                </outerBoundaryIs>
            </Polygon>
            <ExtendedData>
                <Data name="Disturbance">
                    <value>1</value>
                </Data>
                <Data name="2day_percentage">
                    <value>0%</value>
                </Data>
                <Data name="2day_category">
                    <value>Low</value>
                </Data>
                <Data name="7day_percentage">
                    <value>80%</value>
                </Data>
                <Data name="7day_category">
                    <value>High</value>
                </Data>
                <Data name="Discussion">
                    <value>1. South of Mexico: An area of low pressure is forecast to form several hundred miles  south of the coast of southern Mexico around the end of the week.  Gradual development of this system is likely thereafter, and a  tropical depression is expected to form this weekend while the  system moves west-northwestward, remaining well offshore of Mexico. 
 Formation chance through 48 hours...low...near 0 percent. 
 Formation chance through 7 days...high...80 percent. </value>
                </Data>
            </ExtendedData>
        </Placemark>
        <Placemark>
            <styleUrl>#2</styleUrl>
            <Polygon>
                <outerBoundaryIs>
                    <LinearRing>
                        <coordinates>-132.90863834189582,11.882859393237897,0 -132.89834569596303,11.782014042532387,0 -132.89166752408673,11.67983857336967,0 -132.8886674036205,11.5764669974311,0 -132.8894089119179,11.472033326398016,0 -132.89395562633254,11.366671571951773,0 -132.90237112421795,11.260515745773715,0 -132.91471898292775,11.15369985954519,0 -132.93106277981548,11.046357924947545,0 -132.9514660922347,10.938623953662127,0 -132.97599249753904,10.830631957370283,0 -133.00470557308205,10.722515947753363,0 -133.0376688962173,10.614409936492711,0 -133.0749460442984,10.50644793526968,0 -133.1166005946789,10.39876395576561,0 -133.16269612471234,10.291492009661852,0 -133.21329621175235,10.184766108639751,0 -133.2684644331525,10.07872026438066,0 -133.32826436626632,9.973488488565922,0 -133.39275958844746,9.869204792876886,0 -133.46201367704944,9.766003188994897,0 -133.53609020942582,9.664017688601307,0 -133.61505276293025,9.563382303377457,0 -133.69896491491625,9.4642310450047,0 -133.78789024273743,9.36669792516438,0 -133.8818923237473,9.270916955537846,0 -133.98103473529952,9.177022147806445,0 -134.0853810547476,9.085147513651524,0 -134.19499485944516,8.99542706475443,0 -134.30993972674577,8.907994812796513,0 -134.43027923400297,8.822984769459117,0 -134.5560769585704,8.740530946423592,0 -134.68739647780154,8.660767355371283,0 -134.8243013690501,8.583828007983536,0 -134.96685520966952,8.509846915941706,0 -135.11512157701347,8.438958090927132,0 -135.26916404843547,8.371295544621166,0 -135.4290462012891,8.306993288705154,0 -135.59482213625557,8.246177242322636,0 -135.76641729871125,8.188863460323878,0 -135.9436644142695,8.134988820169243,0 -136.1263941615826,8.084488451330923,0 -136.31443721930273,8.037297483281113,0 -136.50762426608208,7.993351045492005,0 -136.70578598057278,7.952584267435793,0 -136.90875304142708,7.914932278584674,0 -137.11635612729717,7.880330208410837,0 -137.32842591683524,7.84871318638648,0 -137.54479308869347,7.820016341983793,0 -137.76528832152405,7.794174804674973,0 -137.98974229397922,7.771123703932211,0 -138.21798568471115,7.750798169227704,0 -138.44984917237196,7.733133330033644,0 -138.6851634356139,7.7180643158222235,0 -138.92375915308918,7.705526256065639,0 -139.16546700345,7.695454280236082,0 -139.41011766534854,7.687783517805747,0 -139.6575418174369,7.6824490982468285,0 -139.90757013836742,7.679386151031521,0 -140.16003330679223,7.678529805632015,0 -140.4147620013635,7.679815191520507,0 -140.67158690073344,7.68317743816919,0 -140.93033868355425,7.688551675050259,0 -141.1908480284781,7.695873031635905,0 -141.45294561415722,7.705076637398325,0 -141.71646211924377,7.716097621809711,0 -141.98122822238994,7.728871114342257,0 -142.24707460224795,7.743332244468157,0 -142.51383193747,7.759416141659605,0 -142.78133090670823,7.777057935388794,0 -143.04940218861486,7.796192755127919,0 -143.31787646184213,7.816755730349173,0 -143.58658440504215,7.838681990524746,0 -143.85535669686718,7.861906665126841,0 -144.12402401596935,7.8863648836276425,0 -144.39241704844144,7.911991992450978,0 -144.66036738067928,7.938749589167544,0 -144.92770834760157,7.966650254980414,0 -145.19427348502097,7.995712428786589,0 -145.45989632875018,8.025954549483071,0 -145.7244104146019,8.057395055966866,0 -145.98764927838891,8.090052387134975,0 -146.2494464559239,8.1239449818844,0 -146.50963548301954,8.159091279112143,0 -146.76804989548862,8.195509717715208,0 -147.0245232291438,8.233218736590597,0 -147.2788890197978,8.272236774635315,0 -147.5309808032633,8.312582270746363,0 -147.78063211535311,8.354273663820742,0 -148.02767649187984,8.397329392755458,0 -148.27194746865626,8.44176789644751,0 -148.51327858149506,8.487607613793905,0 -148.751503366209,8.534866983691643,0 -148.98645535861073,8.583564445037727,0 -149.21796809451297,8.633718436729158,0 -149.4458751097285,8.685347397662941,0 -149.67000994006995,8.738469766736078,0 -149.8902061213501,8.793103982845572,0 -150.10629718938162,8.849268484888428,0 -150.31811667997724,8.906981711761645,0 -150.52549812894964,8.966262102362226,0 -150.7282750721116,9.027128095587175,0 -150.9262810452758,9.089598130333496,0 -151.11934958425493,9.153690645498187,0 -151.30731422486176,9.219424079978257,0 -151.49000850290895,9.286816872670704,0 -151.66726595420923,9.355887462472532,0 -151.8389201145753,9.426654288280744,0 -152.0048045198199,9.499135788992344,0 -152.1647527057557,9.573350403504332,0 -152.31859820819548,9.649316570713712,0 -152.46617456295192,9.727052729517487,0 -152.60731530583774,9.806577318812659,0 -152.7418878427032,9.887899026598337,0 -152.8699573685683,9.970969599041311,0 -152.99166066964034,10.055720171809906,0 -153.10713463087308,10.142081852144177,0 -153.21651613722022,10.22998574728417,0 -153.3199420736356,10.319362964469939,0 -153.4175493250728,10.410144610941536,0 -153.50947477648566,10.502261793939011,0 -153.59585531282795,10.595645620702419,0 -153.67682781905336,10.690227198471804,0 -153.7525291801156,10.785937634487226,0 -153.8230962809685,10.882708035988731,0 -153.88866600656578,10.98046951021637,0 -153.9493752418611,11.0791531644102,0 -154.0053608718083,11.178690105810269,0 -154.05675978136108,11.279011441656623,0 -154.1037088554732,11.380048279189321,0 -154.14634497909836,11.48173172564841,0 -154.18480503719033,11.583992888273947,0 -154.21922591470286,11.686762874305979,0 -154.24974449658967,11.789972790984557,0 -154.27649766780456,11.893553745549733,0 -154.29962231330117,11.997436845241559,0 -154.31925531803333,12.101553197300085,0 -154.33553356695472,12.205833908965365,0 -154.34859394501913,12.31021008747745,0 -154.3585733371803,12.414612840076389,0 -154.36560862839193,12.518973274002235,0 -154.36983670360777,12.62322249649504,0 -154.37139444778163,12.727291614794856,0 -154.37041874586717,12.83111173614173,0 -154.36704648281813,12.934613967775716,0 -154.36141454358832,13.037729416936868,0 -154.35365981313143,13.140389190865234,0 -154.34391917640122,13.242524396800867,0 -154.33232951835146,13.344066141983818,0 -154.31902772393585,13.44494553365414,0 -154.3041458088005,13.545094135186751,0 -154.28770379451726,13.644454001058604,0 -154.2696097085832,13.742977676848673,0 -154.24976670918812,13.840618164270806,0 -154.22807795452167,13.937328465038847,0 -154.20444660277343,14.033061580866647,0 -154.17877581213315,14.127770513468052,0 -154.15096874079046,14.221408264556908,0 -154.12092854693503,14.31392783584706,0 -154.08855838875652,14.405282229052355,0 -154.05376142444462,14.495424445886645,0 -154.01644081218896,14.58430748806377,0 -153.97649971017918,14.671884357297582,0 -153.93384127660502,14.758108055301925,0 -153.88836866965613,14.842931583790646,0 -153.83998504752213,14.92630794447759,0 -153.7885935683927,15.008190139076609,0 -153.73409739045752,15.088531169301543,0 -153.67639967190627,15.167284036866246,0 -153.6154035709286,15.24440174348456,0 -153.55101224571413,15.319837290870332,0 -153.48312885445256,15.393543680737412,0 -153.4116565553336,15.465473914799645,0 -153.33649850654683,15.535580994770877,0 -153.25755786628199,15.603817922364955,0 -153.1747377927287,15.670137699295726,0 -153.08794144407662,15.734493327277036,0 -152.9970719785155,15.796837808022733,0 -152.90203255423484,15.857124143246667,0 -152.80272632942447,15.915305334662676,0 -152.69905646227394,15.97133438398462,0 -152.590926110973,16.02516429292633,0 -152.47823843371128,16.076748063201666,0 -152.3608965886784,16.126038696524468,0 -152.2388037340641,16.172989194608583,0 -152.111863028058,16.21755255916786,0 -151.9799776288498,16.259681791916147,0 -151.8430507676745,16.299329923677895,0 -151.70103863367464,16.336471090468073,0 -151.55404372590806,16.371137736848695,0 -151.40219359800116,16.40337229232019,0 -151.24561580358048,16.43321718638296,0 -151.08443789627242,16.460714848537446,0 -150.91878742970343,16.485907708284053,0 -150.7487919575,16.50883819512321,0 -150.5745790332886,16.529548738555338,0 -150.39627621069562,16.548081768080852,0 -150.21401104334757,16.56447971320018,0 -150.02791108487088,16.578785003413735,0 -149.83810388889202,16.591040068221943,0 -149.64471700903752,16.60128733712522,0 -149.4478779989337,16.609569239623998,0 -149.24771441220707,16.615928205218687,0 -149.04435380248415,16.62040666340971,0 -148.83792372339133,16.623047043697486,0 -148.62855172855507,16.623891775582443,0 -148.41636537160184,16.622983288565,0 -148.20149220615812,16.62036401214557,0 -147.98405978585032,16.61607637582458,0 -147.76419566430494,16.610162809102444,0 -147.54202739514838,16.602665741479594,0 -147.31768253200718,16.593627602456444,0 -147.09128862850773,16.583090821533414,0 -146.8629732382765,16.57109782821093,0 -146.63286391494,16.55769105198941,0 -146.40108821212462,16.542912922369272,0 -146.16777368345683,16.526805868850936,0 -145.93304788256307,16.509412320934832,0 -145.69703836306988,16.490774708121368,0 -145.45987267860366,16.470935459910972,0 -145.22167838279083,16.44993700580407,0 -144.9825830292579,16.427821775301073,0 -144.74271417163135,16.404632197902405,0 -144.50219936353753,16.38041070310849,0 -144.261166158603,16.35519972041974,0 -144.01974235472878,16.32903898051176,0 -143.7780578759098,16.30194472428854,0 -143.53624374085302,16.27392109792059,0 -143.2944309773127,16.244972147621954,0 -143.05275061304303,16.215101919606674,0 -142.81133367579824,16.1843144600888,0 -142.5703111933326,16.15261381528237,0 -142.32981419340027,16.12000403140142,0 -142.08997370375556,16.086489154660008,0 -141.85092075215263,16.052073231272168,0 -141.61278636634572,16.016760307451946,0 -141.37570157408905,15.980554429413381,0 -141.13979740313684,15.943459643370522,0 -140.90520488124335,15.905479995537407,0 -140.67205503616282,15.86661953212808,0 -140.4404788956494,15.826882299356585,0 -140.21060748745734,15.786272343436965,0 -139.98257183934086,15.744793710583261,0 -139.75650297905423,15.70245044700952,0 -139.53253193435165,15.659246598929784,0 -139.31078973298733,15.615186212558095,0 -139.09140740271553,15.570273334108494,0 -138.87451597129044,15.524512009795025,0 -138.66024646646628,15.477906285831736,0 -138.44872991599735,15.430460208432663,0 -138.24009734763774,15.382177823811855,0 -138.0344797891418,15.33306317818335,0 -137.83200826826368,15.283120317761195,0 -137.63281381275766,15.232353288759429,0 -137.43702745037794,15.180766137392098,0 -137.24478020887872,15.128362909873246,0 -137.05620311601427,15.075147652416913,0 -136.8714271995388,15.021124411237144,0 -136.69058348720648,14.966297232547982,0 -136.51380300677164,14.910670162563468,0 -136.3412167859884,14.854247247497646,0 -136.1729558526111,14.797032533564561,0 -136.00914985060783,14.739029871764977,0 -135.8498657435659,14.680234270661183,0 -135.69508352155947,14.620628469299449,0 -135.54477676824587,14.560194302960872,0 -135.3989190672826,14.49891360692654,0 -135.2574840023271,14.436768216477548,0 -135.1204451570367,14.373739966894995,0 -134.98777611506895,14.309810693459973,0 -134.85945046008126,14.244962231453577,0 -134.735441775731,14.179176416156896,0 -134.61572364567564,14.112435082851032,0 -134.50026965357256,14.044720066817073,0 -134.38905338307927,13.976013203336116,0 -134.2820484178532,13.906296327689253,0 -134.17922834155164,13.835551275157579,0 -134.08056673783216,13.76375988102219,0 -133.98603719035214,13.69090398056418,0 -133.895613282769,13.61696540906464,0 -133.80926859874026,13.541926001804667,0 -133.7269767219232,13.465767594065353,0 -133.64871123597533,13.388472021127793,0 -133.5744457245541,13.310021118273081,0 -133.50415377131688,13.230396720782315,0 -133.4378089599211,13.149580663936582,0 -133.37538487402435,13.067554783016982,0 -133.31685509728382,12.984300913304606,0 -133.26219321335708,12.89980089008055,0 -133.21137280590153,12.814036548625905,0 -133.1643674585746,12.726989724221767,0 -133.1211507550337,12.638642252149232,0 -133.0816962789363,12.548975967689394,0 -133.0459776139398,12.457972706123343,0 -133.0139683437016,12.365614302732176,0 -132.98564205187918,12.27188259279699,0 -132.96097232213,12.176759411598873,0 -132.93993273811142,12.080226594418923,0 -132.92249688348087,11.982265976538233,0 -132.90863834189582,11.882859393237897,0 </coordinates>
                    </LinearRing>
                </outerBoundaryIs>
            </Polygon>
            <ExtendedData>
                <Data name="Disturbance">
                    <value>2</value>
                </Data>
                <Data name="2day_percentage">
                    <value>20%</value>
                </Data>
                <Data name="2day_category">
                    <value>Low</value>
                </Data>
                <Data name="7day_percentage">
                    <value>60%</value>
                </Data>
                <Data name="7day_category">
                    <value>Medium</value>
                </Data>
                <Data name="Discussion">
                    <value>2. Western Portion of the East Pacific: A tropical wave located well to the west-southwest of the southern  tip of the Baja California Peninsula is producing disorganized  showers and thunderstorms. Environmental conditions appear conducive  for gradual development of this system, and a tropical depression  could form towards the end of the week or over the weekend while the  system moves generally westward across the western portion of the  east Pacific and into the central Pacific. 
 Formation chance through 48 hours...low...20 percent. 
 Formation chance through 7 days...medium...60 percent. </value>
                </Data>
            </ExtendedData>
        </Placemark>
        <Placemark>
            <styleUrl>#medx</styleUrl>
            <Point>
                <coordinates>-129.5,8.7,0 </coordinates>
            </Point>
            <ExtendedData>
                <Data name="Disturbance">
                    <value>2</value>
                </Data>
                <Data name="2day_percentage">
                    <value>20%</value>
                </Data>
                <Data name="2day_category">
                    <value>Low</value>
                </Data>
                <Data name="7day_percentage">
                    <value>60%</value>
                </Data>
                <Data name="7day_category">
                    <value>Medium</value>
                </Data>
                <Data name="Discussion">
                    <value>2. Western Portion of the East Pacific: A tropical wave located well to the west-southwest of the southern  tip of the Baja California Peninsula is producing disorganized  showers and thunderstorms. Environmental conditions appear conducive  for gradual development of this system, and a tropical depression  could form towards the end of the week or over the weekend while the  system moves generally westward across the western portion of the  east Pacific and into the central Pacific. 
 Formation chance through 48 hours...low...20 percent. 
 Formation chance through 7 days...medium...60 percent. </value>
                </Data>
            </ExtendedData>
        </Placemark>
        <Placemark>
            <styleUrl>#2</styleUrl>
            <LineString>
                <coordinates>-130.54288366432635,8.803651628618118,0 -130.5624838587792,8.80945773160222,0 -130.58209175011308,8.815256315548716,0 -130.60170733832803,8.821047380457603,0 -130.62133062342403,8.826830926328885,0 -130.64096160540106,8.832606953162557,0 -130.66060028425915,8.83837546095862,0 -130.6802466599983,8.844136449717077,0 -130.69990073261852,8.849889919437928,0 -130.71956250211974,8.85563587012117,0 -130.73923196850203,8.861374301766801,0 -130.75890913176536,8.867105214374828,0 -130.77859399190976,8.872828607945246,0 -130.79828654893518,8.878544482478055,0 -130.81798680284166,8.884252837973259,0 -130.8376947536292,8.889953674430854,0 -130.85741040129776,8.895646991850843,0 -130.8771337458474,8.90133279023322,0 -130.89686478727808,8.907011069577992,0 -130.9166035255898,8.912681829885157,0 -130.93634996078256,8.918345071154711,0 -130.95610409285638,8.92400079338666,0 -130.97586592181125,8.929648996581003,0 -130.99563544764717,8.935289680737736,0 -131.01541267036419,8.94092284585686,0 -131.0351975899622,8.946548491938378,0 -131.05499020644126,8.95216661898229,0 -131.07479051980138,8.957777226988592,0 -131.09459853004253,8.963380315957284,0 -131.11441423716477,8.968975885888373,0 -131.13423764116803,8.974563936781852,0 -131.15406874205232,8.980144468637722,0 -131.1739075398177,8.985717481455985,0 -131.1937540344641,8.991282975236642,0 -131.21360822599155,8.99684094997969,0 -131.23347011440006,9.00239140568513,0 -131.2533396996896,9.007934342352963,0 -131.2732169818602,9.013469759983188,0 -131.29310196091186,9.018997658575804,0 -131.31299463684456,9.024518038130815,0 -131.33289500965836,9.030030898648217,0 -131.35280307935315,9.035536240128012,0 -131.372718845929,9.041034062570196,0 -131.39264230938588,9.046524365974776,0 -131.41257346972384,9.052007150341748,0 -131.43251232694283,9.05748241567111,0 -131.45245888104287,9.062950161962865,0 -131.47241313202397,9.068410389217012,0 -131.4923750798861,9.073863097433554,0 -131.5123447246293,9.079308286612484,0 -131.53232206625353,9.08474595675381,0 -131.55230710475882,9.090176107857527,0 -131.57229984014515,9.095598739923636,0 -131.59230027241253,9.101013852952137,0 -131.61230840156097,9.106421446943031,0 -131.63232422759046,9.111821521896317,0 -131.652347750501,9.117214077811994,0 -131.6723789702926,9.122599114690065,0 -131.69241788696522,9.127976632530528,0 -131.7124645005189,9.133346631333383,0 -131.73251881095362,9.13870911109863,0 -131.75258081826942,9.14406407182627,0 -131.77265052246622,9.149411513516302,0 -131.7927279235441,9.154751436168727,0 -131.81281302150302,9.160083839783542,0 -131.832905816343,9.165408724360752,0 -131.853006308064,9.170726089900352,0 -131.8731144966661,9.176035936402345,0 -131.8932303821492,9.181338263866731,0 -131.91335396451336,9.186633072293509,0 -131.93348524375858,9.19192036168268,0 -131.9536242198849,9.19720013203424,0 -131.9737708928922,9.202472383348196,0 -131.99392526278055,9.207737115624543,0 -132.01408732954997,9.21299432886328,0 -132.03425709320044,9.218244023064413,0 -132.05443455373194,9.223486198227937,0 -132.0746197111445,9.228720854353853,0 -132.0948125654381,9.233947991442161,0 -132.11501311661274,9.239167609492862,0 -132.13522136466847,9.244379708505955,0 -132.15543730960522,9.249584288481438,0 -132.175660951423,9.254781349419316,0 -132.19589229012186,9.259970891319586,0 -132.21613132570175,9.265152914182249,0 -132.2363780581627,9.270327418007302,0 -132.2566324875047,9.275494402794749,0 -132.27689461372776,9.280653868544587,0 -132.29716443683188,9.285805815256818,0 -132.31744195681702,9.29095024293144,0 -132.3377271736832,9.296087151568457,0 -132.35802008743045,9.301216541167864,0 -132.37832069805873,9.306338411729666,0 -132.39862900556807,9.311452763253856,0 -132.41894500995846,9.316559595740442,0 -132.4392687112299,9.321658909189418,0 -132.4596001093824,9.326750703600787,0 -132.47993920441593,9.331834978974548,0 -132.5002859963305,9.336911735310704,0 -132.52064048512614,9.34198097260925,0 -132.5410026708028,9.347042690870186,0 -132.56137255336054,9.352096890093517,0 -132.58175013279933,9.357143570279241,0 -132.60213540911917,9.362182731427355,0 -132.62252838232004,9.367214373537863,0 -132.64292905240197,9.372238496610763,0 -132.66333741936495,9.377255100646055,0 -132.68375348320896,9.382264185643738,0 -132.70417724393403,9.387265751603815,0 -132.72460870154015,9.392259798526284,0 -132.74504785602733,9.397246326411144,0 -132.76549470739553,9.402225335258397,0 -132.78594925564482,9.407196825068043,0 -132.8064115007751,9.412160795840082,0 -132.8268814427865,9.41711724757451,0 -132.84735908167892,9.422066180271333,0 -132.86784441745237,9.427007593930549,0 -132.8883374501069,9.431941488552155,0 -132.90883817964243,9.436867864136154,0 -132.92934660605908,9.441786720682545,0 -132.94986272935674,9.44669805819133,0 -132.97038654953545,9.451601876662505,0 -132.99091806659519,9.456498176096073,0 -133.01145728053598,9.461386956492035,0 -133.03200419135786,9.466268217850388,0 -133.05255879906073,9.471141960171131,0 -133.0731211036447,9.476008183454269,0 -133.09369110510968,9.480866887699799,0 -133.11426880345573,9.48571807290772,0 -133.13485419868283,9.490561739078034,0 -133.155447290791,9.49539788621074,0 -133.17604807978017,9.50022651430584,0 -133.19665656565041,9.50504762336333,0 -133.2172727484017,9.509861213383214,0 -133.2378966280341,9.51466728436549,0 -133.25852820454747,9.51946583631016,0 -133.2791674779419,9.524256869217217,0 -133.2998144482174,9.52904038308667,0 -133.32046911537392,9.533816377918516,0 -133.34113147941153,9.53858485371275,0 -133.36180154033016,9.543345810469381,0 -133.38247929812982,9.548099248188402,0 -133.40316475281057,9.552845166869817,0 -133.42385790437234,9.557583566513621,0 -133.44455875281517,9.562314447119821,0 -133.46526729813905,9.567037808688411,0 -133.485983540344,9.571753651219392,0 -133.50670747942996,9.57646197471277,0 -133.527439115397,9.581162779168537,0 -133.54817844824507,9.585856064586697,0 -133.5689254779742,9.590541830967247,0 -133.58968020458437,9.595220078310192,0 -133.6104426280756,9.599890806615528,0 -133.63121274844784,9.604554015883258,0 -133.65199056570117,9.60920970611338,0 -133.67277607983556,9.613857877305891,0 -133.69356929085097,9.618498529460798,0 -133.71437019874745,9.623131662578094,0 -133.73517880352495,9.627757276657785,0 -133.7559951051835,9.632375371699867,0 -133.7768191037231,9.636985947704343,0 -133.79765079914378,9.641589004671209,0 -133.81849019144548,9.64618454260047,0 -133.83933728062826,9.65077256149212,0 -133.86019206669206,9.655353061346164,0 -133.8810545496369,9.6599260421626,0 -133.90192472946282,9.664491503941427,0 -133.92280260616977,9.66904944668265,0 -133.94368817975777,9.673599870386262,0 -133.96458145022683,9.678142775052267,0 -133.98548241757692,9.682678160680664,0 -134.00639108180806,9.687206027271452,0 -134.0273074429203,9.691726374824635,0 -134.04823150091354,9.696239203340209,0 -134.06916325578783,9.700744512818176,0 -134.09010270754317,9.705242303258535,0 -134.11104985617956,9.709732574661286,0 -134.132004701697,9.71421532702643,0 -134.1529672440955,9.718690560353965,0 -134.17393748337503,9.723158274643893,0 -134.19491541953565,9.727618469896212,0 -134.21590105257727,9.732071146110925,0 -134.23689438249997,9.736516303288031,0 -134.25789540930367,9.740953941427527,0 -134.2789041329885,9.745384060529418,0 -134.2999205535543,9.749806660593698,0 -134.3209446710012,9.754221741620372,0 -134.3419764853291,9.758629303609437,0 -134.36301599653808,9.763029346560897,0 -134.38406320462815,9.767421870474747,0 -134.4051181095992,9.77180687535099,0 -134.42618071145134,9.776184361189625,0 -134.4472510101845,9.780554327990654,0 -134.46832900579872,9.784916775754072,0 -134.48941469829398,9.789271704479884,0 -134.51050808767033,9.793619114168088,0 -134.53160917392768,9.797959004818685,0 -134.5527179570661,9.802291376431674,0 -134.5738344370856,9.806616229007055,0 -134.59495861398608,9.810933562544829,0 -134.61609048776768,9.815243377044993,0 -134.63723005843028,9.819545672507552,0 -134.65837732597396,9.8238404489325,0 -134.67953229039864,9.828127706319844,0 -134.7006949517044,9.83240744466958,0 -134.7218653098912,9.836679663981707,0 -134.74304336495908,9.840944364256226,0 -134.764229116908,9.845201545493136,0 -134.78542256573795,9.84945120769244,0 -134.80662371144896,9.853693350854137,0 -134.827832554041,9.857927974978224,0 -134.8490490935141,9.862155080064706,0 -134.87027332986824,9.866374666113579,0 -134.89150526310345,9.870586733124844,0 -134.91274489321972,9.874791281098501,0 -134.93399222021702,9.87898831003455,0 -134.95524724409537,9.883177819932992,0 -134.97650996485476,9.887359810793827,0 -134.9977803824952,9.891534282617053,0 -135.0190584970167,9.895701235402672,0 -135.04034430841924,9.899860669150684,0 -135.0616378167028,9.904012583861086,0 -135.08293902186747,9.908156979533882,0 -135.10424792391316,9.91229385616907,0 -135.12556452283988,9.91642321376665,0 -135.14688881864768,9.920545052326624,0 -135.1682208113365,9.924659371848989,0 -135.1895605009064,9.928766172333745,0 -135.21090788735734,9.932865453780893,0 -135.23226297068933,9.936957216190436,0 -135.25362575090233,9.941041459562369,0 -135.27499622799644,9.945118183896696,0 -135.29637440197158,9.949187389193414,0 -135.31776027282774,9.953249075452526,0 -135.33915384056496,9.957303242674028,0 -135.36055510518324,9.961349890857925,0 -135.38196406668257,9.96538902000421,0 -135.40338072506293,9.96942063011289,0 -135.42480508032435,9.973444721183961,0 -135.44623713246682,9.977461293217427,0 -135.46767688149035,9.981470346213284,0 -135.48912432739493,9.985471880171533,0 -135.51057947018052,9.989465895092174,0 -135.5320423098472,9.993452390975206,0 -135.5535128463949,9.997431367820631,0 -135.5749910798237,10.00140282562845,0 -135.59647701013347,10.00536676439866,0 -135.61797063732436,10.009323184131263,0 -135.63947196139628,10.013272084826259,0 -135.6609809823492,10.017213466483645,0 -135.68249770018323,10.021147329103423,0 -135.70402211489827,10.025073672685595,0 -135.72555422649438,10.02899249723016,0 -135.74709403497152,10.032903802737115,0 -135.76864154032975,10.036807589206465,0 -135.79019674256898,10.040703856638205,0 -135.8117596416893,10.044592605032339,0 -135.83333023769066,10.048473834388862,0 -135.85490853057306,10.05234754470778,0 -135.8764945203365,10.05621373598909,0 -135.898088206981,10.060072408232791,0 -135.91968959050655,10.063923561438887,0 -135.9412986709131,10.067767195607374,0 -135.96291544820076,10.071603310738253,0 -135.98453992236944,10.075431906831522,0 -136.0061720934192,10.079252983887185,0 -136.02781196135,10.083066541905241,0 -136.04945952616183,10.08687258088569,0 -136.07111478785473,10.09067110082853,0 -136.09277774642865,10.094462101733763,0 -136.11444840188364,10.098245583601388,0 -136.13612675421965,10.102021546431404,0 -136.15781280343674,10.105789990223814,0 -136.17950654953486,10.109550914978616,0 -136.20120799251407,10.113304320695809,0 -136.2229171323743,10.117050207375396,0 -136.24463396911557,10.120788575017375,0 -136.26635850273792,10.124519423621745,0 -136.28809073324126,10.128242753188507,0 -136.3098306606257,10.131958563717662,0 -136.33157828489115,10.13566685520921,0 -136.3533336060377,10.13936762766315,0 -136.37509662406526,10.143060881079483,0 -136.3968673389739,10.146746615458207,0 -136.41864575076355,10.150424830799324,0 -136.44043185943426,10.15409552710283,0 -136.46222566498605,10.157758704368733,0 -136.48402716741884,10.161414362597027,0 -136.50583636673272,10.165062501787713,0 -136.5276532629276,10.16870312194079,0 -136.5494778560036,10.172336223056261,0 -136.5713101459606,10.175961805134124,0 -136.59315013279866,10.179579868174377,0 -136.61499781651776,10.183190412177025,0 -136.63685319711792,10.186793437142065,0 -136.65871627459913,10.190388943069497,0 -136.68058704896137,10.19397692995932,0 -136.7024655202047,10.197557397811536,0 -136.72435168832902,10.201130346626146,0 -136.74624555333443,10.204695776403145,0 </coordinates>
            </LineString>
        </Placemark>
    </Document>
</kml>
