{"type":"FeatureCollection","features":[{"type":"Feature","id":1,"geometry":{"type":"Polygon","coordinates":[[[-107.30508301446946,12.1987922743441],[-107.23615543672395,12.295197918649137],[-107.16916250574496,12.393574675431068],[-107.10425049896128,12.493846801988468],[-107.04156569290228,12.595938555619966],[-106.98125436499686,12.699774192724931],[-106.92346279177434,12.805277970601992],[-106.8683372506635,12.91237414565046],[-106.81602401819379,13.02098697426959],[-106.76666937179397,13.131040712858749],[-106.72041958889281,13.242459620515206],[-106.67742094512045,13.355167950940313],[-106.63781971790559,13.46908996413066],[-106.601762184677,13.584149913787655],[-106.56939462286346,13.700272059008455],[-106.54086330809508,13.817380656192483],[-106.51631451780065,13.935399960839675],[-106.49589453030825,14.054254231147979],[-106.47974962034863,14.173867722617445],[-106.46802606624988,14.294164693445964],[-106.46087014544077,14.415069400032905],[-106.45842813355142,14.536506098777579],[-106.46084630801062,14.658399046079239],[-106.46827094624706,14.780672500135893],[-106.48084832568958,14.903250716447531],[-106.49872472196824,15.026057952312783],[-106.52204641341115,15.149018465030281],[-106.55095967564841,15.272056510100015],[-106.58561078610882,15.395096345719935],[-106.62614602222106,15.518062228289352],[-106.67271166141393,15.640878413308258],[-106.72545397931759,15.763469159873978],[-106.78451925336077,15.885758722587127],[-106.85005376097217,16.007671359645656],[-106.92218030997321,16.129136065976809],[-107.00083532369115,16.25011946773941],[-107.08586634185809,16.370606135265064],[-107.17712036101574,16.490580752200117],[-107.27444437320918,16.610027998593409],[-107.37768537228203,16.728932556292591],[-107.48669035387661,16.847279108943837],[-107.60130631093739,16.965052335696896],[-107.72138023730798,17.082236920197829],[-107.84675912773145,17.1988175442944],[-107.97728997605145,17.314778888035391],[-108.11281977521236,17.43010563506715],[-108.25319552085648,17.544782466337892],[-108.39826420592829,17.658794063695211],[-108.54787282427134,17.772125108986756],[-108.70186837062869,17.884760284060008],[-108.86009783884407,17.996684270762614],[-109.02240822276116,18.10788175094217],[-109.18864651622363,18.218337405546947],[-109.35865971307521,18.328035917323859],[-109.53229480805885,18.436961967221123],[-109.70939879411895,18.545100237985707],[-109.88981866599852,18.652435410565886],[-110.0734014184406,18.758952167708514],[-110.25999404349022,18.864635189462547],[-110.44944353678972,18.969469159474272],[-110.64159689128343,19.073438759591227],[-110.83630110171435,19.176528669862364],[-111.03340316192629,19.278723573034597],[-111.23275006576284,19.380008150955518],[-111.43418880796702,19.480367085472778],[-111.63756638148323,19.579785057534536],[-111.84272978015514,19.678246749887762],[-112.04952603290002,19.77573411493762],[-112.25780277118088,19.87218009743367],[-112.4674081534634,19.967475257077581],[-112.67819035350192,20.06150875332645],[-112.88999754415124,20.154169746536695],[-113.1026778991656,20.245347397964167],[-113.31607959409791,20.334930866166701],[-113.53005080270231,20.422809313299297],[-113.74443969783368,20.508871898819223],[-113.95909445324634,20.59300778308284],[-114.17386324449302,20.675106126446735],[-114.38859424442876,20.75505609016659],[-114.60313562770693,20.83274683280024],[-114.81733556808189,20.908067515603477],[-115.03104223930779,20.980907299832154],[-115.24410381513889,21.051155344943368],[-115.4563684702286,21.118700811293536],[-115.66768437743195,21.18343285923919],[-115.87789971230177,21.245240649136804],[-116.08686264769295,21.304013341342795],[-116.294421358259,21.359640096213582],[-116.50042401685482,21.412010074105751],[-116.70471879903323,21.461012435375721],[-116.90715387674993,21.506536340379967],[-117.107577426457,21.548470949474904],[-117.30583762010997,21.586705423017008],[-117.50178263236251,21.621128921362754],[-117.69526063786805,21.651630604868672],[-117.88611980948156,21.678099633891122],[-118.07420832185647,21.700425168786637],[-118.25937434874709,21.718496369911691],[-118.44146606390763,21.7322023976227],[-118.62033164199158,21.74143241137682],[-118.7958203242485,21.746076566180705],[-118.96784539894588,21.746084585435426],[-119.13641942781425,21.741498533130937],[-119.30156351254595,21.732368412472397],[-119.46329875573292,21.718744228463493],[-119.62164625726888,21.700675986108024],[-119.77662711974568,21.67821369130894],[-119.92826244485587,21.651407348170721],[-120.07657333249318,21.620306960797734],[-120.2215808861489,21.584962535093041],[-120.36330620661607,21.545424075161066],[-120.50177039558719,21.50174158690487],[-120.63699455475478,21.453965074428766],[-120.76899978491207,21.402144542736607],[-120.89780718775143,21.346329996832026],[-121.02343786496539,21.28657144171882],[-121.14591291824649,21.2229188815013],[-121.26525344928717,21.155422322082643],[-121.3814805597799,21.084131767567158],[-121.4946153505179,21.009097223857907],[-121.60467892319366,20.930368694160052],[-121.7116923794996,20.847996184376541],[-121.81567682202763,20.762029699511174],[-121.91665334977216,20.672519243668319],[-122.01464306712376,20.579514822751037],[-122.1096670739762,20.483066440863695],[-122.20174647202197,20.383224103010093],[-122.2909023629536,20.280037814193918],[-122.37715584756421,20.173557579418912],[-122.46052802934497,20.063833402789442],[-122.54104000818973,19.950915290208627],[-122.61871288579096,19.834853246680154],[-122.69356776384114,19.71569727540907],[-122.76562571885177,19.593497427264595],[-122.83488193855055,19.46834793411],[-122.90125715309506,19.34047012359747],[-122.96465878177725,19.210108033958761],[-123.02499424838578,19.077505706123588],[-123.08217097221251,18.942907179223084],[-123.1360963752474,18.806556492388381],[-123.18667787948044,18.668697685649818],[-123.23382290600222,18.529574798138583],[-123.27743887500401,18.389431869885016],[-123.31743321027432,18.248512940919625],[-123.35371333110527,18.107062050373486],[-123.38618665948667,17.965323236478298],[-123.41476061650917,17.823540541063267],[-123.43934262416269,17.68195800325941],[-123.45984010443721,17.540819661298485],[-123.47616047662461,17.400369555210943],[-123.48821116451353,17.260851725926557],[-123.49589958739597,17.122510211677081],[-123.49913316816111,16.985589051593593],[-123.49781932700023,16.850332287505182],[-123.49186548590336,16.716983956744343],[-123.48117906596104,16.585788099341471],[-123.4656674891632,16.456988756226281],[-123.44523817660047,16.330829965630528],[-123.41979855026278,16.207555767584722],[-123.38925602944209,16.087410201219939],[-123.35351803792702,15.970637306566573],[-123.31249199500945,15.857481123655077],[-123.26608532357875,15.748185691616527],[-123.21420544472539,15.642995049581998],[-123.1567597795401,15.542153237581999],[-123.09365575001277,15.445904295646869],[-123.02480077633464,15.354492262008421],[-122.95014003043798,15.26810989465605],[-122.8698299260102,15.186662979712878],[-122.78410030998123,15.109957543306109],[-122.69318110482402,15.037799510838909],[-122.59730223301153,14.969994807714329],[-122.49669361701672,14.906349358436273],[-122.39158517751383,14.84666908840785],[-122.28220683877447,14.790759923032169],[-122.168788521473,14.738427787712396],[-122.05156014808227,14.689478607851584],[-121.93075164197461,14.643718307953691],[-121.80659292382427,14.600952813421713],[-121.67931391610426,14.560988049658931],[-121.54914454128743,14.523629942068283],[-121.41631472094753,14.488684416053104],[-121.2810543784567,14.455957396117071],[-121.14359343538865,14.425254807663407],[-121.00416181421627,14.396382576095164],[-120.8629894365132,14.369146626815507],[-120.72030622475239,14.343352884328283],[-120.57634210050742,14.318807274935921],[-120.43132698715067,14.295315723142267],[-120.28549080625561,14.272684153451053],[-120.13906348029531,14.250718493064142],[-119.99227493084328,14.229224665586003],[-119.84535508037254,14.208008596419745],[-119.69853385135605,14.186876210968478],[-119.55204116626669,14.165633435534744],[-119.40610694577884,14.144086193723012],[-119.26096111416399,14.122040410936336],[-119.11683359119718,14.099302013477256],[-118.97395430115,14.075676925849564],[-118.83255316559604,14.050971072557104],[-118.69284496602228,14.025000181613223],[-118.55486848029602,13.997693918839445],[-118.41854893338649,13.96905546064113],[-118.28380965988782,13.939089207401139],[-118.15057399169626,13.907799561300862],[-118.01876526340607,13.87519092362237],[-117.88830680691353,13.841267695647787],[-117.75912195681275,13.806034277759863],[-117.63113404500007,13.769495073039309],[-117.50426640606969,13.731654480969667],[-117.37844237191786,13.692516904631589],[-117.25358527713871,13.652086743508562],[-117.12961845452799,13.610368400681295],[-117.00646523778039,13.567366275633276],[-116.88404895879233,13.523084771445212],[-116.76229295215791,13.477528289399174],[-116.64112055067278,13.430701228978648],[-116.52045508803178,13.382607993264401],[-116.40021989703052,13.333252982639181],[-116.28033831046457,13.282640598385058],[-116.16073366292812,13.230775242683421],[-116.04132928721674,13.177661316816454],[-115.92204851522672,13.12330322116685],[-115.80281468245153,13.067705357016735],[-115.68355112078751,13.010872126547554],[-115.5641811639295,12.95280793104132],[-115.44462814467306,12.893517170880841],[-115.32481539671312,12.833004249146938],[-115.20466625374451,12.771273565322929],[-115.08410404856289,12.708329520690938],[-114.96305211396378,12.64417651833179],[-114.84143378454144,12.578818958628176],[-114.71917239219204,12.512261241962904],[-114.5961932068509,12.444510207680082],[-114.47248022957882,12.375646601409642],[-114.34808535935178,12.305836614268458],[-114.22306427679484,12.23525119658558],[-114.09747266253328,12.164061299589434],[-113.9713661998901,12.092437871810489],[-113.84480056769195,12.020551865376433],[-113.71783144836257,11.948574230616373],[-113.59051452342641,11.876675917859473],[-113.46290547350873,11.805027878334045],[-113.33505998013391,11.733801060570613],[-113.20703372302779,11.663166417596244],[-113.07888238551357,11.593294897941348],[-112.9506616482164,11.524357453733614],[-112.82242719176139,11.456525033503624],[-112.69423469767304,11.389968590278329],[-112.56613984657656,11.324859072588254],[-112.43819832089571,11.261367431661768],[-112.31046580035633,11.199664617827978],[-112.18299796738222,11.13992158141599],[-112.0558505025985,11.082309274553495],[-111.92907908752977,11.026998645771016],[-111.8027394037004,10.974160645397603],[-111.67688713083635,10.923966226460323],[-111.55157795136125,10.876586336590321],[-111.42686754679977,10.832191928814609],[-111.30281159687758,10.790953951663653],[-111.17946578401865,10.753043356365936],[-111.0568857897473,10.718631094149828],[-110.93512729378949,10.687888114445059],[-110.81424597856898,10.660985367580793],[-110.69429752471092,10.638093805684719],[-110.5753376137398,10.619384378186624],[-110.45742186332825,10.605027588452572],[-110.34059561999175,10.595121367257434],[-110.22488269238227,10.589611455804175],[-110.11030417409825,10.588424434340311],[-109.99688116233568,10.591486883113305],[-109.88463475159244,10.598725380571977],[-109.77358603816504,10.610066506963847],[-109.66375611655144,10.625436841637054],[-109.55516608304822,10.644762963939797],[-109.44783703215319,10.667971453220105],[-109.34179006016302,10.694988889725607],[-109.23704626247496,10.72574185280439],[-109.13362673448609,10.76015692270397],[-109.03155257159381,10.798160676973794],[-108.93084486919525,10.839679697660074],[-108.83152472358705,10.884640562312256],[-108.73361322836769,10.932969851177802],[-108.63713148073316,10.984594144504285],[-108.54210057518128,11.039440020740528],[-108.44854160800872,11.097434060133878],[-108.35647567371325,11.158502842032647],[-108.26592386859159,11.222572945784975],[-108.17690728804081,11.289570950738948],[-108.08944702745828,11.359423438041347],[-108.00356418224112,11.432056985241786],[-107.91927984688732,11.507398173487047],[-107.83661511859276,11.585373581225952],[-107.75559109185531,11.665909787806584],[-107.67622886207221,11.748933374375838],[-107.59854952554008,11.834370919382536],[-107.52257417675673,11.922149002174876],[-107.44832391201885,12.012194202100886],[-107.37581982582418,12.10443310030746],[-107.30508301446946,12.1987922743441]]]},"properties":{"objectid":1,"basin":"Pacific","prob2day":"0%","risk2day":"Low","prob7day":"60%","risk7day":"Medium","idp_source":"gtwo_areas_202609051722","idp_filedate":1788629570000,"idp_ingestdate":1788629578000,"st_area(shape)":122.63127978057575,"st_perimeter(shape)":44.175796328942305}}]}