{"type":"FeatureCollection","features":[{"type":"Feature","id":1,"geometry":{"type":"Point","coordinates":[-59.722935687331983,32.940694683213223]},"properties":{"objectid":1,"basin":"Atlantic","prob2day":"20%","risk2day":"Low","prob7day":"30%","risk7day":"Low","idp_source":"gtwo_points_202609171755","idp_filedate":1789667885000,"idp_ingestdate":1789667901000}},{"type":"Feature","id":2,"geometry":{"type":"Point","coordinates":[-98.430558977714554,9.2828906313976631]},"properties":{"objectid":2,"basin":"Pacific","prob2day":"0%","risk2day":"Low","prob7day":"80%","risk7day":"High","idp_source":"gtwo_points_202609171755","idp_filedate":1789667885000,"idp_ingestdate":1789667901000}},{"type":"Feature","id":3,"geometry":{"type":"Point","coordinates":[-114.24312008382469,10.575595859861153]},"properties":{"objectid":3,"basin":"Pacific","prob2day":"40%","risk2day":"Medium","prob7day":"80%","risk7day":"High","idp_source":"gtwo_points_202609171755","idp_filedate":1789667885000,"idp_ingestdate":1789667901000}},{"type":"Feature","id":4,"geometry":{"type":"Point","coordinates":[-132.07194307970929,15.411452021693606]},"properties":{"objectid":4,"basin":"Pacific","prob2day":"10%","risk2day":"Low","prob7day":"20%","risk7day":"Low","idp_source":"gtwo_points_202609171755","idp_filedate":1789667885000,"idp_ingestdate":1789667901000}}]}