{"type":"FeatureCollection","features":[{"type":"Feature","id":1,"geometry":{"type":"Point","coordinates":[-106.50286943827388,8.8938853361394763]},"properties":{"objectid":1,"basin":"Pacific","prob2day":"10%","risk2day":"Low","prob7day":"70%","risk7day":"High","idp_source":"gtwo_points_202609101146","idp_filedate":1789040887000,"idp_ingestdate":1789040955000}},{"type":"Feature","id":2,"geometry":{"type":"Point","coordinates":[-147.99999999999991,5.9999999998003091]},"properties":{"objectid":2,"basin":"Pacific","prob2day":"20%","risk2day":"Low","prob7day":"30%","risk7day":"Low","idp_source":"gtwo_points_202609101146","idp_filedate":1789040887000,"idp_ingestdate":1789040955000}}]}