{"type":"FeatureCollection","features":[{"type":"Feature","id":1,"geometry":{"type":"Polygon","coordinates":[[[-96.902344253384513,12.35275151057391],[-96.865463258622412,12.431508872536597],[-96.831373671357767,12.512869749339586],[-96.800044890359288,12.596611672990434],[-96.771446316194442,12.682512171899361],[-96.745547350329844,12.770348776275171],[-96.722317391534318,12.859899018125304],[-96.701725841274481,12.950940425860097],[-96.683742099218421,13.04325053058767],[-96.66833556503417,13.136606862516828],[-96.655475641087889,13.230786950957167],[-96.645131726148122,13.32556832791613],[-96.63727321988307,13.420728521803994],[-96.631869523759406,13.516045063728825],[-96.62889003834448,13.611295483899596],[-96.628304162407062,13.706257312525111],[-96.630081298313144,13.800708078914852],[-96.634190843932174,13.894425315076376],[-96.640602201630202,13.987186550319166],[-96.649284771075202,14.078769313952819],[-96.66020795193532,14.168951137984777],[-96.673341144777908,14.257509551724581],[-96.688653750170317,14.344222084481771],[-96.706115168680014,14.428866268263789],[-96.725694799075598,14.511219632380289],[-96.747362043723228,14.59105970703996],[-96.771086302290939,14.668164022451833],[-96.796836973547386,14.742310108824597],[-96.824583459858673,14.813275496367226],[-96.854295159993512,14.880837715288465],[-96.885941475418633,14.944774296696551],[-96.919491805802068,15.004862769001704],[-96.954915551711224,15.060880664211425],[-96.992182112814135,15.112605511635195],[-97.03126539618097,15.159852577934259],[-97.072175092006773,15.202736817150537],[-97.114937956921096,15.241516097290173],[-97.159580851874694,15.276449164097755],[-97.206130636919283,15.307794766915094],[-97.254614174804203,15.335811651486665],[-97.305058324681852,15.360758566254958],[-97.357489949301623,15.382894257863825],[-97.411935907815803,15.402477474755813],[-97.468423062973898,15.419766964473979],[-97.5269782748274,15.435021472762912],[-97.58762840432729,15.448499748065046],[-97.650400313323701,15.460460537923609],[-97.715320860968859,15.471162589881772],[-97.782416910911593,15.480864650583271],[-97.851715321404868,15.489825467571393],[-97.923242955198134,15.49830378928857],[-97.99702667324226,15.506558361479335],[-98.073093336488171,15.514847933485498],[-98.151469804987414,15.523431251051534],[-98.232182939690802,15.532567062619989],[-98.315259603347897,15.54251411483466],[-98.400726656010249,15.553531155238772],[-98.488610957729406,15.565876931375442],[-98.578939370355556,15.579810191687159],[-98.671738755738886,15.595589681918398],[-98.767035973031625,15.613474150511763],[-98.86485788408396,15.63372234411105],[-98.965231350746137,15.656593011158691],[-99.068183233069647,15.682344898298538],[-99.173740392005413,15.71123675307382],[-99.281929689403569,15.74352732212833],[-99.392777985315661,15.779475354803935],[-99.506307166542399,15.819325174417429],[-99.622449821701821,15.863062198461819],[-99.741061297540739,15.910447895254322],[-99.861994394825388,15.961236347879264],[-99.985101913422454,16.015181640320577],[-100.11023665409823,16.072037856561963],[-100.2372514167194,16.131559080587238],[-100.36599900205221,16.193499395480842],[-100.49633221086276,16.257612885226592],[-100.62810384211849,16.323653632908986],[-100.76116669748501,16.391375724310365],[-100.89537357592968,16.460533241615963],[-101.03057727911806,16.530880267910163],[-101.1666306069169,16.602170888975479],[-101.30338636009236,16.674159186997031],[-101.44069733761194,16.746599246857897],[-101.57841634204044,16.819245151642576],[-101.71639617144604,16.891850984435507],[-101.85448962749422,16.964170830119826],[-101.99254951005173,17.035958772679351],[-102.13042861898549,17.10696889519852],[-102.26797975596088,17.176955280761717],[-102.40505572084476,17.245672014252193],[-102.5415093126046,17.31287317965365],[-102.67719333380523,17.378312860050585],[-102.81196058341408,17.441745138527438],[-102.94566386219736,17.502924099967402],[-103.0781559700219,17.561603828354123],[-103.2092897076538,17.617538406772212],[-103.33891787495986,17.670481918306052],[-103.46689327270627,17.720188447838723],[-103.59306870165915,17.766412079354097],[-103.71729696168535,17.808906895936616],[-103.83943191744891,17.847429070695171],[-103.95939130256647,17.881860126943423],[-104.07719185072324,17.912275885623785],[-104.19285880768774,17.938768876182849],[-104.30641742192637,17.961431632563915],[-104.41789294010698,17.980356686012385],[-104.52731061159534,17.995636569572184],[-104.63469568215993,18.007363814488599],[-104.74007340026714,18.015630952906292],[-104.8434690143834,18.020530516969927],[-104.94490777027727,18.02215503972343],[-105.0444149173145,18.020597052412199],[-105.14201570216284,18.015949087180786],[-105.23773537238941,18.008303677073172],[-105.33159917646071,17.997753353334701],[-105.42363236104455,17.984390648110036],[-105.51386017460726,17.96830809354384],[-105.60230786381675,17.949598222679981],[-105.68900067713946,17.928353565864541],[-105.77396386124309,17.904666657040707],[-105.85722266549351,17.878630027453937],[-105.93880233565915,17.850336209248781],[-106.0187281202065,17.819877734569957],[-106.09702526670259,17.787347135562015],[-106.17371902271464,17.752836945268939],[-106.24883463580971,17.716439694036808],[-106.32239735355495,17.678247915808811],[-106.39443242441678,17.638354141830348],[-106.46496509416369,17.596850903346649],[-106.53402061216144,17.553830734301073],[-106.60162422597716,17.509386165938963],[-106.66780118227865,17.463609730404869],[-106.73257672863303,17.41659395984351],[-106.7959761045135,17.368431366614402],[-106.85801550041492,17.319195121357893],[-106.91868507955269,17.268902757256569],[-106.97797035654662,17.217561863689184],[-107.0358568442179,17.165180030034492],[-107.09233005538766,17.111764845671246],[-107.14737550467572,17.057323899978144],[-107.20097870310457,17.001864784132636],[-107.25312516619334,16.945395085714779],[-107.30380040496465,16.887922395002647],[-107.35298993493745,16.829454301375051],[-107.40067926803368,16.769998395110008],[-107.44685391707452,16.709562265586214],[-107.49149939667973,16.648153502182538],[-107.53460121877112,16.585779694277619],[-107.57614489796856,16.522448431250268],[-107.61611594709319,16.458167303378502],[-107.65449987806682,16.392943900041075],[-107.69128220550925,16.326785810616798],[-107.72644844314107,16.259700624484367],[-107.75998410288395,16.191695931921856],[-107.79187469845846,16.12277932230802],[-107.82210574268578,16.052958385021611],[-107.85066275018568,15.982240709441328],[-107.87753123288002,15.91063388494598],[-107.90269670448924,15.838145501813585],[-107.92614467873386,15.764783149422954],[-107.947860668435,15.690554417152782],[-107.96783018641389,15.615466894381825],[-107.98603874639093,15.539528171388156],[-108.00247186118736,15.462745836651152],[-108.01711504542288,15.38512748134832],[-108.02995381012016,15.306680693059661],[-108.04097367079817,15.227413063861945],[-108.05015069110141,15.147339891223112],[-108.05740807072578,15.066519622083035],[-108.06265062812389,14.98502570137515],[-108.06578316466124,14.902931588422234],[-108.0667104799046,14.820310742546894],[-108.06533737701824,14.737236624870491],[-108.06156865556892,14.653782694715744],[-108.05530911602278,14.570022411405319],[-108.04646356064472,14.486029235161197],[-108.03493678900151,14.401876626205478],[-108.0206336024587,14.317638043860768],[-108.0034588014824,14.233386947449787],[-107.98331718833748,14.149196798993216],[-107.96011356259072,14.065141056015079],[-107.93375272470837,13.98129317873736],[-107.90413947785453,13.897726628281418],[-107.8711786206967,13.814514863070599],[-107.83477495460039,13.731731344226318],[-107.79483328093107,13.649449531071127],[-107.75125840015494,13.56774288292786],[-107.70395511363751,13.486684860018386],[-107.65282822274418,13.40634892166554],[-107.59778252704189,13.326808528990568],[-107.53872282789609,13.248137141316136],[-107.47555392577294,13.170408217965019],[-107.40818062293732,13.093695218259825],[-107.33650771895594,13.018071604221291],[-107.26044001609375,12.943610833373384],[-107.17988231301825,12.870386366837522],[-107.09473941289349,12.798471664835574],[-107.00491611528639,12.727940185791056],[-106.91031722156242,12.65886539082527],[-106.81084753218778,12.591320738361503],[-106.70642925310744,12.525375197407584],[-106.59718691074721,12.461045508843313],[-106.4833755645306,12.398314721347447],[-106.36525244844165,12.337165320623171],[-106.24307479646461,12.277579793272992],[-106.11709984258357,12.219540625899299],[-105.98758482078273,12.163030305104655],[-105.85478696504629,12.108031316592132],[-105.71896350935839,12.054526147863555],[-105.58037168770312,12.002497285521429],[-105.43926873496406,11.951927215268881],[-105.29591188422597,11.902798422809099],[-105.15055836947306,11.855093396543168],[-105.00346542558884,11.808794621274899],[-104.85489028655741,11.763884584506116],[-104.70509018546358,11.720345772839266],[-104.55432235719093,11.678160671078217],[-104.40284403572355,11.637311767624112],[-104.25091245504569,11.597781547280704],[-104.0987848491414,11.559552497549873],[-103.94671845109553,11.522607105034012],[-103.79497049669095,11.486927855436306],[-103.64379821901252,11.45249723625858],[-103.49345885204428,11.419297732304642],[-103.34420963066981,11.38731183197558],[-103.1963077870746,11.356522020075317],[-103.05001055794082,11.326910783206245],[-102.90557517455454,11.29846060976945],[-102.76325887359803,11.271153983669535],[-102.62331888725674,11.244973393307589],[-102.48601244951482,11.21990132348742],[-102.35159679615509,11.195920261710853],[-102.22032915936313,11.173012694580336],[-102.0924612306012,11.151161365904443],[-101.96807654969291,11.130356828305139],[-101.8470642644042,11.110598663597557],[-101.72930268926757,11.091886956318092],[-101.61467014241305,11.074221791002969],[-101.50304494017178,11.057603253087791],[-101.39430539977428,11.042031424410823],[-101.28832983755188,11.027506392206362],[-101.18499656983573,11.014028239211996],[-101.08418391385646,11.001597050863325],[-100.98577018594523,10.990212910797311],[-100.88963370243334,10.979875904449557],[-100.7956527814506,10.970586115457024],[-100.70370573932831,10.962343628355882],[-100.61367089149832,10.955148527682525],[-100.52542655609057,10.949000898872498],[-100.43885104943627,10.943900824663444],[-100.353822688766,10.939848390490965],[-100.2702197895116,10.936843680891286],[-100.18792066890364,10.934886780400745],[-100.10680364507203,10.933977773555569],[-100.02674703254939,10.934116743992661],[-99.94762914946557,10.935303776248418],[-99.869328312151765,10.937538955758328],[-99.7917228369393,10.940822367058729],[-99.714691041058586,10.945154092887208],[-99.638111241740319,10.950534219578685],[-99.561861754416327,10.956962829870861],[-99.485820897216513,10.964440010098542],[-99.409866985572819,10.972965843898692],[-99.33387833761509,10.982540414908385],[-99.257733268775212,10.993163809462374],[-99.181310096283823,11.004836110298413],[-99.104487542066295,11.01755749997875],[-99.027210112556531,11.03134402061022],[-98.949560262995647,11.046244969429949],[-98.871637818130694,11.062313833616656],[-98.793542606306119,11.079604099449739],[-98.715374450470392,11.098169252309276],[-98.637233178967961,11.118062779373929],[-98.5592186156465,11.139338165124343],[-98.481430587951195,11.16204889763867],[-98.403968919729778,11.186248461397497],[-98.326933439326638,11.211990342680281],[-98.250423970589679,11.239328029565058],[-98.174540340064539,11.268315005633156],[-98.099382373397702,11.29900475806329],[-98.02504989713492,11.331450774034124],[-97.951642736023359,11.365706538026473],[-97.879260716608655,11.401825537218883],[-97.808003664537409,11.439861256991549],[-97.73797140545588,11.479867183623753],[-97.669263765010669,11.521896804294215],[-97.601980569747411,11.566003603483637],[-97.536221644413274,11.612241068370736],[-97.472086816453327,11.660662685234854],[-97.409675909715361,11.71132193945607],[-97.349088751644445,11.764272318213045],[-97.290425167887065,11.819567306885858],[-97.233784983190333,11.877260390854474],[-97.17926802409994,11.937405058197044],[-97.126974116262375,12.000054793394156],[-97.077003086223328,12.06526308272521],[-97.029454758730026,12.133083413368979],[-96.98442896032816,12.20356927070543],[-96.94202551666416,12.276774141013959],[-96.902344253384513,12.35275151057391]]]},"properties":{"objectid":1,"basin":"Pacific","prob2day":"90%","risk2day":"High","prob7day":"90%","risk7day":"High","idp_source":"gtwo_areas_202610062329","idp_filedate":1791329579000,"idp_ingestdate":1791329641000,"st_area(shape)":57.900780285219454,"st_perimeter(shape)":29.712848330619355}},{"type":"Feature","id":2,"geometry":{"type":"Polygon","coordinates":[[[-90.367380961661922,12.178713331355311],[-90.460019007770882,12.247242809807972],[-90.556064909767656,12.313350530003106],[-90.655411506235907,12.377082780945727],[-90.757951636658618,12.438485849842209],[-90.863578141417975,12.497606027496317],[-90.972183859097697,12.554489600214993],[-91.083661629180767,12.609182858802058],[-91.197904292049316,12.661732091363092],[-91.314804686287118,12.712183586003846],[-91.4342556513771,12.760583631729332],[-91.556150026802186,12.806978517544678],[-91.680380652045358,12.851414532454839],[-91.80684036658954,12.893937964565566],[-91.935422010817035,12.934595101982495],[-92.066018422412185,12.973432235509392],[-92.198522441757177,13.010495652352631],[-92.332826908335051,13.045831640617848],[-92.46882466162873,13.07948649110881],[-92.606408540221878,13.111506491031889],[-92.745471385396002,13.141937929392043],[-92.885906034835557,13.170827094295078],[-93.027605328023355,13.198220276544646],[-93.170462106241132,13.224163762447802],[-93.314369206273739,13.248703841908934],[-93.45921947030223,13.271886803933],[-93.604905736010778,13.29375893662575],[-93.751320842882478,13.314366528092933],[-93.898357630400199,13.333755869138201],[-94.045908938946297,13.35197324696793],[-94.193867608003586,13.369064949687811],[-94.342126475256521,13.385077268101554],[-94.490578381986666,13.40005648851627],[-94.639116166777569,13.414048901735555],[-94.78763266821295,13.427100794965838],[-94.93602072847375,13.43925845811151],[-95.084173184344877,13.450568179278207],[-95.23198287620869,13.461076247470999],[-95.379342643548057,13.470828950795578],[-95.526145325846016,13.479872579156336],[-95.672283761686174,13.488253419759644],[-95.817650792350094,13.496017762509894],[-95.962139255522118,13.50321189551272],[-96.105641991584548,13.509882108672514],[-96.24805184002031,13.516074688296385],[-96.389261640312327,13.521835925187929],[-96.529164231044319,13.527212108352273],[-96.667652451699212,13.532249524096414],[-96.804619142659192,13.536994464123381],[-96.939957143407355,13.541493214740228],[-97.07355929252725,13.545792065851288],[-97.205318429501801,13.549937305562366],[-97.335127394713368,13.553975223777684],[-97.462879026745611,13.557952108603047],[-97.588466165081343,13.561914248144149],[-97.711781650102978,13.565907931406059],[-97.832718319494745,13.569979447393735],[-97.951169014538266,13.574175085112245],[-98.067026573817202,13.578541132667283],[-98.180183836814535,13.583123879063919],[-98.290533873239553,13.587969506287834],[-98.398018586888156,13.593101502832212],[-98.502688837120047,13.598492728956387],[-98.604610226780437,13.604109192984993],[-98.703848356916012,13.609916903242606],[-98.800468829472777,13.615881870751878],[-98.894537246396681,13.621970102038688],[-98.986119208734408,13.628147607226424],[-99.075280319331171,13.634380394639663],[-99.162086180133031,13.640634473502303],[-99.24660239128724,13.646875853038352],[-99.328894556538444,13.65307054067307],[-99.409028276034007,13.659184547429049],[-99.487069153518519,13.665183880731661],[-99.563082789139287,13.671034549804745],[-99.637134784842374,13.676702562973048],[-99.709290743472934,13.682153930359732],[-99.77961626607771,13.687354660289486],[-99.84817695460265,13.692270761086888],[-99.915038410993759,13.696868241975949],[-99.980266237196986,13.701113112180508],[-100.04392603515828,13.704971380025313],[-100.10608340592432,13.708409055633524],[-100.16680395144112,13.711392145531249],[-100.22615327455389,13.713886660740911],[-100.28419697630932,13.715858609587315],[-100.3410006586534,13.717274001294243],[-100.39662992263271,13.718098843287123],[-100.45115037109264,13.718299145689173],[-100.50462760597912,13.717840916824969],[-100.5571272283388,13.716690166817898],[-100.60871484011767,13.714812903093161],[-100.65945604326168,13.712175134874713],[-100.70941643971685,13.708742870487242],[-100.75866163142905,13.70448212095323],[-100.80725722034435,13.699358892798784],[-100.85526880750933,13.693339196147122],[-100.90276199576937,13.686389039322819],[-100.94980238527177,13.678474431549887],[-100.99645557976112,13.66956138115296],[-101.04278718028405,13.659615898255254],[-101.08886278788725,13.648603990282083],[-101.13474800541604,13.636491667356722],[-101.18050843481632,13.623244937803747],[-101.22620967713482,13.608829809947906],[-101.27191733431744,13.593212293013039],[-101.31769700831018,13.576358397122476],[-101.36361430105904,13.558234129701475],[-101.40973481450999,13.53880549907467],[-101.45612415060896,13.518038516264653],[-101.50284791040264,13.49589918869674],[-101.54997169583697,13.472353525594883],[-101.59756110975729,13.447367535283661],[-101.64568175231091,13.420907227886403],[-101.69439922724246,13.392938610828367],[-101.7437791346992,13.363427694232826],[-101.79388707752651,13.332340486424471],[-101.84478865677102,13.299642995727822],[-101.89654947527794,13.265301232266211],[-101.94923513409407,13.229281204364213],[-102.00290923597237,13.191549669481788],[-102.05755768314049,13.152102511421901],[-102.11306543881886,13.110973448465984],[-102.16931071951399,13.068198726889875],[-102.22617174443036,13.023814593868565],[-102.28352673097373,12.97785729387914],[-102.34125389654997,12.9303630758954],[-102.39923145856488,12.881368185293638],[-102.45733763622286,12.830908868349752],[-102.51545064603039,12.779021372238674],[-102.57344870539333,12.725741942336924],[-102.63121003351614,12.671106826718812],[-102.68861284690524,12.615152271660122],[-102.74553536296651,12.557914522537317],[-102.80185580090438,12.499429827424706],[-102.85745237812466,12.43973443079949],[-102.91220331203311,12.378864581635298],[-102.96598681913628,12.316856524409218],[-103.01868111953792,12.253746507195672],[-103.07016442974452,12.189570775371124],[-103.1203149671619,12.124365576110563],[-103.16901095009518,12.05816715568983],[-103.21613059595012,11.991011761283914],[-103.26155212213263,11.922935638269223],[-103.3051537478471,11.853975033820916],[-103.34681368959997,11.784166194214606],[-103.38641016569647,11.71354536662551],[-103.42382139354237,11.642148796429922],[-103.45892559054346,11.57001273170232],[-103.49160097500487,11.497173417819113],[-103.52172576433247,11.423667101955346],[-103.54917817683128,11.349530029487426],[-103.5738364299072,11.274798448489719],[-103.595578740966,11.199508604338746],[-103.61428332831287,11.123696745108816],[-103.62982840845422,11.047399115277074],[-103.64209220149382,10.970651962018565],[-103.65095292303886,10.893491532508335],[-103.6562887913945,10.815954073921489],[-103.65797802486588,10.738075830735113],[-103.6558988408587,10.65989305102363],[-103.64992945767824,10.58144198016339],[-103.63994809183089,10.502758866228817],[-103.62583296162177,10.423879954596373],[-103.60746228445674,10.344841491541729],[-103.58471427954026,10.265679725139364],[-103.55746716247944,10.186430900765572],[-103.52559915247883,10.10713126469625],[-103.4889884678434,10.027817064106387],[-103.44751332418048,9.9485245452717095],[-103.4010519406944,9.8692899544679449],[-103.34948253569036,9.7901495388702529],[-103.29268332477551,9.7111395447543032],[-103.23053252805363,9.6322962183958794],[-103.1629083620312,9.553655806070708],[-103.08968904411398,9.475254555853212],[-103.01075279350653,9.3971287122204217],[-102.92597782581589,9.31931452324676],[-102.83524236114596,9.2418482343086907],[-102.7384246160031,9.1647660925812602],[-102.6354137255629,9.0881048641483062],[-102.52626219764221,9.0119090924308125],[-102.41114829945434,8.9362293076365518],[-102.29025353577197,8.8611161928581623],[-102.16375940866965,8.7866204320874317],[-102.03184742381944,8.7127927084168846],[-101.89469908329596,8.6396837076371185],[-101.75249589097251,8.567344112840658],[-101.60541935072234,8.4958246071200847],[-101.45365096551956,8.4251758744671861],[-101.29737224103599,8.3554485997731831],[-101.13676467844704,8.2866934661307141],[-100.97200978252533,8.2189611566321901],[-100.80328905714418,8.1523023570682653],[-100.63078400527752,8.086767749632088],[-100.4546761307987,8.0224080183155024],[-100.27514693668167,7.9592738480097864],[-100.09237792859841,7.8974159218074647],[-99.906550607724284,7.8368849237003815],[-99.717846479731179,7.7777315376804381],[-99.526447046693761,7.7200064477395358],[-99.332533812485337,7.6637603369700855],[-99.136288281878592,7.6090438902634787],[-98.937891957847455,7.5559077907121264],[-98.737526343365971,7.5044027223079297],[-98.535372942307333,7.4545793690427899],[-98.331613259444282,7.4064884140092317],[-98.126428796851371,7.3601805429977958],[-97.920001058402022,7.315706438201687],[-97.712511548868804,7.2731167836128066],[-97.504141771225648,7.2324622641223186],[-97.295073229345974,7.193793561923485],[-97.085487426203656,7.1571613628067894],[-96.875565865672058,7.1226163489654937],[-96.665490051624488,7.0902092052907051],[-96.455441487034875,7.0599906148751188],[-96.24560167667596,7.0320112626098421],[-96.03615212352156,7.0063218306880799],[-95.827274330545833,6.9829730049003729],[-95.619149802521292,6.9620154683393025],[-95.411960043321244,6.9434999040974503],[-95.205886555020413,6.9274769961666038],[-95.00111084239137,6.9139974303373037],[-94.797814408408101,6.9031118879034352],[-94.596178756943971,6.8948710537562761],[-94.396385392771549,6.8893256127869336],[-94.198615817066184,6.8865262471886695],[-94.003051536399198,6.8865236418527047],[-93.809874051945826,6.889368479871564],[-93.619264868478808,6.8951114461364682],[-93.431405488972018,6.9038032228406223],[-93.246477418198197,6.9154944957745101],[-93.064662158231897,6.9302359480307132],[-92.88614121384586,6.9480782627018129],[-92.71109608891328,6.9690721246789735],[-92.539708286408199,6.9932682179540393],[-92.37215930930455,7.020717224720272],[-92.208630662375072,7.0514698307682124],[-92.049303849492958,7.0855767191903851],[-91.894360372732933,7.1230885730793148],[-91.743964699211404,7.1640432853694733],[-91.598155370274014,7.2083842014698689],[-91.456914490311362,7.256012294332038],[-91.32022389661546,7.3068283354594428],[-91.188065425578827,7.3607330972547516],[-91.060420915392854,7.4176273512214266],[-90.9372722042487,7.4774118706614559],[-90.818601127639852,7.5399874252796053],[-90.704389524656733,7.6052547892772395],[-90.594619230792773,7.6731147332584442],[-90.489272086037829,7.7434680296260012],[-90.388329924985953,7.816215450782579],[-90.291774586727684,7.8912577673322062],[-90.199587908555031,7.9684957534763612],[-90.111751726860575,8.0478301798190728],[-90.028247879835703,8.1291618187630661],[-89.949058204772257,8.2123914427110662],[-89.874164538962191,8.2974198222671021],[-89.803548718798254,8.3841477307333321],[-89.737192583370927,8.472475939613048],[-89.675077969072902,8.5623052213090318],[-89.617186714095453,8.6535363473246889],[-89.563500653931953,8.7460700891634247],[-89.514001628572203,8.8398072201272271],[-89.468671472610254,8.9346485117195584],[-89.427492025136758,9.0304947363431438],[-89.390445123443612,9.1272466646020121],[-89.357512604822773,9.2248050697982649],[-89.328676306566194,9.3230707234352508],[-89.303918065066568,9.4219443979157518],[-89.283219718515113,9.5213268647431732],[-89.266563105103103,9.6211188963201266],[-89.25393006122323,9.721221264150131],[-89.245302424167448,9.8215347406359115],[-89.240662031227657,9.9219600981801364],[-89.239990720595188,10.022398107386891],[-89.243270329561938,10.122749542457541],[-89.250482694520656,10.222915173096908],[-89.261609652763184,10.32279577260698],[-89.276633043380116,10.422292112491164],[-89.295534701864881,10.521304965152183],[-89.318296466408697,10.619735102992763],[-89.344900175202838,10.71748329661699],[-89.375327663740563,10.814450319326909],[-89.409560771112581,10.910536942625924],[-89.447581333711469,11.005643938916762],[-89.489371188829182,11.099672079702827],[-89.534912174657052,11.192522136487526],[-89.5841861275876,11.284094882572901],[-89.637174885812215,11.374291088563041],[-89.693860286622851,11.463011527759932],[-89.75422416641203,11.550156971667036],[-89.818248364270517,11.635628192687079],[-89.885914715691456,11.71932596142409],[-89.957205059765613,11.801151051180227],[-90.032101231986189,11.881004234358045],[-90.110585071443779,11.9587862815618],[-90.192638414531075,12.034397965194103],[-90.278243098540088,12.107740057657679],[-90.367380961661922,12.178713331355311]]]},"properties":{"objectid":2,"basin":"Pacific","prob2day":"0%","risk2day":"Low","prob7day":"20%","risk7day":"Low","idp_source":"gtwo_areas_202610062329","idp_filedate":1791329579000,"idp_ingestdate":1791329641000,"st_area(shape)":78.023504131164444,"st_perimeter(shape)":34.988361236128682}}]}