{"type":"FeatureCollection","properties":{"exceededTransferLimit":true},"features":[{"type":"Feature","geometry":{"type":"MultiPolygon","coordinates":[[[[-102.0442,41.3275],[-102.0442,41.3275],[-102.0442,41.3275],[-102.0442,41.3275]]],[[[-101.8885,41.5139],[-101.8885,41.5139],[-101.8885,41.5139],[-101.8885,41.5139]]],[[[-102.0442,41.3274],[-102.0441,41.3274],[-102.0441,41.3273],[-102.0442,41.3274]]],[[[-102.098,41.3968],[-102.0981,41.3987],[-102.0978,41.3978],[-102.098,41.3968]]],[[[-102.0436,41.8137],[-102.0823,41.8085],[-102.0693,41.7708],[-102.1371,41.763],[-102.1106,41.7512],[-102.1246,41.7159],[-102.0565,41.6841],[-102.131,41.6692],[-102.1407,41.6236],[-101.917,41.5654],[-101.8979,41.5152],[-101.7549,41.4662],[-101.7769,41.366],[-101.8182,41.3459],[-101.8324,41.3995],[-101.8587,41.3952],[-101.8547,41.3191],[-101.8953,41.359],[-101.9008,41.3166],[-101.9532,41.3396],[-101.951,41.3089],[-101.9792,41.3271],[-102.015,41.3021],[-101.9938,41.2894],[-102.0292,41.2974],[-101.9966,41.3051],[-102.0144,41.3673],[-102.0104,41.3372],[-102.0512,41.3237],[-102.0603,41.4034],[-102.1384,41.3804],[-102.1373,41.4243],[-102.202,41.4025],[-102.2184,41.4975],[-102.2788,41.5622],[-102.2795,41.5276],[-102.3075,41.553],[-102.3531,41.526],[-102.4093,41.5798],[-102.4526,41.4624],[-102.5093,41.5671],[-102.5026,41.6116],[-102.5425,41.5741],[-102.5792,41.631],[-102.5941,41.6025],[-102.6394,41.6408],[-102.6713,41.6122],[-102.703,41.6993],[-102.7345,41.6561],[-102.7336,41.7124],[-102.9766,41.7883],[-102.6553,41.7647],[-102.6825,41.8502],[-102.6556,41.8968],[-102.4688,41.888],[-102.4455,41.8629],[-102.1675,41.8766],[-102.0436,41.8137]]],[[[-101.7646,41.4738],[-101.7646,41.4738],[-101.7645,41.4738],[-101.7646,41.4738]]]]},"properties":{"poly_IncidentName":"Morrill","poly_GISAcres":642029.48538449779,"attr_PercentContained":100}},{"type":"Feature","geometry":{"type":"Polygon","coordinates":[[[-82.1116,33.6434],[-82.1148,33.6241],[-82.1324,33.626],[-82.1116,33.6434]]]},"properties":{"poly_IncidentName":"Woodlawn","poly_GISAcres":632,"attr_PercentContained":100}},{"type":"Feature","geometry":{"type":"Polygon","coordinates":[[[-106.1499,42.9137],[-105.9912,42.8937],[-106.065,42.8877],[-106.1499,42.9137]]]},"properties":{"poly_IncidentName":"Sandpiper","poly_GISAcres":2000,"attr_PercentContained":100}},{"type":"Feature","geometry":{"type":"Polygon","coordinates":[[[-81.5336,29.0813],[-81.4859,29.0681],[-81.5081,29.0483],[-81.5336,29.0813]]]},"properties":{"poly_IncidentName":"Shell","poly_GISAcres":2795.0591135899831,"attr_PercentContained":100}},{"type":"Feature","geometry":{"type":"MultiPolygon","coordinates":[[[[-76.3381,35.4863],[-76.3288,35.4762],[-76.3527,35.468],[-76.3381,35.4863]]],[[[-76.3351,35.4854],[-76.3357,35.4853],[-76.3352,35.487],[-76.3351,35.4854]]]]},"properties":{"poly_IncidentName":"Rose Bay Canal","poly_GISAcres":662.02984001387165,"attr_PercentContained":100}},{"type":"Feature","geometry":{"type":"MultiPolygon","coordinates":[[[[-112.1572,39.2122],[-112.1211,39.2211],[-112.1391,39.2021],[-112.1572,39.2122]]],[[[-112.1644,39.2058],[-112.1652,39.2057],[-112.1627,39.2067],[-112.1644,39.2058]]]]},"properties":{"poly_IncidentName":"Tower","poly_GISAcres":1368.7539332752,"attr_PercentContained":100}},{"type":"Feature","geometry":{"type":"Polygon","coordinates":[[[-79.7426,33.0239],[-79.7538,33.0257],[-79.7487,33.0381],[-79.7426,33.0239]]]},"properties":{"poly_IncidentName":"Flower Cemetery","poly_GISAcres":243,"attr_PercentContained":100}},{"type":"Feature","geometry":{"type":"MultiPolygon","coordinates":[[[[-150.8074,65.4578],[-150.8005,65.4463],[-150.8642,65.4322],[-150.8074,65.4578]]],[[[-150.7854,65.4557],[-150.7843,65.4547],[-150.7932,65.455],[-150.7854,65.4557]]],[[[-150.8518,65.4637],[-150.8069,65.46],[-150.8572,65.4558],[-150.8518,65.4637]]]]},"properties":{"poly_IncidentName":"Canyon","poly_GISAcres":1064,"attr_PercentContained":0}},{"type":"Feature","geometry":{"type":"MultiPolygon","coordinates":[[[[-110.683,33.651],[-110.6832,33.651],[-110.6831,33.6513],[-110.683,33.651]]],[[[-110.6992,33.6382],[-110.699,33.6376],[-110.6994,33.638],[-110.6992,33.6382]]],[[[-110.7092,33.6071],[-110.7098,33.6072],[-110.7093,33.6075],[-110.7092,33.6071]]],[[[-110.7046,33.6255],[-110.7046,33.6244],[-110.706,33.6249],[-110.7046,33.6255]]],[[[-110.669,33.6207],[-110.6644,33.6195],[-110.6669,33.6187],[-110.669,33.6207]]],[[[-110.7197,33.6681],[-110.6614,33.6488],[-110.6614,33.6229],[-110.7504,33.5994],[-110.775,33.6241],[-110.7383,33.6338],[-110.7716,33.664],[-110.7197,33.6681]]],[[[-110.7158,33.6204],[-110.7201,33.6141],[-110.7094,33.6178],[-110.7158,33.6204]]],[[[-110.6891,33.6407],[-110.7269,33.6235],[-110.688,33.6245],[-110.6891,33.6407]]]]},"properties":{"poly_IncidentName":"Sycamore","poly_GISAcres":11938.528496942321,"attr_PercentContained":100}},{"type":"Feature","geometry":{"type":"MultiPolygon","coordinates":[[[[-112.153,36.9075],[-112.153,36.9072],[-112.1532,36.9072],[-112.153,36.9075]]],[[[-112.1848,36.8988],[-112.185,36.899],[-112.1848,36.899],[-112.1848,36.8988]]],[[[-112.1814,36.899],[-112.1816,36.8992],[-112.1813,36.8992],[-112.1814,36.899]]],[[[-112.0599,36.9149],[-112.0602,36.9149],[-112.0602,36.9152],[-112.0599,36.9149]]],[[[-112.0575,36.9159],[-112.0593,36.9162],[-112.0589,36.9164],[-112.0575,36.9159]]],[[[-112.1546,36.9056],[-112.1557,36.9065],[-112.1545,36.9077],[-112.1546,36.9056]]],[[[-112.0605,36.9371],[-112.0816,36.9041],[-112.2121,36.9115],[-112.0605,36.9371]]],[[[-112.0561,36.9265],[-112.0563,36.9268],[-112.0564,36.9266],[-112.0561,36.9265]]],[[[-112.0638,36.9362],[-112.0636,36.9366],[-112.064,36.9363],[-112.0638,36.9362]]],[[[-112.0618,36.9276],[-112.0623,36.927],[-112.0621,36.926],[-112.0618,36.9276]]],[[[-112.0814,36.9259],[-112.0855,36.9274],[-112.0832,36.9253],[-112.0814,36.9259]]],[[[-112.065,36.9218],[-112.069,36.921],[-112.0638,36.921],[-112.065,36.9218]]],[[[-112.1779,36.9097],[-112.1757,36.9108],[-112.1807,36.9127],[-112.1779,36.9097]]]]},"properties":{"poly_IncidentName":"Rock Canyon","poly_GISAcres":4822.773468309455,"attr_PercentContained":100}}]}