{
"type": "FeatureCollection",
"name": "al092021-005_5day_pgn",
"features": [
{ "type": "Feature", "properties": { "STORMNAME": "Ida", "STORMTYPE": "TS", "ADVDATE": "1100 AM EDT Fri Aug 27 2021", "ADVISNUM": "5", "STORMNUM": 9.0, "FCSTPRD": 120.0, "BASIN": "AL" }, "geometry": { "type": "Polygon", "coordinates": [ [ [ -82.1507, 20.4362 ], [ -82.1246, 20.4333 ], [ -82.097, 20.4333 ], [ -82.0685, 20.4362 ], [ -82.0401, 20.442 ], [ -82.0125, 20.4504 ], [ -81.9863, 20.4611 ], [ -81.962, 20.4739 ], [ -81.9392, 20.4883 ], [ -81.9077, 20.5126 ], [ -81.889, 20.531 ], [ -81.8644, 20.5621 ], [ -81.8509, 20.5858 ], [ -81.8403, 20.6121 ], [ -81.8331, 20.6408 ], [ -81.8292, 20.6715 ], [ -81.8287, 20.7032 ], [ -81.8316, 20.7345 ], [ -81.8374, 20.7647 ], [ -81.8457, 20.7933 ], [ -81.8564, 20.8198 ], [ -81.8691, 20.8442 ], [ -81.8835, 20.867 ], [ -81.8993, 20.8884 ], [ -81.925, 20.9184 ], [ -81.9428, 20.9378 ], [ -81.9612, 20.9565 ], [ -81.9796, 20.9753 ], [ -81.9981, 20.994 ], [ -82.0159, 21.0134 ], [ -82.0334, 21.033 ], [ -82.0417, 21.0433 ], [ -82.0581, 21.0641 ], [ -82.0739, 21.0854 ], [ -82.0897, 21.1068 ], [ -82.1056, 21.1281 ], [ -82.1219, 21.1489 ], [ -82.1478, 21.1788 ], [ -82.1656, 21.1981 ], [ -82.184, 21.2169 ], [ -82.2024, 21.2356 ], [ -82.2211, 21.2541 ], [ -82.2396, 21.2728 ], [ -82.258, 21.2916 ], [ -82.2758, 21.3109 ], [ -82.2933, 21.3306 ], [ -82.31, 21.3511 ], [ -82.318, 21.3617 ], [ -82.3339, 21.3829 ], [ -82.3575, 21.4151 ], [ -82.3735, 21.4362 ], [ -82.3819, 21.4465 ], [ -82.4077, 21.4764 ], [ -82.4255, 21.4957 ], [ -82.4439, 21.5145 ], [ -82.4624, 21.5332 ], [ -82.4811, 21.5516 ], [ -82.4995, 21.5704 ], [ -82.5179, 21.5891 ], [ -82.5357, 21.6085 ], [ -82.5533, 21.6281 ], [ -82.5616, 21.6384 ], [ -82.5779, 21.6592 ], [ -82.5938, 21.6805 ], [ -82.6174, 21.7126 ], [ -82.6254, 21.7232 ], [ -82.6418, 21.744 ], [ -82.6676, 21.7739 ], [ -82.6854, 21.7933 ], [ -82.7039, 21.812 ], [ -82.7223, 21.8308 ], [ -82.741, 21.8492 ], [ -82.7594, 21.868 ], [ -82.7781, 21.8864 ], [ -82.7965, 21.9052 ], [ -82.815, 21.9239 ], [ -82.8328, 21.9432 ], [ -82.8503, 21.9629 ], [ -82.8669, 21.9834 ], [ -82.875, 21.994 ], [ -82.8909, 22.0153 ], [ -82.9145, 22.0474 ], [ -82.9225, 22.058 ], [ -82.9388, 22.0788 ], [ -82.9647, 22.1087 ], [ -82.9825, 22.128 ], [ -83.0009, 22.1468 ], [ -83.0193, 22.1655 ], [ -83.0287, 22.1747 ], [ -83.0565, 22.2027 ], [ -83.0752, 22.2212 ], [ -83.0936, 22.2399 ], [ -83.1123, 22.2584 ], [ -83.1307, 22.2771 ], [ -83.1494, 22.2956 ], [ -83.1679, 22.3143 ], [ -83.1866, 22.3327 ], [ -83.205, 22.3515 ], [ -83.2143, 22.3607 ], [ -83.2421, 22.3887 ], [ -83.2608, 22.4071 ], [ -83.2793, 22.4259 ], [ -83.2886, 22.4351 ], [ -83.3164, 22.4631 ], [ -83.3348, 22.4818 ], [ -83.3526, 22.5012 ], [ -83.3702, 22.5208 ], [ -83.3868, 22.5413 ], [ -83.3948, 22.5519 ], [ -83.4107, 22.5732 ], [ -83.4265, 22.5946 ], [ -83.4423, 22.6159 ], [ -83.467, 22.647 ], [ -83.4845, 22.6666 ], [ -83.5023, 22.6859 ], [ -83.5208, 22.7047 ], [ -83.5392, 22.7235 ], [ -83.5579, 22.7419 ], [ -83.5763, 22.7606 ], [ -83.595, 22.7791 ], [ -83.6134, 22.7978 ], [ -83.6322, 22.8163 ], [ -83.6506, 22.835 ], [ -83.6693, 22.8535 ], [ -83.6877, 22.8722 ], [ -83.7064, 22.8907 ], [ -83.7248, 22.9094 ], [ -83.7436, 22.9279 ], [ -83.762, 22.9466 ], [ -83.7807, 22.9651 ], [ -83.7991, 22.9838 ], [ -83.8178, 23.0023 ], [ -83.8362, 23.021 ], [ -83.855, 23.0395 ], [ -83.8734, 23.0582 ], [ -83.8921, 23.0767 ], [ -83.9105, 23.0954 ], [ -83.9292, 23.1139 ], [ -83.9476, 23.1326 ], [ -83.9663, 23.151 ], [ -83.9848, 23.1698 ], [ -84.0035, 23.1882 ], [ -84.0219, 23.207 ], [ -84.0406, 23.2254 ], [ -84.059, 23.2442 ], [ -84.0777, 23.2626 ], [ -84.0962, 23.2814 ], [ -84.1149, 23.2998 ], [ -84.1333, 23.3186 ], [ -84.152, 23.337 ], [ -84.1704, 23.3558 ], [ -84.1891, 23.3742 ], [ -84.2076, 23.393 ], [ -84.2263, 23.4114 ], [ -84.2447, 23.4302 ], [ -84.2634, 23.4486 ], [ -84.2818, 23.4674 ], [ -84.3005, 23.4858 ], [ -84.3189, 23.5045 ], [ -84.3377, 23.523 ], [ -84.3561, 23.5417 ], [ -84.3748, 23.5602 ], [ -84.3932, 23.5789 ], [ -84.4119, 23.5974 ], [ -84.4211, 23.6068 ], [ -84.4491, 23.6346 ], [ -84.4675, 23.6533 ], [ -84.4862, 23.6718 ], [ -84.5046, 23.6905 ], [ -84.5233, 23.709 ], [ -84.5417, 23.7277 ], [ -84.5605, 23.7462 ], [ -84.5697, 23.7555 ], [ -84.5976, 23.7834 ], [ -84.6068, 23.7927 ], [ -84.6347, 23.8206 ], [ -84.6531, 23.8393 ], [ -84.6718, 23.8578 ], [ -84.6903, 23.8765 ], [ -84.709, 23.895 ], [ -84.7274, 23.9137 ], [ -84.7461, 23.9321 ], [ -84.7645, 23.9509 ], [ -84.7832, 23.9693 ], [ -84.8017, 23.9881 ], [ -84.8204, 24.0065 ], [ -84.8388, 24.0253 ], [ -84.8575, 24.0437 ], [ -84.8759, 24.0625 ], [ -84.8946, 24.0809 ], [ -84.9131, 24.0997 ], [ -84.9318, 24.1181 ], [ -84.9502, 24.1369 ], [ -84.9689, 24.1553 ], [ -84.9873, 24.1741 ], [ -85.006, 24.1925 ], [ -85.0244, 24.2113 ], [ -85.0432, 24.2297 ], [ -85.0616, 24.2484 ], [ -85.0803, 24.2669 ], [ -85.0987, 24.2856 ], [ -85.1174, 24.3041 ], [ -85.1358, 24.3228 ], [ -85.1546, 24.3413 ], [ -85.173, 24.36 ], [ -85.1917, 24.3785 ], [ -85.2101, 24.3972 ], [ -85.2195, 24.4065 ], [ -85.2472, 24.4344 ], [ -85.2566, 24.4437 ], [ -85.2844, 24.4716 ], [ -85.3031, 24.4901 ], [ -85.3215, 24.5088 ], [ -85.3399, 24.5276 ], [ -85.3577, 24.5469 ], [ -85.3753, 24.5666 ], [ -85.3919, 24.5871 ], [ -85.4079, 24.6082 ], [ -85.4158, 24.6189 ], [ -85.4316, 24.6403 ], [ -85.4555, 24.6722 ], [ -85.4638, 24.6825 ], [ -85.4896, 24.7124 ], [ -85.5075, 24.7317 ], [ -85.5259, 24.7504 ], [ -85.5443, 24.7692 ], [ -85.563, 24.7876 ], [ -85.5814, 24.8064 ], [ -85.5998, 24.8251 ], [ -85.6177, 24.8445 ], [ -85.6352, 24.8641 ], [ -85.6518, 24.8846 ], [ -85.6598, 24.8952 ], [ -85.6836, 24.9272 ], [ -85.6915, 24.9379 ], [ -85.7074, 24.9592 ], [ -85.7237, 24.98 ], [ -85.7496, 25.0099 ], [ -85.7674, 25.0293 ], [ -85.7858, 25.048 ], [ -85.8042, 25.0668 ], [ -85.8226, 25.0855 ], [ -85.8405, 25.1048 ], [ -85.858, 25.1245 ], [ -85.8746, 25.145 ], [ -85.8826, 25.1556 ], [ -85.8985, 25.1769 ], [ -85.9143, 25.1983 ], [ -85.9302, 25.2195 ], [ -85.9548, 25.2506 ], [ -85.9724, 25.2703 ], [ -85.9902, 25.2896 ], [ -86.0086, 25.3084 ], [ -86.027, 25.3271 ], [ -86.0454, 25.3459 ], [ -86.0633, 25.3652 ], [ -86.0808, 25.3848 ], [ -86.0974, 25.4054 ], [ -86.1054, 25.4159 ], [ -86.1292, 25.4479 ], [ -86.1371, 25.4586 ], [ -86.161, 25.4905 ], [ -86.1693, 25.5007 ], [ -86.1951, 25.5307 ], [ -86.213, 25.55 ], [ -86.2314, 25.5687 ], [ -86.2498, 25.5875 ], [ -86.2682, 25.6062 ], [ -86.286, 25.6256 ], [ -86.3036, 25.6452 ], [ -86.3202, 25.6657 ], [ -86.3282, 25.6763 ], [ -86.352, 25.7083 ], [ -86.3677, 25.7297 ], [ -86.3758, 25.7403 ], [ -86.3921, 25.7611 ], [ -86.4179, 25.791 ], [ -86.4268, 25.8007 ], [ -86.4539, 25.8294 ], [ -86.4628, 25.8391 ], [ -86.4892, 25.8684 ], [ -86.4975, 25.8787 ], [ -86.5219, 25.91 ], [ -86.5298, 25.9208 ], [ -86.5455, 25.9422 ], [ -86.5614, 25.9635 ], [ -86.5777, 25.9843 ], [ -86.5948, 26.0044 ], [ -86.6125, 26.0239 ], [ -86.6306, 26.0429 ], [ -86.649, 26.0617 ], [ -86.6675, 26.0804 ], [ -86.6856, 26.0994 ], [ -86.7033, 26.1189 ], [ -86.7287, 26.1493 ], [ -86.7367, 26.1598 ], [ -86.7604, 26.1918 ], [ -86.7683, 26.2025 ], [ -86.7842, 26.2238 ], [ -86.8089, 26.2549 ], [ -86.8176, 26.2647 ], [ -86.8353, 26.2842 ], [ -86.8626, 26.3126 ], [ -86.881, 26.3314 ], [ -86.8904, 26.3406 ], [ -86.909, 26.3592 ], [ -86.9366, 26.3873 ], [ -86.9455, 26.397 ], [ -86.9632, 26.4165 ], [ -86.9886, 26.4468 ], [ -86.9966, 26.4574 ], [ -87.0125, 26.4787 ], [ -87.0361, 26.5108 ], [ -87.0441, 26.5214 ], [ -87.0605, 26.5422 ], [ -87.0776, 26.5623 ], [ -87.0952, 26.5818 ], [ -87.1133, 26.6008 ], [ -87.141, 26.629 ], [ -87.1597, 26.6474 ], [ -87.1689, 26.6568 ], [ -87.1968, 26.6846 ], [ -87.206, 26.694 ], [ -87.2339, 26.7218 ], [ -87.2524, 26.7405 ], [ -87.2617, 26.7498 ], [ -87.2803, 26.7684 ], [ -87.3082, 26.7962 ], [ -87.3174, 26.8056 ], [ -87.336, 26.8242 ], [ -87.3545, 26.8428 ], [ -87.3825, 26.8706 ], [ -87.3917, 26.8799 ], [ -87.4101, 26.8987 ], [ -87.4371, 26.9274 ], [ -87.4459, 26.9372 ], [ -87.4713, 26.9676 ], [ -87.4793, 26.9781 ], [ -87.4952, 26.9994 ], [ -87.5109, 27.0208 ], [ -87.5268, 27.0421 ], [ -87.5432, 27.0629 ], [ -87.569, 27.0929 ], [ -87.5779, 27.1025 ], [ -87.6053, 27.1309 ], [ -87.6237, 27.1497 ], [ -87.633, 27.1589 ], [ -87.6516, 27.1775 ], [ -87.6795, 27.2053 ], [ -87.6979, 27.2241 ], [ -87.7073, 27.2333 ], [ -87.7351, 27.2613 ], [ -87.7444, 27.2705 ], [ -87.7722, 27.2985 ], [ -87.7816, 27.3077 ], [ -87.8093, 27.3357 ], [ -87.8281, 27.3541 ], [ -87.8373, 27.3635 ], [ -87.8558, 27.3821 ], [ -87.8744, 27.4007 ], [ -87.9023, 27.4285 ], [ -87.9207, 27.4472 ], [ -87.9394, 27.4657 ], [ -87.9487, 27.4751 ], [ -87.9766, 27.5029 ], [ -87.995, 27.5216 ], [ -88.0043, 27.5309 ], [ -88.0229, 27.5495 ], [ -88.0415, 27.5681 ], [ -88.06, 27.5867 ], [ -88.088, 27.6145 ], [ -88.1064, 27.6332 ], [ -88.1248, 27.652 ], [ -88.1337, 27.6616 ], [ -88.1602, 27.6909 ], [ -88.1685, 27.7012 ], [ -88.1848, 27.722 ], [ -88.2007, 27.7433 ], [ -88.2164, 27.7647 ], [ -88.2323, 27.786 ], [ -88.2487, 27.8069 ], [ -88.2658, 27.8269 ], [ -88.2834, 27.8464 ], [ -88.3015, 27.8655 ], [ -88.32, 27.8842 ], [ -88.3385, 27.9028 ], [ -88.3663, 27.9308 ], [ -88.3847, 27.9495 ], [ -88.4025, 27.9689 ], [ -88.4113, 27.9787 ], [ -88.4284, 27.9988 ], [ -88.4447, 28.0196 ], [ -88.4606, 28.0409 ], [ -88.4764, 28.0623 ], [ -88.4923, 28.0836 ], [ -88.5086, 28.1044 ], [ -88.5255, 28.1247 ], [ -88.5428, 28.1446 ], [ -88.56, 28.1645 ], [ -88.5769, 28.1848 ], [ -88.5933, 28.2056 ], [ -88.609, 28.227 ], [ -88.6243, 28.2489 ], [ -88.6393, 28.2711 ], [ -88.6541, 28.2934 ], [ -88.669, 28.3157 ], [ -88.6839, 28.338 ], [ -88.6987, 28.3603 ], [ -88.7136, 28.3826 ], [ -88.7284, 28.405 ], [ -88.7433, 28.4273 ], [ -88.7581, 28.4496 ], [ -88.773, 28.4719 ], [ -88.7878, 28.4942 ], [ -88.8025, 28.5167 ], [ -88.8169, 28.5395 ], [ -88.831, 28.5625 ], [ -88.8449, 28.5859 ], [ -88.8584, 28.6095 ], [ -88.8719, 28.6332 ], [ -88.8857, 28.6565 ], [ -88.8998, 28.6796 ], [ -88.9141, 28.7025 ], [ -88.9283, 28.7254 ], [ -88.9424, 28.7485 ], [ -88.9561, 28.772 ], [ -88.9692, 28.7961 ], [ -88.982, 28.8205 ], [ -88.9946, 28.845 ], [ -89.0069, 28.8699 ], [ -89.0192, 28.8947 ], [ -89.0317, 28.9194 ], [ -89.044, 28.9443 ], [ -89.0564, 28.9691 ], [ -89.0688, 28.9938 ], [ -89.081, 29.0188 ], [ -89.0929, 29.0441 ], [ -89.1046, 29.0696 ], [ -89.1158, 29.0956 ], [ -89.1262, 29.1224 ], [ -89.1363, 29.1495 ], [ -89.1461, 29.1768 ], [ -89.1554, 29.2047 ], [ -89.1646, 29.2326 ], [ -89.174, 29.2604 ], [ -89.1834, 29.2883 ], [ -89.1926, 29.3162 ], [ -89.2019, 29.3441 ], [ -89.2117, 29.3714 ], [ -89.2218, 29.3985 ], [ -89.2321, 29.4254 ], [ -89.2428, 29.4519 ], [ -89.2538, 29.4781 ], [ -89.2645, 29.5046 ], [ -89.2749, 29.5314 ], [ -89.2854, 29.558 ], [ -89.2959, 29.5846 ], [ -89.3063, 29.6114 ], [ -89.317, 29.6379 ], [ -89.3279, 29.6642 ], [ -89.3381, 29.6912 ], [ -89.3472, 29.7187 ], [ -89.3548, 29.7465 ], [ -89.3582, 29.7599 ], [ -89.3619, 29.788 ], [ -89.362, 29.8158 ], [ -89.3585, 29.8429 ], [ -89.3552, 29.8553 ], [ -89.3464, 29.881 ], [ -89.335, 29.9056 ], [ -89.3219, 29.9294 ], [ -89.3081, 29.9527 ], [ -89.2942, 29.9759 ], [ -89.2805, 29.9994 ], [ -89.2674, 30.0235 ], [ -89.2547, 30.0479 ], [ -89.242, 30.0725 ], [ -89.2297, 30.0973 ], [ -89.2174, 30.1222 ], [ -89.2047, 30.1467 ], [ -89.192, 30.1711 ], [ -89.1789, 30.1952 ], [ -89.1652, 30.2187 ], [ -89.1511, 30.2418 ], [ -89.1369, 30.2647 ], [ -89.1226, 30.2876 ], [ -89.1155, 30.2991 ], [ -89.1015, 30.3223 ], [ -89.0818, 30.3583 ], [ -89.069, 30.3827 ], [ -89.0562, 30.4071 ], [ -89.0434, 30.4315 ], [ -89.0304, 30.4556 ], [ -89.0167, 30.4791 ], [ -89.0026, 30.5022 ], [ -88.9883, 30.5251 ], [ -88.9812, 30.5365 ], [ -88.967, 30.5595 ], [ -88.9462, 30.5944 ], [ -88.9326, 30.6181 ], [ -88.926, 30.63 ], [ -88.9123, 30.6535 ], [ -88.8912, 30.6881 ], [ -88.8841, 30.6996 ], [ -88.8621, 30.7334 ], [ -88.8472, 30.7557 ], [ -88.8398, 30.7669 ], [ -88.8175, 30.8003 ], [ -88.8027, 30.8226 ], [ -88.7878, 30.845 ], [ -88.773, 30.8673 ], [ -88.7655, 30.8784 ], [ -88.7507, 30.9008 ], [ -88.7284, 30.9342 ], [ -88.721, 30.9454 ], [ -88.6986, 30.9787 ], [ -88.6833, 31.0006 ], [ -88.6755, 31.0114 ], [ -88.6518, 31.0434 ], [ -88.6438, 31.054 ], [ -88.6194, 31.0854 ], [ -88.6035, 31.1067 ], [ -88.5878, 31.1281 ], [ -88.5799, 31.1388 ], [ -88.5641, 31.1602 ], [ -88.5398, 31.1916 ], [ -88.5227, 31.2117 ], [ -88.5139, 31.2215 ], [ -88.4961, 31.2409 ], [ -88.4777, 31.2596 ], [ -88.4593, 31.2784 ], [ -88.4406, 31.2968 ], [ -88.4219, 31.3153 ], [ -88.4023, 31.3328 ], [ -88.3821, 31.3498 ], [ -88.3604, 31.3652 ], [ -88.3372, 31.3792 ], [ -88.3247, 31.3853 ], [ -88.2992, 31.3969 ], [ -88.2723, 31.4072 ], [ -88.2442, 31.4163 ], [ -88.2154, 31.4246 ], [ -88.1861, 31.4325 ], [ -88.1567, 31.4402 ], [ -88.1275, 31.4481 ], [ -88.0985, 31.4563 ], [ -88.0699, 31.4648 ], [ -88.0415, 31.4736 ], [ -88.0131, 31.4823 ], [ -87.9844, 31.4908 ], [ -87.9555, 31.499 ], [ -87.9262, 31.5069 ], [ -87.8967, 31.5145 ], [ -87.867, 31.5219 ], [ -87.8373, 31.5294 ], [ -87.8075, 31.5368 ], [ -87.7778, 31.5442 ], [ -87.7481, 31.5517 ], [ -87.7184, 31.5591 ], [ -87.6887, 31.5666 ], [ -87.659, 31.574 ], [ -87.6293, 31.5814 ], [ -87.5996, 31.5889 ], [ -87.5699, 31.5963 ], [ -87.5402, 31.6037 ], [ -87.5105, 31.6112 ], [ -87.4808, 31.6186 ], [ -87.4511, 31.6261 ], [ -87.4214, 31.6335 ], [ -87.3917, 31.6409 ], [ -87.362, 31.6484 ], [ -87.3323, 31.6558 ], [ -87.3026, 31.6633 ], [ -87.2729, 31.6707 ], [ -87.2431, 31.6781 ], [ -87.2134, 31.6856 ], [ -87.1837, 31.693 ], [ -87.154, 31.7005 ], [ -87.1243, 31.7079 ], [ -87.0946, 31.7153 ], [ -87.0649, 31.7228 ], [ -87.0352, 31.7302 ], [ -87.0055, 31.7376 ], [ -86.9757, 31.7449 ], [ -86.9455, 31.7519 ], [ -86.915, 31.7586 ], [ -86.8843, 31.765 ], [ -86.8687, 31.768 ], [ -86.8222, 31.7772 ], [ -86.7915, 31.7836 ], [ -86.761, 31.7903 ], [ -86.7309, 31.7973 ], [ -86.701, 31.8046 ], [ -86.6713, 31.812 ], [ -86.6416, 31.8195 ], [ -86.6119, 31.8269 ], [ -86.5822, 31.8344 ], [ -86.5525, 31.8418 ], [ -86.5229, 31.8494 ], [ -86.4937, 31.8573 ], [ -86.4647, 31.8655 ], [ -86.4361, 31.8739 ], [ -86.4077, 31.8827 ], [ -86.3793, 31.8915 ], [ -86.3506, 31.9 ], [ -86.3217, 31.9082 ], [ -86.2924, 31.916 ], [ -86.2629, 31.9236 ], [ -86.2332, 31.9311 ], [ -86.2035, 31.9385 ], [ -86.1737, 31.9459 ], [ -86.144, 31.9534 ], [ -86.1145, 31.961 ], [ -86.0852, 31.9689 ], [ -86.0563, 31.977 ], [ -86.0276, 31.9855 ], [ -85.9992, 31.9943 ], [ -85.9709, 32.0031 ], [ -85.9422, 32.0116 ], [ -85.9132, 32.0197 ], [ -85.884, 32.0276 ], [ -85.8546, 32.0354 ], [ -85.8253, 32.0432 ], [ -85.7963, 32.0514 ], [ -85.7677, 32.0599 ], [ -85.7395, 32.0688 ], [ -85.7115, 32.0781 ], [ -85.6836, 32.0873 ], [ -85.6557, 32.0965 ], [ -85.6279, 32.1059 ], [ -85.6001, 32.1153 ], [ -85.5722, 32.1245 ], [ -85.5444, 32.1339 ], [ -85.5171, 32.1437 ], [ -85.4901, 32.1538 ], [ -85.4632, 32.1641 ], [ -85.4368, 32.1748 ], [ -85.4106, 32.1858 ], [ -85.3842, 32.1965 ], [ -85.3574, 32.2069 ], [ -85.3309, 32.2175 ], [ -85.3043, 32.228 ], [ -85.2777, 32.2386 ], [ -85.2517, 32.2498 ], [ -85.2263, 32.2615 ], [ -85.1884, 32.2794 ], [ -85.1761, 32.2856 ], [ -85.1391, 32.3044 ], [ -85.1266, 32.3105 ], [ -85.1018, 32.3228 ], [ -85.0649, 32.3416 ], [ -85.0524, 32.3476 ], [ -85.0276, 32.36 ], [ -85.0029, 32.3725 ], [ -84.9781, 32.3848 ], [ -84.9533, 32.3972 ], [ -84.9287, 32.4097 ], [ -84.9038, 32.422 ], [ -84.879, 32.4344 ], [ -84.8545, 32.447 ], [ -84.818, 32.4662 ], [ -84.8061, 32.4729 ], [ -84.7826, 32.4866 ], [ -84.7482, 32.5079 ], [ -84.7253, 32.5222 ], [ -84.7024, 32.5365 ], [ -84.6909, 32.5434 ], [ -84.6558, 32.5641 ], [ -84.6439, 32.5708 ], [ -84.6205, 32.5845 ], [ -84.5863, 32.6061 ], [ -84.5643, 32.6213 ], [ -84.5429, 32.637 ], [ -84.5221, 32.6534 ], [ -84.501, 32.6695 ], [ -84.4796, 32.6852 ], [ -84.458, 32.7007 ], [ -84.4248, 32.7233 ], [ -84.4137, 32.7308 ], [ -84.4026, 32.7382 ], [ -84.3691, 32.7605 ], [ -84.3472, 32.7757 ], [ -84.3255, 32.7912 ], [ -84.3044, 32.8072 ], [ -84.2741, 32.8327 ], [ -84.2643, 32.8415 ], [ -84.245, 32.8593 ], [ -84.2263, 32.8778 ], [ -84.2076, 32.8962 ], [ -84.1792, 32.9236 ], [ -84.1695, 32.9325 ], [ -84.1499, 32.9501 ], [ -84.1189, 32.9748 ], [ -84.1083, 32.9828 ], [ -84.0976, 32.9907 ], [ -84.0656, 33.0143 ], [ -84.0445, 33.0304 ], [ -84.024, 33.0471 ], [ -84.0044, 33.0646 ], [ -83.9851, 33.0825 ], [ -83.9663, 33.1009 ], [ -83.9479, 33.1197 ], [ -83.9301, 33.139 ], [ -83.9043, 33.1689 ], [ -83.8879, 33.1897 ], [ -83.872, 33.211 ], [ -83.8642, 33.2217 ], [ -83.8484, 33.2432 ], [ -83.8324, 33.2643 ], [ -83.8157, 33.2848 ], [ -83.7893, 33.3141 ], [ -83.7804, 33.3238 ], [ -83.7623, 33.3428 ], [ -83.7444, 33.3622 ], [ -83.7186, 33.3921 ], [ -83.7023, 33.4129 ], [ -83.6942, 33.4235 ], [ -83.6785, 33.4449 ], [ -83.6549, 33.477 ], [ -83.647, 33.4878 ], [ -83.631, 33.5089 ], [ -83.6066, 33.5403 ], [ -83.5986, 33.5508 ], [ -83.5751, 33.5831 ], [ -83.5598, 33.605 ], [ -83.5523, 33.616 ], [ -83.5301, 33.6496 ], [ -83.5157, 33.6724 ], [ -83.5016, 33.6955 ], [ -83.4946, 33.7071 ], [ -83.4743, 33.7425 ], [ -83.4676, 33.7544 ], [ -83.447, 33.7895 ], [ -83.4328, 33.8125 ], [ -83.4186, 33.8355 ], [ -83.4043, 33.8584 ], [ -83.3902, 33.8814 ], [ -83.3832, 33.893 ], [ -83.3635, 33.929 ], [ -83.3507, 33.9534 ], [ -83.3381, 33.978 ], [ -83.3259, 34.003 ], [ -83.314, 34.0283 ], [ -83.3023, 34.0537 ], [ -83.2911, 34.0798 ], [ -83.2806, 34.1064 ], [ -83.2701, 34.133 ], [ -83.2595, 34.1597 ], [ -83.2491, 34.1864 ], [ -83.2384, 34.2129 ], [ -83.2274, 34.2391 ], [ -83.2167, 34.2656 ], [ -83.2065, 34.2925 ], [ -83.1964, 34.3196 ], [ -83.1866, 34.347 ], [ -83.1772, 34.3748 ], [ -83.168, 34.4028 ], [ -83.1588, 34.4307 ], [ -83.1499, 34.459 ], [ -83.1414, 34.4877 ], [ -83.1333, 34.5167 ], [ -83.1254, 34.546 ], [ -83.1178, 34.5756 ], [ -83.1105, 34.6056 ], [ -83.1036, 34.6358 ], [ -83.0969, 34.6662 ], [ -83.0905, 34.697 ], [ -83.0844, 34.7281 ], [ -83.0783, 34.7592 ], [ -83.0721, 34.7902 ], [ -83.066, 34.8213 ], [ -83.0603, 34.8528 ], [ -83.0554, 34.8851 ], [ -83.0517, 34.9186 ], [ -83.0492, 34.9532 ], [ -83.0473, 34.9885 ], [ -83.0453, 35.0238 ], [ -83.0428, 35.0584 ], [ -83.0391, 35.0919 ], [ -83.0342, 35.1242 ], [ -83.0287, 35.1559 ], [ -83.0233, 35.1874 ], [ -83.019, 35.2191 ], [ -83.0167, 35.2513 ], [ -83.0167, 35.2837 ], [ -83.019, 35.3158 ], [ -83.0233, 35.3475 ], [ -83.0287, 35.3791 ], [ -83.0342, 35.4108 ], [ -83.0391, 35.443 ], [ -83.0428, 35.4765 ], [ -83.0453, 35.5112 ], [ -83.0473, 35.5464 ], [ -83.0492, 35.5817 ], [ -83.0517, 35.6164 ], [ -83.0554, 35.6498 ], [ -83.0603, 35.6821 ], [ -83.066, 35.7137 ], [ -83.0721, 35.7448 ], [ -83.0783, 35.7757 ], [ -83.0844, 35.8068 ], [ -83.0905, 35.8379 ], [ -83.0969, 35.8687 ], [ -83.1036, 35.8992 ], [ -83.1105, 35.9294 ], [ -83.1178, 35.9593 ], [ -83.1254, 35.9889 ], [ -83.1333, 36.0182 ], [ -83.1414, 36.0472 ], [ -83.1499, 36.076 ], [ -83.1588, 36.1042 ], [ -83.168, 36.1322 ], [ -83.1772, 36.1602 ], [ -83.1866, 36.188 ], [ -83.1964, 36.2154 ], [ -83.2065, 36.2424 ], [ -83.2169, 36.2692 ], [ -83.228, 36.2953 ], [ -83.2397, 36.3207 ], [ -83.2516, 36.346 ], [ -83.2638, 36.371 ], [ -83.2763, 36.3957 ], [ -83.2886, 36.4205 ], [ -83.3009, 36.4454 ], [ -83.3134, 36.4701 ], [ -83.3257, 36.4949 ], [ -83.3381, 36.5198 ], [ -83.3505, 36.5445 ], [ -83.3629, 36.5693 ], [ -83.3752, 36.5942 ], [ -83.3878, 36.6187 ], [ -83.4006, 36.6431 ], [ -83.4137, 36.6672 ], [ -83.4273, 36.6907 ], [ -83.4414, 36.7138 ], [ -83.4559, 36.7365 ], [ -83.4706, 36.759 ], [ -83.4854, 36.7813 ], [ -83.5003, 36.8036 ], [ -83.5151, 36.826 ], [ -83.53, 36.8483 ], [ -83.5448, 36.8706 ], [ -83.5598, 36.8928 ], [ -83.5751, 36.9146 ], [ -83.5907, 36.9362 ], [ -83.6066, 36.9575 ], [ -83.6228, 36.9785 ], [ -83.639, 36.9994 ], [ -83.6549, 37.0207 ], [ -83.6706, 37.0421 ], [ -83.6864, 37.0636 ], [ -83.7023, 37.0848 ], [ -83.7186, 37.1057 ], [ -83.7357, 37.1257 ], [ -83.7533, 37.1452 ], [ -83.7715, 37.1643 ], [ -83.7899, 37.183 ], [ -83.8085, 37.2016 ], [ -83.827, 37.2202 ], [ -83.8456, 37.2388 ], [ -83.8642, 37.2574 ], [ -83.8827, 37.276 ], [ -83.9013, 37.2946 ], [ -83.9199, 37.3132 ], [ -83.9384, 37.3318 ], [ -83.957, 37.3504 ], [ -83.9756, 37.369 ], [ -83.9941, 37.3876 ], [ -84.0127, 37.4062 ], [ -84.0312, 37.4248 ], [ -84.0498, 37.4434 ], [ -84.0684, 37.462 ], [ -84.0871, 37.4805 ], [ -84.1158, 37.5075 ], [ -84.1256, 37.5163 ], [ -84.1456, 37.5334 ], [ -84.1664, 37.5498 ], [ -84.1983, 37.5736 ], [ -84.2197, 37.5894 ], [ -84.2304, 37.5972 ], [ -84.2517, 37.6132 ], [ -84.283, 37.6376 ], [ -84.2935, 37.6456 ], [ -84.3255, 37.6694 ], [ -84.3472, 37.6849 ], [ -84.3691, 37.7001 ], [ -84.3914, 37.7149 ], [ -84.4137, 37.7298 ], [ -84.4248, 37.7372 ], [ -84.4583, 37.7596 ], [ -84.4694, 37.767 ], [ -84.5028, 37.7893 ], [ -84.5251, 37.8042 ], [ -84.5474, 37.8191 ], [ -84.5585, 37.8265 ], [ -84.5919, 37.8488 ], [ -84.6031, 37.8563 ], [ -84.6368, 37.8783 ], [ -84.6597, 37.8926 ], [ -84.6828, 37.9066 ], [ -84.6947, 37.9133 ], [ -84.731, 37.9327 ], [ -84.7553, 37.9455 ], [ -84.78, 37.958 ], [ -84.8049, 37.9702 ], [ -84.8296, 37.9827 ], [ -84.8542, 37.9952 ], [ -84.8792, 38.0074 ], [ -84.9038, 38.0199 ], [ -84.9162, 38.0262 ], [ -84.9535, 38.0446 ], [ -84.9658, 38.0509 ], [ -85.0028, 38.0696 ], [ -85.0277, 38.0818 ], [ -85.0524, 38.0943 ], [ -85.077, 38.1068 ], [ -85.1023, 38.1187 ], [ -85.1275, 38.1306 ], [ -85.1531, 38.1422 ], [ -85.1795, 38.1529 ], [ -85.2065, 38.1631 ], [ -85.2336, 38.1732 ], [ -85.2612, 38.1827 ], [ -85.2891, 38.1919 ], [ -85.3167, 38.2014 ], [ -85.3573, 38.2166 ], [ -85.3708, 38.2217 ], [ -85.3976, 38.2321 ], [ -85.4237, 38.2431 ], [ -85.4498, 38.2541 ], [ -85.4766, 38.2645 ], [ -85.5173, 38.2796 ], [ -85.5309, 38.2845 ], [ -85.5591, 38.2934 ], [ -85.6025, 38.3057 ], [ -85.6318, 38.3136 ], [ -85.6465, 38.3175 ], [ -85.6904, 38.3292 ], [ -85.705, 38.3333 ], [ -85.7338, 38.3416 ], [ -85.7623, 38.3502 ], [ -85.7905, 38.3592 ], [ -85.8341, 38.3714 ], [ -85.8488, 38.3752 ], [ -85.8788, 38.3824 ], [ -85.925, 38.3919 ], [ -85.956, 38.398 ], [ -85.9869, 38.4042 ], [ -86.0024, 38.4074 ], [ -86.0487, 38.4167 ], [ -86.0796, 38.423 ], [ -86.095, 38.4261 ], [ -86.1417, 38.4352 ], [ -86.1726, 38.4414 ], [ -86.2036, 38.4475 ], [ -86.2349, 38.4533 ], [ -86.2507, 38.4562 ], [ -86.2987, 38.4639 ], [ -86.331, 38.4686 ], [ -86.3631, 38.4737 ], [ -86.3948, 38.4792 ], [ -86.4262, 38.4849 ], [ -86.442, 38.4877 ], [ -86.4901, 38.4953 ], [ -86.5235, 38.499 ], [ -86.5583, 38.5014 ], [ -86.5941, 38.5027 ], [ -86.6306, 38.5033 ], [ -86.6675, 38.5036 ], [ -86.704, 38.5042 ], [ -86.7398, 38.5056 ], [ -86.7745, 38.5079 ], [ -86.7916, 38.5094 ], [ -86.8402, 38.5166 ], [ -86.8561, 38.5192 ], [ -86.8876, 38.5249 ], [ -86.9357, 38.5325 ], [ -86.9691, 38.5362 ], [ -87.0039, 38.5386 ], [ -87.0397, 38.5399 ], [ -87.0762, 38.5405 ], [ -87.113, 38.5405 ], [ -87.1496, 38.5399 ], [ -87.1854, 38.5386 ], [ -87.2201, 38.5362 ], [ -87.2535, 38.5325 ], [ -87.2858, 38.5276 ], [ -87.3174, 38.5221 ], [ -87.349, 38.5166 ], [ -87.3813, 38.5117 ], [ -87.4147, 38.5079 ], [ -87.4495, 38.5056 ], [ -87.4852, 38.5042 ], [ -87.5218, 38.5036 ], [ -87.5586, 38.5033 ], [ -87.5952, 38.5027 ], [ -87.631, 38.5014 ], [ -87.6657, 38.499 ], [ -87.6991, 38.4953 ], [ -87.7314, 38.4904 ], [ -87.763, 38.4849 ], [ -87.7945, 38.4792 ], [ -87.8261, 38.4737 ], [ -87.8582, 38.4686 ], [ -87.8906, 38.4639 ], [ -87.9227, 38.4588 ], [ -87.9543, 38.4533 ], [ -87.9858, 38.4477 ], [ -88.0173, 38.442 ], [ -88.0489, 38.4365 ], [ -88.081, 38.4315 ], [ -88.1134, 38.4267 ], [ -88.1455, 38.4216 ], [ -88.1769, 38.416 ], [ -88.2078, 38.4097 ], [ -88.2381, 38.4029 ], [ -88.268, 38.3956 ], [ -88.2977, 38.3882 ], [ -88.3274, 38.3807 ], [ -88.3571, 38.3733 ], [ -88.3868, 38.3658 ], [ -88.4165, 38.3584 ], [ -88.4461, 38.3508 ], [ -88.4753, 38.3429 ], [ -88.5043, 38.3348 ], [ -88.533, 38.3263 ], [ -88.5612, 38.3173 ], [ -88.5891, 38.3081 ], [ -88.617, 38.2989 ], [ -88.6449, 38.2897 ], [ -88.6865, 38.2755 ], [ -88.7005, 38.2709 ], [ -88.7284, 38.2617 ], [ -88.7562, 38.2523 ], [ -88.7835, 38.2425 ], [ -88.8241, 38.2273 ], [ -88.8374, 38.2221 ], [ -88.8639, 38.2114 ], [ -88.9031, 38.1949 ], [ -88.9298, 38.1845 ], [ -88.9432, 38.1793 ], [ -88.9698, 38.1687 ], [ -89.0097, 38.1529 ], [ -89.023, 38.1476 ], [ -89.0617, 38.1306 ], [ -89.0743, 38.1247 ], [ -89.1122, 38.1068 ], [ -89.1245, 38.1006 ], [ -89.1492, 38.0881 ], [ -89.174, 38.0757 ], [ -89.2111, 38.0571 ], [ -89.2358, 38.0446 ], [ -89.2483, 38.0385 ], [ -89.2854, 38.0199 ], [ -89.2977, 38.0137 ], [ -89.335, 37.9952 ], [ -89.3473, 37.989 ], [ -89.372, 37.9765 ], [ -89.3968, 37.9641 ], [ -89.4339, 37.9455 ], [ -89.4583, 37.9327 ], [ -89.4705, 37.9263 ], [ -89.5064, 37.9066 ], [ -89.5296, 37.8926 ], [ -89.5524, 37.8783 ], [ -89.5753, 37.864 ], [ -89.5982, 37.8497 ], [ -89.6098, 37.8427 ], [ -89.6448, 37.822 ], [ -89.6686, 37.8087 ], [ -89.6803, 37.8018 ], [ -89.7036, 37.788 ], [ -89.7381, 37.7667 ], [ -89.7718, 37.7447 ], [ -89.783, 37.7372 ], [ -89.8049, 37.7221 ], [ -89.8266, 37.7066 ], [ -89.8586, 37.6828 ], [ -89.8691, 37.6748 ], [ -89.8795, 37.6666 ], [ -89.911, 37.6423 ], [ -89.9324, 37.6266 ], [ -89.9431, 37.6187 ], [ -89.9752, 37.595 ], [ -89.9963, 37.5789 ], [ -90.0167, 37.5623 ], [ -90.0364, 37.5447 ], [ -90.065, 37.5176 ], [ -90.0744, 37.5084 ], [ -90.1023, 37.4806 ], [ -90.1209, 37.462 ], [ -90.1394, 37.4434 ], [ -90.1486, 37.434 ], [ -90.1766, 37.4062 ], [ -90.1951, 37.3876 ], [ -90.2045, 37.3784 ], [ -90.2229, 37.3596 ], [ -90.2416, 37.3412 ], [ -90.26, 37.3224 ], [ -90.2787, 37.304 ], [ -90.2972, 37.2852 ], [ -90.3159, 37.2668 ], [ -90.3343, 37.2481 ], [ -90.353, 37.2296 ], [ -90.3714, 37.2109 ], [ -90.3994, 37.183 ], [ -90.4086, 37.1737 ], [ -90.4273, 37.1552 ], [ -90.4551, 37.1272 ], [ -90.4736, 37.1086 ], [ -90.4922, 37.09 ], [ -90.5015, 37.0808 ], [ -90.5293, 37.0529 ], [ -90.5387, 37.0436 ], [ -90.5571, 37.0249 ], [ -90.5758, 37.0064 ], [ -90.5942, 36.9877 ], [ -90.6223, 36.96 ], [ -90.6413, 36.9419 ], [ -90.6607, 36.9242 ], [ -90.6706, 36.9154 ], [ -90.6911, 36.8987 ], [ -90.7228, 36.8748 ], [ -90.7335, 36.8669 ], [ -90.7549, 36.8511 ], [ -90.776, 36.835 ], [ -90.8063, 36.8096 ], [ -90.8161, 36.8008 ], [ -90.8354, 36.783 ], [ -90.8541, 36.7645 ], [ -90.8821, 36.7367 ], [ -90.8913, 36.7273 ], [ -90.9192, 36.6995 ], [ -90.9284, 36.6901 ], [ -90.9565, 36.6625 ], [ -90.9658, 36.6532 ], [ -90.9949, 36.6266 ], [ -91.0047, 36.6178 ], [ -91.0252, 36.6011 ], [ -91.0463, 36.5851 ], [ -91.0677, 36.5693 ], [ -91.0891, 36.5535 ], [ -91.1102, 36.5375 ], [ -91.1405, 36.512 ], [ -91.1503, 36.5033 ], [ -91.1696, 36.4854 ], [ -91.1883, 36.467 ], [ -91.2163, 36.4391 ], [ -91.2348, 36.4205 ], [ -91.2534, 36.4019 ], [ -91.2719, 36.3833 ], [ -91.2813, 36.3741 ], [ -91.3091, 36.3461 ], [ -91.3276, 36.3275 ], [ -91.3368, 36.3182 ], [ -91.3556, 36.2997 ], [ -91.374, 36.281 ], [ -91.3927, 36.2625 ], [ -91.4205, 36.2346 ], [ -91.4392, 36.2161 ], [ -91.4582, 36.198 ], [ -91.4679, 36.189 ], [ -91.4875, 36.1715 ], [ -91.5079, 36.1548 ], [ -91.5291, 36.1387 ], [ -91.5504, 36.123 ], [ -91.5611, 36.1151 ], [ -91.6032, 36.0828 ], [ -91.6232, 36.0657 ], [ -91.633, 36.0569 ], [ -91.6523, 36.0391 ], [ -91.6804, 36.0114 ], [ -91.6897, 36.0022 ], [ -91.7082, 35.9834 ], [ -91.7269, 35.965 ], [ -91.7545, 35.9368 ], [ -91.7726, 35.9178 ], [ -91.7815, 35.9081 ], [ -91.7991, 35.8885 ], [ -91.8237, 35.8574 ], [ -91.8317, 35.8468 ], [ -91.8554, 35.8147 ], [ -91.8632, 35.804 ], [ -91.8876, 35.7726 ], [ -91.9047, 35.7525 ], [ -91.9134, 35.7427 ], [ -91.9405, 35.714 ], [ -91.9497, 35.7046 ], [ -91.9681, 35.6859 ], [ -91.996, 35.658 ], [ -92.0052, 35.6487 ], [ -92.0331, 35.6208 ], [ -92.0423, 35.6115 ], [ -92.0611, 35.593 ], [ -92.0795, 35.5743 ], [ -92.1068, 35.5459 ], [ -92.1157, 35.5362 ], [ -92.1416, 35.5063 ], [ -92.1499, 35.496 ], [ -92.1738, 35.4642 ], [ -92.1817, 35.4534 ], [ -92.2054, 35.4215 ], [ -92.2135, 35.4109 ], [ -92.2301, 35.3904 ], [ -92.2559, 35.3605 ], [ -92.2732, 35.3405 ], [ -92.2818, 35.3306 ], [ -92.3064, 35.2995 ], [ -92.3223, 35.2782 ], [ -92.3302, 35.2675 ], [ -92.3538, 35.2353 ], [ -92.3617, 35.2246 ], [ -92.3777, 35.2035 ], [ -92.4021, 35.1721 ], [ -92.4101, 35.1615 ], [ -92.4259, 35.1401 ], [ -92.4489, 35.1074 ], [ -92.4565, 35.0964 ], [ -92.4713, 35.0741 ], [ -92.4936, 35.0406 ], [ -92.501, 35.0294 ], [ -92.5233, 34.996 ], [ -92.5307, 34.9848 ], [ -92.553, 34.9513 ], [ -92.5678, 34.929 ], [ -92.5827, 34.9067 ], [ -92.5976, 34.8844 ], [ -92.6124, 34.8621 ], [ -92.6198, 34.8509 ], [ -92.6415, 34.8168 ], [ -92.6486, 34.8054 ], [ -92.6693, 34.7703 ], [ -92.6824, 34.7462 ], [ -92.6951, 34.7217 ], [ -92.7079, 34.6974 ], [ -92.7207, 34.6729 ], [ -92.7337, 34.6488 ], [ -92.7474, 34.6253 ], [ -92.7544, 34.6137 ], [ -92.7686, 34.5908 ], [ -92.79, 34.5565 ], [ -92.8041, 34.5334 ], [ -92.8111, 34.5218 ], [ -92.8309, 34.4858 ], [ -92.8437, 34.4614 ], [ -92.8563, 34.4368 ], [ -92.8685, 34.4118 ], [ -92.8803, 34.3865 ], [ -92.8921, 34.3611 ], [ -92.9032, 34.3351 ], [ -92.9138, 34.3084 ], [ -92.9243, 34.2818 ], [ -92.9349, 34.2552 ], [ -92.9453, 34.2284 ], [ -92.956, 34.2019 ], [ -92.9669, 34.1757 ], [ -92.9776, 34.1492 ], [ -92.988, 34.1225 ], [ -92.9986, 34.0958 ], [ -93.0091, 34.0692 ], [ -93.0195, 34.0424 ], [ -93.0302, 34.0159 ], [ -93.0412, 33.9898 ], [ -93.0519, 33.9633 ], [ -93.0622, 33.9363 ], [ -93.0722, 33.9093 ], [ -93.0821, 33.8819 ], [ -93.0914, 33.8541 ], [ -93.1006, 33.8261 ], [ -93.11, 33.7983 ], [ -93.1193, 33.7704 ], [ -93.1285, 33.7425 ], [ -93.1377, 33.7145 ], [ -93.147, 33.6865 ], [ -93.1559, 33.6583 ], [ -93.1643, 33.6295 ], [ -93.1725, 33.6005 ], [ -93.1804, 33.5712 ], [ -93.1879, 33.5416 ], [ -93.1954, 33.5119 ], [ -93.2028, 33.4821 ], [ -93.2102, 33.4523 ], [ -93.2177, 33.4226 ], [ -93.2251, 33.3928 ], [ -93.2325, 33.3631 ], [ -93.2399, 33.3333 ], [ -93.2474, 33.3036 ], [ -93.2548, 33.2738 ], [ -93.2622, 33.2441 ], [ -93.2695, 33.2141 ], [ -93.2763, 33.1838 ], [ -93.2826, 33.1529 ], [ -93.2882, 33.1213 ], [ -93.2933, 33.0892 ], [ -93.298, 33.0567 ], [ -93.3031, 33.0246 ], [ -93.3086, 32.9929 ], [ -93.3142, 32.9614 ], [ -93.3198, 32.9298 ], [ -93.3253, 32.8981 ], [ -93.3304, 32.866 ], [ -93.3351, 32.8336 ], [ -93.3402, 32.8014 ], [ -93.3457, 32.7697 ], [ -93.3513, 32.7382 ], [ -93.3568, 32.7065 ], [ -93.3617, 32.6742 ], [ -93.3654, 32.6407 ], [ -93.3679, 32.6061 ], [ -93.3699, 32.5708 ], [ -93.3718, 32.5356 ], [ -93.3743, 32.5009 ], [ -93.3781, 32.4674 ], [ -93.383, 32.4351 ], [ -93.3885, 32.4034 ], [ -93.394, 32.3718 ], [ -93.3989, 32.3395 ], [ -93.4026, 32.306 ], [ -93.4049, 32.2712 ], [ -93.4063, 32.2353 ], [ -93.4069, 32.1987 ], [ -93.407, 32.1617 ], [ -93.407, 32.1245 ], [ -93.407, 32.0873 ], [ -93.407, 32.0501 ], [ -93.407, 32.0129 ], [ -93.407, 31.9757 ], [ -93.407, 31.9385 ], [ -93.407, 31.9013 ], [ -93.407, 31.8641 ], [ -93.407, 31.8269 ], [ -93.407, 31.7897 ], [ -93.407, 31.7525 ], [ -93.407, 31.7153 ], [ -93.407, 31.6781 ], [ -93.407, 31.6409 ], [ -93.407, 31.6037 ], [ -93.407, 31.5666 ], [ -93.407, 31.5294 ], [ -93.407, 31.4922 ], [ -93.407, 31.455 ], [ -93.407, 31.4178 ], [ -93.407, 31.3806 ], [ -93.407, 31.3434 ], [ -93.407, 31.3062 ], [ -93.407, 31.269 ], [ -93.407, 31.2318 ], [ -93.407, 31.1946 ], [ -93.407, 31.1574 ], [ -93.4069, 31.1204 ], [ -93.4063, 31.0838 ], [ -93.4049, 31.0479 ], [ -93.4026, 31.0131 ], [ -93.3989, 30.9796 ], [ -93.394, 30.9473 ], [ -93.3885, 30.9156 ], [ -93.383, 30.8839 ], [ -93.3781, 30.8517 ], [ -93.3743, 30.8182 ], [ -93.3718, 30.7835 ], [ -93.3699, 30.7483 ], [ -93.368, 30.713 ], [ -93.3654, 30.6783 ], [ -93.3617, 30.6449 ], [ -93.3568, 30.6126 ], [ -93.3513, 30.5809 ], [ -93.3457, 30.5493 ], [ -93.3402, 30.5176 ], [ -93.3351, 30.4855 ], [ -93.3304, 30.4531 ], [ -93.3253, 30.4209 ], [ -93.3198, 30.3892 ], [ -93.314, 30.3579 ], [ -93.308, 30.3268 ], [ -93.3017, 30.2958 ], [ -93.2956, 30.2647 ], [ -93.2895, 30.2336 ], [ -93.2833, 30.2027 ], [ -93.2772, 30.1716 ], [ -93.2714, 30.1402 ], [ -93.2659, 30.1085 ], [ -93.2609, 30.0764 ], [ -93.2561, 30.0439 ], [ -93.2511, 30.0118 ], [ -93.2456, 29.9801 ], [ -93.2399, 29.9486 ], [ -93.2343, 29.917 ], [ -93.2288, 29.8853 ], [ -93.2237, 29.8532 ], [ -93.219, 29.8208 ], [ -93.2139, 29.7886 ], [ -93.2083, 29.7571 ], [ -93.2021, 29.7261 ], [ -93.1952, 29.6958 ], [ -93.1879, 29.6659 ], [ -93.1804, 29.6363 ], [ -93.1725, 29.607 ], [ -93.1643, 29.5779 ], [ -93.1559, 29.5492 ], [ -93.147, 29.521 ], [ -93.1377, 29.493 ], [ -93.1285, 29.465 ], [ -93.1192, 29.4372 ], [ -93.1094, 29.4098 ], [ -93.0993, 29.3827 ], [ -93.0889, 29.356 ], [ -93.0777, 29.3299 ], [ -93.066, 29.3045 ], [ -93.0541, 29.2792 ], [ -93.0419, 29.2542 ], [ -93.0295, 29.2295 ], [ -93.0171, 29.2047 ], [ -93.0048, 29.1798 ], [ -92.9923, 29.1551 ], [ -92.98, 29.1303 ], [ -92.9677, 29.1054 ], [ -92.9551, 29.0809 ], [ -92.9423, 29.0565 ], [ -92.9292, 29.0324 ], [ -92.9155, 29.0089 ], [ -92.9014, 28.9858 ], [ -92.887, 28.963 ], [ -92.8723, 28.9406 ], [ -92.8575, 28.9182 ], [ -92.8426, 28.8959 ], [ -92.8278, 28.8736 ], [ -92.8129, 28.8513 ], [ -92.7981, 28.829 ], [ -92.7831, 28.8068 ], [ -92.7678, 28.7849 ], [ -92.752, 28.7635 ], [ -92.7357, 28.7427 ], [ -92.7186, 28.7226 ], [ -92.692, 28.6934 ], [ -92.6828, 28.6841 ], [ -92.6552, 28.6559 ], [ -92.6458, 28.6467 ], [ -92.6273, 28.6281 ], [ -92.6087, 28.6095 ], [ -92.5901, 28.5909 ], [ -92.5716, 28.5723 ], [ -92.553, 28.5537 ], [ -92.525, 28.5259 ], [ -92.5159, 28.5165 ], [ -92.4973, 28.4979 ], [ -92.4787, 28.4793 ], [ -92.4508, 28.4515 ], [ -92.4416, 28.4421 ], [ -92.423, 28.4236 ], [ -92.3953, 28.3956 ], [ -92.3859, 28.3864 ], [ -92.3673, 28.3678 ], [ -92.3394, 28.3399 ], [ -92.3301, 28.3307 ], [ -92.3014, 28.3036 ], [ -92.2818, 28.2861 ], [ -92.2715, 28.2777 ], [ -92.2402, 28.2533 ], [ -92.2188, 28.2376 ], [ -92.1974, 28.2218 ], [ -92.1763, 28.2057 ], [ -92.1558, 28.1891 ], [ -92.1362, 28.1715 ], [ -92.1266, 28.1626 ], [ -92.0982, 28.1352 ], [ -92.0888, 28.126 ], [ -92.0703, 28.1074 ], [ -92.0517, 28.0888 ], [ -92.0239, 28.0608 ], [ -92.0052, 28.0424 ], [ -91.9868, 28.0236 ], [ -91.9775, 28.0144 ], [ -91.9589, 27.9958 ], [ -91.931, 27.968 ], [ -91.9218, 27.9586 ], [ -91.9032, 27.94 ], [ -91.8754, 27.912 ], [ -91.8661, 27.9028 ], [ -91.8475, 27.8842 ], [ -91.8196, 27.8564 ], [ -91.8011, 27.8377 ], [ -91.7918, 27.8284 ], [ -91.7732, 27.8098 ], [ -91.7453, 27.782 ], [ -91.7361, 27.7726 ], [ -91.7082, 27.7448 ], [ -91.6897, 27.7261 ], [ -91.671, 27.7076 ], [ -91.6618, 27.6982 ], [ -91.6339, 27.6704 ], [ -91.6247, 27.661 ], [ -91.6061, 27.6425 ], [ -91.5784, 27.6145 ], [ -91.5597, 27.596 ], [ -91.5504, 27.5867 ], [ -91.5225, 27.5588 ], [ -91.5133, 27.5495 ], [ -91.4947, 27.5309 ], [ -91.467, 27.5029 ], [ -91.4576, 27.4937 ], [ -91.439, 27.4751 ], [ -91.4111, 27.4472 ], [ -91.3924, 27.4288 ], [ -91.3827, 27.4199 ], [ -91.3633, 27.4022 ], [ -91.3432, 27.3851 ], [ -91.3119, 27.3607 ], [ -91.3012, 27.3528 ], [ -91.2691, 27.3291 ], [ -91.248, 27.313 ], [ -91.2275, 27.2964 ], [ -91.2177, 27.2876 ], [ -91.1886, 27.261 ], [ -91.1793, 27.2518 ], [ -91.1606, 27.2333 ], [ -91.1325, 27.2056 ], [ -91.1132, 27.1878 ], [ -91.0936, 27.1702 ], [ -91.0731, 27.1536 ], [ -91.052, 27.1375 ], [ -91.0306, 27.1217 ], [ -91.0092, 27.1059 ], [ -90.9987, 27.0979 ], [ -90.9779, 27.0815 ], [ -90.9477, 27.056 ], [ -90.9378, 27.0473 ], [ -90.9079, 27.0214 ], [ -90.8874, 27.0048 ], [ -90.8663, 26.9887 ], [ -90.8449, 26.9729 ], [ -90.8235, 26.9572 ], [ -90.8025, 26.9411 ], [ -90.782, 26.9244 ], [ -90.772, 26.9158 ], [ -90.7421, 26.8899 ], [ -90.7222, 26.8727 ], [ -90.7017, 26.856 ], [ -90.6807, 26.8399 ], [ -90.6593, 26.8242 ], [ -90.6379, 26.8084 ], [ -90.6168, 26.7923 ], [ -90.5963, 26.7757 ], [ -90.5863, 26.767 ], [ -90.5565, 26.7411 ], [ -90.5366, 26.7239 ], [ -90.5263, 26.7155 ], [ -90.495, 26.6911 ], [ -90.4736, 26.6754 ], [ -90.4522, 26.6596 ], [ -90.4311, 26.6435 ], [ -90.4106, 26.6269 ], [ -90.4007, 26.6182 ], [ -90.3708, 26.5924 ], [ -90.3609, 26.5837 ], [ -90.3304, 26.5584 ], [ -90.3093, 26.5424 ], [ -90.288, 26.5266 ], [ -90.2666, 26.5108 ], [ -90.2452, 26.495 ], [ -90.2241, 26.479 ], [ -90.2033, 26.4626 ], [ -90.1822, 26.4465 ], [ -90.1608, 26.4308 ], [ -90.1391, 26.4153 ], [ -90.1172, 26.4001 ], [ -90.0949, 26.3853 ], [ -90.0726, 26.3704 ], [ -90.0503, 26.3555 ], [ -90.0283, 26.3403 ], [ -90.0066, 26.3248 ], [ -89.9852, 26.3091 ], [ -89.9642, 26.293 ], [ -89.9434, 26.2766 ], [ -89.9223, 26.2606 ], [ -89.9009, 26.2448 ], [ -89.8795, 26.229 ], [ -89.8581, 26.2133 ], [ -89.8367, 26.1975 ], [ -89.8156, 26.1814 ], [ -89.7948, 26.1651 ], [ -89.7737, 26.149 ], [ -89.7524, 26.1332 ], [ -89.7307, 26.1177 ], [ -89.7197, 26.1102 ], [ -89.6864, 26.0877 ], [ -89.6641, 26.0728 ], [ -89.6419, 26.0579 ], [ -89.6196, 26.0431 ], [ -89.5973, 26.0282 ], [ -89.5862, 26.0207 ], [ -89.5527, 25.9984 ], [ -89.5305, 25.9835 ], [ -89.5085, 25.9684 ], [ -89.4868, 25.9529 ], [ -89.4654, 25.9371 ], [ -89.4443, 25.9211 ], [ -89.4235, 25.9047 ], [ -89.4024, 25.8886 ], [ -89.3811, 25.8728 ], [ -89.3594, 25.8574 ], [ -89.3374, 25.8422 ], [ -89.3151, 25.8273 ], [ -89.2928, 25.8124 ], [ -89.2705, 25.7976 ], [ -89.2486, 25.7824 ], [ -89.2269, 25.7669 ], [ -89.2055, 25.7511 ], [ -89.1844, 25.7351 ], [ -89.1636, 25.7187 ], [ -89.1425, 25.7026 ], [ -89.1211, 25.6869 ], [ -89.0994, 25.6714 ], [ -89.0775, 25.6562 ], [ -89.0552, 25.6413 ], [ -89.0329, 25.6265 ], [ -89.0106, 25.6116 ], [ -88.9886, 25.5964 ], [ -88.967, 25.5809 ], [ -88.9456, 25.5652 ], [ -88.9245, 25.5491 ], [ -88.9037, 25.5327 ], [ -88.8826, 25.5167 ], [ -88.8612, 25.5009 ], [ -88.8395, 25.4854 ], [ -88.8175, 25.4702 ], [ -88.7953, 25.4554 ], [ -88.773, 25.4405 ], [ -88.7507, 25.4256 ], [ -88.7397, 25.418 ], [ -88.707, 25.395 ], [ -88.6856, 25.3792 ], [ -88.6646, 25.3631 ], [ -88.6438, 25.3468 ], [ -88.6227, 25.3307 ], [ -88.6013, 25.3149 ], [ -88.5799, 25.2991 ], [ -88.5585, 25.2834 ], [ -88.5371, 25.2676 ], [ -88.516, 25.2515 ], [ -88.4952, 25.2352 ], [ -88.4741, 25.2191 ], [ -88.4527, 25.2033 ], [ -88.4314, 25.1876 ], [ -88.41, 25.1718 ], [ -88.3889, 25.1557 ], [ -88.3684, 25.1391 ], [ -88.3485, 25.1218 ], [ -88.3286, 25.1045 ], [ -88.3087, 25.0873 ], [ -88.2882, 25.0706 ], [ -88.2671, 25.0546 ], [ -88.2457, 25.0388 ], [ -88.2243, 25.023 ], [ -88.2029, 25.0072 ], [ -88.1818, 24.9912 ], [ -88.1714, 24.983 ], [ -88.14, 24.9587 ], [ -88.1186, 24.943 ], [ -88.0972, 24.9272 ], [ -88.0758, 24.9114 ], [ -88.0547, 24.8954 ], [ -88.0445, 24.887 ], [ -88.0143, 24.8614 ], [ -87.9944, 24.8442 ], [ -87.9745, 24.8269 ], [ -87.954, 24.8103 ], [ -87.9329, 24.7942 ], [ -87.9115, 24.7784 ], [ -87.8901, 24.7626 ], [ -87.8687, 24.7469 ], [ -87.8477, 24.7308 ], [ -87.8269, 24.7144 ], [ -87.8058, 24.6984 ], [ -87.7844, 24.6826 ], [ -87.763, 24.6668 ], [ -87.7416, 24.6511 ], [ -87.7205, 24.635 ], [ -87.7, 24.6183 ], [ -87.6801, 24.6011 ], [ -87.6602, 24.5838 ], [ -87.6403, 24.5665 ], [ -87.6198, 24.5499 ], [ -87.5987, 24.5338 ], [ -87.5773, 24.518 ], [ -87.5559, 24.5023 ], [ -87.5349, 24.4862 ], [ -87.5144, 24.4695 ], [ -87.5044, 24.4609 ], [ -87.4745, 24.435 ], [ -87.4646, 24.4264 ], [ -87.4342, 24.4011 ], [ -87.4131, 24.385 ], [ -87.3917, 24.3693 ], [ -87.381, 24.3614 ], [ -87.3492, 24.3374 ], [ -87.3287, 24.3208 ], [ -87.3088, 24.3035 ], [ -87.2889, 24.2862 ], [ -87.269, 24.269 ], [ -87.2485, 24.2523 ], [ -87.2274, 24.2362 ], [ -87.2167, 24.2284 ], [ -87.1846, 24.2047 ], [ -87.1635, 24.1886 ], [ -87.143, 24.172 ], [ -87.1331, 24.1634 ], [ -87.1032, 24.1375 ], [ -87.0833, 24.1202 ], [ -87.0628, 24.1035 ], [ -87.0417, 24.0875 ], [ -87.0203, 24.0717 ], [ -86.999, 24.0559 ], [ -86.9779, 24.0399 ], [ -86.9574, 24.0232 ], [ -86.9375, 24.0059 ], [ -86.9176, 23.9887 ], [ -86.8977, 23.9714 ], [ -86.8772, 23.9548 ], [ -86.8561, 23.9387 ], [ -86.8347, 23.9229 ], [ -86.8133, 23.9072 ], [ -86.7919, 23.8914 ], [ -86.7708, 23.8753 ], [ -86.75, 23.8589 ], [ -86.7289, 23.8429 ], [ -86.7076, 23.8271 ], [ -86.6862, 23.8113 ], [ -86.6648, 23.7956 ], [ -86.6437, 23.7795 ], [ -86.6232, 23.7628 ], [ -86.6033, 23.7456 ], [ -86.5834, 23.7283 ], [ -86.5635, 23.7111 ], [ -86.543, 23.6944 ], [ -86.5219, 23.6783 ], [ -86.5005, 23.6626 ], [ -86.4791, 23.6468 ], [ -86.4577, 23.631 ], [ -86.4367, 23.6149 ], [ -86.4159, 23.5986 ], [ -86.3948, 23.5825 ], [ -86.3734, 23.5667 ], [ -86.352, 23.551 ], [ -86.3306, 23.5352 ], [ -86.3092, 23.5194 ], [ -86.2881, 23.5034 ], [ -86.2673, 23.487 ], [ -86.2462, 23.4709 ], [ -86.2248, 23.4552 ], [ -86.2035, 23.4394 ], [ -86.1821, 23.4236 ], [ -86.1607, 23.4078 ], [ -86.1396, 23.3918 ], [ -86.1188, 23.3754 ], [ -86.0977, 23.3593 ], [ -86.0763, 23.3436 ], [ -86.0549, 23.3278 ], [ -86.0335, 23.312 ], [ -86.0122, 23.2963 ], [ -85.9911, 23.2802 ], [ -85.9703, 23.2638 ], [ -85.9492, 23.2478 ], [ -85.9278, 23.232 ], [ -85.9061, 23.2165 ], [ -85.8841, 23.2013 ], [ -85.8619, 23.1865 ], [ -85.8396, 23.1716 ], [ -85.8173, 23.1567 ], [ -85.7953, 23.1415 ], [ -85.7736, 23.1261 ], [ -85.7522, 23.1103 ], [ -85.7311, 23.0942 ], [ -85.7103, 23.0778 ], [ -85.6893, 23.0618 ], [ -85.6679, 23.046 ], [ -85.6462, 23.0305 ], [ -85.6242, 23.0154 ], [ -85.6019, 23.0005 ], [ -85.5796, 22.9856 ], [ -85.5574, 22.9707 ], [ -85.5354, 22.9555 ], [ -85.5137, 22.9401 ], [ -85.4923, 22.9243 ], [ -85.4712, 22.9082 ], [ -85.4504, 22.8919 ], [ -85.4293, 22.8758 ], [ -85.4079, 22.86 ], [ -85.3866, 22.8443 ], [ -85.3652, 22.8285 ], [ -85.3438, 22.8127 ], [ -85.3227, 22.7967 ], [ -85.3019, 22.7803 ], [ -85.2808, 22.7642 ], [ -85.2594, 22.7484 ], [ -85.2377, 22.733 ], [ -85.2157, 22.7178 ], [ -85.1935, 22.7029 ], [ -85.1712, 22.688 ], [ -85.1489, 22.6732 ], [ -85.1266, 22.6583 ], [ -85.1044, 22.6434 ], [ -85.0821, 22.6285 ], [ -85.0598, 22.6136 ], [ -85.0375, 22.5988 ], [ -85.0155, 22.5836 ], [ -84.9939, 22.5681 ], [ -84.9725, 22.5524 ], [ -84.9514, 22.5363 ], [ -84.9306, 22.5199 ], [ -84.9095, 22.5038 ], [ -84.8881, 22.4881 ], [ -84.8664, 22.4726 ], [ -84.8444, 22.4574 ], [ -84.8221, 22.4426 ], [ -84.7999, 22.4277 ], [ -84.7776, 22.4128 ], [ -84.7556, 22.3976 ], [ -84.7339, 22.3821 ], [ -84.7125, 22.3664 ], [ -84.6914, 22.3503 ], [ -84.6707, 22.3339 ], [ -84.6496, 22.3179 ], [ -84.6282, 22.3021 ], [ -84.6065, 22.2866 ], [ -84.5845, 22.2715 ], [ -84.5622, 22.2566 ], [ -84.54, 22.2417 ], [ -84.5177, 22.2268 ], [ -84.4957, 22.2116 ], [ -84.474, 22.1962 ], [ -84.4526, 22.1804 ], [ -84.4315, 22.1643 ], [ -84.4107, 22.148 ], [ -84.3896, 22.1319 ], [ -84.3683, 22.1161 ], [ -84.3469, 22.1004 ], [ -84.3255, 22.0846 ], [ -84.3041, 22.0688 ], [ -84.283, 22.0527 ], [ -84.2622, 22.0364 ], [ -84.2411, 22.0203 ], [ -84.2197, 22.0045 ], [ -84.198, 21.9891 ], [ -84.1761, 21.9739 ], [ -84.1538, 21.959 ], [ -84.1315, 21.9441 ], [ -84.1092, 21.9293 ], [ -84.0872, 21.9141 ], [ -84.0656, 21.8986 ], [ -84.0442, 21.8828 ], [ -84.0231, 21.8668 ], [ -84.0023, 21.8504 ], [ -83.9812, 21.8343 ], [ -83.9598, 21.8186 ], [ -83.9384, 21.8028 ], [ -83.917, 21.787 ], [ -83.8957, 21.7712 ], [ -83.8745, 21.7552 ], [ -83.8538, 21.7388 ], [ -83.8327, 21.7227 ], [ -83.8113, 21.707 ], [ -83.7899, 21.6912 ], [ -83.7685, 21.6754 ], [ -83.7474, 21.6594 ], [ -83.7269, 21.6427 ], [ -83.707, 21.6254 ], [ -83.6871, 21.6082 ], [ -83.6672, 21.5909 ], [ -83.6467, 21.5743 ], [ -83.6256, 21.5582 ], [ -83.6042, 21.5424 ], [ -83.5828, 21.5267 ], [ -83.5618, 21.5106 ], [ -83.5413, 21.4939 ], [ -83.5214, 21.4767 ], [ -83.5015, 21.4594 ], [ -83.4815, 21.4421 ], [ -83.461, 21.4255 ], [ -83.44, 21.4094 ], [ -83.4186, 21.3936 ], [ -83.3972, 21.3779 ], [ -83.3758, 21.3621 ], [ -83.3547, 21.346 ], [ -83.3339, 21.3297 ], [ -83.3128, 21.3136 ], [ -83.2914, 21.2978 ], [ -83.2701, 21.2821 ], [ -83.2487, 21.2663 ], [ -83.2276, 21.2502 ], [ -83.2173, 21.2419 ], [ -83.1872, 21.2163 ], [ -83.1673, 21.199 ], [ -83.1474, 21.1818 ], [ -83.1269, 21.1651 ], [ -83.1058, 21.149 ], [ -83.0844, 21.1333 ], [ -83.063, 21.1175 ], [ -83.0419, 21.1014 ], [ -83.0214, 21.0848 ], [ -83.0015, 21.0675 ], [ -82.9816, 21.0502 ], [ -82.9617, 21.033 ], [ -82.9412, 21.0163 ], [ -82.9201, 21.0003 ], [ -82.8987, 20.9845 ], [ -82.8773, 20.9687 ], [ -82.8563, 20.9526 ], [ -82.8358, 20.936 ], [ -82.8158, 20.9187 ], [ -82.7959, 20.9015 ], [ -82.776, 20.8842 ], [ -82.7555, 20.8676 ], [ -82.7345, 20.8515 ], [ -82.7131, 20.8357 ], [ -82.6917, 20.8199 ], [ -82.6706, 20.8039 ], [ -82.6501, 20.7872 ], [ -82.6302, 20.77 ], [ -82.6103, 20.7527 ], [ -82.5904, 20.7354 ], [ -82.5801, 20.7271 ], [ -82.5488, 20.7027 ], [ -82.5274, 20.6869 ], [ -82.506, 20.6712 ], [ -82.4846, 20.6554 ], [ -82.4635, 20.6393 ], [ -82.4428, 20.623 ], [ -82.4217, 20.6069 ], [ -82.3896, 20.5832 ], [ -82.3789, 20.5753 ], [ -82.3575, 20.5596 ], [ -82.3361, 20.5438 ], [ -82.315, 20.5277 ], [ -82.2944, 20.5114 ], [ -82.2736, 20.4956 ], [ -82.2526, 20.4807 ], [ -82.2315, 20.467 ], [ -82.1984, 20.4504 ], [ -82.1753, 20.442 ], [ -82.1507, 20.4362 ] ] ] } }
]
}
