{"type":"FeatureCollection","features":[{"type":"Feature","id":1,"geometry":{"type":"Point","coordinates":[-55.39394476284042,35.508360582674868]},"properties":{"objectid":1,"basin":"Atlantic","prob2day":"50%","risk2day":"Medium","prob7day":"60%","risk7day":"Medium","idp_source":"gtwo_points_202609272320","idp_filedate":1790551678000,"idp_ingestdate":1790551693000}},{"type":"Feature","id":2,"geometry":{"type":"Point","coordinates":[-137.52171563296997,11.346047091000571]},"properties":{"objectid":2,"basin":"Pacific","prob2day":"70%","risk2day":"High","prob7day":"90%","risk7day":"High","idp_source":"gtwo_points_202609272320","idp_filedate":1790551678000,"idp_ingestdate":1790551693000}}]}