{
"type": "FeatureCollection",
"name": "al092021_2021082915_initialradii",
"features": [
{ "type": "Feature", "properties": { "RADII": 34.0, "STORMID": "al092021", "BASIN": "al", "STORMNUM": 9.0, "ADVNUM": "14", "VALIDTIME": "2021082915", "SYNOPTIME": "2021082912", "TIMEZONE": "UTC", "TAU": 0.0, "NE": 130.0, "SE": 110.0, "SW": 80.0, "NW": 110.0 }, "geometry": { "type": "Polygon", "coordinates": [ [ [ -89.9792, 30.7961 ], [ -90.0197, 30.7924 ], [ -90.0601, 30.7881 ], [ -90.1003, 30.7832 ], [ -90.1403, 30.7777 ], [ -90.1801, 30.7716 ], [ -90.2197, 30.7648 ], [ -90.259, 30.7575 ], [ -90.2981, 30.7496 ], [ -90.337, 30.7411 ], [ -90.3756, 30.732 ], [ -90.414, 30.7223 ], [ -90.452, 30.712 ], [ -90.4898, 30.7012 ], [ -90.5273, 30.6899 ], [ -90.5644, 30.6779 ], [ -90.6012, 30.6655 ], [ -90.6377, 30.6524 ], [ -90.6738, 30.6389 ], [ -90.7096, 30.6248 ], [ -90.745, 30.6102 ], [ -90.78, 30.5951 ], [ -90.8146, 30.5794 ], [ -90.8488, 30.5633 ], [ -90.8826, 30.5467 ], [ -90.916, 30.5295 ], [ -90.949, 30.5119 ], [ -90.9815, 30.4939 ], [ -91.0135, 30.4754 ], [ -91.0451, 30.4564 ], [ -91.0763, 30.4369 ], [ -91.1069, 30.417 ], [ -91.1371, 30.3967 ], [ -91.1668, 30.376 ], [ -91.196, 30.3549 ], [ -91.2246, 30.3333 ], [ -91.2528, 30.3114 ], [ -91.2804, 30.289 ], [ -91.3076, 30.2663 ], [ -91.3342, 30.2432 ], [ -91.3602, 30.2198 ], [ -91.3857, 30.196 ], [ -91.4106, 30.1718 ], [ -91.4347, 30.1471 ], [ -91.4581, 30.122 ], [ -91.4807, 30.0964 ], [ -91.5026, 30.0704 ], [ -91.5237, 30.0439 ], [ -91.544, 30.0171 ], [ -91.5635, 29.9899 ], [ -91.5822, 29.9624 ], [ -91.6002, 29.9345 ], [ -91.6175, 29.9065 ], [ -91.6342, 29.8783 ], [ -91.6503, 29.8499 ], [ -91.6657, 29.8214 ], [ -91.6804, 29.7927 ], [ -91.6945, 29.7638 ], [ -91.708, 29.7349 ], [ -91.7208, 29.7058 ], [ -91.733, 29.6766 ], [ -91.7445, 29.6473 ], [ -91.7554, 29.6179 ], [ -91.7656, 29.5885 ], [ -91.7752, 29.559 ], [ -91.7841, 29.5294 ], [ -91.7924, 29.4998 ], [ -91.8, 29.4701 ], [ -91.807, 29.4405 ], [ -91.8134, 29.4108 ], [ -91.8191, 29.3811 ], [ -91.8242, 29.3514 ], [ -91.8286, 29.3218 ], [ -91.8324, 29.2922 ], [ -91.8356, 29.2626 ], [ -91.8382, 29.2331 ], [ -91.8402, 29.2036 ], [ -91.8415, 29.1742 ], [ -91.8423, 29.1448 ], [ -91.8424, 29.1156 ], [ -91.8419, 29.0865 ], [ -91.8408, 29.0574 ], [ -91.8391, 29.0285 ], [ -91.8369, 28.9997 ], [ -91.834, 28.9711 ], [ -91.8306, 28.9425 ], [ -91.8266, 28.9142 ], [ -91.822, 28.886 ], [ -91.8169, 28.858 ], [ -91.8112, 28.8301 ], [ -91.805, 28.8024 ], [ -91.7982, 28.775 ], [ -91.7909, 28.7477 ], [ -91.783, 28.7207 ], [ -91.7747, 28.6938 ], [ -91.7658, 28.6672 ], [ -91.7563, 28.6409 ], [ -91.7464, 28.6147 ], [ -91.736, 28.5889 ], [ -91.7251, 28.5633 ], [ -91.7137, 28.5379 ], [ -91.7019, 28.5128 ], [ -91.6895, 28.488 ], [ -91.6768, 28.4635 ], [ -91.6635, 28.4393 ], [ -91.6498, 28.4154 ], [ -91.6357, 28.3918 ], [ -91.6212, 28.3685 ], [ -91.6062, 28.3455 ], [ -91.5908, 28.3228 ], [ -91.575, 28.3005 ], [ -91.5589, 28.2785 ], [ -91.5423, 28.2568 ], [ -91.5253, 28.2355 ], [ -91.508, 28.2145 ], [ -91.4903, 28.1939 ], [ -91.4723, 28.1737 ], [ -91.454, 28.1538 ], [ -91.4353, 28.1343 ], [ -91.4163, 28.1151 ], [ -91.3969, 28.0964 ], [ -91.3773, 28.078 ], [ -91.3573, 28.06 ], [ -91.3371, 28.0424 ], [ -91.3166, 28.0251 ], [ -91.2958, 28.0083 ], [ -91.2748, 27.9919 ], [ -91.2535, 27.9758 ], [ -91.232, 27.9602 ], [ -91.2103, 27.945 ], [ -91.1883, 27.9302 ], [ -91.1661, 27.9158 ], [ -91.1442, 27.9013 ], [ -91.123, 27.8864 ], [ -91.1026, 27.871 ], [ -91.0829, 27.855 ], [ -91.0638, 27.8384 ], [ -91.0454, 27.8213 ], [ -91.0275, 27.8035 ], [ -91.0103, 27.785 ], [ -90.9936, 27.7659 ], [ -90.9769, 27.7466 ], [ -90.9598, 27.7275 ], [ -90.9422, 27.7085 ], [ -90.9242, 27.6898 ], [ -90.9057, 27.6713 ], [ -90.8868, 27.653 ], [ -90.8674, 27.635 ], [ -90.8476, 27.6172 ], [ -90.8274, 27.5997 ], [ -90.8067, 27.5824 ], [ -90.7856, 27.5654 ], [ -90.7641, 27.5487 ], [ -90.7422, 27.5323 ], [ -90.7198, 27.5162 ], [ -90.6971, 27.5003 ], [ -90.6739, 27.4848 ], [ -90.6504, 27.4696 ], [ -90.6264, 27.4547 ], [ -90.6021, 27.4402 ], [ -90.5774, 27.426 ], [ -90.5524, 27.4121 ], [ -90.5269, 27.3986 ], [ -90.5012, 27.3855 ], [ -90.475, 27.3727 ], [ -90.4485, 27.3603 ], [ -90.4217, 27.3483 ], [ -90.3945, 27.3367 ], [ -90.3671, 27.3255 ], [ -90.3393, 27.3147 ], [ -90.3111, 27.3042 ], [ -90.2827, 27.2942 ], [ -90.254, 27.2847 ], [ -90.225, 27.2755 ], [ -90.1958, 27.2668 ], [ -90.1662, 27.2585 ], [ -90.1364, 27.2507 ], [ -90.1064, 27.2433 ], [ -90.0761, 27.2364 ], [ -90.0455, 27.2299 ], [ -90.0147, 27.2239 ], [ -89.9838, 27.2184 ], [ -89.9526, 27.2133 ], [ -89.9212, 27.2087 ], [ -89.8896, 27.2047 ], [ -89.8578, 27.2011 ], [ -89.8259, 27.198 ], [ -89.7938, 27.1954 ], [ -89.7615, 27.1933 ], [ -89.7291, 27.1917 ], [ -89.6966, 27.1906 ], [ -89.6639, 27.19 ], [ -89.6312, 27.19 ], [ -89.5983, 27.1904 ], [ -89.5653, 27.1914 ], [ -89.5323, 27.193 ], [ -89.4992, 27.195 ], [ -89.466, 27.1976 ], [ -89.4328, 27.2007 ], [ -89.3995, 27.2044 ], [ -89.3662, 27.2085 ], [ -89.3329, 27.2133 ], [ -89.2996, 27.2186 ], [ -89.2663, 27.2244 ], [ -89.233, 27.2307 ], [ -89.1997, 27.2376 ], [ -89.1665, 27.2451 ], [ -89.1333, 27.2531 ], [ -89.1002, 27.2617 ], [ -89.0671, 27.2708 ], [ -89.0341, 27.2804 ], [ -89.0012, 27.2906 ], [ -88.9685, 27.3014 ], [ -88.9358, 27.3127 ], [ -88.9033, 27.3245 ], [ -88.8709, 27.3369 ], [ -88.8387, 27.3499 ], [ -88.8066, 27.3634 ], [ -88.7747, 27.3774 ], [ -88.743, 27.392 ], [ -88.7114, 27.4071 ], [ -88.6801, 27.4228 ], [ -88.6491, 27.439 ], [ -88.6185, 27.456 ], [ -88.5883, 27.4736 ], [ -88.5586, 27.4919 ], [ -88.5293, 27.5109 ], [ -88.5004, 27.5304 ], [ -88.4721, 27.5507 ], [ -88.4442, 27.5715 ], [ -88.4169, 27.593 ], [ -88.39, 27.615 ], [ -88.3635, 27.6374 ], [ -88.3374, 27.6604 ], [ -88.3116, 27.6837 ], [ -88.2863, 27.7075 ], [ -88.2614, 27.7318 ], [ -88.237, 27.7564 ], [ -88.2129, 27.7815 ], [ -88.1894, 27.807 ], [ -88.1663, 27.8329 ], [ -88.1436, 27.8592 ], [ -88.1214, 27.886 ], [ -88.0997, 27.9131 ], [ -88.0785, 27.9406 ], [ -88.0578, 27.9684 ], [ -88.0376, 27.9967 ], [ -88.018, 28.0253 ], [ -87.9988, 28.0542 ], [ -87.9802, 28.0835 ], [ -87.9622, 28.1132 ], [ -87.9447, 28.1432 ], [ -87.9277, 28.1734 ], [ -87.9113, 28.2041 ], [ -87.8956, 28.235 ], [ -87.8803, 28.2662 ], [ -87.8657, 28.2977 ], [ -87.8517, 28.3295 ], [ -87.8383, 28.3615 ], [ -87.8255, 28.3939 ], [ -87.8133, 28.4264 ], [ -87.8017, 28.4592 ], [ -87.7908, 28.4923 ], [ -87.7805, 28.5256 ], [ -87.7709, 28.5591 ], [ -87.7619, 28.5928 ], [ -87.7536, 28.6267 ], [ -87.7459, 28.6608 ], [ -87.7389, 28.695 ], [ -87.7326, 28.7294 ], [ -87.7269, 28.764 ], [ -87.7219, 28.7987 ], [ -87.7177, 28.8336 ], [ -87.7141, 28.8686 ], [ -87.7112, 28.9037 ], [ -87.709, 28.9389 ], [ -87.7076, 28.9742 ], [ -87.7068, 29.0095 ], [ -87.7067, 29.045 ], [ -87.7074, 29.0805 ], [ -87.7088, 29.116 ], [ -87.7109, 29.1516 ], [ -87.7137, 29.1872 ], [ -87.7173, 29.2229 ], [ -87.7216, 29.2585 ], [ -87.7266, 29.2941 ], [ -87.7323, 29.3297 ], [ -87.7388, 29.3653 ], [ -87.746, 29.4009 ], [ -87.754, 29.4363 ], [ -87.7627, 29.4717 ], [ -87.7721, 29.5071 ], [ -87.7823, 29.5423 ], [ -87.7932, 29.5775 ], [ -87.8049, 29.6125 ], [ -87.8173, 29.6474 ], [ -87.8304, 29.6822 ], [ -87.8442, 29.7168 ], [ -87.8588, 29.7513 ], [ -87.8742, 29.7856 ], [ -87.8902, 29.8197 ], [ -87.907, 29.8536 ], [ -87.9246, 29.8873 ], [ -87.9428, 29.9208 ], [ -87.9618, 29.9541 ], [ -87.9815, 29.9871 ], [ -88.0019, 30.0199 ], [ -88.023, 30.0524 ], [ -88.0448, 30.0847 ], [ -88.0674, 30.1166 ], [ -88.0906, 30.1483 ], [ -88.1146, 30.1796 ], [ -88.1395, 30.2103 ], [ -88.1658, 30.2402 ], [ -88.1935, 30.269 ], [ -88.2224, 30.2969 ], [ -88.2526, 30.3237 ], [ -88.284, 30.3495 ], [ -88.3165, 30.3743 ], [ -88.3503, 30.3979 ], [ -88.3852, 30.4204 ], [ -88.4208, 30.442 ], [ -88.4568, 30.463 ], [ -88.4931, 30.4835 ], [ -88.5299, 30.5033 ], [ -88.567, 30.5226 ], [ -88.6044, 30.5412 ], [ -88.6422, 30.5592 ], [ -88.6802, 30.5766 ], [ -88.7186, 30.5934 ], [ -88.7572, 30.6095 ], [ -88.7962, 30.6251 ], [ -88.8353, 30.64 ], [ -88.8748, 30.6542 ], [ -88.9144, 30.6679 ], [ -88.9543, 30.6809 ], [ -88.9943, 30.6932 ], [ -89.0346, 30.7049 ], [ -89.075, 30.716 ], [ -89.1156, 30.7264 ], [ -89.1563, 30.7362 ], [ -89.1971, 30.7453 ], [ -89.2381, 30.7538 ], [ -89.2791, 30.7617 ], [ -89.3203, 30.7688 ], [ -89.3615, 30.7754 ], [ -89.4028, 30.7813 ], [ -89.4441, 30.7865 ], [ -89.4855, 30.7911 ], [ -89.5269, 30.795 ], [ -89.5683, 30.7983 ], [ -89.6096, 30.801 ], [ -89.651, 30.803 ], [ -89.6923, 30.8044 ], [ -89.7336, 30.8051 ], [ -89.7747, 30.8052 ], [ -89.8158, 30.8046 ], [ -89.8569, 30.8034 ], [ -89.8978, 30.8016 ], [ -89.9386, 30.7992 ], [ -89.9792, 30.7961 ] ] ] } },
{ "type": "Feature", "properties": { "RADII": 50.0, "STORMID": "al092021", "BASIN": "al", "STORMNUM": 9.0, "ADVNUM": "14", "VALIDTIME": "2021082915", "SYNOPTIME": "2021082912", "TIMEZONE": "UTC", "TAU": 0.0, "NE": 70.0, "SE": 60.0, "SW": 40.0, "NW": 60.0 }, "geometry": { "type": "Polygon", "coordinates": [ [ [ -89.9889, 29.8812 ], [ -90.0106, 29.8793 ], [ -90.0323, 29.8772 ], [ -90.0539, 29.8747 ], [ -90.0754, 29.8718 ], [ -90.0967, 29.8687 ], [ -90.118, 29.8652 ], [ -90.1392, 29.8614 ], [ -90.1603, 29.8573 ], [ -90.1812, 29.8528 ], [ -90.202, 29.8481 ], [ -90.2226, 29.843 ], [ -90.2432, 29.8376 ], [ -90.2635, 29.8319 ], [ -90.2837, 29.826 ], [ -90.3038, 29.8197 ], [ -90.3237, 29.8131 ], [ -90.3434, 29.8062 ], [ -90.3629, 29.7991 ], [ -90.3822, 29.7916 ], [ -90.4014, 29.7839 ], [ -90.4204, 29.7758 ], [ -90.4391, 29.7676 ], [ -90.4577, 29.759 ], [ -90.476, 29.7501 ], [ -90.4941, 29.741 ], [ -90.512, 29.7317 ], [ -90.5297, 29.7221 ], [ -90.5471, 29.7122 ], [ -90.5643, 29.7021 ], [ -90.5813, 29.6917 ], [ -90.598, 29.6811 ], [ -90.6144, 29.6702 ], [ -90.6306, 29.6591 ], [ -90.6466, 29.6478 ], [ -90.6622, 29.6363 ], [ -90.6777, 29.6245 ], [ -90.6928, 29.6126 ], [ -90.7077, 29.6004 ], [ -90.7222, 29.588 ], [ -90.7365, 29.5754 ], [ -90.7506, 29.5627 ], [ -90.7642, 29.5496 ], [ -90.7774, 29.5362 ], [ -90.7901, 29.5226 ], [ -90.8023, 29.5086 ], [ -90.814, 29.4943 ], [ -90.8252, 29.4797 ], [ -90.8359, 29.4649 ], [ -90.8461, 29.4498 ], [ -90.8558, 29.4345 ], [ -90.8651, 29.4189 ], [ -90.8739, 29.4033 ], [ -90.8824, 29.3877 ], [ -90.8906, 29.3719 ], [ -90.8984, 29.3561 ], [ -90.9058, 29.3402 ], [ -90.9129, 29.3242 ], [ -90.9196, 29.3082 ], [ -90.9259, 29.2922 ], [ -90.9319, 29.2761 ], [ -90.9375, 29.26 ], [ -90.9428, 29.2438 ], [ -90.9477, 29.2277 ], [ -90.9522, 29.2115 ], [ -90.9564, 29.1953 ], [ -90.9602, 29.1791 ], [ -90.9637, 29.1629 ], [ -90.9668, 29.1468 ], [ -90.9696, 29.1306 ], [ -90.972, 29.1145 ], [ -90.974, 29.0983 ], [ -90.9757, 29.0823 ], [ -90.9771, 29.0662 ], [ -90.9782, 29.0502 ], [ -90.9789, 29.0343 ], [ -90.9792, 29.0184 ], [ -90.9792, 29.0025 ], [ -90.9789, 28.9867 ], [ -90.9783, 28.971 ], [ -90.9773, 28.9554 ], [ -90.976, 28.9399 ], [ -90.9744, 28.9244 ], [ -90.9725, 28.909 ], [ -90.9703, 28.8937 ], [ -90.9677, 28.8786 ], [ -90.9649, 28.8635 ], [ -90.9617, 28.8485 ], [ -90.9582, 28.8337 ], [ -90.9545, 28.819 ], [ -90.9504, 28.8044 ], [ -90.9461, 28.7899 ], [ -90.9415, 28.7756 ], [ -90.9366, 28.7614 ], [ -90.9314, 28.7473 ], [ -90.9259, 28.7334 ], [ -90.9202, 28.7196 ], [ -90.9142, 28.706 ], [ -90.908, 28.6925 ], [ -90.9015, 28.6792 ], [ -90.8947, 28.6661 ], [ -90.8878, 28.6531 ], [ -90.8805, 28.6404 ], [ -90.8731, 28.6277 ], [ -90.8654, 28.6153 ], [ -90.8575, 28.6031 ], [ -90.8493, 28.591 ], [ -90.841, 28.5791 ], [ -90.8324, 28.5674 ], [ -90.8236, 28.5559 ], [ -90.8146, 28.5446 ], [ -90.8055, 28.5335 ], [ -90.7961, 28.5226 ], [ -90.7865, 28.5119 ], [ -90.7768, 28.5014 ], [ -90.7669, 28.4911 ], [ -90.7568, 28.4811 ], [ -90.7466, 28.4712 ], [ -90.7362, 28.4616 ], [ -90.7257, 28.4521 ], [ -90.715, 28.4429 ], [ -90.7041, 28.434 ], [ -90.6931, 28.4252 ], [ -90.682, 28.4166 ], [ -90.6708, 28.4083 ], [ -90.6595, 28.4002 ], [ -90.648, 28.3924 ], [ -90.6364, 28.3847 ], [ -90.6247, 28.3773 ], [ -90.613, 28.3702 ], [ -90.6011, 28.3632 ], [ -90.5891, 28.3565 ], [ -90.5774, 28.3497 ], [ -90.5663, 28.3426 ], [ -90.5556, 28.335 ], [ -90.5455, 28.3271 ], [ -90.5359, 28.3187 ], [ -90.5268, 28.3099 ], [ -90.5182, 28.3006 ], [ -90.51, 28.2909 ], [ -90.5022, 28.2806 ], [ -90.4944, 28.2702 ], [ -90.4864, 28.2598 ], [ -90.4782, 28.2495 ], [ -90.4697, 28.2393 ], [ -90.4609, 28.2292 ], [ -90.4519, 28.2192 ], [ -90.4426, 28.2093 ], [ -90.433, 28.1995 ], [ -90.4232, 28.1898 ], [ -90.4132, 28.1802 ], [ -90.4029, 28.1708 ], [ -90.3924, 28.1614 ], [ -90.3816, 28.1523 ], [ -90.3706, 28.1432 ], [ -90.3593, 28.1343 ], [ -90.3478, 28.1255 ], [ -90.336, 28.1169 ], [ -90.324, 28.1085 ], [ -90.3118, 28.1002 ], [ -90.2994, 28.0921 ], [ -90.2867, 28.0841 ], [ -90.2738, 28.0763 ], [ -90.2607, 28.0687 ], [ -90.2474, 28.0613 ], [ -90.2338, 28.0541 ], [ -90.2201, 28.047 ], [ -90.2061, 28.0402 ], [ -90.192, 28.0335 ], [ -90.1776, 28.0271 ], [ -90.1631, 28.0209 ], [ -90.1483, 28.0148 ], [ -90.1334, 28.009 ], [ -90.1183, 28.0035 ], [ -90.103, 27.9981 ], [ -90.0875, 27.993 ], [ -90.0719, 27.9881 ], [ -90.0561, 27.9834 ], [ -90.0401, 27.979 ], [ -90.024, 27.9748 ], [ -90.0077, 27.9709 ], [ -89.9913, 27.9672 ], [ -89.9747, 27.9638 ], [ -89.958, 27.9606 ], [ -89.9412, 27.9577 ], [ -89.9242, 27.955 ], [ -89.9072, 27.9526 ], [ -89.89, 27.9505 ], [ -89.8726, 27.9486 ], [ -89.8552, 27.9471 ], [ -89.8377, 27.9458 ], [ -89.8201, 27.9447 ], [ -89.8024, 27.944 ], [ -89.7846, 27.9435 ], [ -89.7668, 27.9434 ], [ -89.7488, 27.9435 ], [ -89.7308, 27.9439 ], [ -89.7128, 27.9446 ], [ -89.6947, 27.9456 ], [ -89.6765, 27.9469 ], [ -89.6583, 27.9485 ], [ -89.6401, 27.9504 ], [ -89.6218, 27.9526 ], [ -89.6035, 27.9551 ], [ -89.5852, 27.9579 ], [ -89.5669, 27.961 ], [ -89.5486, 27.9644 ], [ -89.5303, 27.9681 ], [ -89.512, 27.9721 ], [ -89.4937, 27.9765 ], [ -89.4755, 27.9811 ], [ -89.4572, 27.9861 ], [ -89.439, 27.9913 ], [ -89.4209, 27.9969 ], [ -89.4028, 28.0028 ], [ -89.3847, 28.009 ], [ -89.3668, 28.0155 ], [ -89.3488, 28.0223 ], [ -89.331, 28.0295 ], [ -89.3133, 28.0369 ], [ -89.2956, 28.0447 ], [ -89.278, 28.0527 ], [ -89.2607, 28.0612 ], [ -89.2436, 28.0701 ], [ -89.2267, 28.0794 ], [ -89.2102, 28.0892 ], [ -89.1941, 28.0994 ], [ -89.1782, 28.11 ], [ -89.1627, 28.1211 ], [ -89.1475, 28.1325 ], [ -89.1327, 28.1444 ], [ -89.1182, 28.1565 ], [ -89.1039, 28.169 ], [ -89.0899, 28.1816 ], [ -89.076, 28.1945 ], [ -89.0624, 28.2077 ], [ -89.049, 28.221 ], [ -89.0359, 28.2346 ], [ -89.023, 28.2485 ], [ -89.0104, 28.2625 ], [ -88.998, 28.2768 ], [ -88.9859, 28.2913 ], [ -88.9741, 28.306 ], [ -88.9625, 28.3209 ], [ -88.9512, 28.336 ], [ -88.9402, 28.3512 ], [ -88.9295, 28.3667 ], [ -88.9191, 28.3824 ], [ -88.9089, 28.3983 ], [ -88.8991, 28.4144 ], [ -88.8896, 28.4306 ], [ -88.8803, 28.447 ], [ -88.8714, 28.4636 ], [ -88.8628, 28.4803 ], [ -88.8545, 28.4972 ], [ -88.8466, 28.5143 ], [ -88.839, 28.5315 ], [ -88.8317, 28.5488 ], [ -88.8247, 28.5663 ], [ -88.8181, 28.5839 ], [ -88.8118, 28.6017 ], [ -88.8059, 28.6196 ], [ -88.8003, 28.6376 ], [ -88.795, 28.6557 ], [ -88.7902, 28.6739 ], [ -88.7856, 28.6922 ], [ -88.7815, 28.7106 ], [ -88.7777, 28.7292 ], [ -88.7742, 28.7478 ], [ -88.7712, 28.7665 ], [ -88.7685, 28.7852 ], [ -88.7661, 28.804 ], [ -88.7642, 28.8229 ], [ -88.7626, 28.8419 ], [ -88.7614, 28.8609 ], [ -88.7606, 28.88 ], [ -88.7602, 28.8991 ], [ -88.7601, 28.9182 ], [ -88.7605, 28.9374 ], [ -88.7612, 28.9566 ], [ -88.7623, 28.9758 ], [ -88.7638, 28.995 ], [ -88.7657, 29.0142 ], [ -88.768, 29.0334 ], [ -88.7707, 29.0527 ], [ -88.7737, 29.0719 ], [ -88.7772, 29.0911 ], [ -88.7811, 29.1102 ], [ -88.7853, 29.1293 ], [ -88.7899, 29.1484 ], [ -88.795, 29.1675 ], [ -88.8004, 29.1865 ], [ -88.8063, 29.2054 ], [ -88.8125, 29.2243 ], [ -88.8191, 29.2431 ], [ -88.8261, 29.2619 ], [ -88.8335, 29.2805 ], [ -88.8413, 29.2991 ], [ -88.8495, 29.3176 ], [ -88.858, 29.336 ], [ -88.867, 29.3543 ], [ -88.8763, 29.3724 ], [ -88.8861, 29.3905 ], [ -88.8962, 29.4084 ], [ -88.9067, 29.4262 ], [ -88.9175, 29.4438 ], [ -88.9288, 29.4614 ], [ -88.9404, 29.4787 ], [ -88.9524, 29.4959 ], [ -88.9647, 29.513 ], [ -88.9775, 29.5299 ], [ -88.9906, 29.5466 ], [ -89.0042, 29.563 ], [ -89.0185, 29.5789 ], [ -89.0335, 29.5943 ], [ -89.0491, 29.6092 ], [ -89.0654, 29.6235 ], [ -89.0822, 29.6374 ], [ -89.0997, 29.6506 ], [ -89.1178, 29.6633 ], [ -89.1364, 29.6754 ], [ -89.1555, 29.6871 ], [ -89.1747, 29.6984 ], [ -89.1941, 29.7095 ], [ -89.2138, 29.7202 ], [ -89.2336, 29.7306 ], [ -89.2536, 29.7406 ], [ -89.2737, 29.7504 ], [ -89.2941, 29.7598 ], [ -89.3146, 29.7689 ], [ -89.3352, 29.7776 ], [ -89.356, 29.786 ], [ -89.3769, 29.7941 ], [ -89.3979, 29.8018 ], [ -89.4191, 29.8092 ], [ -89.4404, 29.8163 ], [ -89.4618, 29.823 ], [ -89.4833, 29.8294 ], [ -89.5049, 29.8355 ], [ -89.5266, 29.8412 ], [ -89.5483, 29.8465 ], [ -89.5702, 29.8515 ], [ -89.5921, 29.8562 ], [ -89.614, 29.8605 ], [ -89.636, 29.8645 ], [ -89.6581, 29.8681 ], [ -89.6801, 29.8714 ], [ -89.7022, 29.8743 ], [ -89.7244, 29.8769 ], [ -89.7465, 29.8791 ], [ -89.7686, 29.881 ], [ -89.7908, 29.8826 ], [ -89.8129, 29.8838 ], [ -89.8351, 29.8847 ], [ -89.8572, 29.8852 ], [ -89.8792, 29.8854 ], [ -89.9013, 29.8852 ], [ -89.9232, 29.8847 ], [ -89.9452, 29.8839 ], [ -89.9671, 29.8827 ], [ -89.9889, 29.8812 ] ] ] } },
{ "type": "Feature", "properties": { "RADII": 64.0, "STORMID": "al092021", "BASIN": "al", "STORMNUM": 9.0, "ADVNUM": "14", "VALIDTIME": "2021082915", "SYNOPTIME": "2021082912", "TIMEZONE": "UTC", "TAU": 0.0, "NE": 45.0, "SE": 35.0, "SW": 20.0, "NW": 30.0 }, "geometry": { "type": "Polygon", "coordinates": [ [ [ -89.9934, 29.4246 ], [ -90.0059, 29.4218 ], [ -90.0182, 29.4189 ], [ -90.0305, 29.4158 ], [ -90.0426, 29.4124 ], [ -90.0546, 29.4089 ], [ -90.0665, 29.4052 ], [ -90.0783, 29.4014 ], [ -90.0899, 29.3973 ], [ -90.1014, 29.3931 ], [ -90.1127, 29.3888 ], [ -90.1239, 29.3842 ], [ -90.135, 29.3795 ], [ -90.1458, 29.3747 ], [ -90.1566, 29.3697 ], [ -90.1672, 29.3645 ], [ -90.1776, 29.3592 ], [ -90.1878, 29.3537 ], [ -90.1979, 29.3481 ], [ -90.2079, 29.3424 ], [ -90.2176, 29.3365 ], [ -90.2272, 29.3305 ], [ -90.2366, 29.3244 ], [ -90.2458, 29.3181 ], [ -90.2549, 29.3118 ], [ -90.2638, 29.3053 ], [ -90.2725, 29.2986 ], [ -90.281, 29.2919 ], [ -90.2893, 29.2851 ], [ -90.2974, 29.2782 ], [ -90.3054, 29.2711 ], [ -90.3131, 29.264 ], [ -90.3207, 29.2568 ], [ -90.3281, 29.2495 ], [ -90.3352, 29.2421 ], [ -90.3422, 29.2346 ], [ -90.349, 29.2271 ], [ -90.3556, 29.2195 ], [ -90.362, 29.2118 ], [ -90.3681, 29.204 ], [ -90.3741, 29.1962 ], [ -90.3799, 29.1883 ], [ -90.3855, 29.1804 ], [ -90.391, 29.1725 ], [ -90.3964, 29.1646 ], [ -90.4017, 29.1568 ], [ -90.4069, 29.149 ], [ -90.412, 29.1412 ], [ -90.417, 29.1334 ], [ -90.4218, 29.1256 ], [ -90.4266, 29.1179 ], [ -90.4312, 29.1102 ], [ -90.4357, 29.1024 ], [ -90.44, 29.0946 ], [ -90.4441, 29.0867 ], [ -90.448, 29.0788 ], [ -90.4517, 29.0709 ], [ -90.4553, 29.0629 ], [ -90.4587, 29.0549 ], [ -90.4619, 29.0469 ], [ -90.4649, 29.0389 ], [ -90.4677, 29.0308 ], [ -90.4704, 29.0227 ], [ -90.4729, 29.0147 ], [ -90.4752, 29.0066 ], [ -90.4773, 28.9985 ], [ -90.4792, 28.9904 ], [ -90.481, 28.9823 ], [ -90.4826, 28.9743 ], [ -90.484, 28.9662 ], [ -90.4853, 28.9581 ], [ -90.4863, 28.9501 ], [ -90.4872, 28.942 ], [ -90.4879, 28.934 ], [ -90.4885, 28.926 ], [ -90.4889, 28.918 ], [ -90.4891, 28.9101 ], [ -90.4891, 28.9021 ], [ -90.489, 28.8943 ], [ -90.4887, 28.8864 ], [ -90.4883, 28.8786 ], [ -90.4877, 28.8708 ], [ -90.4869, 28.8631 ], [ -90.486, 28.8554 ], [ -90.4849, 28.8477 ], [ -90.4837, 28.8402 ], [ -90.4823, 28.8326 ], [ -90.4807, 28.8251 ], [ -90.479, 28.8177 ], [ -90.4772, 28.8103 ], [ -90.4752, 28.803 ], [ -90.4731, 28.7958 ], [ -90.4708, 28.7886 ], [ -90.4684, 28.7815 ], [ -90.4658, 28.7744 ], [ -90.4631, 28.7675 ], [ -90.4603, 28.7606 ], [ -90.4573, 28.7538 ], [ -90.4542, 28.747 ], [ -90.451, 28.7404 ], [ -90.4477, 28.7338 ], [ -90.4442, 28.7273 ], [ -90.4406, 28.7209 ], [ -90.4369, 28.7146 ], [ -90.4331, 28.7083 ], [ -90.4291, 28.7022 ], [ -90.4251, 28.6962 ], [ -90.4209, 28.6902 ], [ -90.4167, 28.6843 ], [ -90.4123, 28.6786 ], [ -90.4078, 28.6729 ], [ -90.4032, 28.6674 ], [ -90.3986, 28.6619 ], [ -90.3938, 28.6565 ], [ -90.389, 28.6513 ], [ -90.384, 28.6461 ], [ -90.379, 28.6411 ], [ -90.3739, 28.6361 ], [ -90.3687, 28.6313 ], [ -90.3634, 28.6266 ], [ -90.3581, 28.6219 ], [ -90.3527, 28.6174 ], [ -90.3472, 28.613 ], [ -90.3416, 28.6088 ], [ -90.336, 28.6046 ], [ -90.3304, 28.6005 ], [ -90.3246, 28.5966 ], [ -90.3188, 28.5927 ], [ -90.313, 28.589 ], [ -90.3071, 28.5854 ], [ -90.3012, 28.5819 ], [ -90.2952, 28.5786 ], [ -90.2894, 28.5751 ], [ -90.2839, 28.5714 ], [ -90.2788, 28.5675 ], [ -90.274, 28.5632 ], [ -90.2696, 28.5587 ], [ -90.2654, 28.5538 ], [ -90.2616, 28.5486 ], [ -90.258, 28.5432 ], [ -90.2547, 28.5373 ], [ -90.2514, 28.5313 ], [ -90.248, 28.5253 ], [ -90.2444, 28.5194 ], [ -90.2407, 28.5135 ], [ -90.2368, 28.5076 ], [ -90.2327, 28.5017 ], [ -90.2285, 28.4959 ], [ -90.2241, 28.4901 ], [ -90.2195, 28.4844 ], [ -90.2148, 28.4787 ], [ -90.2099, 28.473 ], [ -90.2049, 28.4674 ], [ -90.1997, 28.4619 ], [ -90.1944, 28.4564 ], [ -90.1889, 28.451 ], [ -90.1832, 28.4456 ], [ -90.1774, 28.4403 ], [ -90.1714, 28.4351 ], [ -90.1653, 28.4299 ], [ -90.1591, 28.4249 ], [ -90.1526, 28.4199 ], [ -90.1461, 28.415 ], [ -90.1393, 28.4102 ], [ -90.1325, 28.4054 ], [ -90.1255, 28.4008 ], [ -90.1183, 28.3963 ], [ -90.111, 28.3918 ], [ -90.1036, 28.3875 ], [ -90.096, 28.3832 ], [ -90.0883, 28.3791 ], [ -90.0804, 28.3751 ], [ -90.0725, 28.3712 ], [ -90.0644, 28.3674 ], [ -90.0561, 28.3637 ], [ -90.0478, 28.3602 ], [ -90.0393, 28.3568 ], [ -90.0307, 28.3535 ], [ -90.0219, 28.3503 ], [ -90.0131, 28.3473 ], [ -90.0042, 28.3444 ], [ -89.9951, 28.3416 ], [ -89.9859, 28.339 ], [ -89.9767, 28.3365 ], [ -89.9673, 28.3341 ], [ -89.9578, 28.332 ], [ -89.9482, 28.3299 ], [ -89.9386, 28.328 ], [ -89.9288, 28.3263 ], [ -89.919, 28.3247 ], [ -89.909, 28.3233 ], [ -89.899, 28.322 ], [ -89.8889, 28.3209 ], [ -89.8788, 28.32 ], [ -89.8685, 28.3192 ], [ -89.8582, 28.3186 ], [ -89.8479, 28.3182 ], [ -89.8375, 28.3179 ], [ -89.827, 28.3179 ], [ -89.8165, 28.3179 ], [ -89.8059, 28.3182 ], [ -89.7952, 28.3187 ], [ -89.7846, 28.3193 ], [ -89.7739, 28.3201 ], [ -89.7632, 28.3211 ], [ -89.7524, 28.3223 ], [ -89.7416, 28.3236 ], [ -89.7308, 28.3252 ], [ -89.72, 28.3269 ], [ -89.7091, 28.3288 ], [ -89.6983, 28.3309 ], [ -89.6874, 28.3332 ], [ -89.6766, 28.3357 ], [ -89.6657, 28.3384 ], [ -89.6549, 28.3412 ], [ -89.6441, 28.3443 ], [ -89.6333, 28.3475 ], [ -89.6225, 28.351 ], [ -89.6117, 28.3546 ], [ -89.601, 28.3585 ], [ -89.5902, 28.3625 ], [ -89.5796, 28.3667 ], [ -89.569, 28.3712 ], [ -89.5586, 28.3759 ], [ -89.5483, 28.3809 ], [ -89.5381, 28.3861 ], [ -89.5281, 28.3916 ], [ -89.5182, 28.3973 ], [ -89.5086, 28.4033 ], [ -89.4991, 28.4095 ], [ -89.4897, 28.416 ], [ -89.4806, 28.4227 ], [ -89.4715, 28.4296 ], [ -89.4625, 28.4366 ], [ -89.4537, 28.4437 ], [ -89.445, 28.4511 ], [ -89.4364, 28.4585 ], [ -89.4279, 28.4662 ], [ -89.4196, 28.474 ], [ -89.4114, 28.4819 ], [ -89.4034, 28.4901 ], [ -89.3954, 28.4983 ], [ -89.3877, 28.5067 ], [ -89.3801, 28.5153 ], [ -89.3726, 28.5239 ], [ -89.3653, 28.5328 ], [ -89.3581, 28.5418 ], [ -89.3511, 28.5509 ], [ -89.3443, 28.5601 ], [ -89.3377, 28.5695 ], [ -89.3312, 28.579 ], [ -89.3249, 28.5886 ], [ -89.3188, 28.5984 ], [ -89.3128, 28.6083 ], [ -89.3071, 28.6183 ], [ -89.3015, 28.6284 ], [ -89.2961, 28.6386 ], [ -89.2909, 28.649 ], [ -89.286, 28.6594 ], [ -89.2812, 28.67 ], [ -89.2766, 28.6807 ], [ -89.2722, 28.6914 ], [ -89.2681, 28.7023 ], [ -89.2641, 28.7133 ], [ -89.2604, 28.7243 ], [ -89.2568, 28.7354 ], [ -89.2535, 28.7467 ], [ -89.2504, 28.758 ], [ -89.2476, 28.7693 ], [ -89.2449, 28.7808 ], [ -89.2425, 28.7923 ], [ -89.2403, 28.8039 ], [ -89.2383, 28.8156 ], [ -89.2366, 28.8273 ], [ -89.2351, 28.839 ], [ -89.2339, 28.8509 ], [ -89.2329, 28.8627 ], [ -89.2321, 28.8747 ], [ -89.2316, 28.8866 ], [ -89.2313, 28.8986 ], [ -89.2312, 28.9107 ], [ -89.2315, 28.9227 ], [ -89.2319, 28.9348 ], [ -89.2326, 28.9469 ], [ -89.2335, 28.9591 ], [ -89.2347, 28.9712 ], [ -89.2362, 28.9834 ], [ -89.2379, 28.9955 ], [ -89.2399, 29.0077 ], [ -89.2421, 29.0199 ], [ -89.2445, 29.032 ], [ -89.2473, 29.0442 ], [ -89.2502, 29.0563 ], [ -89.2535, 29.0685 ], [ -89.257, 29.0806 ], [ -89.2607, 29.0926 ], [ -89.2647, 29.1047 ], [ -89.269, 29.1167 ], [ -89.2735, 29.1287 ], [ -89.2783, 29.1406 ], [ -89.2833, 29.1525 ], [ -89.2886, 29.1643 ], [ -89.2941, 29.1761 ], [ -89.2999, 29.1878 ], [ -89.306, 29.1995 ], [ -89.3123, 29.2111 ], [ -89.3188, 29.2226 ], [ -89.3257, 29.234 ], [ -89.3327, 29.2454 ], [ -89.34, 29.2567 ], [ -89.3476, 29.2679 ], [ -89.3554, 29.279 ], [ -89.3637, 29.2898 ], [ -89.3726, 29.3001 ], [ -89.3822, 29.31 ], [ -89.3923, 29.3193 ], [ -89.4031, 29.3281 ], [ -89.4144, 29.3364 ], [ -89.4263, 29.3442 ], [ -89.4388, 29.3513 ], [ -89.4517, 29.3579 ], [ -89.465, 29.3641 ], [ -89.4783, 29.37 ], [ -89.4918, 29.3757 ], [ -89.5052, 29.3812 ], [ -89.5188, 29.3864 ], [ -89.5324, 29.3914 ], [ -89.5461, 29.3962 ], [ -89.5598, 29.4007 ], [ -89.5736, 29.405 ], [ -89.5874, 29.409 ], [ -89.6012, 29.4128 ], [ -89.615, 29.4164 ], [ -89.6289, 29.4197 ], [ -89.6428, 29.4228 ], [ -89.6567, 29.4257 ], [ -89.6706, 29.4284 ], [ -89.6845, 29.4308 ], [ -89.6984, 29.4329 ], [ -89.7123, 29.4349 ], [ -89.7262, 29.4366 ], [ -89.7401, 29.4381 ], [ -89.7539, 29.4393 ], [ -89.7677, 29.4403 ], [ -89.7815, 29.4411 ], [ -89.7952, 29.4417 ], [ -89.8089, 29.4421 ], [ -89.8225, 29.4422 ], [ -89.8361, 29.4421 ], [ -89.8497, 29.4418 ], [ -89.8631, 29.4413 ], [ -89.8765, 29.4405 ], [ -89.8899, 29.4396 ], [ -89.9031, 29.4384 ], [ -89.9163, 29.4371 ], [ -89.9294, 29.4355 ], [ -89.9424, 29.4337 ], [ -89.9553, 29.4317 ], [ -89.9681, 29.4296 ], [ -89.9808, 29.4272 ], [ -89.9934, 29.4246 ] ] ] } }
]
}
