{"type":"FeatureCollection","features":[{"type":"Feature","id":1,"geometry":{"type":"Polygon","coordinates":[[[-102.09380613074825,10.053832449008439],[-101.94976521069583,9.9940618070069149],[-101.8088487566647,9.9358198793840415],[-101.67090688494466,9.8791521205740196],[-101.53578971092634,9.8241039877090088],[-101.40334734910078,9.7707209370217356],[-101.27342991395926,9.7190484238458339],[-101.14588752179162,9.6691319053132929],[-101.02057028708896,9.6210168376570664],[-100.8973283243426,9.5747486771098806],[-100.77601174984227,9.5303728790053128],[-100.65647067807924,9.487934900475409],[-100.53855522534326,9.447480197753066],[-100.42211550432694,9.4090542270710671],[-100.30700163221945,9.3727024437629325],[-100.19306372261264,9.3384703049607651],[-100.0801518926956,9.3064032659980853],[-99.968116255160965,9.2765467840069959],[-99.856806926298532,9.2489463152203939],[-99.746074021498771,9.2236473158710623],[-99.635767655253005,9.2006952412924647],[-99.525737942951594,9.1801355486168177],[-99.415834999985179,9.1620136931775278],[-99.305908940844859,9.1463751321068116],[-99.195809880921161,9.1332653216373956],[-99.085387934705295,9.1227297171029136],[-98.974493218487169,9.1148137756353549],[-98.86297584765714,9.1095629525683535],[-98.750685934907892,9.1070227050339554],[-98.637473597428482,9.1072384892650007],[-98.523188950609494,9.1102557605950096],[-98.407682108042764,9.1161199761560852],[-98.290803185118818,9.1248765912818044],[-98.172402298127452,9.1365710631042134],[-98.05235797563995,9.1512411145859005],[-97.930774414007885,9.1688630548862307],[-97.807863418861587,9.1893839067420231],[-97.683837462229008,9.2127505139251866],[-97.558909014339463,9.238909717509614],[-97.433290543623571,9.2678083603676669],[-97.307194523008718,9.2993932862712541],[-97.180833420925524,9.333611337193588],[-97.054419708502621,9.3704093560070874],[-96.928165855969382,9.4097341846850213],[-96.802284333555065,9.4515326660998085],[-96.676987612388302,9.495751643123981],[-96.552488161799147,9.5423379577306946],[-96.428998452016856,9.5912384536918012],[-96.306730954170121,9.6423999729805132],[-96.185898137588879,9.6957693575699295],[-96.066712473401822,9.7512934512319021],[-95.949386431838263,9.8089190959396433],[-95.834132484026838,9.8685931345656286],[-95.721163098398165,9.9302624090830705],[-95.61069074698031,9.9938737632637071],[-95.502927899103156,10.059374039080751],[-95.39808702499613,10.126710078507472],[-95.296380595787753,10.19582872531555],[-95.198021081707452,10.266676821478256],[-95.103220952984486,10.339201209868065],[-95.01219267984817,10.413348732458189],[-94.925148732527873,10.489066233020367],[-94.842301581252855,10.566300553527867],[-94.763863696252486,10.644998535953789],[-94.690047548655343,10.725107024070041],[-94.621065607791479,10.806572859849723],[-94.557130344789471,10.889342886165423],[-94.498448753007438,10.973364606891209],[-94.445129495729532,11.058597390657212],[-94.397196185555401,11.145010872753687],[-94.354669631897877,11.232575023019024],[-94.317570643270471,11.321259814888663],[-94.285920027287318,11.411035219999519],[-94.259738592461986,11.501871210887828],[-94.239047147307872,11.59373775829107],[-94.223866499439282,11.6866048356448],[-94.21421745826899,11.780442413686558],[-94.210120832310452,11.875220464952633],[-94.211597428278594,11.970908961079829],[-94.218668056485512,12.067477875503698],[-94.231353524545398,12.164897178062461],[-94.249674640971818,12.26313684219167],[-94.273652213378853,12.362166838628809],[-94.303307051179388,12.461957140809545],[-94.33865996198756,12.562477720370623],[-94.379731754316879,12.663698548949014],[-94.426543236680914,12.765589598181521],[-94.479115217593119,12.868120840604433],[-94.537468504667629,12.971262247854611],[-94.601623907317389,13.074983792468174],[-94.67160223315642,13.179255446082095],[-94.747424291597667,13.284047180333232],[-94.829110889355945,13.38932896775782],[-94.916682836743405,13.495070779992659],[-95.010160940474918,13.601242589573985],[-95.10956600906394,13.707814368138713],[-95.214918851923358,13.814756087323701],[-95.326240276667306,13.922037719665184],[-95.443551091809354,14.029629236799963],[-95.566872105862899,14.137500610365009],[-95.69622252744756,14.245621534106647],[-95.831525583238999,14.353944968985274],[-95.972555727764529,14.462397938614117],[-96.119074619098285,14.570905237187105],[-96.270843913515705,14.679391658898055],[-96.427625268191491,14.787781997041691],[-96.589180342098985,14.896001046711092],[-96.755270789715098,15.003973600301549],[-96.925658270912379,15.111624452006993],[-97.100104441966323,15.218878396021296],[-97.278370959152369,15.325660225639012],[-97.460219480544481,15.431894735953449],[-97.645411663317532,15.537506718460406],[-97.833709164646109,15.642420969152568],[-98.024873642604405,15.746562281324373],[-98.218666752568481,15.849855448270432],[-98.414850153511679,15.952225264184733],[-98.613185501709438,16.053596523261092],[-98.813434454336516,16.153894018794063],[-99.015358669466934,16.253042544078312],[-99.218719804275452,16.35096689420692],[-99.423279514138187,16.44759186247461],[-99.628799458927801,16.54284224217588],[-99.835041294020414,16.636642827504602],[-100.0417666774901,16.728918412654764],[-100.24873726651157,16.819593791820182],[-100.45571471736019,16.908593757396147],[-100.66246068900949,16.995843104475853],[-100.86873683683547,17.081266626353852],[-101.07430481981146,17.164789116324812],[-101.2789262933137,17.246335369481869],[-101.48236291631542,17.325830179119635],[-101.68437634509218,17.403198338532661],[-101.88472828358334,17.478364660800594],[-102.08322671034432,17.551273059704101],[-102.27981271078789,17.621922389506835],[-102.47445116009288,17.69032132057265],[-102.66710693253879,17.756478526862679],[-102.8577449015059,17.820402680539416],[-103.04632994307229,17.882102453765356],[-103.23282692971895,17.941586519602311],[-103.41720073662458,17.998863549313512],[-103.59941623806884,18.05394221596066],[-103.77943830743186,18.106831191706249],[-103.95723182079178,18.157539148712885],[-104.13276165062956,18.20607476094159],[-104.30599267212403,18.252446698756273],[-104.47688975865532,18.296663635218749],[-104.64541778630172,18.338734243390775],[-104.81154162754399,18.378667194535524],[-104.975226157561,18.416471162614187],[-105.13643624973304,18.452154817990618],[-105.29513678013819,18.485726834625837],[-105.45129262125738,18.517195884682451],[-105.60486864826942,18.546570640322955],[-105.75582973455448,18.573859772810408],[-105.90414075619083,18.599071957005378],[-106.04976658565931,18.622215863271606],[-106.1926720981387,18.643300164671018],[-106.33282216700928,18.662333533365995],[-106.47018166744988,18.679324642418464],[-106.60471547374004,18.694282163990806],[-106.73638846015922,18.707214769346251],[-106.86516550008764,18.718131132445933],[-106.99101146870424,18.727039924553026],[-107.11389124028841,18.733949818729286],[-107.23376968822043,18.738869488036585],[-107.35061899826803,18.741805264601396],[-107.46445226006364,18.742750397213229],[-107.57529678421912,18.741693584991083],[-107.68317989663484,18.738623523456965],[-107.78812892231184,18.733528905434753],[-107.89017118715049,18.726398425547018],[-107.9893340152525,18.717220778416333],[-108.08564473341761,18.705984658665216],[-108.17913066574755,18.692678760916237],[-108.26981913814262,18.677291778892595],[-108.35773747470461,18.659812408116295],[-108.4429130031325,18.6402293414111],[-108.5253730457294,18.618531274299016],[-108.60514493019429,18.594706900503184],[-108.6822559806289,18.568744914646231],[-108.75673352293364,18.540634012249996],[-108.82860488210952,18.51036288613841],[-108.89789738315761,18.477920231833366],[-108.96463835107892,18.443294742158741],[-109.02885511267323,18.406475113535805],[-109.09057499204215,18.367450038788377],[-109.14982531418678,18.326208213438463],[-109.20663340500755,18.282738331209146],[-109.26102658950538,18.237029087622432],[-109.3130321935808,18.189069174602878],[-109.36267754223468,18.138847289470959],[-109.40998995956886,18.086352125050666],[-109.45499677238303,18.031572375065196],[-109.49772530567822,17.974496735935759],[-109.53820288445547,17.915113900486233],[-109.5764568346151,17.853412563339248],[-109.61251448025894,17.789381419117319],[-109.64640314728734,17.72300916334234],[-109.67814970384563,17.654290726535919],[-109.70777570128746,17.583293566844759],[-109.73529926095205,17.510131926946997],[-109.76073844842057,17.434920832830301],[-109.78411132747567,17.357775307784379],[-109.80543596369864,17.278810377796844],[-109.82473041997281,17.198141065258085],[-109.84201276098003,17.115882396155826],[-109.85730105320096,17.032149394678981],[-109.87061335861949,16.947057085016581],[-109.8819677437163,16.860720491357711],[-109.89138227227397,16.773254639689981],[-109.89887500897441,16.684774552403837],[-109.90446401849954,16.595395254587459],[-109.90816736463205,16.505231771329306],[-109.91000311295318,16.41439912681841],[-109.90998932724557,16.323012346143003],[-109.90814407219108,16.231186452592851],[-109.90448541247173,16.139036470356984],[-109.89903141187006,16.046677425422956],[-109.89180013686672,15.954224341979909],[-109.882809650345,15.861792243317495],[-109.87207801698679,15.769496154524063],[-109.85962330147407,15.677451099788584],[-109.84546356848881,15.585772105098727],[-109.82961688271286,15.49457419284488],[-109.81210130882823,15.403972388115335],[-109.79293491061753,15.314081715998555],[-109.77213575366198,15.225017200683396],[-109.74972190174429,15.136893867258323],[-109.72571141864694,15.049826738113609],[-109.70012237085064,14.9639308401363],[-109.6729728212386,14.879321195716727],[-109.6442793128399,14.796110153560903],[-109.6140122156911,14.71432884370131],[-109.58208851877004,14.633914508747694],[-109.54842224059382,14.554799158154765],[-109.51292739608238,14.47691480317576],[-109.47551800195413,14.400193451466748],[-109.43610807672627,14.324567116079663],[-109.3946116353186,14.249967806469215],[-109.35094269444971,14.176327532090056],[-109.30501527173732,14.103578304195537],[-109.25674338300064,14.031652133139573],[-109.20604104495817,13.960481028376876],[-109.15282227522772,13.889997000261474],[-109.09700108962846,13.82013206004666],[-109.03849150397963,13.750818217187089],[-108.97720753679829,13.681987482036789],[-108.91306320390362,13.613571865849053],[-108.84597252111485,13.545503377179273],[-108.7758495069491,13.477714027280683],[-108.70260817542686,13.410135827406634],[-108.62616254596463,13.342700786112516],[-108.54642663348227,13.275340914651622],[-108.46331445559753,13.207988223377924],[-108.37674002812969,13.140574721746134],[-108.28661736779719,13.073032421009543],[-108.19286049221785,13.005293330622862],[-108.09538341721083,12.937289461839327],[-107.99410015949468,12.868952824113705],[-107.88892473578784,12.800215427799913],[-107.7797711628088,12.731009284151298],[-107.66655345727611,12.661266401723196],[-107.54918563590826,12.590918792668276],[-107.42758171452442,12.519898466441191],[-107.30165629080506,12.448137682508161],[-107.17141799824191,12.375609246269846],[-107.03707267546349,12.302370985932384],[-106.89885098958143,12.228491436131037],[-106.7569836104052,12.154039128802879],[-106.61170120414715,12.07908259858317],[-106.4632344397175,12.003690379207796],[-106.31181398602655,11.927931004412471],[-106.15767051108514,11.851873007933079],[-106.0010346820049,11.775584924404882],[-105.84213716859534,11.699135286664273],[-105.68120863796815,11.622592628447194],[-105.51847975813422,11.546025484388736],[-105.35418119890312,11.469502387325463],[-105.18854362648705,11.393091871892523],[-105.02179770979637,11.316862470926424],[-104.85417411774125,11.24088271906237],[-104.68590351833262,11.165221150036189],[-104.51721657868205,11.089946296684388],[-104.34834396769986,11.015126694541436],[-104.1795163542962,10.940830875544634],[-104.01096440558274,10.867127375228335],[-103.8429187904697,10.794084725529785],[-103.67561017696801,10.721771461084188],[-103.50926923308856,10.650256116526691],[-103.34412662684224,10.579607224693802],[-103.18041302713937,10.50989331932135],[-103.01835910199088,10.441182934145218],[-102.8581955185083,10.373544603800553],[-102.70015294650119,10.307046861123865],[-102.54446205398051,10.241758240750357],[-102.39135350805788,10.177747276415801],[-102.24105797764344,10.115082500956817],[-102.09380613074825,10.053832449008439]]]},"properties":{"objectid":1,"basin":"Pacific","prob2day":"40%","risk2day":"Medium","prob7day":"90%","risk7day":"High","idp_source":"gtwo_areas_202609251140","idp_filedate":1790336879000,"idp_ingestdate":1790336888000,"st_area(shape)":96.614200237059407,"st_perimeter(shape)":39.574977783685071}},{"type":"Feature","id":2,"geometry":{"type":"Polygon","coordinates":[[[-140.78289271472693,15.382726259109688],[-140.8954759863276,15.31217777298599],[-141.00621241736906,15.243004601181553],[-141.11510819428764,15.175132393145589],[-141.22216950531833,15.108486802823847],[-141.32740253869611,15.042993480564803],[-141.43081348085735,14.978578078515625],[-141.53240852003711,14.915166247924162],[-141.63219384357092,14.852683640937414],[-141.73017563879461,14.791055908803287],[-141.82636009394309,14.730208702769573],[-141.9207533963521,14.670067674983329],[-142.01336173425653,14.610558477591781],[-142.10419129409286,14.5516067609434],[-142.19324826319672,14.493138177185244],[-142.28053883070237,14.435078378464539],[-142.36606918304625,14.377353016928339],[-142.44984550846334,14.319887742025799],[-142.5318739942893,14.262608207702783],[-142.61216082785984,14.205440064307652],[-142.69071219740988,14.148308963987631],[-142.76753428937587,14.091140557990514],[-142.84263329199274,14.033860497564035],[-142.91601539349551,13.976394435754742],[-142.98768678032059,13.918668022911049],[-143.05765364070288,13.860606912079447],[-143.12592216197811,13.802136752709089],[-143.19249853238125,13.743183198745783],[-143.2573865785277,13.683680109549528],[-143.32057366943923,13.623618601617295],[-143.38204016482166,13.563014168469238],[-143.44176639740124,13.501882398054363],[-143.49973270170273,13.4402388747244],[-143.55591941135168,13.378099185529152],[-143.61030685907423,13.315478915719495],[-143.66287537939513,13.252393650546651],[-143.71360530504069,13.188858977060306],[-143.76247696963634,13.124890480511397],[-143.80947070860623,13.060503746151085],[-143.85456685287789,12.995714361029059],[-143.89774573787543,12.930537909497048],[-143.93898769722438,12.86498997860474],[-143.97827306365087,12.799086154502561],[-144.01558217078048,12.732842021542183],[-144.05089535313795,12.666273166773351],[-144.08419294344949,12.599395175447114],[-144.11545527623991,12.53222363461316],[-144.14466268333609,12.464774127723956],[-144.17179550016212,12.397062242728452],[-144.19683406034352,12.329103564877755],[-144.21975869570716,12.260913679422913],[-144.24054974167714,12.192508173413614],[-144.25918753097969,12.123902632100908],[-144.27565239724026,12.055112640735899],[-144.28992467498367,11.986153785468957],[-144.30198523652936,11.917042065239229],[-144.31182198149915,11.847798850636593],[-144.31942772161199,11.77844926871893],[-144.32479536841143,11.709018522087263],[-144.3279178343405,11.639531815141311],[-144.32878803094277,11.57001435138136],[-144.32739887156058,11.500491334307753],[-144.32374326863686,11.43098796742089],[-144.3178141328159,11.361529455120376],[-144.30960437654065,11.292141000906611],[-144.29910691315342,11.22284780827988],[-144.28631465419784,11.153675081639847],[-144.27122051211686,11.084648022688214],[-144.25381739845409,11.01579183762334],[-144.23409822655182,10.947131728146871],[-144.21205590705438,10.878692899557791],[-144.18768335330404,10.810500554457178],[-144.16097347684439,10.742579896345262],[-144.13191919101777,10.674956129621819],[-144.10051340646845,10.607654458686454],[-144.06674903653871,10.540700085240871],[-144.03061899277222,10.474118214584053],[-143.9921161885112,10.407934049317078],[-143.95123353439999,10.342172793839495],[-143.90796394288157,10.276859652551082],[-143.86230032729816,10.212019827153426],[-143.81423559829415,10.147678522945625],[-143.76376014391542,10.083862406624917],[-143.71079169148328,10.020640229563071],[-143.65516615789181,9.9581281302091611],[-143.59671509472577,9.8964447759058203],[-143.53527005626802,9.8357088348949446],[-143.47066259410337,9.7760389718212082],[-143.40272425981664,9.7175538558259404],[-143.33128660679137,9.6603721524530215],[-143.25618118751169,9.6046125281458217],[-143.17723955356246,9.5503936520455568],[-143.09429325832713,9.4978341887969009],[-143.00717385339055,9.4470528066418638],[-142.91571289213618,9.3981681720236452],[-142.81974192614888,9.3512989522849352],[-142.71909250881214,9.3065638138690474],[-142.61359619081145,9.2640814241185581],[-142.50308452642969,9.2239704503761004],[-142.38738906635223,9.1863495581857251],[-142.266341364862,9.1513374148898947],[-142.13977297354381,9.1190526878314131],[-142.00751544488179,9.0896140443527997],[-141.86940033046079,9.0631401508973681],[-141.72525918366432,9.0397496748078083],[-141.5749235569765,9.0195612825273201],[-141.41822500288151,9.0026936404992739],[-141.25499507296416,8.9892654169655657],[-141.08506532060795,8.9793952774701893],[-140.90826930738257,8.9732010206107589],[-140.72463690426963,8.9707156200299778],[-140.53455625866434,8.9718172301811592],[-140.33845365011575,8.9763675308370239],[-140.13675535457588,8.9842282026695557],[-139.92988765159373,8.9952609254514755],[-139.71827681891995,9.0093273789555042],[-139.50234913520433,9.0262892438536824],[-139.28253087729809,9.0460081990192975],[-139.05924832475029,9.0683459242251843],[-138.83292775441225,9.0931641001432695],[-138.60399544493373,9.1203244065462741],[-138.37287767406531,9.1496885223075992],[-138.14000072045678,9.1811181289986052],[-137.90579086185869,9.2144749054926365],[-137.67067437602157,9.2496205324617335],[-137.43507754159521,9.2864166887792976],[-137.19942663722946,9.3247250551173124],[-136.9641479397755,9.3644073112485557],[-136.72966772698391,9.4053251369456348],[-136.49641227930317,9.4473402119813272],[-136.26480787178576,9.4903142170276169],[-136.03528078488023,9.534108830957905],[-135.80825729543773,9.5785857335449123],[-135.58416368300749,9.6236066063599424],[-135.3634262235413,9.6690331273770767],[-135.14647119658838,9.7147269781676187],[-134.93372481694666,9.7605498636854122],[-134.72550568024286,9.8064081402236525],[-134.52180396228295,9.8523444248554597],[-134.322547415131,9.8984272306323078],[-134.12766378905252,9.9447250751022693],[-133.93708083701091,9.9913064713167614],[-133.75072630837235,10.038239935924423],[-133.56852795520086,10.085593982876162],[-133.39041352956065,10.133437127921241],[-133.21631078171714,10.181837886809149],[-133.04614746463369,10.230864773490623],[-132.87985132767653,10.280586303715097],[-132.71735012290975,10.33107099233257],[-132.5585716014981,10.382387354193156],[-132.40344351550573,10.434603905945664],[-132.25189361609739,10.487789161540718],[-132.10384965353859,10.542011635828487],[-131.95923938079272,10.597339844558292],[-131.81799054722586,10.653842303479678],[-131.68003090580157,10.711587526543269],[-131.54528820768456,10.770644029498499],[-131.41369020314028,10.83108032719548],[-131.28516464423285,10.892964934484269],[-131.15963928302642,10.956366368013619],[-131.03704186888706,11.021353140834947],[-130.91730015477822,11.087993769596949],[-130.80034189186472,11.156356769149738],[-130.68609483131132,11.226510654343372],[-130.57449110847779,11.298514279510528],[-130.46548592633434,11.372375672899125],[-130.35904204755235,11.44808620641345],[-130.25512223750115,11.525637242964535],[-130.15368926424804,11.60502014636279],[-130.05470589136371,11.686226278619984],[-129.95813488781471,11.769247002647205],[-129.86393901897048,11.85407368135543],[-129.7720810502002,11.940697677655862],[-129.682523748672,12.029110355358739],[-129.59522988065436,12.119303075576624],[-129.51016221241611,12.211267202119814],[-129.42728351022572,12.304994097899453],[-129.34655654035197,12.400475125826517],[-129.26794406996277,12.497701647912834],[-129.19140886352812,12.596665028868131],[-129.11691368911539,12.697356628905425],[-129.04442131209379,12.799767813633821],[-128.97389449873202,12.903889944165712],[-128.90529601619812,13.009714383412188],[-128.83858862986131,13.117232495183657],[-128.77373510599028,13.226435641491776],[-128.71069821175297,13.337315186147066],[-128.64944071341807,13.449862490261864],[-128.58992537635493,13.5640689185459],[-128.5321149677315,13.679925833010941],[-128.47597225291707,13.797424596568021],[-128.42147412922759,13.916545683136917],[-128.36873025909409,14.037167249868844],[-128.31792305200713,14.159111391977319],[-128.26923566209604,14.282199630908394],[-128.22285124259071,14.40625348900744],[-128.17895294851968,14.531094487720566],[-128.13772393401223,14.656544147594502],[-128.09934735229837,14.782423991873884],[-128.06400635750731,14.9085555411055],[-128.03188410286896,15.034760316735344],[-128.00316374431128,15.160859841108902],[-127.97802843506412,15.286675634772848],[-127.95666132835754,15.412029220971931],[-127.93924557922003,15.536742119353448],[-127.92596434088154,15.660635853162205],[-127.91700076747134,15.783531943844253],[-127.91253801311871,15.905251911946323],[-127.91275923195292,16.02561727891441],[-127.91784757810314,16.14444956799332],[-127.92798620569874,16.261570299729669],[-127.94335826796959,16.376800995569624],[-127.96414691994431,16.489963177858499],[-127.99053531485282,16.600878367143082],[-128.02270660682433,16.709368085768688],[-128.06084394908891,16.815253855181425],[-128.10513049757429,16.918357197726607],[-128.15574940551056,17.018499633051761],[-128.21287487607458,17.115507100072762],[-128.27651333582168,17.209288310407317],[-128.34652220713406,17.299825487156625],[-128.42275372960086,17.387103411093676],[-128.50506014640854,17.471106861192823],[-128.59329369804561,17.551820619126431],[-128.68730662500064,17.629229463868796],[-128.78695117046004,17.703318175293703],[-128.89207957401305,17.774071532375444],[-129.00254407794677,17.841474316786446],[-129.11819692454833,17.905511308400321],[-129.23889035250767,17.966167285292101],[-129.36447660591057,18.023427029134211],[-129.49480792434616,18.077275318901002],[-129.6297365501016,18.127696934466087],[-129.76911472456482,18.174676656602571],[-129.91279468822421,18.218199265184069],[-130.06062868336693,18.258249539185044],[-130.21246895048159,18.294812258479112],[-130.36816773185524,18.327872204738583],[-130.52757726797643,18.357414156038601],[-130.69054980023299,18.383422893152158],[-130.85693757091207,18.405883195053548],[-131.02659282140149,18.424779843415195],[-131.19936779129046,18.440097617211393],[-131.37511472376542,18.451821295416607],[-131.55368585931484,18.459935659703092],[-131.7349330166453,18.464426187818447],[-131.91868737861955,18.465312435520616],[-132.10475062494129,18.462662684735278],[-132.29292216632484,18.456548964862975],[-132.48300141078641,18.447043304405099],[-132.67478776904022,18.434217732762306],[-132.86808065090122,18.418144280234458],[-133.06267946618431,18.398894974423683],[-133.25838362380512,18.376541846529108],[-133.45499253537713,18.35115692415286],[-133.65230560891661,18.322812236695484],[-133.85012225513788,18.291579814457009],[-134.04824188385578,18.257531685938716],[-134.2464639039859,18.220739879641883],[-134.44458772714182,18.181276426765805],[-134.64241276133976,18.139213354912556],[-134.83973841729403,18.094622694381997],[-135.03636410392016,18.047576473675463],[-135.23208923193243,17.99814672219361],[-135.42671321114568,17.946405469337094],[-135.6200354504756,17.892424743607194],[-135.81185536063629,17.836276576203147],[-136.00197235054344,17.778032993827765],[-136.19018583091128,17.71776602768017],[-136.37629521155469,17.655547706261757],[-136.56009990138926,17.59145005897318],[-136.74139931022989,17.525545115215039],[-136.91999308801053,17.457904946656129],[-137.09574540292789,17.388613276581566],[-137.26867194455451,17.31778118475404],[-137.43881012468739,17.245523674677997],[-137.60619735692239,17.171955748958794],[-137.77087105485521,17.097192412000368],[-137.93286863208164,17.02134866550864],[-138.09222750129805,16.944539513887605],[-138.24898507610027,16.866879959742505],[-138.40317876918476,16.788485007477277],[-138.55484599504655,16.709469657898524],[-138.70402416548274,16.629948916309559],[-138.85075069498851,16.550037785315681],[-138.99506299626017,16.469851267522131],[-139.1369984828936,16.389504367332847],[-139.27659456848448,16.309112087353071],[-139.41388866482993,16.228789430188215],[-139.54891818732438,16.148651399342725],[-139.681720547765,16.068812998321334],[-139.81233315974742,15.989389230628603],[-139.94079343686752,15.910495098869831],[-140.06713879272104,15.832245606549634],[-140.19140664000435,15.754755757172575],[-140.31363439231325,15.678140553344008],[-140.43385946234423,15.602514997669118],[-140.55211926369299,15.527994095451277],[-140.66845120995526,15.454692847497029],[-140.78289271472693,15.382726259109688]]]},"properties":{"objectid":2,"basin":"Pacific","prob2day":"20%","risk2day":"Low","prob7day":"50%","risk7day":"Medium","idp_source":"gtwo_areas_202609251140","idp_filedate":1790336879000,"idp_ingestdate":1790336888000,"st_area(shape)":109.44083381272608,"st_perimeter(shape)":41.306766404923771}}]}