{"type":"FeatureCollection","features":[{"type":"Feature","id":1,"geometry":{"type":"Point","coordinates":[-13.191631889799737,9.7660249983551353]},"properties":{"objectid":1,"basin":"Atlantic","prob2day":"20%","risk2day":"Low","prob7day":"40%","risk7day":"Medium","idp_source":"gtwo_points_202609222329","idp_filedate":1790120268000,"idp_ingestdate":1790120418000}},{"type":"Feature","id":2,"geometry":{"type":"Point","coordinates":[-152.30374456336082,13.599423190028347]},"properties":{"objectid":2,"basin":"Pacific","prob2day":"90%","risk2day":"High","prob7day":"90%","risk7day":"High","idp_source":"gtwo_points_202609222329","idp_filedate":1790120268000,"idp_ingestdate":1790120418000}}]}