{"type":"FeatureCollection","features":[{"type":"Feature","id":1,"geometry":{"type":"Polygon","coordinates":[[[-67.725991877023375,19.352134480721872],[-67.613123196578158,19.370115816192083],[-67.507888664929851,19.391679786293253],[-67.410099003566074,19.416703433017176],[-67.319564934873711,19.445063795657802],[-67.236097180340494,19.476637913509023],[-67.159506462353249,19.511302827663485],[-67.089603503298918,19.548935578314456],[-67.026199024665118,19.589413206554354],[-66.969103748838847,19.63261275077798],[-66.918128398206875,19.678411252977071],[-66.873083694256991,19.726685751546313],[-66.833780358476645,19.777313288477615],[-66.80002911415221,19.830170903064868],[-66.771640682771192,19.885135635501342],[-66.748425786720588,19.942084526879569],[-66.730195147487962,20.000894615594177],[-66.716759487460251,20.061442944536395],[-66.707929529024454,20.123606551201533],[-66.703515993668077,20.187262477581442],[-66.703329603778059,20.252287763869333],[-66.707181080842076,20.318559448459894],[-66.714881147247013,20.385954574244352],[-66.726240525379808,20.454350179617222],[-66.741069936728081,20.523623305671151],[-66.759180103678716,20.593650991700031],[-66.780381748618709,20.664310278796449],[-66.804485593035565,20.735478207153676],[-66.83130235841702,20.807031816065603],[-66.860642768049217,20.878848146624819],[-66.892317544319098,20.950804239024535],[-66.92613740781502,21.022777133458078],[-66.961913080923807,21.094643870118659],[-66.999455286032514,21.166281489199491],[-67.038588905353606,21.237576838900111],[-67.079251269630277,21.308494657702454],[-67.121433337078713,21.379036828786752],[-67.165126395966297,21.449205463761302],[-67.210321730963017,21.519002676032812],[-67.257010632134836,21.588430575410882],[-67.305184385051234,21.657491273503638],[-67.354834277080101,21.726186884617164],[-67.405951596488876,21.79451951766174],[-67.458527629746186,21.862491286044133],[-67.512553664220093,21.930104301372523],[-67.568020987278601,21.997360674355775],[-67.624920887189091,22.064262518400653],[-67.683244649520873,22.13081194421602],[-67.742983563440589,22.197011063410002],[-67.804128914517662,22.262861988490101],[-67.866671991019473,22.328366831064557],[-67.930604080313969,22.393527702741437],[-67.995916468869837,22.458346715128926],[-68.062600444954455,22.522825980734581],[-68.13064729593583,22.586967610267152],[-68.200048308282703,22.650773716234141],[-68.270794769363022,22.714246410243788],[-68.34287796744411,22.777387803904162],[-68.416289188994767,22.840200008823501],[-68.491019721382941,22.902685137509252],[-68.567060851976635,22.96484530156954],[-68.644403868143911,23.026682611713284],[-68.723040057252717,23.088199181347306],[-68.802960706671172,23.149397121180357],[-68.884157102867903,23.210278543719937],[-68.966620535009554,23.270845559674967],[-69.050342288665604,23.331100281552892],[-69.135312437119183,23.391044468427594],[-69.221499261281792,23.45067356163571],[-69.308852187778143,23.509977532837013],[-69.397320024499436,23.568946176524946],[-69.486851577538175,23.627569284495053],[-69.577395652986866,23.685836650341287],[-69.668901057837445,23.74373806765783],[-69.761316599981001,23.801263329139488],[-69.854591084610774,23.858402227480951],[-69.948673318718591,23.915144555377083],[-70.043512108396953,23.971480108220533],[-70.139056261537121,24.027398676008261],[-70.235254584231541,24.082890054132861],[-70.332055883472151,24.137944034389818],[-70.429408965351342,24.192550411272578],[-70.52726263596179,24.246698975677305],[-70.625565703194525,24.300379522996707],[-70.724266974041484,24.35358184412695],[-70.82331525369591,24.406295733561421],[-70.922659349149512,24.45851098489419],[-71.022248067394287,24.51021738992074],[-71.122030215422001,24.561404741335878],[-71.221954599325215,24.61206283363299],[-71.321970026095698,24.662181459506883],[-71.422025302725444,24.711750411652304],[-71.522069234407525,24.760759483663378],[-71.622050629932517,24.809198468234854],[-71.721918293594285,24.857057158061536],[-71.821621034183295,24.904325347636814],[-71.92110765689273,24.950992827856851],[-72.020326969613848,24.997049394114413],[-72.119227777539777,25.042484837305551],[-72.217758888561775,25.087288951923711],[-72.315870224830917,25.131451629589151],[-72.413578681910508,25.174968665971278],[-72.511004965906352,25.217845010938618],[-72.608278707796046,25.260086400367243],[-72.705529543953162,25.301698571931695],[-72.802887106254843,25.342687260608727],[-72.900481029275966,25.383058204072995],[-72.998440947591575,25.422817138200514],[-73.096896493977908,25.461969800665884],[-73.195977302110691,25.500521926445913],[-73.295813007464233,25.538479253215087],[-73.396533241915449,25.575847516849592],[-73.498267640039444,25.612632455023913],[-73.601145835511772,25.648839802714861],[-73.705297462907481,25.684475297597032],[-73.810852155002863,25.719544675546501],[-73.91793954637285,25.75405367333849],[-74.026689270693169,25.788008027748447],[-74.137230961639432,25.821413474652275],[-74.249694252887366,25.854275751724686],[-74.364208779011847,25.886600593942376],[-74.480904172789224,25.91839373987932],[-74.599910067895223,25.949660924512216],[-74.721356099804041,25.980407884616341],[-74.845371900392763,26.010640356967031],[-74.972087105135699,26.040364078339678],[-75.101631346809086,26.069584784610242],[-75.234134259088705,26.098308213453436],[-75.369725476549377,26.126540099845897],[-75.508534632866883,26.154286182361545],[-75.650691361716838,26.18155219507787],[-75.79632529677491,26.20834387656879],[-75.945566072616032,26.234666962710321],[-76.098543226688435,26.260527163298093],[-76.255291920685465,26.285904491798988],[-76.415575828961209,26.310705035609033],[-76.579110112841306,26.334821672882015],[-76.745609931852755,26.358147280872458],[-76.914790446421875,26.380574738633413],[-77.086366815176291,26.401996922520084],[-77.26005420034096,26.422306711585634],[-77.43556776054362,26.441396982185097],[-77.612622656210533,26.459160613371751],[-77.790934046868642,26.475490483299325],[-77.970217092944381,26.490279468322967],[-78.150186954863955,26.503420446596465],[-78.33055879215442,26.514806296273719],[-78.51104776524204,26.524329895508401],[-78.691369032754551,26.531884122454414],[-78.871237756017536,26.537361853466905],[-79.050369095457256,26.54065596669966],[-79.228478210600827,26.541659340306467],[-79.405280260075813,26.540264852441112],[-79.580490406107231,26.536365380358177],[-79.75382380732276,26.529853802211335],[-79.924995625047927,26.520622996154486],[-80.093721017011205,26.508565838542779],[-80.259715145437497,26.493575208429263],[-80.422693169853801,26.475543983967839],[-80.582370249787118,26.454365041513597],[-80.738461544764391,26.429931260119702],[-80.890682216111259,26.4021355161413],[-81.038747423354778,26.370870689530818],[-81.182372326021948,26.336029655744142],[-81.321272085438295,26.297505294733696],[-81.455161859332236,26.25519048285463],[-81.58375680992873,26.208978098260786],[-81.706807003040637,26.158798282514852],[-81.824257830034696,26.104789694888666],[-81.936122586488068,26.047163481809378],[-82.042414638124967,25.986130866146709],[-82.143147347072329,25.921903067172934],[-82.238334079054425,25.854691306858456],[-82.327988196198191,25.784706805374924],[-82.412123063328579,25.712160783793252],[-82.49075204527054,25.637264464083898],[-82.563888505050386,25.560229065519081],[-82.631545806593579,25.481265810069203],[-82.693737313825864,25.400585918805234],[-82.750476391572136,25.31840061189888],[-82.801776403757913,25.234921110421055],[-82.847650713409564,25.150358636342162],[-82.888112684452722,25.064924408934473],[-82.923175682611543,24.978829649269016],[-82.952853070013077,24.892285580215514],[-82.977158211482163,24.805503420146863],[-82.996104470944488,24.718694391932786],[-83.009705212325571,24.632069715744933],[-83.01797380045042,24.545840611754954],[-83.020923597445972,24.460218301933253],[-83.01856796903644,24.375414007350685],[-83.010920278248136,24.29163894817907],[-82.997993889006693,24.209104345489322],[-82.979802166136949,24.128021419453091],[-82.956358473564592,24.0486013929401],[-82.927676174315877,23.971055485222621],[-82.893768633215757,23.895594918271001],[-82.854649213290429,23.822430912256948],[-82.810331280264279,23.75177468825143],[-82.760828196264129,23.683837467325418],[-82.70616043885309,23.61881303449411],[-82.646431171061579,23.556692488267856],[-82.581796898308085,23.497336160335692],[-82.512415019937123,23.440602203329149],[-82.438442930796498,23.386348769879987],[-82.360038028432143,23.334434012619738],[-82.277357709490616,23.284716084180104],[-82.19055936971904,23.237053136293355],[-82.099800407562668,23.191303322490455],[-82.005238218768682,23.147324795403108],[-81.907030199983637,23.104975705864263],[-81.805333747854093,23.064114208304204],[-81.700306259925867,23.024598454455258],[-81.592105131946198,22.986286596949014],[-81.480887761460906,22.949036788417175],[-81.366811545116605,22.912707181491385],[-81.250033878660474,22.877155927903914],[-81.130712159638335,22.842241181185727],[-81.009003784696802,22.807821093968471],[-80.885066150482373,22.773753817984471],[-80.759056653641551,22.739897505865372],[-80.631132691720268,22.706110310242764],[-80.501451659566328,22.672250384647668],[-80.370170955624985,22.638175879913092],[-80.237447976542796,22.603744949569887],[-80.103440118066885,22.568815747149131],[-79.968304777743185,22.533246422584455],[-79.832199351318877,22.496895131205463],[-79.695281236339895,22.459620022945842],[-79.557707829452681,22.42127925313514],[-79.419636528203114,22.3817309717071],[-79.28122472743911,22.340833333092007],[-79.142629824706546,22.298444488122755],[-79.004005441297977,22.254425780225745],[-78.865390658152251,22.208735274913124],[-78.726692139130819,22.161442861199248],[-78.587809173654307,22.112624658601248],[-78.448641049344872,22.062356785737222],[-78.309087054723705,22.010715361225095],[-78.169046477412905,21.957776502783531],[-78.028418605933837,21.903616330829152],[-77.887102728807804,21.848310962181301],[-77.74499813365685,21.791936516357282],[-77.602004108103017,21.734569111975077],[-77.458019941566931,21.676284868551988],[-77.312944921670692,21.61715990290736],[-77.166678336935604,21.557270335457758],[-77.019119474983654,21.496692283921902],[-76.870167623436942,21.435501866917775],[-76.719722071716149,21.373775203962623],[-76.567682107443204,21.311588412775166],[-76.413947019139528,21.249017611973329],[-76.258416094427105,21.186138921074473],[-76.100988621827355,21.123028458696524],[-75.941563888962207,21.059762342558201],[-75.780041185252401,20.996416692176751],[-75.616319797420601,20.933067625270837],[-75.450299013988172,20.869791262257081],[-75.281878124375851,20.806663719954827],[-75.110956415306191,20.743761117881434],[-74.937433175300669,20.681159574654771],[-74.761207692880589,20.618935207993616],[-74.582179256567315,20.557164138314477],[-74.400247153083512,20.495922483336074],[-74.21531067184992,20.43528636167639],[-74.027269100488468,20.375331892852728],[-73.836022523420638,20.316135213469465],[-73.641600227068693,20.257775679703968],[-73.444302436608041,20.200339390850331],[-73.244463493895012,20.143913294263257],[-73.042417739886673,20.088584339995407],[-72.838499515540093,20.034439474502278],[-72.633043161812338,19.981565648735852],[-72.426383021459174,19.930049808252193],[-72.218853434538289,19.879978904003337],[-72.010788742006753,19.831439883344103],[-71.802523285720952,19.784519694528399],[-71.59439140753733,19.739305286709737],[-71.386727447513579,19.69588360724282],[-71.179865748405462,19.65434160618031],[-70.97414064937135,19.614766229977647],[-70.769886493167007,19.57724442958687],[-70.567437620749502,19.541863151463417],[-70.367128373075843,19.508709344760575],[-70.169293092002476,19.47786995773248],[-69.974266118486469,19.449431938633211],[-69.782381793484888,19.423482236616053],[-69.593974458854063,19.400107799935142],[-69.409378454651858,19.379395576844558],[-69.228928123633864,19.361432515598267],[-69.052957805857943,19.346305565349724],[-68.881801844079746,19.334101673453631],[-68.7157945774577,19.324907789063332],[-68.555270349646833,19.318810861332338],[-68.400563499805571,19.315897837615239],[-68.252008369790303,19.316255667065548],[-68.109939301457473,19.319971297037853],[-67.974690635764091,19.327131677584987],[-67.846596714566601,19.337823755162333],[-67.725991877023375,19.352134480721872]]]},"properties":{"objectid":1,"basin":"Atlantic","prob2day":"0%","risk2day":"Low","prob7day":"10%","risk7day":"Low","idp_source":"gtwo_areas_202608291739","idp_filedate":1788025391000,"idp_ingestdate":1788025466000,"st_area(shape)":69.094722380106447,"st_perimeter(shape)":37.773058992933557}},{"type":"Feature","id":2,"geometry":{"type":"Polygon","coordinates":[[[-94.137602245447169,26.608570797204663],[-94.059494874788527,26.565367416473237],[-93.979140483246624,26.522981999719661],[-93.896610270147733,26.481429215785795],[-93.811975433019711,26.440723732614288],[-93.725307168490929,26.400880218147677],[-93.63667667588777,26.361913339429236],[-93.546155152737981,26.323837765300766],[-93.453813795670044,26.286668162805597],[-93.35972380401023,26.250419200785643],[-93.263956374387078,26.215105545384745],[-93.16658270522754,26.180741866344192],[-93.067673994059476,26.147342830707203],[-92.967301439309892,26.11492310641637],[-92.865536237607159,26.083497361414231],[-92.762449588277775,26.053080262744061],[-92.658112687950108,26.023686479247772],[-92.552596735051168,25.995330678867901],[-92.445972926209492,25.968027528647667],[-92.338312460751354,25.941791697429039],[-92.229686536204554,25.916637852255235],[-92.120166349197575,25.892580661068791],[-92.009823099056689,25.869634792711679],[-91.898727983309698,25.847814913327738],[-91.78695219858497,25.827135691758883],[-91.674566943309685,25.807611796847084],[-91.561643415910794,25.789257894736181],[-91.448252813916099,25.772088653368826],[-91.334466334853346,25.756118742486137],[-91.22035517625028,25.74136282823207],[-91.105990536533909,25.727835578549275],[-90.991443613232036,25.715551661380232],[-90.876785604771726,25.704525745566855],[-90.762087707781404,25.694772498152417],[-90.64742112068808,25.686306587079457],[-90.532857041019497,25.679142680290624],[-90.418466667202836,25.673295445728399],[-90.304321196765727,25.668779550436057],[-90.190491828135237,25.665609664154829],[-90.077049757040527,25.663800453028614],[-89.964066183707303,25.663366585000063],[-89.851612303864613,25.664322728910975],[-89.739759316838899,25.666683551804624],[-89.628578420157851,25.670463721623605],[-89.518140811349269,25.675677907209774],[-89.408517688840163,25.682340774707143],[-89.299780249259015,25.69046699385683],[-89.191999691032834,25.700071230802791],[-89.085247211689364,25.711168155286259],[-88.979594009655727,25.723772433451188],[-88.875111282459613,25.737898733240115],[-88.771870228528144,25.753561723494897],[-88.669942043590311,25.770776071258808],[-88.569397927871989,25.789556445373819],[-88.470309078001435,25.809917512883032],[-88.372746691506507,25.831873941729157],[-88.276781967713532,25.855440400754048],[-88.182486102351618,25.880631556101548],[-88.089930294747205,25.907462076613683],[-87.999185741528663,25.935946630232934],[-87.910323538600323,25.966099799466292],[-87.823393008380549,25.997918245131075],[-87.738394891011296,26.031358635192987],[-87.655323357087184,26.066372228195917],[-87.574172574504587,26.102910281784204],[-87.494936713858181,26.140924054501681],[-87.41760994304434,26.180364804891951],[-87.342186430858987,26.221183789700262],[-87.268660346997308,26.263332267470332],[-87.197025860255167,26.306761497645141],[-87.127277139428315,26.35142273607056],[-87.059408353312733,26.397267242189628],[-86.993413671603548,26.444246273646741],[-86.929287263995946,26.49231108898573],[-86.867023297487094,26.541412945850936],[-86.806615942671499,26.591503101886758],[-86.748059367445762,26.642532815637082],[-86.691347742404275,26.694453345645513],[-86.63647523544364,26.747215949556562],[-86.583436015359723,26.800771885913946],[-86.532224251847651,26.855072411462743],[-86.482834112803971,26.910068785646104],[-86.435259769722506,26.965712265208992],[-86.389495388701107,27.021954109594617],[-86.345535140334334,27.078745576447318],[-86.303373194317373,27.136037923411607],[-86.263003717647337,27.193782409031087],[-86.224420880918842,27.251930290950327],[-86.187618852028265,27.310432827712987],[-86.152591801570281,27.369241276963521],[-86.119333897441322,27.428306897245648],[-86.087839308437253,27.487580946203821],[-86.058102204253203,27.547014681482494],[-86.030116753685149,27.606559362524706],[-86.003877125528788,27.666166246075534],[-85.979377489479475,27.725786591578071],[-85.956612014332904,27.785371654878134],[-85.935574867985679,27.844872696318021],[-85.916260221032246,27.904240972642924],[-85.898662241369266,27.963427743295881],[-85.882775098691752,28.02238426412265],[-85.868592960896308,28.081061795465644],[-85.856109999476814,28.139411594069941],[-85.845320380531007,28.197384918479372],[-85.836218274653561,28.254933026338222],[-85.828797851539491,28.312007176190377],[-85.823053278186137,28.36855862568018],[-85.81897872518789,28.424538633351403],[-85.816568361340671,28.479898456848446],[-85.815816355440347,28.534589354715081],[-85.816716876282726,28.588562584595763],[-85.819264092663616,28.641769405034154],[-85.823452174278316,28.694161073674763],[-85.829275290821897,28.745688848161933],[-85.836727609291643,28.796303987039494],[-85.845803300282,28.845957749750482],[-85.856496532588778,28.894601392140657],[-85.868801475007956,28.942186172753793],[-85.882712296335285,28.988663351032983],[-85.898223165366687,29.033984183723248],[-85.915328193341338,29.078100645228744],[-85.934019204522542,29.120992570950534],[-85.954285054511558,29.162675983210192],[-85.97611440285732,29.203169325304259],[-85.999495904612218,29.242491039629897],[-86.024418219325241,29.280659567685063],[-86.050870004746798,29.317693352766184],[-86.078839917727919,29.35361083727048],[-86.108316616018897,29.388430463595171],[-86.139288758269458,29.422170673238099],[-86.171745001330635,29.454849908596543],[-86.205674002952776,29.486486613866305],[-86.241064421785552,29.517099229645851],[-86.277904913780617,29.546706200131155],[-86.316184137587754,29.57532596502142],[-86.355890751856634,29.60297696941177],[-86.397013412538854,29.629677654800048],[-86.439540779183517,29.655446462684267],[-86.483461507742277,29.680301836360798],[-86.528764256864861,29.704262218226916],[-86.575437684301562,29.727346050679841],[-86.623470446903525,29.749571776116738],[-86.672851204219569,29.77095783603545],[-86.723568612201575,29.791522674631892],[-86.775611328599837,29.811284732504532],[-86.828968012064024,29.830262453849286],[-86.883627320344431,29.848474279264735],[-86.939577909392881,29.865938652047305],[-86.996808439657684,29.882674015493592],[-87.055307566191118,29.898698810202063],[-87.115063948542286,29.914031479469372],[-87.176066244461481,29.928690465692569],[-87.238303109900471,29.942694212168306],[-87.301763204408246,29.95606115949505],[-87.36643518393646,29.968809750969399],[-87.432307708034216,29.980958429887778],[-87.499369433552431,29.992525636848825],[-87.567609017342193,30.003529816048342],[-87.63701511895249,30.013989408084853],[-87.707576394335035,30.023922857154275],[-87.779281503038817,30.033348604754451],[-87.852119101015603,30.042285093282601],[-87.926077846915007,30.050750766035151],[-88.001146397588059,30.058764063610795],[-88.077313411684486,30.066343430205279],[-88.154567546954638,30.073507306417184],[-88.23289746024949,30.08027413644237],[-88.312291810218767,30.086662362678055],[-88.392739253713501,30.092690425722708],[-88.474228448483984,30.098376769772244],[-88.556748053180002,30.103739836324507],[-88.640286724652526,30.108798067776775],[-88.724833121551228,30.113569907425415],[-88.810375899827818,30.118073796768442],[-88.896903719031286,30.12232817820302],[-88.984405236012719,30.126351494126311],[-89.072869108522411,30.130162187834856],[-89.162283994310769,30.133778700826554],[-89.252638550228824,30.137219476397888],[-89.343921435825507,30.140502956046703],[-89.436119887922359,30.143646324918109],[-89.529199898656316,30.146647947145198],[-89.62311110689194,30.149491699682358],[-89.717802728812785,30.152161087164586],[-89.813223983300077,30.154639614226937],[-89.909324085637934,30.156910784605145],[-90.006052253808377,30.158958101135624],[-90.103357704894051,30.160765070251955],[-90.201189655977714,30.162315195689871],[-90.299497325041386,30.163591980285787],[-90.398229929167769,30.164578930473397],[-90.497336684540244,30.165259548189738],[-90.596766809140831,30.165617338969184],[-90.696469520052233,30.165635806547357],[-90.796394035256412,30.165298455559423],[-90.896489570037545,30.164588790640323],[-90.996705343276858,30.163490314626472],[-91.096990572057166,30.161986533052186],[-91.197294472561737,30.160060949653257],[-91.297566262772705,30.157697068165305],[-91.397755159772714,30.154878393223385],[-91.497810381543786,30.151588429462606],[-91.597681143369982,30.147810680618534],[-91.697316664132643,30.143528651326335],[-91.796666160914469,30.13872584532163],[-91.8956788498989,30.133385767239531],[-91.994303949067898,30.127491920815658],[-92.092490675504166,30.121027810685064],[-92.190188246290404,30.113976941482804],[-92.28734587850937,30.106322816045292],[-92.383912790143029,30.098048939906789],[-92.479838197374818,30.089138816803086],[-92.575071318186701,30.079575950469859],[-92.66956136966138,30.069343846441484],[-92.763257567982293,30.058426007554374],[-92.856109132030724,30.046805939342789],[-92.948065277990111,30.034467144643145],[-93.039075222943097,30.021393128989871],[-93.129088184871705,30.007567395219269],[-93.218053379959429,29.992973448865712],[-93.305920027087495,29.977594793664935],[-93.392637341539967,29.961414933352614],[-93.47815454129892,29.944417372563862],[-93.562420844346377,29.926585615933561],[-93.645385465966399,29.90790316719756],[-93.726997625939589,29.888353530990798],[-93.807206539550066,29.867920211049068],[-93.885961423880531,29.846586711107989],[-93.963211497812267,29.824336536701935],[-94.038905977528714,29.801153191566698],[-94.112994079213308,29.777020179437898],[-94.185425022646598,29.751921004950589],[-94.256148022213324,29.725839172739768],[-94.325112296794941,29.698758185641907],[-94.392267063474094,29.670661549191266],[-94.457561539333483,29.641532767123635],[-94.520944941455809,29.611355344074013],[-94.582366486923718,29.580112783778077],[-94.641775393719342,29.547788590870937],[-94.699120877126688,29.514366269088214],[-94.754356213768176,29.479833471637562],[-94.807464658267236,29.444208517709058],[-94.858442906514824,29.407523469932357],[-94.907287716454846,29.369810455688139],[-94.953995846031376,29.331101601457874],[-94.998564054087751,29.29142903552173],[-95.040989098567934,29.250824885260386],[-95.081267737416056,29.209321277155368],[-95.119396729475397,29.166950340386052],[-95.155372832689977,29.123744201433908],[-95.18919280500387,29.079734987679672],[-95.220853405260357,29.03495482650419],[-95.250351392302832,28.989435845288199],[-95.277683522276618,28.943210172311751],[-95.302846555823805,28.896309934056376],[-95.325837249988979,28.84876725790275],[-95.34665236271627,28.800614272131099],[-95.36528865284896,28.751883103222781],[-95.381742878331067,28.702605879457906],[-95.396011798005986,28.652814728217265],[-95.408092168918358,28.602541775982331],[-95.417980750810898,28.551819151033158],[-95.425674301627623,28.500678980750479],[-95.431169578413233,28.44915339161588],[-95.434463340910327,28.397274512808679],[-95.435552346163718,28.345074469911026],[-95.434433353016743,28.292585392102296],[-95.431103120312628,28.239839405864018],[-95.42555840509624,28.186868637677605],[-95.417795966210747,28.13370521672249],[-95.407812561600338,28.080381270379462],[-95.395604951007556,28.026928924230617],[-95.381169890577894,27.973380308354706],[-95.364504139154576,27.919767547434503],[-95.345604456480373,27.866122770649497],[-95.324467598700608,27.812478105380421],[-95.301090325557993,27.758865678108691],[-95.275469394996492,27.705317617114474],[-95.247601564060858,27.651866049778505],[-95.217483593393013,27.598543102582255],[-95.185112239138448,27.545380903805835],[-95.150484260140388,27.492411581729243],[-95.113596414342965,27.439667261934744],[-95.074445461488779,27.387180072702336],[-95.033028158622528,27.334982142312185],[-94.989341263688289,27.283105596346331],[-94.94338153552934,27.231582563984261],[-94.895145732989079,27.180445171707447],[-94.844630613112201,27.129725547795942],[-94.791832933842727,27.079455817831843],[-94.736749455822633,27.029668111894011],[-94.679376934297977,26.980394554665111],[-94.619712129910738,26.931667276223948],[-94.55775179970567,26.883518402152674],[-94.493492702526112,26.835980060731345],[-94.426931596316024,26.78908437844143],[-94.358065239019481,26.742863483563042],[-94.286890389479765,26.697349503476971],[-94.213403805641008,26.652574565563896],[-94.137602245447169,26.608570797204663]]]},"properties":{"objectid":2,"basin":"Atlantic","prob2day":"0%","risk2day":"Low","prob7day":"20%","risk7day":"Low","idp_source":"gtwo_areas_202608291739","idp_filedate":1788025391000,"idp_ingestdate":1788025466000,"st_area(shape)":35.370737333255327,"st_perimeter(shape)":23.414029622739285}},{"type":"Feature","id":3,"geometry":{"type":"Polygon","coordinates":[[[-118.74043779197041,20.534641483717621],[-118.84216724292384,20.4217811139074],[-118.93952276736172,20.302088323817259],[-119.03253861866222,20.175900152370275],[-119.1212490457068,20.043553637590435],[-119.2056883009742,19.90538581750161],[-119.2858906351446,19.761733730127673],[-119.36189029979738,19.612934414391873],[-119.43372154561274,19.459324908318024],[-119.50141862327075,19.301242249930056],[-119.56501578435086,19.139023478151159],[-119.6245472795332,18.973005630105888],[-119.68004736039728,18.80352574561681],[-119.73155027762311,18.630920861808477],[-119.77909028279021,18.455528016704761],[-119.82270162657869,18.277684249228855],[-119.86241856056802,18.097726597404687],[-119.89827533543831,17.915992100155449],[-119.93030620186966,17.732817794605694],[-119.95854541234081,17.548540719678613],[-119.98302721573333,17.363497913398135],[-120.00378586542524,17.178026413788132],[-120.02085561119742,16.992463260671059],[-120.03427070462919,16.807145490272319],[-120.04406539550149,16.622410141514933],[-120.05027393719234,16.438594253322265],[-120.05293057948256,16.256034863718128],[-120.05206957305228,16.075069010726395],[-120.0477251703802,15.896033732370995],[-120.03993162124721,15.7192660666758],[-120.02872317723273,15.545103053463265],[-120.01413408901692,15.373881728958736],[-119.99619860817916,15.205939132984724],[-119.97495098629889,15.041612302665783],[-119.95042547315694,14.881238277824423],[-119.92265632123213,14.725154094685877],[-119.8916777803052,14.573696793072656],[-119.857524102855,14.427203411008747],[-119.82023062144594,14.285990153722764],[-119.77984736896082,14.150090409444999],[-119.73643497049738,14.019333742258539],[-119.69005428677582,13.893545216039001],[-119.64076617581827,13.772549896460703],[-119.58863149744553,13.656172848298468],[-119.53371111057919,13.544239135427915],[-119.47606587504004,13.436573823523247],[-119.4157566506488,13.333001976460196],[-119.35284429632713,13.233348659013529],[-119.28738967099645,13.137438936857563],[-119.21945363447753,13.045097872968597],[-119.14909704659135,12.956150533020832],[-119.07638076625926,12.87042198178915],[-119.00136565240285,12.787737284048546],[-118.92411256574223,12.707921504573903],[-118.84468236340024,12.63079970724084],[-118.76313590699641,12.556196956824238],[-118.6795340545529,12.483938318998355],[-118.59393766678977,12.413848857638811],[-118.50640760083002,12.345753637520488],[-118.41700471829301,12.279477723418324],[-118.3257898781003,12.214846180107259],[-118.23282393827407,12.151684071462853],[-118.13816775953438,12.089816464058686],[-118.04188220080283,12.029068420871056],[-117.94402812100088,11.969265007574165],[-117.84466637994939,11.910231288043633],[-117.74385783746914,11.851792327054397],[-117.64166335248166,11.79377319028066],[-117.53814378480774,11.735998941598041],[-117.4333599924696,11.678294645781421],[-117.32737283618735,11.620485367605795],[-117.22024317488251,11.56239617094667],[-117.11203186837594,11.50385212237768],[-117.0027997755891,11.444678284875067],[-116.89260775544346,11.384699723213771],[-116.78151626756159,11.323742146083305],[-116.66953736825485,11.261709100294865],[-116.55658910680177,11.198655302400425],[-116.44257873162309,11.134652842055175],[-116.3274134902403,11.069773805317027],[-116.21100063197349,11.004090281841172],[-116.09324740524346,10.93767435768558],[-115.97406105757165,10.870598121606179],[-115.85334883827818,10.802933659660823],[-115.73101799578376,10.734753061504705],[-115.60697577850925,10.666128414095169],[-115.48112943397609,10.597131805288711],[-115.35338621240368,10.52783532204262],[-115.22365336041418,10.458311053112766],[-115.09183812642829,10.388631085456382],[-114.95784776066552,10.318867506030699],[-114.82158950974798,10.249092404491023],[-114.68297062299575,10.179377866895152],[-114.54189834882965,10.109795981999127],[-114.39827993567042,10.040418836760068],[-114.25202263103949,9.9713185190345826],[-114.10303368515633,9.9025671157799025],[-113.9512203446431,9.8342367166512759],[-113.79648985881983,9.766399407706615],[-113.63874947610736,9.699127277701848],[-113.47790644492642,9.6324924126948304],[-113.3138680136978,9.56656690234081],[-113.14654143084226,9.5014228326976991],[-112.9758339438813,9.4371322925214258],[-112.80165280303436,9.3737673696684851],[-112.6239052549235,9.3114001510962225],[-112.44249854886885,9.2501027237618132],[-112.25733993329118,9.189947177320505],[-112.06833665751066,9.1310055978302103],[-111.87539596814929,9.0733500740468003],[-111.67842511452733,9.0170526929275638],[-111.47733134506541,8.9621855432283724],[-111.2720219081844,8.908820711007138],[-111.06245316697999,8.8570337617987889],[-110.84886829903269,8.8069205615348096],[-110.63161429426418,8.7585843254064457],[-110.41103828828631,8.7121282775980831],[-110.1874874149122,8.6676556440928607],[-109.96130880795505,8.6252696499744843],[-109.73284960212732,8.58507352032683],[-109.50245693214163,8.5471704793342838],[-109.27047793091168,8.5116637529799277],[-109.03725973494869,8.4786565654482615],[-108.80314947716653,8.4482521418230476],[-108.56849429137833,8.4205537080873114],[-108.33364131319593,8.3956644893248722],[-108.09893767643251,8.373687708820853],[-107.86473051580055,8.3547265934576558],[-107.63136696421395,8.3388843683190998],[-107.39919415728446,8.3262642566902514],[-107.16855922882525,8.3169694854535123],[-106.93980931354889,8.3111032787934391],[-106.71329154526848,8.3087688608943608],[-106.48935305869662,8.3100694586387363],[-106.26834098854567,8.315108296211065],[-106.05060246772962,8.3239885986949957],[-105.83648463186017,8.3368135902750851],[-105.62633461475059,8.3536864978337348],[-105.42049955111327,8.3747105446560681],[-105.21932657386219,8.3999889567251103],[-105.0231628195084,8.4296249591246806],[-104.83235542096583,8.4637217769385984],[-104.64725151204755,8.5023826343512496],[-104.46819822926477,8.5457107564463968],[-104.295542704632,8.5938093701064986],[-104.1296320728618,8.6467816977173015],[-103.97081346956588,8.704730967060641],[-103.81943402855745,8.7677604005222065],[-103.67584088275044,8.8359732249844569],[-103.54038116865593,8.9094726655312115],[-103.41339134873164,8.9883551960356272],[-103.2949624766369,9.0725620323120779],[-103.18494019543357,9.1618791339150221],[-103.08315947592899,9.2560857082889356],[-102.98945529072898,9.3549609637776143],[-102.9036626115402,9.4582841069261576],[-102.82561641096851,9.5658343460783612],[-102.75515165982114,9.6773908904773407],[-102.69210333160339,9.7927329457689893],[-102.63630639802176,9.911639721196309],[-102.58759582988353,10.033890424203832],[-102.54580660069399,10.159264263135356],[-102.51077368215959,10.287540445435354],[-102.48233204508773,10.418498178548248],[-102.46031666298353,10.551916671717152],[-102.4445625075536,10.687575130587959],[-102.43490455050448,10.825252765302992],[-102.43117776354285,10.964728782407519],[-102.43321711927456,11.105782389345904],[-102.44085759030543,11.248192795361376],[-102.45393414744285,11.39173920789824],[-102.47228176239332,11.536200834401143],[-102.49573540866209,11.68135688231439],[-102.52413005795569,11.82698656088121],[-102.55730068108147,11.972869076646703],[-102.59508225154457,12.118783637055344],[-102.63730974105158,12.26450945224957],[-102.68381812040985,12.409825727875159],[-102.73444236312446,12.554511673175341],[-102.78901744090206,12.698346494695102],[-102.84737832454994,12.84110940167767],[-102.90935998757328,12.982579600668146],[-102.97479740167864,13.122536300909701],[-103.04352553857262,13.260758708947378],[-103.11537937086115,13.397026034024407],[-103.1901938693515,13.531117482685829],[-103.26780400754882,13.662812263275441],[-103.34804479133396,13.791889686659829],[-103.43077674844807,13.918204377430186],[-103.51593090808484,14.04181902282977],[-103.60345037463497,14.162831942140542],[-103.69327825158996,14.281341453745256],[-103.78535764154185,14.397445876026495],[-103.8796316488814,14.511243527367014],[-103.97604337799942,14.622832726149511],[-104.07453593058864,14.732311791656002],[-104.17505241193913,14.839779042269129],[-104.27753592374381,14.945332796371588],[-104.38192957219189,15.049071371446757],[-104.48817645807696,15.151093088575294],[-104.5962196866891,15.251496264341256],[-104.70600236062035,15.350379217127283],[-104.81746758426152,15.447840267114771],[-104.930558461104,15.543977730887718],[-105.04521809463927,15.638889928627464],[-105.16138958745938,15.732675177817327],[-105.27901604395515,15.825431797739441],[-105.39804056851733,15.91725810677633],[-105.51840626283865,16.008252423310807],[-105.64005623220925,16.09851306572557],[-105.76293357922123,16.18813835330252],[-105.88698140736597,16.277226603525094],[-106.01214282013495,16.365876135675251],[-106.13836092281821,16.454185269035065],[-106.26557881620931,16.542252320188538],[-106.39373960649755,16.630175609317064],[-106.52278639537576,16.718053453903906],[-106.65266228633533,16.805984173231138],[-106.78331038466644,16.894066085681459],[-106.91467379296108,16.982397509637508],[-107.04669561471076,17.071076763481983],[-107.17931895340689,17.160202166496902],[-107.31248691254086,17.249872037065018],[-107.44614259560421,17.340184693568915],[-107.58022910698759,17.431238453491972],[-107.71469514846223,17.523118912507925],[-107.84953815965827,17.615800911183271],[-107.98478067308952,17.709202264972703],[-108.12044542721458,17.803240318985672],[-108.25655516229079,17.897832416532935],[-108.39313261857541,17.992895903623207],[-108.53020053542627,18.088348124466506],[-108.66778165220137,18.184106422373645],[-108.80589870915799,18.280088142453963],[-108.94457444565404,18.376210629816853],[-109.08383160104745,18.472391228672393],[-109.22369291559551,18.568547283230657],[-109.36418112955539,18.664596137701722],[-109.50531898138581,18.760455136295661],[-109.64712921134395,18.856041625021135],[-109.78963455878778,18.951272947188897],[-109.93285776397454,19.046066447009082],[-110.07682156716152,19.140339470490289],[-110.22154870680725,19.23400936004407],[-110.36706192226978,19.326993461679081],[-110.51338395560498,19.419209119605341],[-110.66053754347274,19.510573677133607],[-110.80854542792906,19.601004480272707],[-110.9574303483318,19.690418873232545],[-111.10721504313966,19.778734200223312],[-111.25792225260977,19.865867804555648],[-111.40957471699949,19.951737033137704],[-111.56219517566672,20.0362592283808],[-111.71580636886875,20.119351735394389],[-111.87043103506414,20.200931899287866],[-112.02609191451018,20.28091706337193],[-112.18281174746409,20.359224573655297],[-112.34061327328385,20.435771773448721],[-112.49951923132738,20.510476006962278],[-112.65955236185192,20.583254620204684],[-112.82073540421544,20.654024955587374],[-112.98309109777585,20.722704360018326],[-113.14664066203682,20.789209739737828],[-113.3113364230374,20.85343824467941],[-113.47703511337966,20.915259608044607],[-113.64358642487349,20.974541544057161],[-113.81084004842938,21.031151765141999],[-113.97864567585714,21.084957984623429],[-114.14685299896661,21.135827916725134],[-114.31531170866833,21.183629273872043],[-114.48387149767137,21.228229770287783],[-114.652382055987,21.269497119296773],[-114.82069307542497,21.307299034223206],[-114.9886542486945,21.341503228391446],[-115.15611526580676,21.371977415125741],[-115.32292581947092,21.398589307750512],[-115.4889355996981,21.421206620489272],[-115.65399430009677,21.43969706576712],[-115.81795160977885,21.453928357807627],[-115.98065722235282,21.463768209035777],[-116.14196082782985,21.469084334574518],[-116.30171211801974,21.469744445949573],[-116.45976078563166,21.465616257384511],[-116.61595652067678,21.456567483103015],[-116.770149014965,21.442465835530015],[-116.92218796030602,21.423179027989875],[-117.0719230485098,21.398574774706219],[-117.21920397048677,21.368520788104036],[-117.36388041804673,21.33288478240695],[-117.50580208299965,21.291534470939212],[-117.64481865535657,21.244337567025241],[-117.780779828726,21.191161783989287],[-117.9135352931192,21.131874835155656],[-118.04293474034591,21.066344433848656],[-118.16882786221595,20.994438294291967],[-118.29106435053927,20.916024128910578],[-118.40949389622625,20.830969651928058],[-118.52396619018742,20.739142576668712],[-118.63433092513202,20.640410615557585],[-118.74043779197041,20.534641483717621]]]},"properties":{"objectid":3,"basin":"Pacific","prob2day":"40%","risk2day":"Medium","prob7day":"90%","risk7day":"High","idp_source":"gtwo_areas_202608291739","idp_filedate":1788025391000,"idp_ingestdate":1788025466000,"st_area(shape)":157.95439840160972,"st_perimeter(shape)":48.402926903927813}},{"type":"Feature","id":4,"geometry":{"type":"Polygon","coordinates":[[[-157.52692179710317,9.4793262957720685],[-157.28365091275933,9.5411251536031045],[-157.05408525213261,9.6038061852074179],[-156.83792782221116,9.6673310722712813],[-156.63488163088249,9.7316614982796636],[-156.4446496860341,9.7967591458180436],[-156.26693499645285,9.8625856983714471],[-156.10144056822756,9.9291028394246155],[-155.94786941014507,9.9962722506639921],[-155.80592452919359,10.064055616473638],[-155.67530893415991,10.13241461943926],[-155.55572563293154,10.201310941247073],[-155.44687763159735,10.270706267180628],[-155.34846793984346,10.340562278026823],[-155.26019956465811,10.410840658170002],[-155.18177551302941,10.481503090195588],[-155.11289879464357,10.552511257588606],[-155.05327241558942,10.623826842934591],[-155.00259938375447,10.695411528819136],[-154.96058270792554,10.767226999626473],[-154.92692539509082,10.839234936143498],[-154.90133045403715,10.911397023653876],[-154.88350089085336,10.98367494384371],[-154.87313971432627,11.056030380198024],[-154.86994993234342,11.128425015302355],[-154.87363455279228,11.200820532641615],[-154.88389658266107,11.273178614801395],[-154.90043902983729,11.345460945266552],[-154.9229649031077,11.417629206622735],[-154.95117720946055,11.489645081455478],[-154.98477895678334,11.561470254149071],[-155.02347315296356,11.633066406389673],[-155.06696280498937,11.704395222561629],[-155.11495092164765,11.775418384351099],[-155.16714051082585,11.84609757524305],[-155.22323457951217,11.916394477823019],[-155.28293613649342,11.986270775575974],[-155.34594818785851,12.055688151986772],[-155.41197374329354,12.124608289641003],[-155.4807158088874,12.192992871124261],[-155.55187739342688,12.260803579022081],[-155.62516150479954,12.328002097718752],[-155.70027115089283,12.394550109799866],[-155.77690933779562,12.460409297850958],[-155.85477907609339,12.525541345356942],[-155.9335833709757,12.589907934004088],[-156.01302523122936,12.65347074907595],[-156.09280766474185,12.71619147135948],[-156.17263367940069,12.778031785238852],[-156.25220628309341,12.83895337329966],[-156.33122878228241,12.898917960395693],[-156.40950604027145,12.957901399729963],[-156.4870918625993,13.015914181894118],[-156.56407750347392,13.072972004554515],[-156.6405542144054,13.129090567176092],[-156.71661325050104,13.184285569223789],[-156.79234586237158,13.2385727101626],[-156.86784330512435,13.291967687658769],[-156.94319683026941,13.344486202076723],[-157.01849769201479,13.396143951981912],[-157.09383714276984,13.446956635940126],[-157.16930643674257,13.496939954315565],[-157.24499682454373,13.546109605673905],[-157.32099956128064,13.594481288580766],[-157.3974058993627,13.64207070250103],[-157.47430709119922,13.688893546000486],[-157.55179439099825,13.734965519443278],[-157.62995905116921,13.780302320495821],[-157.70889232502071,13.824919648623052],[-157.78868546496216,13.868833204189173],[-157.86942972430225,13.91205868396122],[-157.951216357249,13.954611789202829],[-158.03413661441314,13.996508217580299],[-158.11828175180133,14.037763669457945],[-158.20374302002426,14.078393842501953],[-158.2906116723907,14.118414436177432],[-158.37897896310858,14.157841150848583],[-158.46893614548665,14.196689683282386],[-158.56057447013561,14.234975734742477],[-158.65398519306214,14.272715003794531],[-158.74925956487695,14.30992318810479],[-158.84648884068736,14.34661598803757],[-158.94576427200346,14.382809103057809],[-159.04717711213394,14.418518230831808],[-159.15081861438748,14.453759071723937],[-159.25678003207275,14.488547324299702],[-159.36515261759914,14.522898688024156],[-159.47602762517468,14.556828861462918],[-159.5894963063094,14.590353543181607],[-159.705649914312,14.623488433544537],[-159.82457970339053,14.656249231117272],[-159.94637692505498,14.688651634465486],[-160.07113283351339,14.720711343953496],[-160.19893868207444,14.752444057247601],[-160.32988572224821,14.783865473812682],[-160.46406520824269,14.814991293113849],[-160.60156839246727,14.845837214615926],[-160.74248652912993,14.876418935985271],[-160.88691086974077,14.906752157586141],[-161.03493266850776,14.936852577984212],[-161.18664180457554,14.966735758148843],[-161.34204577469268,14.996408957407596],[-161.50102438266904,15.025866566688819],[-161.66344644619645,15.055101872553507],[-161.82918078386601,15.084108158864581],[-161.9980962142688,15.112878712182976],[-162.17006155599594,15.141406815472294],[-162.34494562763854,15.169685756192848],[-162.52261724688836,15.197708817308182],[-162.70294523233653,15.225469285379347],[-162.88579840257415,15.252960444269206],[-163.07104557709164,15.280175580538753],[-163.25855557268144,15.307107978050908],[-163.44819720883405,15.333750922467232],[-163.63983930414051,15.360097698550078],[-163.83335067629261,15.386141591061744],[-164.02860014388145,15.411875886563053],[-164.22545652549817,15.437293868917038],[-164.42378863973386,15.462388822885998],[-164.6234653042803,15.487154035030812],[-164.82435533952722,15.511582788315195],[-165.02632756136779,15.535668370199289],[-165.22925079019174,15.559404063646753],[-165.43299384459019,15.582783155218578],[-165.63742554135558,15.605798929677007],[-165.84241469907903,15.628444671784337],[-166.04783013815029,15.650713666302806],[-166.25354067536179,15.672599199793353],[-166.45941512930469,15.694094555219692],[-166.66532231857008,15.715193019142646],[-166.87113106264835,15.735887876324568],[-167.07671017833198,15.7561724115277],[-167.28192848511142,15.776039910413658],[-167.48665480067842,15.79548365774474],[-167.69075794452345,15.814496938283241],[-167.89410673433824,15.833073037690667],[-168.09656998871392,15.851205241628747],[-168.29801652624161,15.868886833061026],[-168.49831516551239,15.886111099447817],[-168.69733472421808,15.90287132375272],[-168.89494402184906,15.919160792536672],[-169.09101187609713,15.934972790561972],[-169.28540710555339,15.950300602590858],[-169.47799852880897,15.965137514285004],[-169.66865496445496,15.979476810406595],[-169.85724523018314,15.993311775718041],[-170.04363814548395,16.006635695880789],[-170.22770252894847,16.019441855657249],[-170.40930719736917,16.031723539809661],[-170.58832097113583,16.043474033999587],[-170.76461641541516,16.054685497937498],[-170.93815230798256,16.065324197154098],[-171.10897363562472,16.075330508396405],[-171.27712913350263,16.084643680661486],[-171.44266753767664,16.093202962047201],[-171.60563758330775,16.100947603349368],[-171.7660880046576,16.107816853565055],[-171.92406753868588,16.113749960792177],[-172.07962492055356,16.118686175826497],[-172.23280888452231,16.122564747665137],[-172.38366816575316,16.125324925305222],[-172.53225150120574,16.126905957743872],[-172.67860762604104,16.127247093978326],[-172.82278527452073,16.126287584804345],[-172.96483318180583,16.123966678319675],[-173.10480008485595,16.120223624420873],[-173.24273471793282,16.114997673004325],[-173.37868581619739,16.108228071268627],[-173.51270211571,16.099854070009485],[-173.64483235073232,16.089814919123341],[-173.77512525822402,16.078049865808794],[-173.90362957334605,16.064498161760923],[-174.03039402946081,16.049099055077477],[-174.15546736442724,16.031791794755691],[-174.27889831160772,16.012515630691951],[-174.40073560796185,15.991209811883436],[-174.52102798775135,15.967813588226647],[-174.63982418703654,15.942266207819387],[-174.75717294097836,15.914506921457416],[-174.87312298383856,15.88447497723854],[-174.98772305257674,15.852109625059313],[-175.1010218823539,15.817350113916746],[-175.21306820743175,15.78013569370745],[-175.32391076476989,15.740405613428436],[-175.43359828773072,15.69809912117762],[-175.54217951417317,15.653155468650084],[-175.64970317656028,15.605513903044312],[-175.75621801275102,15.555113675156122],[-175.86177275610774,15.501894033083317],[-175.96641614359007,15.445794226722342],[-176.07019691035904,15.386753505070317],[-176.17316379067631,15.324711118023799],[-176.27536552060221,15.259606314579912],[-176.37685083619706,15.191378343735721],[-176.47766847172252,15.119966455387726],[-176.5778671623396,15.045309897633786],[-176.67749564500792,14.967347921269663],[-176.7766026530899,14.886019775292539],[-176.87523692354512,14.801264708699478],[-176.97344719153458,14.713021970487659],[-177.07126645768079,14.621241691451019],[-177.16854482748172,14.52600050551905],[-177.26501440279239,14.427456658298297],[-177.36040532314706,14.325769756069519],[-177.45444772448283,14.221099406012911],[-177.54687174453531,14.113605213509913],[-177.63740752104019,14.003446786640041],[-177.72578519173314,13.890783730784676],[-177.81173489345051,13.775775653124015],[-177.89498676302861,13.658582159938874],[-177.97527094000179,13.539362858409334],[-178.05231755940775,13.418277353916892],[-178.12585675988149,13.295485253641687],[-178.19561867825931,13.171146164763854],[-178.26133345227692,13.045419692664836],[-178.32273121966998,12.91846544542409],[-178.37954211817413,12.79044302752385],[-178.43149628372643,12.661512047043459],[-178.47832385496187,12.531832110263792],[-178.51975496961609,12.401562824364987],[-178.55551976362611,12.270863793829164],[-178.58534837562695,12.139894627635101],[-178.60897094245496,12.008814930264975],[-178.62611760184578,11.877784309798187],[-178.63651849153507,11.746962372515611],[-178.63990374835922,11.616508724698008],[-178.63600351005388,11.486582972626195],[-178.62454791345536,11.357344723480367],[-178.60526709629937,11.22895358264185],[-178.57789119722091,11.101569158190216],[-178.54215035125762,10.975351056406282],[-178.49777469794387,10.850458883570752],[-178.44449437321668,10.727052245065181],[-178.382039515711,10.605290748969026],[-178.31014026226322,10.485334001563047],[-178.22852675060898,10.367341609128118],[-178.13692911758463,10.251473178844265],[-178.03507750092587,10.13788831609304],[-177.9227020383683,10.026746628054582],[-177.79953286674834,9.9182077219089706],[-177.66530012380159,9.8124312030377041],[-177.51973394636445,9.7095766786209765],[-177.3625644730719,9.6098037558388114],[-177.19352184076027,9.5132720400727067],[-177.01233618626591,9.4201411385028564],[-176.8187376473245,9.3305706574100213],[-176.61245636167169,9.2447202030750759],[-176.39322246704313,9.1627493835773066],[-176.16076610027523,9.0848178033990621],[-175.91481739910361,9.0110850706196288],[-175.65518635296775,8.9416886915799978],[-175.38221381121835,8.876619253975548],[-175.0964571835521,8.8158074128819521],[-174.79847451728506,8.7591836435104824],[-174.48882386063258,8.70667842377037],[-174.16806326181,8.6582222315708464],[-173.83675076723404,8.6137455421231834],[-173.495444427818,8.5731788324372928],[-173.14470228817999,8.5364525813217256],[-172.78508239923326,8.5034972639876969],[-172.41714280649524,8.4742433574451184],[-172.04144155997994,8.4486213405025978],[-171.65853670610403,8.4265616874720308],[-171.26898629308289,8.4079948780612881],[-170.87334837003118,8.3928513865823788],[-170.4721809833656,8.3810616918437404],[-170.06604218220087,8.3725562699560214],[-169.65549001385298,8.3672655988284532],[-169.24108252563798,8.3651201536723079],[-168.82337776756984,8.3660504132960796],[-168.40293378606529,8.369986853810417],[-167.98030862844038,8.3768599522251748],[-167.55606034470907,8.3866001855502645],[-167.13074698128807,8.3991380298962781],[-166.70492658639276,8.4144039640718233],[-166.2791572082385,8.4323284641874352],[-165.85399689414126,8.4528420063536487],[-165.43000369321578,8.4758750684797519],[-165.00773565277808,8.5013581266763367],[-164.58775082014415,8.5292216597519541],[-164.17060724442871,8.5593961429178194],[-163.75686297294777,8.591812053183844],[-163.34707605391668,8.6263998684593162],[-162.94180453465148,8.6630900648547708],[-162.54160646426683,8.7018131202794393],[-162.14703988917947,8.7424995108439134],[-161.75866285940336,8.7850797135580478],[-161.37703342045592,8.8294842054318678],[-161.00270962235112,8.875643464374491],[-160.63624951240499,8.9234879655972463],[-160.2782111379336,8.9729481879086848],[-159.92915254715226,9.0239546074193413],[-159.58963178827634,9.0764377002398078],[-159.26020690952117,9.1303279451786352],[-158.94143595820282,9.1855558174471525],[-158.63387698253663,9.2420517949545342],[-158.33808803073794,9.2997463547106349],[-158.05462715102212,9.3585699737254231],[-157.7840523907052,9.4184531281094905],[-157.52692179710317,9.4793262957720685]]]},"properties":{"objectid":4,"basin":"Pacific","prob2day":"0%","risk2day":"Low","prob7day":"40%","risk7day":"Medium","idp_source":"gtwo_areas_202608291739","idp_filedate":1788025391000,"idp_ingestdate":1788025466000,"st_area(shape)":145.24773059968908,"st_perimeter(shape)":53.40809467986049}}]}