{
"type": "FeatureCollection",
"name": "al092021-001_5day_pts",
"features": [
{ "type": "Feature", "properties": { "ADVDATE": "1100 AM EDT Thu Aug 26 2021", "ADVISNUM": "1", "BASIN": "AL", "DATELBL": "11:00 AM Thu", "DVLBL": "D", "FCSTPRD": 120.0, "FLDATELBL": "2021-08-26 8:00 AM Thu EDT", "GUST": 40.0, "LAT": 16.9, "LON": -79.2, "MAXWIND": 30.0, "MSLP": 1005.0, "SSNUM": 0.0, "STORMNAME": "Tropical Depression Nine", "STORMNUM": 9.0, "STORMSRC": "Tropical Cyclone", "STORMTYPE": "TD", "TCDVLP": "Tropical Depression", "TAU": 0.0, "TCDIR": 325.0, "TCSPD": 11.0, "TIMEZONE": "EDT", "VALIDTIME": "26/1200" }, "geometry": { "type": "Point", "coordinates": [ -79.2, 16.9 ] } },
{ "type": "Feature", "properties": { "ADVDATE": "1100 AM EDT Thu Aug 26 2021", "ADVISNUM": "1", "BASIN": "AL", "DATELBL": "8:00 PM Thu", "DVLBL": "S", "FCSTPRD": 120.0, "FLDATELBL": "2021-08-26 8:00 PM Thu EDT", "GUST": 45.0, "LAT": 18.2, "LON": -80.4, "MAXWIND": 35.0, "MSLP": 9999.0, "SSNUM": 0.0, "STORMNAME": "Tropical Depression Nine", "STORMNUM": 9.0, "STORMSRC": "Tropical Cyclone", "STORMTYPE": "TS", "TCDVLP": "Tropical Storm", "TAU": 12.0, "TCDIR": 9999.0, "TCSPD": 9999.0, "TIMEZONE": "EDT", "VALIDTIME": "27/0000" }, "geometry": { "type": "Point", "coordinates": [ -80.4, 18.2 ] } },
{ "type": "Feature", "properties": { "ADVDATE": "1100 AM EDT Thu Aug 26 2021", "ADVISNUM": "1", "BASIN": "AL", "DATELBL": "8:00 AM Fri", "DVLBL": "S", "FCSTPRD": 120.0, "FLDATELBL": "2021-08-27 8:00 AM Fri EDT", "GUST": 55.0, "LAT": 20.3, "LON": -82.0, "MAXWIND": 45.0, "MSLP": 9999.0, "SSNUM": 0.0, "STORMNAME": "Tropical Depression Nine", "STORMNUM": 9.0, "STORMSRC": "Tropical Cyclone", "STORMTYPE": "TS", "TCDVLP": "Tropical Storm", "TAU": 24.0, "TCDIR": 9999.0, "TCSPD": 9999.0, "TIMEZONE": "EDT", "VALIDTIME": "27/1200" }, "geometry": { "type": "Point", "coordinates": [ -82.0, 20.3 ] } },
{ "type": "Feature", "properties": { "ADVDATE": "1100 AM EDT Thu Aug 26 2021", "ADVISNUM": "1", "BASIN": "AL", "DATELBL": "8:00 PM Fri", "DVLBL": "S", "FCSTPRD": 120.0, "FLDATELBL": "2021-08-27 8:00 PM Fri EDT", "GUST": 65.0, "LAT": 22.5, "LON": -83.9, "MAXWIND": 55.0, "MSLP": 9999.0, "SSNUM": 0.0, "STORMNAME": "Tropical Depression Nine", "STORMNUM": 9.0, "STORMSRC": "Tropical Cyclone", "STORMTYPE": "TS", "TCDVLP": "Tropical Storm", "TAU": 36.0, "TCDIR": 9999.0, "TCSPD": 9999.0, "TIMEZONE": "EDT", "VALIDTIME": "28/0000" }, "geometry": { "type": "Point", "coordinates": [ -83.9, 22.5 ] } },
{ "type": "Feature", "properties": { "ADVDATE": "1100 AM EDT Thu Aug 26 2021", "ADVISNUM": "1", "BASIN": "AL", "DATELBL": "8:00 AM Sat", "DVLBL": "H", "FCSTPRD": 120.0, "FLDATELBL": "2021-08-28 8:00 AM Sat EDT", "GUST": 80.0, "LAT": 24.4, "LON": -86.0, "MAXWIND": 65.0, "MSLP": 9999.0, "SSNUM": 1.0, "STORMNAME": "Tropical Depression Nine", "STORMNUM": 9.0, "STORMSRC": "Tropical Cyclone", "STORMTYPE": "HU", "TCDVLP": "Hurricane", "TAU": 48.0, "TCDIR": 9999.0, "TCSPD": 9999.0, "TIMEZONE": "EDT", "VALIDTIME": "28/1200" }, "geometry": { "type": "Point", "coordinates": [ -86.0, 24.4 ] } },
{ "type": "Feature", "properties": { "ADVDATE": "1100 AM EDT Thu Aug 26 2021", "ADVISNUM": "1", "BASIN": "AL", "DATELBL": "8:00 PM Sat", "DVLBL": "H", "FCSTPRD": 120.0, "FLDATELBL": "2021-08-28 8:00 PM Sat EDT", "GUST": 100.0, "LAT": 26.1, "LON": -88.1, "MAXWIND": 80.0, "MSLP": 9999.0, "SSNUM": 1.0, "STORMNAME": "Tropical Depression Nine", "STORMNUM": 9.0, "STORMSRC": "Tropical Cyclone", "STORMTYPE": "HU", "TCDVLP": "Hurricane", "TAU": 60.0, "TCDIR": 9999.0, "TCSPD": 9999.0, "TIMEZONE": "EDT", "VALIDTIME": "29/0000" }, "geometry": { "type": "Point", "coordinates": [ -88.1, 26.1 ] } },
{ "type": "Feature", "properties": { "ADVDATE": "1100 AM EDT Thu Aug 26 2021", "ADVISNUM": "1", "BASIN": "AL", "DATELBL": "8:00 AM Sun", "DVLBL": "H", "FCSTPRD": 120.0, "FLDATELBL": "2021-08-29 8:00 AM Sun EDT", "GUST": 115.0, "LAT": 27.7, "LON": -90.0, "MAXWIND": 95.0, "MSLP": 9999.0, "SSNUM": 2.0, "STORMNAME": "Tropical Depression Nine", "STORMNUM": 9.0, "STORMSRC": "Tropical Cyclone", "STORMTYPE": "HU", "TCDVLP": "Hurricane", "TAU": 72.0, "TCDIR": 9999.0, "TCSPD": 9999.0, "TIMEZONE": "EDT", "VALIDTIME": "29/1200" }, "geometry": { "type": "Point", "coordinates": [ -90.0, 27.7 ] } },
{ "type": "Feature", "properties": { "ADVDATE": "1100 AM EDT Thu Aug 26 2021", "ADVISNUM": "1", "BASIN": "AL", "DATELBL": "8:00 AM Mon", "DVLBL": "H", "FCSTPRD": 120.0, "FLDATELBL": "2021-08-30 8:00 AM Mon EDT", "GUST": 85.0, "LAT": 30.5, "LON": -92.0, "MAXWIND": 70.0, "MSLP": 9999.0, "SSNUM": 1.0, "STORMNAME": "Tropical Depression Nine", "STORMNUM": 9.0, "STORMSRC": "Tropical Cyclone", "STORMTYPE": "HU", "TCDVLP": "Hurricane", "TAU": 96.0, "TCDIR": 9999.0, "TCSPD": 9999.0, "TIMEZONE": "EDT", "VALIDTIME": "30/1200" }, "geometry": { "type": "Point", "coordinates": [ -92.0, 30.5 ] } },
{ "type": "Feature", "properties": { "ADVDATE": "1100 AM EDT Thu Aug 26 2021", "ADVISNUM": "1", "BASIN": "AL", "DATELBL": "8:00 AM Tue", "DVLBL": "D", "FCSTPRD": 120.0, "FLDATELBL": "2021-08-31 8:00 AM Tue EDT", "GUST": 40.0, "LAT": 33.7, "LON": -91.2, "MAXWIND": 30.0, "MSLP": 9999.0, "SSNUM": 0.0, "STORMNAME": "Tropical Depression Nine", "STORMNUM": 9.0, "STORMSRC": "Tropical Cyclone", "STORMTYPE": "TD", "TCDVLP": "Tropical Depression", "TAU": 120.0, "TCDIR": 9999.0, "TCSPD": 9999.0, "TIMEZONE": "EDT", "VALIDTIME": "31/1200" }, "geometry": { "type": "Point", "coordinates": [ -91.2, 33.7 ] } }
]
}
