{
"type": "FeatureCollection",
"name": "al092021-001_5day_pgn",
"features": [
{ "type": "Feature", "properties": { "STORMNAME": "Nine", "STORMTYPE": "TD", "ADVDATE": "1100 AM EDT Thu Aug 26 2021", "ADVISNUM": "1", "STORMNUM": 9.0, "FCSTPRD": 120.0, "BASIN": "AL" }, "geometry": { "type": "Polygon", "coordinates": [ [ [ -79.2777, 16.6522 ], [ -79.2478, 16.648 ], [ -79.2157, 16.6467 ], [ -79.182, 16.648 ], [ -79.1482, 16.6522 ], [ -79.1151, 16.6591 ], [ -79.0838, 16.6687 ], [ -79.0548, 16.6811 ], [ -79.0164, 16.7046 ], [ -78.9942, 16.7238 ], [ -78.9751, 16.746 ], [ -78.9518, 16.7844 ], [ -78.94, 16.8127 ], [ -78.932, 16.843 ], [ -78.9276, 16.8744 ], [ -78.9276, 16.9062 ], [ -78.932, 16.9376 ], [ -78.9399, 16.9681 ], [ -78.9509, 16.997 ], [ -78.9645, 17.0245 ], [ -78.9795, 17.0508 ], [ -78.9954, 17.0763 ], [ -79.0117, 17.1013 ], [ -79.0284, 17.1259 ], [ -79.054, 17.1623 ], [ -79.0715, 17.1862 ], [ -79.0894, 17.2097 ], [ -79.1075, 17.2328 ], [ -79.1254, 17.2563 ], [ -79.1341, 17.2682 ], [ -79.1604, 17.304 ], [ -79.1692, 17.3159 ], [ -79.1867, 17.3397 ], [ -79.2044, 17.3634 ], [ -79.2314, 17.3983 ], [ -79.2493, 17.4218 ], [ -79.258, 17.4337 ], [ -79.2843, 17.4694 ], [ -79.293, 17.4814 ], [ -79.3107, 17.505 ], [ -79.3289, 17.5282 ], [ -79.3477, 17.5507 ], [ -79.3765, 17.584 ], [ -79.3956, 17.6061 ], [ -79.4141, 17.629 ], [ -79.4231, 17.6407 ], [ -79.4495, 17.6763 ], [ -79.4582, 17.6882 ], [ -79.4757, 17.712 ], [ -79.5024, 17.7474 ], [ -79.5205, 17.7706 ], [ -79.5294, 17.7824 ], [ -79.5471, 17.806 ], [ -79.5734, 17.8418 ], [ -79.5821, 17.8537 ], [ -79.6084, 17.8894 ], [ -79.6173, 17.9012 ], [ -79.6444, 17.9361 ], [ -79.6622, 17.9596 ], [ -79.671, 17.9715 ], [ -79.6883, 17.9955 ], [ -79.7054, 18.0198 ], [ -79.722, 18.0445 ], [ -79.7468, 18.0817 ], [ -79.7551, 18.0941 ], [ -79.7802, 18.131 ], [ -79.7974, 18.1552 ], [ -79.8061, 18.1671 ], [ -79.8238, 18.1907 ], [ -79.8418, 18.2141 ], [ -79.8687, 18.2491 ], [ -79.8775, 18.2611 ], [ -79.9034, 18.2971 ], [ -79.9118, 18.3094 ], [ -79.9285, 18.334 ], [ -79.9533, 18.3713 ], [ -79.9616, 18.3837 ], [ -79.9863, 18.4209 ], [ -80.0029, 18.4457 ], [ -80.0111, 18.4581 ], [ -80.0359, 18.4954 ], [ -80.0442, 18.5078 ], [ -80.0689, 18.545 ], [ -80.0772, 18.5574 ], [ -80.102, 18.5946 ], [ -80.1102, 18.6071 ], [ -80.135, 18.6443 ], [ -80.1433, 18.6567 ], [ -80.168, 18.6939 ], [ -80.1763, 18.7063 ], [ -80.1927, 18.7313 ], [ -80.2087, 18.7566 ], [ -80.2244, 18.7823 ], [ -80.2398, 18.8083 ], [ -80.2548, 18.8346 ], [ -80.2698, 18.8609 ], [ -80.2852, 18.8869 ], [ -80.3009, 18.9125 ], [ -80.3167, 18.938 ], [ -80.3326, 18.9635 ], [ -80.3483, 18.9891 ], [ -80.3712, 19.0282 ], [ -80.3787, 19.0414 ], [ -80.3937, 19.0677 ], [ -80.4091, 19.0937 ], [ -80.4247, 19.1194 ], [ -80.4408, 19.1447 ], [ -80.4571, 19.1697 ], [ -80.4737, 19.1945 ], [ -80.4984, 19.2317 ], [ -80.5067, 19.2441 ], [ -80.523, 19.2691 ], [ -80.5391, 19.2944 ], [ -80.5548, 19.3201 ], [ -80.5701, 19.346 ], [ -80.5851, 19.3724 ], [ -80.6078, 19.4117 ], [ -80.6155, 19.4246 ], [ -80.6312, 19.4503 ], [ -80.6471, 19.4758 ], [ -80.663, 19.5013 ], [ -80.6787, 19.5269 ], [ -80.694, 19.5529 ], [ -80.709, 19.5792 ], [ -80.7241, 19.6055 ], [ -80.7394, 19.6315 ], [ -80.7551, 19.6571 ], [ -80.7712, 19.6825 ], [ -80.7958, 19.7198 ], [ -80.804, 19.7323 ], [ -80.8205, 19.7571 ], [ -80.8453, 19.7943 ], [ -80.8534, 19.8069 ], [ -80.8694, 19.8322 ], [ -80.8851, 19.8579 ], [ -80.9005, 19.8838 ], [ -80.9155, 19.9101 ], [ -80.9306, 19.9364 ], [ -80.9459, 19.9624 ], [ -80.9616, 19.9881 ], [ -80.9777, 20.0134 ], [ -80.994, 20.0384 ], [ -81.0105, 20.0632 ], [ -81.027, 20.088 ], [ -81.0518, 20.1253 ], [ -81.0601, 20.1377 ], [ -81.0848, 20.1749 ], [ -81.1014, 20.1997 ], [ -81.1096, 20.2121 ], [ -81.1344, 20.2494 ], [ -81.1427, 20.2618 ], [ -81.1674, 20.299 ], [ -81.1757, 20.3114 ], [ -81.1922, 20.3362 ], [ -81.2087, 20.361 ], [ -81.2335, 20.3983 ], [ -81.25, 20.4231 ], [ -81.2665, 20.4479 ], [ -81.2831, 20.4727 ], [ -81.2913, 20.4852 ], [ -81.3079, 20.51 ], [ -81.3244, 20.5348 ], [ -81.3409, 20.5596 ], [ -81.3657, 20.5968 ], [ -81.3822, 20.6217 ], [ -81.3987, 20.6465 ], [ -81.407, 20.6589 ], [ -81.4235, 20.6837 ], [ -81.4483, 20.7209 ], [ -81.4648, 20.7458 ], [ -81.4813, 20.7706 ], [ -81.4978, 20.7954 ], [ -81.5143, 20.8202 ], [ -81.5309, 20.845 ], [ -81.5474, 20.8699 ], [ -81.5639, 20.8947 ], [ -81.5804, 20.9195 ], [ -81.5969, 20.9443 ], [ -81.6135, 20.9692 ], [ -81.6217, 20.9816 ], [ -81.6465, 21.0188 ], [ -81.663, 21.0436 ], [ -81.6795, 21.0684 ], [ -81.696, 21.0933 ], [ -81.7126, 21.1181 ], [ -81.7208, 21.1305 ], [ -81.7456, 21.1677 ], [ -81.7539, 21.1801 ], [ -81.7786, 21.2174 ], [ -81.7952, 21.2422 ], [ -81.8117, 21.267 ], [ -81.8282, 21.2918 ], [ -81.8447, 21.3166 ], [ -81.853, 21.329 ], [ -81.8778, 21.3663 ], [ -81.8943, 21.3911 ], [ -81.9108, 21.4159 ], [ -81.9273, 21.4407 ], [ -81.9356, 21.4532 ], [ -81.9603, 21.4904 ], [ -81.9686, 21.5028 ], [ -81.9934, 21.54 ], [ -82.0099, 21.5648 ], [ -82.0264, 21.5897 ], [ -82.0429, 21.6145 ], [ -82.0512, 21.6269 ], [ -82.076, 21.6641 ], [ -82.0928, 21.6886 ], [ -82.11, 21.7128 ], [ -82.1275, 21.7366 ], [ -82.1454, 21.7601 ], [ -82.1635, 21.7833 ], [ -82.1814, 21.8068 ], [ -82.1989, 21.8306 ], [ -82.2161, 21.8548 ], [ -82.2329, 21.8792 ], [ -82.2494, 21.9041 ], [ -82.2577, 21.9165 ], [ -82.2825, 21.9537 ], [ -82.2993, 21.9782 ], [ -82.3165, 22.0024 ], [ -82.334, 22.0262 ], [ -82.3518, 22.0497 ], [ -82.37, 22.0728 ], [ -82.3879, 22.0963 ], [ -82.3966, 22.1083 ], [ -82.4229, 22.144 ], [ -82.4404, 22.1678 ], [ -82.4579, 22.1916 ], [ -82.4757, 22.2151 ], [ -82.4939, 22.2383 ], [ -82.5117, 22.2618 ], [ -82.5293, 22.2856 ], [ -82.5464, 22.3098 ], [ -82.5633, 22.3343 ], [ -82.5715, 22.3467 ], [ -82.5881, 22.3715 ], [ -82.6128, 22.4087 ], [ -82.6297, 22.4332 ], [ -82.6469, 22.4574 ], [ -82.6556, 22.4693 ], [ -82.6822, 22.5047 ], [ -82.7004, 22.5279 ], [ -82.7182, 22.5514 ], [ -82.7357, 22.5752 ], [ -82.7532, 22.599 ], [ -82.7708, 22.6229 ], [ -82.7883, 22.6467 ], [ -82.8061, 22.6702 ], [ -82.8243, 22.6934 ], [ -82.8421, 22.7169 ], [ -82.8596, 22.7407 ], [ -82.8771, 22.7645 ], [ -82.8947, 22.7883 ], [ -82.9125, 22.8118 ], [ -82.931, 22.8347 ], [ -82.9501, 22.8568 ], [ -82.9693, 22.879 ], [ -82.9885, 22.9012 ], [ -83.007, 22.924 ], [ -83.0248, 22.9475 ], [ -83.0423, 22.9713 ], [ -83.0598, 22.9952 ], [ -83.0777, 23.0187 ], [ -83.0962, 23.0415 ], [ -83.1157, 23.0633 ], [ -83.1355, 23.0849 ], [ -83.1556, 23.106 ], [ -83.1755, 23.1276 ], [ -83.195, 23.1494 ], [ -83.2135, 23.1722 ], [ -83.2313, 23.1957 ], [ -83.2488, 23.2196 ], [ -83.2663, 23.2434 ], [ -83.2842, 23.2669 ], [ -83.3027, 23.2897 ], [ -83.3124, 23.3006 ], [ -83.342, 23.3331 ], [ -83.3625, 23.3539 ], [ -83.3829, 23.3748 ], [ -83.3932, 23.3852 ], [ -83.4233, 23.4171 ], [ -83.4428, 23.439 ], [ -83.4612, 23.4618 ], [ -83.4791, 23.4853 ], [ -83.4966, 23.5091 ], [ -83.5141, 23.533 ], [ -83.5319, 23.5565 ], [ -83.5505, 23.5793 ], [ -83.5699, 23.6011 ], [ -83.5898, 23.6226 ], [ -83.6102, 23.6435 ], [ -83.6307, 23.6643 ], [ -83.6515, 23.6849 ], [ -83.672, 23.7057 ], [ -83.6928, 23.7262 ], [ -83.7133, 23.7471 ], [ -83.7341, 23.7676 ], [ -83.7546, 23.7884 ], [ -83.7751, 23.8093 ], [ -83.7949, 23.8308 ], [ -83.8144, 23.8526 ], [ -83.8329, 23.8755 ], [ -83.8508, 23.899 ], [ -83.8595, 23.9109 ], [ -83.8858, 23.9466 ], [ -83.9036, 23.9701 ], [ -83.9221, 23.993 ], [ -83.9416, 24.0148 ], [ -83.9614, 24.0363 ], [ -83.9819, 24.0572 ], [ -84.0024, 24.078 ], [ -84.0232, 24.0985 ], [ -84.0335, 24.109 ], [ -84.0645, 24.1399 ], [ -84.085, 24.1608 ], [ -84.1058, 24.1813 ], [ -84.1263, 24.2021 ], [ -84.1471, 24.2226 ], [ -84.1676, 24.2435 ], [ -84.1884, 24.264 ], [ -84.2089, 24.2849 ], [ -84.2297, 24.3054 ], [ -84.2502, 24.3262 ], [ -84.271, 24.3467 ], [ -84.2915, 24.3676 ], [ -84.3123, 24.3881 ], [ -84.3328, 24.409 ], [ -84.3536, 24.4295 ], [ -84.3741, 24.4503 ], [ -84.3949, 24.4708 ], [ -84.4154, 24.4917 ], [ -84.4362, 24.5122 ], [ -84.4567, 24.5331 ], [ -84.4775, 24.5536 ], [ -84.498, 24.5744 ], [ -84.5188, 24.5949 ], [ -84.5393, 24.6158 ], [ -84.5601, 24.6363 ], [ -84.5806, 24.6572 ], [ -84.6014, 24.6777 ], [ -84.6219, 24.6985 ], [ -84.6423, 24.7194 ], [ -84.6622, 24.7409 ], [ -84.6817, 24.7627 ], [ -84.7001, 24.7856 ], [ -84.7091, 24.7973 ], [ -84.7355, 24.8329 ], [ -84.753, 24.8567 ], [ -84.7619, 24.8685 ], [ -84.7894, 24.9031 ], [ -84.8088, 24.9249 ], [ -84.8287, 24.9464 ], [ -84.8492, 24.9673 ], [ -84.8696, 24.9881 ], [ -84.8904, 25.0086 ], [ -84.9109, 25.0295 ], [ -84.9317, 25.05 ], [ -84.9522, 25.0708 ], [ -84.973, 25.0913 ], [ -84.9935, 25.1122 ], [ -85.0143, 25.1327 ], [ -85.0348, 25.1536 ], [ -85.0556, 25.1741 ], [ -85.0761, 25.1949 ], [ -85.0969, 25.2155 ], [ -85.1174, 25.2363 ], [ -85.1278, 25.2466 ], [ -85.1587, 25.2777 ], [ -85.1795, 25.2982 ], [ -85.2, 25.319 ], [ -85.2208, 25.3396 ], [ -85.2413, 25.3604 ], [ -85.2621, 25.3809 ], [ -85.2826, 25.4018 ], [ -85.3034, 25.4223 ], [ -85.3239, 25.4431 ], [ -85.3447, 25.4637 ], [ -85.3652, 25.4845 ], [ -85.386, 25.505 ], [ -85.4065, 25.5259 ], [ -85.4273, 25.5464 ], [ -85.4478, 25.5673 ], [ -85.4686, 25.5878 ], [ -85.4891, 25.6086 ], [ -85.5099, 25.6291 ], [ -85.5304, 25.65 ], [ -85.5512, 25.6705 ], [ -85.5717, 25.6914 ], [ -85.5821, 25.7016 ], [ -85.613, 25.7327 ], [ -85.6338, 25.7532 ], [ -85.6543, 25.7741 ], [ -85.6751, 25.7946 ], [ -85.6956, 25.8154 ], [ -85.7164, 25.836 ], [ -85.7369, 25.8568 ], [ -85.7577, 25.8773 ], [ -85.7782, 25.8982 ], [ -85.799, 25.9187 ], [ -85.8195, 25.9396 ], [ -85.8403, 25.9601 ], [ -85.8608, 25.9809 ], [ -85.8816, 26.0014 ], [ -85.9021, 26.0223 ], [ -85.9229, 26.0428 ], [ -85.9434, 26.0637 ], [ -85.9642, 26.0842 ], [ -85.9847, 26.105 ], [ -86.0055, 26.1255 ], [ -86.026, 26.1464 ], [ -86.0468, 26.1669 ], [ -86.0673, 26.1878 ], [ -86.0881, 26.2083 ], [ -86.1085, 26.2291 ], [ -86.119, 26.2394 ], [ -86.1498, 26.2705 ], [ -86.1707, 26.291 ], [ -86.1911, 26.3119 ], [ -86.212, 26.3324 ], [ -86.2324, 26.3532 ], [ -86.2533, 26.3738 ], [ -86.2737, 26.3946 ], [ -86.2946, 26.4151 ], [ -86.315, 26.436 ], [ -86.3358, 26.4565 ], [ -86.3563, 26.4773 ], [ -86.3771, 26.4979 ], [ -86.3976, 26.5187 ], [ -86.4184, 26.5392 ], [ -86.4389, 26.5601 ], [ -86.4597, 26.5806 ], [ -86.4802, 26.6014 ], [ -86.501, 26.622 ], [ -86.5215, 26.6428 ], [ -86.5319, 26.6531 ], [ -86.5628, 26.6842 ], [ -86.5836, 26.7047 ], [ -86.6041, 26.7255 ], [ -86.6249, 26.7461 ], [ -86.6454, 26.7669 ], [ -86.6662, 26.7874 ], [ -86.6765, 26.7979 ], [ -86.7075, 26.8288 ], [ -86.728, 26.8496 ], [ -86.7485, 26.8705 ], [ -86.7683, 26.892 ], [ -86.778, 26.9029 ], [ -86.8063, 26.9367 ], [ -86.8241, 26.9602 ], [ -86.8329, 26.9721 ], [ -86.8504, 26.9959 ], [ -86.8681, 27.0196 ], [ -86.8955, 27.0542 ], [ -86.915, 27.076 ], [ -86.9348, 27.0975 ], [ -86.9553, 27.1184 ], [ -86.9758, 27.1392 ], [ -86.9966, 27.1597 ], [ -87.0171, 27.1806 ], [ -87.0379, 27.2011 ], [ -87.0584, 27.222 ], [ -87.0792, 27.2425 ], [ -87.0997, 27.2633 ], [ -87.1205, 27.2838 ], [ -87.141, 27.3047 ], [ -87.1618, 27.3252 ], [ -87.1823, 27.3461 ], [ -87.2031, 27.3666 ], [ -87.2135, 27.3768 ], [ -87.2454, 27.407 ], [ -87.2672, 27.4265 ], [ -87.29, 27.445 ], [ -87.3134, 27.4629 ], [ -87.3372, 27.4804 ], [ -87.361, 27.498 ], [ -87.3845, 27.5158 ], [ -87.4073, 27.5344 ], [ -87.4291, 27.5539 ], [ -87.4398, 27.5638 ], [ -87.4713, 27.5943 ], [ -87.4922, 27.6148 ], [ -87.5126, 27.6356 ], [ -87.5335, 27.6562 ], [ -87.5539, 27.677 ], [ -87.5748, 27.6975 ], [ -87.5952, 27.7184 ], [ -87.6161, 27.7389 ], [ -87.6365, 27.7597 ], [ -87.6573, 27.7803 ], [ -87.6676, 27.7907 ], [ -87.6987, 27.8216 ], [ -87.7191, 27.8425 ], [ -87.7399, 27.863 ], [ -87.7604, 27.8838 ], [ -87.7813, 27.9044 ], [ -87.8017, 27.9252 ], [ -87.8225, 27.9457 ], [ -87.843, 27.9666 ], [ -87.8638, 27.9871 ], [ -87.8843, 28.0079 ], [ -87.9051, 28.0285 ], [ -87.9256, 28.0493 ], [ -87.9461, 28.0702 ], [ -87.9659, 28.0917 ], [ -87.9854, 28.1135 ], [ -87.9947, 28.1249 ], [ -88.0218, 28.1598 ], [ -88.0305, 28.1718 ], [ -88.048, 28.1956 ], [ -88.0746, 28.231 ], [ -88.0931, 28.2538 ], [ -88.1029, 28.2648 ], [ -88.1324, 28.2972 ], [ -88.1526, 28.3184 ], [ -88.1724, 28.3399 ], [ -88.1919, 28.3617 ], [ -88.2104, 28.3846 ], [ -88.2282, 28.4081 ], [ -88.2368, 28.4201 ], [ -88.2539, 28.4445 ], [ -88.2788, 28.4815 ], [ -88.2869, 28.4941 ], [ -88.3029, 28.5194 ], [ -88.3186, 28.5451 ], [ -88.3338, 28.5712 ], [ -88.3483, 28.598 ], [ -88.3626, 28.6251 ], [ -88.3766, 28.6525 ], [ -88.3903, 28.6801 ], [ -88.404, 28.7077 ], [ -88.4179, 28.7352 ], [ -88.4316, 28.7628 ], [ -88.4453, 28.7905 ], [ -88.4592, 28.8179 ], [ -88.4729, 28.8456 ], [ -88.4866, 28.8732 ], [ -88.5005, 28.9007 ], [ -88.5142, 28.9283 ], [ -88.5279, 28.9559 ], [ -88.5418, 28.9834 ], [ -88.5555, 29.011 ], [ -88.5692, 29.0387 ], [ -88.5831, 29.0661 ], [ -88.5968, 29.0938 ], [ -88.6105, 29.1214 ], [ -88.6245, 29.1487 ], [ -88.6387, 29.1758 ], [ -88.6533, 29.2026 ], [ -88.6685, 29.2288 ], [ -88.6842, 29.2544 ], [ -88.7, 29.2799 ], [ -88.7159, 29.3054 ], [ -88.7316, 29.331 ], [ -88.7468, 29.3572 ], [ -88.7684, 29.3976 ], [ -88.7755, 29.4111 ], [ -88.7896, 29.4384 ], [ -88.8033, 29.4661 ], [ -88.817, 29.4937 ], [ -88.8309, 29.5212 ], [ -88.8446, 29.5488 ], [ -88.8583, 29.5764 ], [ -88.8722, 29.6039 ], [ -88.8859, 29.6315 ], [ -88.8996, 29.6592 ], [ -88.9134, 29.6866 ], [ -88.9272, 29.7143 ], [ -88.9409, 29.7419 ], [ -88.9547, 29.7694 ], [ -88.9683, 29.7972 ], [ -88.9815, 29.8253 ], [ -88.9946, 29.8536 ], [ -89.0069, 29.8826 ], [ -89.0187, 29.9122 ], [ -89.0304, 29.9418 ], [ -89.0421, 29.9714 ], [ -89.0537, 30.0012 ], [ -89.0654, 30.0308 ], [ -89.077, 30.0606 ], [ -89.0872, 30.0914 ], [ -89.0953, 30.1233 ], [ -89.1006, 30.1561 ], [ -89.1021, 30.1893 ], [ -89.0991, 30.2221 ], [ -89.0919, 30.2532 ], [ -89.0808, 30.2822 ], [ -89.0742, 30.2962 ], [ -89.0588, 30.3219 ], [ -89.0416, 30.346 ], [ -89.0241, 30.3699 ], [ -89.0066, 30.3937 ], [ -88.9891, 30.4175 ], [ -88.9716, 30.4414 ], [ -88.9541, 30.4652 ], [ -88.9362, 30.4887 ], [ -88.9181, 30.5118 ], [ -88.9002, 30.5353 ], [ -88.8827, 30.5592 ], [ -88.8652, 30.583 ], [ -88.8477, 30.6068 ], [ -88.8302, 30.6307 ], [ -88.8033, 30.6657 ], [ -88.7942, 30.6773 ], [ -88.7763, 30.7008 ], [ -88.7588, 30.7246 ], [ -88.7413, 30.7485 ], [ -88.7238, 30.7723 ], [ -88.706, 30.7958 ], [ -88.6875, 30.8186 ], [ -88.6683, 30.8408 ], [ -88.6491, 30.863 ], [ -88.63, 30.8851 ], [ -88.6115, 30.908 ], [ -88.5936, 30.9315 ], [ -88.5761, 30.9553 ], [ -88.5586, 30.9791 ], [ -88.5315, 31.0141 ], [ -88.5223, 31.0255 ], [ -88.5031, 31.0476 ], [ -88.484, 31.0698 ], [ -88.4648, 31.092 ], [ -88.4463, 31.1148 ], [ -88.4285, 31.1383 ], [ -88.4109, 31.1621 ], [ -88.3934, 31.186 ], [ -88.3759, 31.2098 ], [ -88.3581, 31.2333 ], [ -88.3399, 31.2565 ], [ -88.3221, 31.28 ], [ -88.3046, 31.3038 ], [ -88.287, 31.3276 ], [ -88.2695, 31.3514 ], [ -88.2517, 31.3749 ], [ -88.2332, 31.3978 ], [ -88.214, 31.4199 ], [ -88.1949, 31.4421 ], [ -88.1757, 31.4643 ], [ -88.1572, 31.4871 ], [ -88.1394, 31.5106 ], [ -88.1219, 31.5345 ], [ -88.0956, 31.5702 ], [ -88.0869, 31.5821 ], [ -88.069, 31.6056 ], [ -88.0508, 31.6288 ], [ -88.033, 31.6523 ], [ -88.0155, 31.6761 ], [ -87.9983, 31.7003 ], [ -87.9815, 31.7247 ], [ -87.9649, 31.7496 ], [ -87.9484, 31.7744 ], [ -87.9236, 31.8116 ], [ -87.9071, 31.8364 ], [ -87.8906, 31.8613 ], [ -87.8741, 31.8861 ], [ -87.8658, 31.8985 ], [ -87.8493, 31.9233 ], [ -87.8239, 31.9599 ], [ -87.8065, 31.9839 ], [ -87.7888, 32.0075 ], [ -87.7708, 32.0309 ], [ -87.753, 32.0544 ], [ -87.7358, 32.0785 ], [ -87.7193, 32.1033 ], [ -87.7034, 32.1288 ], [ -87.6957, 32.1417 ], [ -87.6732, 32.1813 ], [ -87.6579, 32.2073 ], [ -87.6422, 32.2329 ], [ -87.6342, 32.2457 ], [ -87.6184, 32.2711 ], [ -87.5947, 32.3095 ], [ -87.5795, 32.3357 ], [ -87.5721, 32.3489 ], [ -87.5508, 32.3896 ], [ -87.5368, 32.4169 ], [ -87.5231, 32.4445 ], [ -87.5094, 32.4722 ], [ -87.4955, 32.4996 ], [ -87.4885, 32.5134 ], [ -87.4687, 32.5556 ], [ -87.4557, 32.5839 ], [ -87.4433, 32.6128 ], [ -87.4315, 32.6424 ], [ -87.4198, 32.6721 ], [ -87.4081, 32.7017 ], [ -87.3965, 32.7315 ], [ -87.3846, 32.7609 ], [ -87.3724, 32.7901 ], [ -87.3605, 32.8195 ], [ -87.3491, 32.8495 ], [ -87.3381, 32.8797 ], [ -87.3276, 32.9107 ], [ -87.3181, 32.9424 ], [ -87.309, 32.9747 ], [ -87.3002, 33.0073 ], [ -87.2918, 33.0402 ], [ -87.2837, 33.0735 ], [ -87.2759, 33.1071 ], [ -87.2685, 33.141 ], [ -87.2614, 33.1753 ], [ -87.2546, 33.2098 ], [ -87.2479, 33.2444 ], [ -87.2409, 33.2789 ], [ -87.2342, 33.3134 ], [ -87.2279, 33.3485 ], [ -87.2224, 33.3844 ], [ -87.2183, 33.4217 ], [ -87.2156, 33.4604 ], [ -87.2142, 33.5002 ], [ -87.2135, 33.541 ], [ -87.2133, 33.5822 ], [ -87.2133, 33.6235 ], [ -87.2133, 33.6649 ], [ -87.2133, 33.7063 ], [ -87.2133, 33.7476 ], [ -87.2133, 33.789 ], [ -87.2133, 33.8304 ], [ -87.2133, 33.8717 ], [ -87.2133, 33.9131 ], [ -87.2135, 33.9543 ], [ -87.2142, 33.995 ], [ -87.2156, 34.0349 ], [ -87.2183, 34.0736 ], [ -87.2224, 34.1108 ], [ -87.2279, 34.1467 ], [ -87.2341, 34.1818 ], [ -87.2409, 34.2164 ], [ -87.2479, 34.2508 ], [ -87.2546, 34.2854 ], [ -87.2614, 34.32 ], [ -87.2685, 34.3542 ], [ -87.2759, 34.3882 ], [ -87.2837, 34.4218 ], [ -87.2918, 34.455 ], [ -87.3002, 34.4879 ], [ -87.309, 34.5205 ], [ -87.3181, 34.5528 ], [ -87.3275, 34.5847 ], [ -87.3374, 34.6162 ], [ -87.3476, 34.6473 ], [ -87.3579, 34.6784 ], [ -87.3683, 34.7093 ], [ -87.3792, 34.7398 ], [ -87.3904, 34.7699 ], [ -87.402, 34.7997 ], [ -87.4144, 34.8286 ], [ -87.4274, 34.8569 ], [ -87.4406, 34.8851 ], [ -87.4542, 34.9129 ], [ -87.468, 34.9403 ], [ -87.4818, 34.968 ], [ -87.4955, 34.9956 ], [ -87.5093, 35.0231 ], [ -87.5231, 35.0507 ], [ -87.5368, 35.0783 ], [ -87.5506, 35.1058 ], [ -87.5644, 35.1335 ], [ -87.5781, 35.1611 ], [ -87.5921, 35.1884 ], [ -87.6063, 35.2155 ], [ -87.6208, 35.2423 ], [ -87.6361, 35.2685 ], [ -87.6517, 35.2941 ], [ -87.6678, 35.3194 ], [ -87.6841, 35.3444 ], [ -87.7008, 35.3691 ], [ -87.7178, 35.3934 ], [ -87.7352, 35.4174 ], [ -87.7528, 35.441 ], [ -87.7799, 35.476 ], [ -87.7889, 35.4877 ], [ -87.8065, 35.5114 ], [ -87.824, 35.5352 ], [ -87.8415, 35.559 ], [ -87.8592, 35.5827 ], [ -87.8774, 35.6059 ], [ -87.8964, 35.6282 ], [ -87.916, 35.6499 ], [ -87.9362, 35.6711 ], [ -87.9669, 35.7023 ], [ -87.9773, 35.7126 ], [ -88.0082, 35.7437 ], [ -88.0186, 35.754 ], [ -88.0495, 35.7851 ], [ -88.0599, 35.7953 ], [ -88.0908, 35.8264 ], [ -88.1012, 35.8367 ], [ -88.1321, 35.8678 ], [ -88.1425, 35.8781 ], [ -88.1734, 35.9092 ], [ -88.1942, 35.9297 ], [ -88.2045, 35.9401 ], [ -88.2251, 35.9608 ], [ -88.2459, 35.9813 ], [ -88.2778, 36.0114 ], [ -88.2996, 36.031 ], [ -88.3224, 36.0495 ], [ -88.3341, 36.0584 ], [ -88.3696, 36.0849 ], [ -88.3816, 36.0937 ], [ -88.4172, 36.12 ], [ -88.4407, 36.1379 ], [ -88.4522, 36.1469 ], [ -88.4873, 36.1739 ], [ -88.5111, 36.1915 ], [ -88.5231, 36.2001 ], [ -88.5474, 36.2171 ], [ -88.5844, 36.2421 ], [ -88.6092, 36.2586 ], [ -88.6216, 36.2669 ], [ -88.6587, 36.2917 ], [ -88.6835, 36.3083 ], [ -88.7083, 36.3248 ], [ -88.7334, 36.3411 ], [ -88.7461, 36.349 ], [ -88.7846, 36.3725 ], [ -88.8107, 36.3877 ], [ -88.8371, 36.4026 ], [ -88.8632, 36.4178 ], [ -88.889, 36.4334 ], [ -88.9017, 36.4413 ], [ -88.9399, 36.4652 ], [ -88.9526, 36.4731 ], [ -88.9911, 36.4966 ], [ -89.0175, 36.5115 ], [ -89.0446, 36.5257 ], [ -89.0717, 36.5399 ], [ -89.0991, 36.5538 ], [ -89.1272, 36.5671 ], [ -89.1553, 36.5803 ], [ -89.1837, 36.5932 ], [ -89.2131, 36.6051 ], [ -89.2575, 36.6227 ], [ -89.2871, 36.6344 ], [ -89.302, 36.6402 ], [ -89.3317, 36.6518 ], [ -89.3608, 36.664 ], [ -89.3899, 36.6763 ], [ -89.4345, 36.6937 ], [ -89.4493, 36.6995 ], [ -89.4787, 36.7114 ], [ -89.5233, 36.7287 ], [ -89.5382, 36.7345 ], [ -89.5673, 36.7468 ], [ -89.5963, 36.759 ], [ -89.6411, 36.7762 ], [ -89.6713, 36.7873 ], [ -89.7022, 36.7977 ], [ -89.7179, 36.8027 ], [ -89.7661, 36.8164 ], [ -89.7987, 36.8252 ], [ -89.8316, 36.8337 ], [ -89.8646, 36.8419 ], [ -89.8976, 36.8502 ], [ -89.9142, 36.8543 ], [ -89.9637, 36.8667 ], [ -89.9968, 36.875 ], [ -90.0298, 36.8833 ], [ -90.0628, 36.8916 ], [ -90.0959, 36.8998 ], [ -90.1289, 36.9081 ], [ -90.1619, 36.9164 ], [ -90.1951, 36.9245 ], [ -90.2288, 36.9321 ], [ -90.2632, 36.9391 ], [ -90.2982, 36.9453 ], [ -90.3339, 36.951 ], [ -90.3699, 36.9563 ], [ -90.4056, 36.9619 ], [ -90.4408, 36.968 ], [ -90.4758, 36.9743 ], [ -90.511, 36.9804 ], [ -90.5468, 36.9859 ], [ -90.584, 36.99 ], [ -90.6225, 36.9928 ], [ -90.6616, 36.995 ], [ -90.7008, 36.9971 ], [ -90.7393, 37.0 ], [ -90.7764, 37.0041 ], [ -90.8123, 37.0095 ], [ -90.8475, 37.0157 ], [ -90.8827, 37.0218 ], [ -90.9185, 37.0273 ], [ -90.9557, 37.0314 ], [ -90.9943, 37.034 ], [ -91.0341, 37.0355 ], [ -91.0748, 37.0362 ], [ -91.1159, 37.0364 ], [ -91.1572, 37.0364 ], [ -91.1985, 37.0364 ], [ -91.2398, 37.0364 ], [ -91.2811, 37.0364 ], [ -91.3222, 37.0362 ], [ -91.3629, 37.0355 ], [ -91.4027, 37.034 ], [ -91.4413, 37.0314 ], [ -91.4785, 37.0273 ], [ -91.5143, 37.0218 ], [ -91.5495, 37.0157 ], [ -91.5847, 37.0096 ], [ -91.6206, 37.0041 ], [ -91.6577, 37.0 ], [ -91.6962, 36.9971 ], [ -91.7354, 36.995 ], [ -91.7745, 36.9928 ], [ -91.813, 36.99 ], [ -91.8502, 36.9859 ], [ -91.886, 36.9804 ], [ -91.9212, 36.9743 ], [ -91.9562, 36.968 ], [ -91.9914, 36.9619 ], [ -92.0271, 36.9563 ], [ -92.0631, 36.951 ], [ -92.0988, 36.9453 ], [ -92.1338, 36.9391 ], [ -92.1682, 36.9321 ], [ -92.2018, 36.9245 ], [ -92.2351, 36.9164 ], [ -92.2681, 36.9081 ], [ -92.3011, 36.8998 ], [ -92.3342, 36.8916 ], [ -92.3672, 36.8833 ], [ -92.4002, 36.875 ], [ -92.4333, 36.8667 ], [ -92.4663, 36.8585 ], [ -92.4993, 36.8502 ], [ -92.5324, 36.8419 ], [ -92.5654, 36.8337 ], [ -92.5983, 36.8252 ], [ -92.6308, 36.8164 ], [ -92.6631, 36.8073 ], [ -92.6949, 36.7979 ], [ -92.7263, 36.788 ], [ -92.7574, 36.7777 ], [ -92.804, 36.7623 ], [ -92.8193, 36.757 ], [ -92.8497, 36.7461 ], [ -92.8798, 36.7349 ], [ -92.9097, 36.7235 ], [ -92.9391, 36.7115 ], [ -92.9827, 36.6932 ], [ -92.9976, 36.6874 ], [ -93.0273, 36.6758 ], [ -93.0569, 36.664 ], [ -93.0864, 36.6523 ], [ -93.116, 36.6405 ], [ -93.1591, 36.6217 ], [ -93.1732, 36.6151 ], [ -93.2153, 36.5952 ], [ -93.2427, 36.5813 ], [ -93.2564, 36.5744 ], [ -93.2979, 36.5538 ], [ -93.3116, 36.5469 ], [ -93.339, 36.533 ], [ -93.3666, 36.5193 ], [ -93.4079, 36.4986 ], [ -93.435, 36.4843 ], [ -93.4485, 36.4772 ], [ -93.4885, 36.4552 ], [ -93.5143, 36.4397 ], [ -93.5397, 36.4238 ], [ -93.5648, 36.4076 ], [ -93.5896, 36.391 ], [ -93.6144, 36.3745 ], [ -93.6392, 36.3579 ], [ -93.6639, 36.3414 ], [ -93.6887, 36.3248 ], [ -93.7135, 36.3083 ], [ -93.7383, 36.2917 ], [ -93.763, 36.2752 ], [ -93.7878, 36.2586 ], [ -93.8126, 36.2421 ], [ -93.8374, 36.2255 ], [ -93.8618, 36.2087 ], [ -93.8859, 36.1915 ], [ -93.9097, 36.1739 ], [ -93.9332, 36.1561 ], [ -93.9563, 36.1379 ], [ -93.9798, 36.12 ], [ -94.0036, 36.1024 ], [ -94.0273, 36.0849 ], [ -94.0511, 36.0674 ], [ -94.0746, 36.0495 ], [ -94.0974, 36.031 ], [ -94.1192, 36.0114 ], [ -94.1407, 35.9916 ], [ -94.1615, 35.9711 ], [ -94.1823, 35.9505 ], [ -94.2028, 35.9297 ], [ -94.2236, 35.9092 ], [ -94.2441, 35.8883 ], [ -94.2649, 35.8678 ], [ -94.2854, 35.847 ], [ -94.3062, 35.8264 ], [ -94.3267, 35.8056 ], [ -94.3475, 35.7851 ], [ -94.368, 35.7642 ], [ -94.3888, 35.7437 ], [ -94.4093, 35.7229 ], [ -94.4301, 35.7023 ], [ -94.4506, 35.6815 ], [ -94.471, 35.6606 ], [ -94.5006, 35.6282 ], [ -94.5104, 35.6173 ], [ -94.5378, 35.5827 ], [ -94.5467, 35.5709 ], [ -94.5642, 35.5471 ], [ -94.5817, 35.5233 ], [ -94.6082, 35.4877 ], [ -94.6171, 35.476 ], [ -94.6442, 35.441 ], [ -94.6531, 35.4293 ], [ -94.6706, 35.4055 ], [ -94.6878, 35.3813 ], [ -94.7046, 35.3568 ], [ -94.7292, 35.3194 ], [ -94.7453, 35.2941 ], [ -94.7609, 35.2685 ], [ -94.7763, 35.2425 ], [ -94.7913, 35.2162 ], [ -94.8064, 35.1899 ], [ -94.8217, 35.1639 ], [ -94.8374, 35.1382 ], [ -94.8533, 35.1128 ], [ -94.869, 35.0871 ], [ -94.8842, 35.061 ], [ -94.8985, 35.034 ], [ -94.9118, 35.0059 ], [ -94.924, 34.9767 ], [ -94.9359, 34.9473 ], [ -94.9476, 34.9177 ], [ -94.9592, 34.8879 ], [ -94.9711, 34.8584 ], [ -94.9772, 34.8439 ], [ -94.9952, 34.7999 ], [ -95.0066, 34.7699 ], [ -95.0178, 34.7398 ], [ -95.0287, 34.7093 ], [ -95.0391, 34.6784 ], [ -95.0494, 34.6473 ], [ -95.0545, 34.6317 ], [ -95.0702, 34.5854 ], [ -95.0804, 34.5543 ], [ -95.0907, 34.5232 ], [ -95.1009, 34.4921 ], [ -95.1106, 34.4605 ], [ -95.1196, 34.428 ], [ -95.1278, 34.3949 ], [ -95.1354, 34.3612 ], [ -95.1424, 34.3268 ], [ -95.1491, 34.2922 ], [ -95.1561, 34.2578 ], [ -95.1628, 34.2232 ], [ -95.1691, 34.1881 ], [ -95.1746, 34.1522 ], [ -95.1787, 34.115 ], [ -95.1814, 34.0763 ], [ -95.1829, 34.0364 ], [ -95.1835, 33.9957 ], [ -95.1837, 33.9545 ], [ -95.1837, 33.9131 ], [ -95.1837, 33.8717 ], [ -95.1837, 33.8304 ], [ -95.1837, 33.789 ], [ -95.1837, 33.7476 ], [ -95.1837, 33.7063 ], [ -95.1837, 33.6649 ], [ -95.1837, 33.6235 ], [ -95.1837, 33.5822 ], [ -95.1837, 33.5408 ], [ -95.1837, 33.4994 ], [ -95.1837, 33.4581 ], [ -95.1837, 33.4167 ], [ -95.1837, 33.3753 ], [ -95.1837, 33.334 ], [ -95.1837, 33.2926 ], [ -95.1837, 33.2512 ], [ -95.1837, 33.2098 ], [ -95.1837, 33.1685 ], [ -95.1837, 33.1271 ], [ -95.1837, 33.0857 ], [ -95.1837, 33.0444 ], [ -95.1837, 33.003 ], [ -95.1837, 32.9616 ], [ -95.1837, 32.9203 ], [ -95.1837, 32.8789 ], [ -95.1837, 32.8375 ], [ -95.1837, 32.7962 ], [ -95.1837, 32.7548 ], [ -95.1837, 32.7134 ], [ -95.1837, 32.6721 ], [ -95.1837, 32.6307 ], [ -95.1837, 32.5893 ], [ -95.1837, 32.548 ], [ -95.1837, 32.5066 ], [ -95.1837, 32.4652 ], [ -95.1837, 32.4239 ], [ -95.1837, 32.3825 ], [ -95.1837, 32.3411 ], [ -95.1837, 32.2998 ], [ -95.1837, 32.2584 ], [ -95.1837, 32.217 ], [ -95.1837, 32.1757 ], [ -95.1837, 32.1343 ], [ -95.1837, 32.0929 ], [ -95.1837, 32.0516 ], [ -95.1837, 32.0102 ], [ -95.1837, 31.9688 ], [ -95.1837, 31.9274 ], [ -95.1837, 31.8861 ], [ -95.1837, 31.8447 ], [ -95.1837, 31.8033 ], [ -95.1837, 31.762 ], [ -95.1837, 31.7206 ], [ -95.1837, 31.6792 ], [ -95.1835, 31.638 ], [ -95.1828, 31.5973 ], [ -95.1814, 31.5575 ], [ -95.1787, 31.5187 ], [ -95.1746, 31.4815 ], [ -95.1691, 31.4456 ], [ -95.163, 31.4104 ], [ -95.1569, 31.3751 ], [ -95.1514, 31.3392 ], [ -95.1472, 31.3021 ], [ -95.1439, 31.2641 ], [ -95.1409, 31.2257 ], [ -95.1376, 31.1876 ], [ -95.1333, 31.1506 ], [ -95.1278, 31.1147 ], [ -95.1217, 31.0794 ], [ -95.1154, 31.0443 ], [ -95.1093, 31.0091 ], [ -95.1037, 30.9733 ], [ -95.0984, 30.9373 ], [ -95.0928, 30.9015 ], [ -95.0867, 30.8663 ], [ -95.0803, 30.8314 ], [ -95.0735, 30.7968 ], [ -95.0665, 30.7624 ], [ -95.0598, 30.7278 ], [ -95.053, 30.6932 ], [ -95.0459, 30.659 ], [ -95.0385, 30.625 ], [ -95.0307, 30.5914 ], [ -95.0226, 30.5582 ], [ -95.0142, 30.5252 ], [ -95.0054, 30.4927 ], [ -94.9963, 30.4604 ], [ -94.9869, 30.4284 ], [ -94.977, 30.397 ], [ -94.9668, 30.3659 ], [ -94.9565, 30.3348 ], [ -94.9463, 30.3037 ], [ -94.9359, 30.2727 ], [ -94.9255, 30.2418 ], [ -94.9152, 30.2107 ], [ -94.9048, 30.1797 ], [ -94.8939, 30.1493 ], [ -94.8827, 30.1192 ], [ -94.8713, 30.0892 ], [ -94.8594, 30.0598 ], [ -94.8472, 30.0307 ], [ -94.8353, 30.0012 ], [ -94.8237, 29.9714 ], [ -94.812, 29.9418 ], [ -94.8003, 29.9122 ], [ -94.7885, 29.8826 ], [ -94.7762, 29.8536 ], [ -94.7631, 29.8253 ], [ -94.7499, 29.7972 ], [ -94.7363, 29.7694 ], [ -94.7225, 29.7419 ], [ -94.7087, 29.7143 ], [ -94.695, 29.6866 ], [ -94.6812, 29.6592 ], [ -94.6675, 29.6315 ], [ -94.6538, 29.6039 ], [ -94.6399, 29.5764 ], [ -94.6262, 29.5488 ], [ -94.6124, 29.5212 ], [ -94.5984, 29.4939 ], [ -94.5842, 29.4667 ], [ -94.5697, 29.4399 ], [ -94.5545, 29.4138 ], [ -94.5388, 29.3881 ], [ -94.5229, 29.3627 ], [ -94.5071, 29.3372 ], [ -94.4914, 29.3115 ], [ -94.476, 29.2855 ], [ -94.461, 29.2592 ], [ -94.4459, 29.2329 ], [ -94.4306, 29.2069 ], [ -94.4149, 29.1813 ], [ -94.3989, 29.156 ], [ -94.3825, 29.131 ], [ -94.3658, 29.1063 ], [ -94.3488, 29.082 ], [ -94.3227, 29.0461 ], [ -94.3049, 29.0226 ], [ -94.2958, 29.011 ], [ -94.2778, 28.9877 ], [ -94.2601, 28.964 ], [ -94.2338, 28.9283 ], [ -94.2251, 28.9164 ], [ -94.2076, 28.8925 ], [ -94.181, 28.8571 ], [ -94.1719, 28.8456 ], [ -94.145, 28.8105 ], [ -94.1274, 28.7866 ], [ -94.1187, 28.7747 ], [ -94.1012, 28.7509 ], [ -94.0746, 28.7155 ], [ -94.0561, 28.6927 ], [ -94.0366, 28.6708 ], [ -94.0267, 28.6601 ], [ -93.9963, 28.6285 ], [ -93.9758, 28.6076 ], [ -93.9553, 28.5868 ], [ -93.9355, 28.5652 ], [ -93.9257, 28.5543 ], [ -93.8975, 28.5206 ], [ -93.8886, 28.5088 ], [ -93.8709, 28.4852 ], [ -93.8446, 28.4494 ], [ -93.8268, 28.4259 ], [ -93.8176, 28.4145 ], [ -93.7986, 28.3922 ], [ -93.769, 28.3597 ], [ -93.7485, 28.3389 ], [ -93.728, 28.318 ], [ -93.7072, 28.2975 ], [ -93.6867, 28.2767 ], [ -93.6659, 28.2562 ], [ -93.6454, 28.2353 ], [ -93.6246, 28.2148 ], [ -93.6041, 28.1939 ], [ -93.5833, 28.1734 ], [ -93.5628, 28.1526 ], [ -93.542, 28.132 ], [ -93.5216, 28.1112 ], [ -93.5007, 28.0907 ], [ -93.4799, 28.0702 ], [ -93.4584, 28.0503 ], [ -93.4366, 28.0308 ], [ -93.4138, 28.0122 ], [ -93.3904, 27.9944 ], [ -93.3666, 27.9768 ], [ -93.3428, 27.9593 ], [ -93.3194, 27.9414 ], [ -93.2966, 27.9229 ], [ -93.2748, 27.9034 ], [ -93.2533, 27.8835 ], [ -93.2325, 27.863 ], [ -93.2116, 27.8425 ], [ -93.1912, 27.8216 ], [ -93.1704, 27.8011 ], [ -93.1495, 27.7806 ], [ -93.1281, 27.7607 ], [ -93.1063, 27.7412 ], [ -93.0835, 27.7227 ], [ -93.06, 27.7048 ], [ -93.0362, 27.6873 ], [ -93.0124, 27.6697 ], [ -92.989, 27.6519 ], [ -92.9662, 27.6333 ], [ -92.944, 27.6141 ], [ -92.9219, 27.5949 ], [ -92.8998, 27.5757 ], [ -92.877, 27.5572 ], [ -92.8535, 27.5393 ], [ -92.8297, 27.5218 ], [ -92.806, 27.5043 ], [ -92.7825, 27.4864 ], [ -92.7597, 27.4679 ], [ -92.7376, 27.4487 ], [ -92.7154, 27.4295 ], [ -92.6933, 27.4103 ], [ -92.6705, 27.3917 ], [ -92.647, 27.3739 ], [ -92.6232, 27.3563 ], [ -92.5995, 27.3388 ], [ -92.5757, 27.3212 ], [ -92.5522, 27.3034 ], [ -92.5291, 27.2852 ], [ -92.5056, 27.2673 ], [ -92.4818, 27.2498 ], [ -92.4581, 27.2322 ], [ -92.4343, 27.2147 ], [ -92.4105, 27.1971 ], [ -92.387, 27.1793 ], [ -92.3639, 27.1611 ], [ -92.3404, 27.1432 ], [ -92.3167, 27.1257 ], [ -92.2925, 27.1084 ], [ -92.2681, 27.0916 ], [ -92.2433, 27.075 ], [ -92.2185, 27.0585 ], [ -92.1938, 27.0419 ], [ -92.169, 27.0254 ], [ -92.1442, 27.0088 ], [ -92.1194, 26.9923 ], [ -92.0946, 26.9757 ], [ -92.0699, 26.9592 ], [ -92.0454, 26.9423 ], [ -92.0213, 26.9251 ], [ -91.9975, 26.9076 ], [ -91.9741, 26.8897 ], [ -91.9509, 26.8715 ], [ -91.9275, 26.8536 ], [ -91.9037, 26.8361 ], [ -91.8796, 26.8189 ], [ -91.8551, 26.802 ], [ -91.8303, 26.7854 ], [ -91.8056, 26.7689 ], [ -91.7808, 26.7524 ], [ -91.756, 26.7358 ], [ -91.7312, 26.7193 ], [ -91.7065, 26.7027 ], [ -91.6813, 26.6865 ], [ -91.6559, 26.6706 ], [ -91.6301, 26.6551 ], [ -91.604, 26.6398 ], [ -91.5776, 26.6249 ], [ -91.5515, 26.6097 ], [ -91.5257, 26.5942 ], [ -91.5003, 26.5783 ], [ -91.4752, 26.5621 ], [ -91.4504, 26.5455 ], [ -91.4256, 26.529 ], [ -91.4009, 26.5124 ], [ -91.3761, 26.4959 ], [ -91.3513, 26.4793 ], [ -91.3265, 26.4628 ], [ -91.3021, 26.4459 ], [ -91.278, 26.4287 ], [ -91.2545, 26.4108 ], [ -91.2317, 26.3923 ], [ -91.2096, 26.3731 ], [ -91.1874, 26.3539 ], [ -91.1653, 26.3347 ], [ -91.1425, 26.3162 ], [ -91.1191, 26.2983 ], [ -91.0952, 26.2808 ], [ -91.0715, 26.2632 ], [ -91.048, 26.2454 ], [ -91.0252, 26.2268 ], [ -91.0031, 26.2076 ], [ -90.9809, 26.1884 ], [ -90.9588, 26.1692 ], [ -90.936, 26.1507 ], [ -90.9126, 26.1328 ], [ -90.8888, 26.1153 ], [ -90.865, 26.0978 ], [ -90.8412, 26.0802 ], [ -90.8177, 26.0623 ], [ -90.7946, 26.0441 ], [ -90.7712, 26.0263 ], [ -90.7474, 26.0087 ], [ -90.7236, 25.9912 ], [ -90.6998, 25.9736 ], [ -90.676, 25.9561 ], [ -90.6525, 25.9382 ], [ -90.6294, 25.92 ], [ -90.606, 25.9022 ], [ -90.5822, 25.8846 ], [ -90.5581, 25.8674 ], [ -90.5336, 25.8505 ], [ -90.5088, 25.834 ], [ -90.4841, 25.8174 ], [ -90.4593, 25.8009 ], [ -90.4345, 25.7843 ], [ -90.4097, 25.7678 ], [ -90.3849, 25.7513 ], [ -90.3598, 25.735 ], [ -90.3344, 25.7192 ], [ -90.3086, 25.7036 ], [ -90.2825, 25.6884 ], [ -90.2561, 25.6735 ], [ -90.23, 25.6583 ], [ -90.2042, 25.6427 ], [ -90.1788, 25.6268 ], [ -90.1534, 25.6109 ], [ -90.1279, 25.5951 ], [ -90.1021, 25.5795 ], [ -90.076, 25.5643 ], [ -90.0496, 25.5494 ], [ -90.0235, 25.5342 ], [ -89.9977, 25.5186 ], [ -89.9723, 25.5027 ], [ -89.9469, 25.4868 ], [ -89.9214, 25.4709 ], [ -89.8957, 25.4554 ], [ -89.8696, 25.4402 ], [ -89.8431, 25.4253 ], [ -89.817, 25.41 ], [ -89.7913, 25.3945 ], [ -89.7658, 25.3786 ], [ -89.7404, 25.3627 ], [ -89.7149, 25.3468 ], [ -89.6892, 25.3313 ], [ -89.6627, 25.3164 ], [ -89.6357, 25.3022 ], [ -89.6086, 25.2879 ], [ -89.5815, 25.2737 ], [ -89.5544, 25.2595 ], [ -89.528, 25.2446 ], [ -89.5022, 25.229 ], [ -89.4768, 25.2131 ], [ -89.4513, 25.1973 ], [ -89.4259, 25.1814 ], [ -89.4001, 25.1658 ], [ -89.374, 25.1506 ], [ -89.3476, 25.1357 ], [ -89.3215, 25.1205 ], [ -89.2957, 25.1049 ], [ -89.2703, 25.089 ], [ -89.2448, 25.0731 ], [ -89.2194, 25.0573 ], [ -89.1936, 25.0417 ], [ -89.1675, 25.0265 ], [ -89.1411, 25.0116 ], [ -89.115, 24.9964 ], [ -89.0892, 24.9808 ], [ -89.0638, 24.9649 ], [ -89.0387, 24.9487 ], [ -89.0139, 24.9322 ], [ -88.9891, 24.9156 ], [ -88.9643, 24.8991 ], [ -88.9395, 24.8825 ], [ -88.9148, 24.866 ], [ -88.89, 24.8494 ], [ -88.8652, 24.8329 ], [ -88.8404, 24.8163 ], [ -88.8157, 24.7998 ], [ -88.7905, 24.7836 ], [ -88.7651, 24.7677 ], [ -88.7393, 24.7521 ], [ -88.7132, 24.7369 ], [ -88.6868, 24.722 ], [ -88.6607, 24.7068 ], [ -88.6349, 24.6912 ], [ -88.6095, 24.6754 ], [ -88.5844, 24.6591 ], [ -88.5596, 24.6426 ], [ -88.5348, 24.6261 ], [ -88.5101, 24.6095 ], [ -88.4853, 24.5929 ], [ -88.4602, 24.5767 ], [ -88.4347, 24.5608 ], [ -88.409, 24.5453 ], [ -88.3829, 24.5301 ], [ -88.3564, 24.5152 ], [ -88.3303, 24.5 ], [ -88.3046, 24.4844 ], [ -88.2791, 24.4685 ], [ -88.254, 24.4523 ], [ -88.2292, 24.4358 ], [ -88.2045, 24.4192 ], [ -88.1797, 24.4027 ], [ -88.1549, 24.3861 ], [ -88.1298, 24.3699 ], [ -88.1044, 24.354 ], [ -88.0786, 24.3385 ], [ -88.0525, 24.3232 ], [ -88.0261, 24.3084 ], [ -88.0, 24.2931 ], [ -87.9742, 24.2776 ], [ -87.9487, 24.2617 ], [ -87.9236, 24.2455 ], [ -87.8989, 24.2289 ], [ -87.8741, 24.2124 ], [ -87.8493, 24.1958 ], [ -87.8245, 24.1793 ], [ -87.7994, 24.1631 ], [ -87.774, 24.1472 ], [ -87.7482, 24.1316 ], [ -87.7221, 24.1164 ], [ -87.6957, 24.1015 ], [ -87.6696, 24.0863 ], [ -87.6438, 24.0707 ], [ -87.6184, 24.0548 ], [ -87.5933, 24.0386 ], [ -87.5685, 24.0221 ], [ -87.5437, 24.0055 ], [ -87.5189, 23.989 ], [ -87.4941, 23.9724 ], [ -87.4694, 23.9559 ], [ -87.4446, 23.9393 ], [ -87.4198, 23.9228 ], [ -87.395, 23.9063 ], [ -87.3703, 23.8897 ], [ -87.3455, 23.8732 ], [ -87.3207, 23.8566 ], [ -87.2959, 23.8401 ], [ -87.2711, 23.8235 ], [ -87.2464, 23.807 ], [ -87.2216, 23.7904 ], [ -87.1968, 23.7739 ], [ -87.172, 23.7573 ], [ -87.1473, 23.7408 ], [ -87.1225, 23.7242 ], [ -87.0977, 23.7077 ], [ -87.0729, 23.6911 ], [ -87.0481, 23.6746 ], [ -87.0234, 23.658 ], [ -86.9986, 23.6415 ], [ -86.9738, 23.6249 ], [ -86.949, 23.6084 ], [ -86.9242, 23.5919 ], [ -86.8995, 23.5753 ], [ -86.8747, 23.5588 ], [ -86.8499, 23.5422 ], [ -86.8251, 23.5257 ], [ -86.8004, 23.5091 ], [ -86.7756, 23.4926 ], [ -86.7508, 23.476 ], [ -86.726, 23.4595 ], [ -86.7012, 23.4429 ], [ -86.6765, 23.4264 ], [ -86.6517, 23.4098 ], [ -86.6269, 23.3933 ], [ -86.6021, 23.3768 ], [ -86.5774, 23.3602 ], [ -86.5529, 23.3433 ], [ -86.5288, 23.3261 ], [ -86.505, 23.3086 ], [ -86.4815, 23.2907 ], [ -86.4584, 23.2725 ], [ -86.435, 23.2546 ], [ -86.4112, 23.2371 ], [ -86.3871, 23.2199 ], [ -86.3626, 23.203 ], [ -86.3378, 23.1865 ], [ -86.3131, 23.1699 ], [ -86.2883, 23.1534 ], [ -86.2638, 23.1365 ], [ -86.2397, 23.1193 ], [ -86.2159, 23.1017 ], [ -86.1925, 23.0839 ], [ -86.1693, 23.0657 ], [ -86.1459, 23.0478 ], [ -86.1221, 23.0303 ], [ -86.0983, 23.0127 ], [ -86.0745, 22.9952 ], [ -86.0507, 22.9776 ], [ -86.0273, 22.9598 ], [ -86.0042, 22.9416 ], [ -85.9807, 22.9237 ], [ -85.9569, 22.9062 ], [ -85.9328, 22.8889 ], [ -85.9083, 22.8721 ], [ -85.8836, 22.8555 ], [ -85.8588, 22.839 ], [ -85.834, 22.8224 ], [ -85.8096, 22.8055 ], [ -85.7854, 22.7883 ], [ -85.7617, 22.7708 ], [ -85.7382, 22.7529 ], [ -85.7151, 22.7347 ], [ -85.6916, 22.7169 ], [ -85.6678, 22.6993 ], [ -85.644, 22.6818 ], [ -85.6203, 22.6642 ], [ -85.5965, 22.6467 ], [ -85.573, 22.6288 ], [ -85.5499, 22.6106 ], [ -85.5264, 22.5928 ], [ -85.5026, 22.5752 ], [ -85.4788, 22.5577 ], [ -85.4551, 22.5401 ], [ -85.4313, 22.5226 ], [ -85.4078, 22.5047 ], [ -85.3847, 22.4865 ], [ -85.3612, 22.4686 ], [ -85.3375, 22.4511 ], [ -85.3137, 22.4336 ], [ -85.2899, 22.416 ], [ -85.2664, 22.3982 ], [ -85.2436, 22.3796 ], [ -85.2215, 22.3604 ], [ -85.1993, 22.3412 ], [ -85.1772, 22.322 ], [ -85.1544, 22.3035 ], [ -85.131, 22.2856 ], [ -85.1072, 22.2681 ], [ -85.0834, 22.2506 ], [ -85.0599, 22.2327 ], [ -85.0371, 22.2142 ], [ -85.015, 22.195 ], [ -84.9929, 22.1758 ], [ -84.9707, 22.1566 ], [ -84.9479, 22.138 ], [ -84.9245, 22.1202 ], [ -84.9007, 22.1026 ], [ -84.8769, 22.0851 ], [ -84.8535, 22.0672 ], [ -84.8307, 22.0487 ], [ -84.8089, 22.0292 ], [ -84.7874, 22.0093 ], [ -84.7662, 21.9891 ], [ -84.7448, 21.9693 ], [ -84.723, 21.9497 ], [ -84.7001, 21.9312 ], [ -84.6767, 21.9133 ], [ -84.6529, 21.8958 ], [ -84.6291, 21.8782 ], [ -84.6057, 21.8604 ], [ -84.5829, 21.8418 ], [ -84.5611, 21.8223 ], [ -84.5396, 21.8025 ], [ -84.5188, 21.7819 ], [ -84.498, 21.7614 ], [ -84.4771, 21.7409 ], [ -84.4557, 21.721 ], [ -84.4339, 21.7015 ], [ -84.4111, 21.683 ], [ -84.3876, 21.6651 ], [ -84.3638, 21.6476 ], [ -84.34, 21.63 ], [ -84.3166, 21.6122 ], [ -84.2938, 21.5936 ], [ -84.272, 21.5741 ], [ -84.2505, 21.5543 ], [ -84.2297, 21.5337 ], [ -84.2089, 21.5132 ], [ -84.1884, 21.4924 ], [ -84.1676, 21.4719 ], [ -84.1471, 21.451 ], [ -84.1263, 21.4305 ], [ -84.1058, 21.4096 ], [ -84.085, 21.3891 ], [ -84.0645, 21.3683 ], [ -84.0437, 21.3477 ], [ -84.0232, 21.3269 ], [ -84.0024, 21.3064 ], [ -83.9816, 21.2859 ], [ -83.9601, 21.266 ], [ -83.9383, 21.2465 ], [ -83.9155, 21.2279 ], [ -83.8921, 21.2101 ], [ -83.8683, 21.1925 ], [ -83.8445, 21.175 ], [ -83.821, 21.1571 ], [ -83.7982, 21.1386 ], [ -83.7764, 21.1191 ], [ -83.7549, 21.0992 ], [ -83.7341, 21.0787 ], [ -83.7133, 21.0582 ], [ -83.6928, 21.0373 ], [ -83.672, 21.0168 ], [ -83.6515, 20.996 ], [ -83.6307, 20.9754 ], [ -83.6102, 20.9546 ], [ -83.5894, 20.9341 ], [ -83.5689, 20.9132 ], [ -83.5481, 20.8927 ], [ -83.5277, 20.8718 ], [ -83.5068, 20.8513 ], [ -83.4864, 20.8305 ], [ -83.4655, 20.81 ], [ -83.4451, 20.7891 ], [ -83.4242, 20.7686 ], [ -83.4038, 20.7478 ], [ -83.3829, 20.7272 ], [ -83.3625, 20.7064 ], [ -83.3416, 20.6859 ], [ -83.3212, 20.665 ], [ -83.3108, 20.6548 ], [ -83.2799, 20.6237 ], [ -83.2591, 20.6031 ], [ -83.2386, 20.5823 ], [ -83.2178, 20.5618 ], [ -83.1973, 20.5409 ], [ -83.1765, 20.5204 ], [ -83.156, 20.4995 ], [ -83.1352, 20.479 ], [ -83.1147, 20.4582 ], [ -83.0939, 20.4377 ], [ -83.0734, 20.4168 ], [ -83.0526, 20.3963 ], [ -83.0321, 20.3754 ], [ -83.0113, 20.3549 ], [ -82.9908, 20.3341 ], [ -82.97, 20.3136 ], [ -82.9495, 20.2927 ], [ -82.9287, 20.2722 ], [ -82.9082, 20.2513 ], [ -82.8874, 20.2308 ], [ -82.8669, 20.21 ], [ -82.8461, 20.1895 ], [ -82.8256, 20.1686 ], [ -82.8048, 20.1481 ], [ -82.7843, 20.1272 ], [ -82.7635, 20.1067 ], [ -82.743, 20.0859 ], [ -82.7326, 20.0756 ], [ -82.7017, 20.0445 ], [ -82.6809, 20.024 ], [ -82.6604, 20.0031 ], [ -82.6396, 19.9826 ], [ -82.6191, 19.9618 ], [ -82.5983, 19.9412 ], [ -82.5778, 19.9204 ], [ -82.557, 19.8999 ], [ -82.5365, 19.879 ], [ -82.5157, 19.8585 ], [ -82.4952, 19.8377 ], [ -82.4747, 19.8168 ], [ -82.4549, 19.7953 ], [ -82.4354, 19.7735 ], [ -82.4262, 19.762 ], [ -82.408, 19.7389 ], [ -82.3816, 19.7033 ], [ -82.3641, 19.6795 ], [ -82.3462, 19.656 ], [ -82.337, 19.6446 ], [ -82.3082, 19.6113 ], [ -82.2884, 19.5898 ], [ -82.2679, 19.5689 ], [ -82.2474, 19.5481 ], [ -82.2266, 19.5276 ], [ -82.2061, 19.5067 ], [ -82.1853, 19.4862 ], [ -82.1649, 19.4654 ], [ -82.144, 19.4448 ], [ -82.1236, 19.424 ], [ -82.1027, 19.4035 ], [ -82.0822, 19.3826 ], [ -82.0618, 19.3618 ], [ -82.042, 19.3403 ], [ -82.0322, 19.3293 ], [ -82.0132, 19.307 ], [ -81.9861, 19.2721 ], [ -81.9686, 19.2483 ], [ -81.9598, 19.2363 ], [ -81.9333, 19.2009 ], [ -81.9148, 19.1781 ], [ -81.8953, 19.1563 ], [ -81.8754, 19.1347 ], [ -81.855, 19.1139 ], [ -81.8345, 19.093 ], [ -81.8137, 19.0725 ], [ -81.7932, 19.0517 ], [ -81.7727, 19.0308 ], [ -81.7529, 19.0093 ], [ -81.7431, 18.9984 ], [ -81.7241, 18.9761 ], [ -81.697, 18.9411 ], [ -81.6883, 18.9292 ], [ -81.6708, 18.9054 ], [ -81.6442, 18.87 ], [ -81.6349, 18.8586 ], [ -81.6159, 18.8362 ], [ -81.5864, 18.8038 ], [ -81.5659, 18.783 ], [ -81.5454, 18.7621 ], [ -81.535, 18.7518 ], [ -81.5041, 18.7207 ], [ -81.4836, 18.6999 ], [ -81.4638, 18.6784 ], [ -81.4443, 18.6565 ], [ -81.4258, 18.6337 ], [ -81.408, 18.6102 ], [ -81.3992, 18.5983 ], [ -81.3817, 18.5745 ], [ -81.364, 18.5508 ], [ -81.3366, 18.5162 ], [ -81.3171, 18.4944 ], [ -81.2973, 18.4729 ], [ -81.2768, 18.452 ], [ -81.2563, 18.4312 ], [ -81.2355, 18.4106 ], [ -81.215, 18.3898 ], [ -81.1942, 18.3693 ], [ -81.1737, 18.3484 ], [ -81.1529, 18.3279 ], [ -81.1324, 18.3071 ], [ -81.1116, 18.2865 ], [ -81.0911, 18.2657 ], [ -81.0703, 18.2452 ], [ -81.0498, 18.2243 ], [ -81.0293, 18.2035 ], [ -81.0095, 18.182 ], [ -80.99, 18.1601 ], [ -80.9715, 18.1373 ], [ -80.9537, 18.1138 ], [ -80.9449, 18.1019 ], [ -80.9187, 18.0661 ], [ -80.9097, 18.0544 ], [ -80.8823, 18.0198 ], [ -80.8726, 18.0089 ], [ -80.843, 17.9764 ], [ -80.8225, 17.9556 ], [ -80.802, 17.9347 ], [ -80.7812, 17.9142 ], [ -80.7607, 17.8934 ], [ -80.7399, 17.8729 ], [ -80.7195, 17.852 ], [ -80.6986, 17.8315 ], [ -80.6782, 17.8106 ], [ -80.6573, 17.7901 ], [ -80.6365, 17.7696 ], [ -80.6151, 17.7498 ], [ -80.5933, 17.7302 ], [ -80.5704, 17.7117 ], [ -80.547, 17.6938 ], [ -80.5232, 17.6763 ], [ -80.4994, 17.6587 ], [ -80.476, 17.6409 ], [ -80.4532, 17.6223 ], [ -80.4314, 17.6028 ], [ -80.4206, 17.5929 ], [ -80.3891, 17.5624 ], [ -80.3683, 17.5419 ], [ -80.3478, 17.5211 ], [ -80.327, 17.5006 ], [ -80.3065, 17.4797 ], [ -80.2857, 17.4592 ], [ -80.2652, 17.4383 ], [ -80.2444, 17.4178 ], [ -80.2236, 17.3973 ], [ -80.2021, 17.3774 ], [ -80.1803, 17.3579 ], [ -80.1575, 17.3394 ], [ -80.134, 17.3215 ], [ -80.1102, 17.304 ], [ -80.0864, 17.2864 ], [ -80.063, 17.2686 ], [ -80.0402, 17.25 ], [ -80.0184, 17.2305 ], [ -79.9969, 17.2106 ], [ -79.9758, 17.1905 ], [ -79.9543, 17.1706 ], [ -79.9325, 17.1511 ], [ -79.9097, 17.1325 ], [ -79.8862, 17.1147 ], [ -79.8624, 17.0971 ], [ -79.8387, 17.0796 ], [ -79.8152, 17.0617 ], [ -79.7924, 17.0432 ], [ -79.7703, 17.024 ], [ -79.7481, 17.0048 ], [ -79.726, 16.9856 ], [ -79.7032, 16.9671 ], [ -79.6798, 16.9492 ], [ -79.656, 16.9317 ], [ -79.6322, 16.9141 ], [ -79.6087, 16.8962 ], [ -79.5859, 16.8777 ], [ -79.5641, 16.8582 ], [ -79.5427, 16.8383 ], [ -79.5218, 16.8178 ], [ -79.501, 16.7973 ], [ -79.4802, 16.7768 ], [ -79.4587, 16.7569 ], [ -79.4371, 16.7374 ], [ -79.4146, 16.7192 ], [ -79.3917, 16.7023 ], [ -79.3558, 16.6805 ], [ -79.3314, 16.6686 ], [ -79.3054, 16.6591 ], [ -79.2777, 16.6522 ] ] ] } }
]
}
