{"type":"FeatureCollection","features":[{"type":"Feature","id":3385,"geometry":{"type":"Polygon","coordinates":[[[-147.19097900018062,14.89817810033918],[-147.20901500004214,14.89817810033918],[-147.22705099990364,14.897871999893027],[-147.24505600013421,14.897260700121365],[-147.26306200041091,14.896345100346252],[-147.28105199994977,14.895124400171085],[-147.29899600006527,14.893599499817185],[-147.31692500038838,14.891769400137832],[-147.33480800038882,14.889636999647962],[-147.35266099990514,14.88720130010006],[-147.37046799999811,14.884466200055215],[-147.38821399997605,14.881426800006977],[-147.40591399963128,14.878087000314963],[-147.4235380002784,14.874449700393484],[-147.44108600011873,14.870513900196499],[-147.45857199979787,14.866280599769993],[-147.47598299961567,14.861752499778163],[-147.49330099964135,14.856928799824402],[-147.51052900001326,14.851814299590387],[-147.52766399969374,14.846407900104623],[-147.54469299988196,14.840711599660722],[-147.56161499963244,14.834727300324801],[-147.57842999984453,14.828458799933799],[-147.59513899966501,14.821905100240315],[-147.61171000031618,14.815071099851536],[-147.62815899983789,14.807955699795855],[-147.64448499998267,14.800563799579834],[-147.66066000035863,14.792895300278019],[-147.67669699976665,14.784954999773561],[-147.6925810002129,14.776745800178674],[-147.70831299994489,14.768265699602466],[-147.72390699960826,14.759523399885154],[-147.73931899987187,14.750515899988955],[-147.75457800027442,14.741249100365849],[-147.76966900012417,14.731725699881281],[-147.78456099979022,14.721948599748202],[-147.79930099964133,14.711918800012768],[-147.81384300025417,14.701641999678657],[-147.82820099957638,14.691120099912837],[-147.84234599986792,14.680357900396928],[-147.85632299960668,14.669356299553726],[-147.87008700031473,14.6581201995877],[-147.88363600010123,14.646652200438837],[-147.89697300000387,14.63495729963978],[-147.91010999967665,14.623038300377402],[-147.92303500036488,14.610896100175012],[-147.93571499964744,14.598540300194827],[-147.94818099985318,14.585969900390751],[-147.96041900033651,14.573190699591237],[-147.97241200031348,14.560206400305276],[-147.9841769996687,14.547019999973145],[-147.99568199962451,14.533636999747898],[-148.00697299960416,14.520059600270486],[-148.01799000043809,14.506293299995946],[-148.02877799970483,14.492344899597583],[-148.03930699961825,14.478214300149943],[-148.04956100033982,14.463907199757614],[-148.05958600039352,14.449430499817822],[-148.06932099966431,14.434784900003251],[-148.07879600043498,14.419975299820351],[-148.08801300009978,14.405010199661149],[-148.09693899983489,14.389889700249626],[-148.10559100042425,14.374621399957789],[-148.11396800002311,14.359207199952436],[-148.12207000043009,14.34365270031202],[-148.12988300010028,14.327965699957247],[-148.13743600037103,14.312149000276293],[-148.14466900027406,14.296205499784151],[-148.15164199987831,14.280141800403896],[-148.15829500001416,14.263962700018737],[-148.16467300005883,14.247673000108989],[-148.1707460004275,14.231278399678558],[-148.17652900001326,14.214783700207761],[-148.18200699992303,14.198192599708875],[-148.18719499994921,14.181511899754526],[-148.1920780002994,14.16474530015563],[-148.19664000023573,14.147899599786854],[-148.20092800012702,14.130977600036374],[-148.20487999981205,14.113987900221559],[-148.20854199961352,14.096931500388564],[-148.21189899973896,14.079816800205322],[-148.2149350003499,14.062647799856222],[-148.21766700043165,14.045429200097658],[-148.22010799968436,14.02816769997952],[-148.22219799983773,14.010868100082916],[-148.22401399994607,13.993535000440033],[-148.22549399984814,13.976173400382265],[-148.2266690000742,13.958789800209274],[-148.22753899972497,13.94138910032683],[-148.2280730000688,13.923975899868026],[-148.2283330003676,13.906556100183991],[-147.19999699966172,13.900000600047804],[-146.17167699969369,13.906560899865781],[-146.17192100015396,13.923980700449079],[-146.17247000029019,13.941392899962523],[-146.17332500014857,13.95879359984491],[-146.17450000037462,13.976177200017901],[-146.17599500006912,13.993538899900443],[-146.1777950003389,14.010871899718552],[-146.17990100033083,14.028172499661252],[-146.18232699979112,14.045434999825545],[-146.18505899987287,14.062651600391177],[-146.1881100002762,14.079821599887055],[-146.19145199970993,14.096937200291677],[-146.19511400041071,14.113991699857195],[-146.19908099988814,14.130982399718107],[-146.20335399998703,14.147904400367906],[-146.20793199976188,14.164750099837363],[-146.21279900027355,14.181516599611541],[-146.21798700029973,14.198197400289928],[-146.2234650002095,14.214787499843396],[-146.22924799979526,14.231283200259611],[-146.23533599995636,14.247678799836876],[-146.24171400000102,14.263966600378467],[-146.24838299997538,14.280145600039532],[-146.2553249999487,14.296209300319106],[-146.26257299964414,14.312151899690548],[-146.27011100012248,14.32797049963898],[-146.27792399979268,14.343658400215133],[-146.28602600019966,14.359211899809452],[-146.29440299979851,14.374624300271364],[-146.30307000018027,14.389893499885261],[-146.31201199975391,14.405014000196104],[-146.32121299958018,14.419979999677366],[-146.33067299965913,14.434788699638943],[-146.34042399966776,14.449434300352834],[-146.35043299988294,14.463912000338667],[-146.36068699970519,14.478218099785636],[-146.37121599961861,14.492347700086441],[-146.38200399978467,14.506300900166536],[-146.39302099971928,14.520065300173599],[-146.40431199969893,14.533639900061473],[-146.41581699965474,14.54702379960878],[-146.42758199990928,14.560209299719531],[-146.43958999967865,14.573193599904869],[-146.45181300036958,14.585972799805006],[-146.46429400036774,14.598544099830463],[-146.47697399965028,14.610901800078125],[-146.48988299960067,14.62304019974556],[-146.50302100021889,14.634961100174792],[-146.5163570000754,14.646654099806995],[-146.52992199970043,14.658124000122655],[-146.54368600040851,14.669359199867301],[-146.55764800035485,14.680359799765085],[-146.57180800043878,14.691122100005032],[-146.58615099996859,14.701645900038386],[-146.60070800037383,14.711921700326343],[-146.61543300043255,14.72195050001568],[-146.63034099993712,14.731727600148758],[-146.64543199978687,14.741250999734007],[-146.66067500035089,14.750517800256432],[-146.6761020004069,14.759525300152632],[-146.69168100027787,14.768269500137478],[-146.70741300000986,14.776746700400054],[-146.72331200024854,14.784958800308516],[-146.73934899965653,14.792899099913654],[-146.75552400003249,14.800565699847311],[-146.77183500038487,14.807959600155584],[-146.78828399990658,14.815073000119014],[-146.80487100039628,14.821906999608473],[-146.82156400037823,14.828460700201276],[-146.838378999691,14.834728199646861],[-146.8553010003408,14.840713499928199],[-146.87234500032142,14.846409800372101],[-146.8894650002095,14.851814299590387],[-146.90669299968209,14.8569297998705],[-146.92401099970778,14.861754400045641],[-146.94142200042489,14.866282500037471],[-146.95890800010403,14.870515799564657],[-146.97645599994436,14.874451599761642],[-146.99409500038388,14.878089000407158],[-147.01178000024672,14.881426800006977],[-147.02952600022465,14.884466200055215],[-147.04733300031762,14.88720130010006],[-147.06518599983394,14.889637899869342],[-147.08308399962681,14.89177130040531],[-147.10099800015749,14.893599499817185],[-147.11897299990395,14.895124400171085],[-147.13694799965037,14.896345100346252],[-147.15495299988095,14.897260700121365],[-147.17295800011152,14.897871999893027],[-147.19097900018062,14.89817810033918]]]},"properties":{"objectid":3385,"radii":34,"stormid":"cp022026","basin":"cp","stormnum":2,"advnum":"6","validtime":"2026082121","synoptime":"2026082118","timezone":"UTC","tau":0,"ne":60,"se":0,"sw":0,"nw":60,"idp_source":"cp022026_2026082121_forecastradii","idp_filedate":1787346776000,"idp_ingestdate":1787346792000,"st_area(shape)":1.6070827532623007,"st_perimeter(shape)":5.2284968548381032,"binnumber":"CP3"}},{"type":"Feature","id":3386,"geometry":{"type":"Polygon","coordinates":[[[-148.79097000016529,15.498177500191616],[-148.80905200034945,15.498177500191616],[-148.82713299958817,15.497872399791561],[-148.84519999997994,15.497261000195124],[-148.86325099963383,15.496343599977308],[-148.88128700039468,15.495122899802141],[-148.89929199972593,15.493598000347561],[-148.91726700037168,15.491769800036366],[-148.93521099958787,15.489636400399718],[-148.95312500011858,15.487199799731115],[-148.9709779996349,15.484462699594076],[-148.98876999993547,15.481423400269819],[-149.00650000007485,15.478083599678541],[-149.02419999973011,15.474444400388904],[-149.04180899968551,15.470508600191863],[-149.0593259998949,15.466274299719316],[-149.07678199998924,15.461744300359328],[-149.09414700038369,15.456921599552288],[-149.11143499992522,15.451806100171552],[-149.12861599992837,15.44639780041831],[-149.14569100043923,15.440701499974409],[-149.16267400030478,15.434719100006589],[-149.17952000014782,15.428446799979952],[-149.19627400024484,15.421893100286468],[-149.21289100031933,15.415056199584058],[-149.22938500011759,15.40794090025247],[-149.24575799973181,15.400545099676719],[-149.2619629996926,15.392876600374962],[-149.27806100011497,15.384935399649123],[-149.29399099998457,15.376723299740604],[-149.30976900003924,15.368244200109871],[-149.32539400023285,15.359496099765352],[-149.34085099987365,15.350488699693869],[-149.35615499965343,15.341221800246046],[-149.37127700003344,15.33169560017194],[-149.38622999981456,15.321916599771384],[-149.40100100019592,15.311885799989795],[-149.41557300039358,15.301606200066203],[-149.42997700003843,15.291084300300383],[-149.44416799975329,15.280320199617677],[-149.45817600002229,15.269316700305637],[-149.47197000031517,15.258079499569362],[-149.48556500042434,15.246607799710318],[-149.4989469997042,15.234911899764484],[-149.51211499990723,15.222991000234629],[-149.52505500038788,15.210848800032238],[-149.53778099999306,15.198491099784576],[-149.55027799982975,15.185918799712965],[-149.56254599989791,15.17313770044467],[-149.57457000040512,15.160151499991855],[-149.58638000003688,15.146964099613626],[-149.59791599962361,15.133578299798842],[-149.60922200029501,15.119999900275332],[-149.62028499965294,15.106233600000792],[-149.6310879996114,15.09228130014202],[-149.64164700000896,15.078149799573737],[-149.65193200036146,15.063842799905444],[-149.66197200020756,15.049364099873458],[-149.67173800000862,15.034714700423251],[-149.68122899971848,15.019905100240351],[-149.69044500023648,15.004937199592234],[-149.69941700029423,14.989814799913233],[-149.70808399977668,14.974544500428465],[-149.7164919999058,14.959130300423169],[-149.72460900010518,14.943576799929531],[-149.73245200025951,14.927885999939065],[-149.73998999983854,14.912068400036787],[-149.74726900006422,14.896123900397811],[-149.75424199966847,14.880059200072139],[-149.76092500028844,14.863880200411074],[-149.76730300033313,14.847588500409131],[-149.77339199964098,14.831191999711166],[-149.77918999991849,14.814695399972891],[-149.78468299962066,14.798105199695328],[-149.78988600033856,14.781424499741036],[-149.79476899978943,14.76465609969938],[-149.79934699956431,14.747809400183826],[-149.80363500035489,14.730887400433346],[-149.80761699962474,14.713895800351054],[-149.81127900032553,14.696839299793965],[-149.81463599955165,14.679722800067282],[-149.81768800000111,14.662552799672085],[-149.82041900003674,14.64533419991352],[-149.82284500039637,14.628072699795382],[-149.82496600018069,14.610772099852682],[-149.82675199980486,14.593438099988475],[-149.82824700039868,14.576077499976805],[-149.82942199972541,14.558692899757659],[-149.83027600043698,14.541291199829175],[-149.83082599972002,14.523880000361885],[-149.83105500038786,14.50646109999991],[-148.80001800013051,14.500000999946337],[-147.76896700012688,14.506464000313485],[-147.7691959998954,14.52388289977614],[-147.76974500003163,14.541298899824483],[-147.77059899984388,14.558696700292614],[-147.77177400006997,14.576083199879918],[-147.77326999981057,14.593443899716362],[-147.77507000008035,14.610776900433734],[-147.77717600007227,14.628077500376492],[-147.77960200043188,14.64533899959531],[-147.78234900030603,14.662558600299292],[-147.78538500001764,14.679727599749071],[-147.78874200014312,14.696844100375074],[-147.79241899973695,14.713898699765309],[-147.79638700015985,14.730893100336459],[-147.80067400000502,14.747814199865559],[-147.8052669995723,14.764659900234335],[-147.81014999992249,14.781427400054611],[-147.81533799994867,14.798109100055058],[-147.82083099965084,14.814701099876004],[-147.82662999997444,14.831197699614279],[-147.83271800013551,14.847593300090864],[-147.83909600018018,14.863883000000612],[-147.84579499973935,14.880062100385771],[-147.85276800024295,14.896128700079601],[-147.86003099973078,14.912072199672423],[-147.86758400000153,14.927890799620855],[-147.87541200036344,14.943581599611264],[-147.88352999970962,14.959134100058805],[-147.89193699979262,14.974549300110255],[-147.90062000001291,14.989820499816346],[-147.90957600023214,15.00494190034857],[-147.91879299989694,15.019908899875986],[-147.92829900029855,15.034720400326364],[-147.93806500009958,15.049367900408413],[-147.94809000015331,15.063845600394302],[-147.95838900025208,15.078153600108692],[-147.9689479997503,15.092285199602429],[-147.97975199975491,15.106237399636427],[-147.99079900017364,15.120003699910967],[-148.00210599999181,15.133582100333797],[-148.01367200006266,15.146967900148638],[-148.02545200010962,15.16015529962749],[-148.03749100040926,15.173140500034208],[-148.04975899957807,15.185921700026597],[-148.06224099962236,15.198494900319531],[-148.07496600008076,15.210852599667874],[-148.08792100035379,15.222994799870264],[-148.10107399986512,15.234916700345593],[-148.1144709998367,15.246611600245274],[-148.12805200019957,15.258081399836897],[-148.14186100028485,15.269320499941273],[-148.15585299981601,15.280324000152632],[-148.17004400043018,15.291088099936019],[-148.18444800007507,15.301609999701839],[-148.19903600011122,15.311889599625488],[-148.21380600044648,15.321917499992765],[-148.22874499958198,15.331698399761478],[-148.24386599991587,15.341223699614204],[-148.25917099974177,15.350490599961347],[-148.27462800028189,15.359500900346404],[-148.2902680002679,15.368245100331251],[-148.30604600032257,15.376725200008138],[-148.32197600019217,15.384936299870503],[-148.3380579998767,15.392878499743119],[-148.35429400036773,15.400546999944254],[-148.37063600035106,15.407942799620628],[-148.38714599998784,15.415058099851592],[-148.40376300006233,15.421894999654626],[-148.42050200036695,15.428448700247429],[-148.43737799979476,15.434719100006589],[-148.45433000002939,15.440703400241887],[-148.47142000033267,15.44639780041831],[-148.48860200038192,15.45180800043903],[-148.50587500013106,15.456923499819823],[-148.52325400027181,15.461745300405425],[-148.5406949996744,15.466276199986794],[-148.55824300041405,15.470508600191863],[-148.57585100032333,15.474446299757062],[-148.59352100039376,15.478085499946019],[-148.6112670003717,15.481423400269819],[-148.62907399956535,15.484464599861553],[-148.64692699998099,15.487201699998593],[-148.66480999998143,15.489636400399718],[-148.68275500014306,15.491769800036366],[-148.70072899984339,15.493599899715718],[-148.71874999991249,15.495124800069618],[-148.73678599977399,15.496343599977308],[-148.75482199963548,15.497263000287376],[-148.77290299977355,15.497872399791561],[-148.79097000016529,15.498177500191616]]]},"properties":{"objectid":3386,"radii":34,"stormid":"cp022026","basin":"cp","stormnum":2,"advnum":"6","validtime":"2026082206","synoptime":"2026082118","timezone":"UTC","tau":12,"ne":60,"se":0,"sw":0,"nw":60,"idp_source":"cp022026_2026082121_forecastradii","idp_filedate":1787346776000,"idp_ingestdate":1787346792000,"st_area(shape)":1.6115135631009008,"st_perimeter(shape)":5.238509342032021,"binnumber":"CP3"}},{"type":"Feature","id":3387,"geometry":{"type":"Polygon","coordinates":[[[-150.78942899974845,16.264539700147168],[-150.8106079997593,16.264539700147168],[-150.83177199997775,16.264183000245396],[-150.85293600019617,16.263469700266569],[-150.87408399967677,16.262399700386027],[-150.89520299961865,16.260974899971814],[-150.9162750000911,16.259193399655828],[-150.93734699966421,16.257055300162108],[-150.9583590000677,16.254566199770466],[-150.97930900031002,16.251718500108836],[-151.0002290000682,16.24852179964148],[-151.02105700008042,16.244972199807307],[-151.04183999981606,16.241071699799249],[-151.06254599959811,16.236824000327488],[-151.0831599996342,16.232227300049999],[-151.1036829999704,16.227281599866103],[-151.12413000039911,16.221994400121616],[-151.14447000039013,16.21636009983888],[-151.16468800015102,16.210384399820327],[-151.18481400016589,16.204069099609399],[-151.20481899999677,16.19741820028986],[-151.224685999759,16.190427799703343],[-151.24443100019042,16.183107400086556],[-151.26403799965388,16.175453200005336],[-151.2834930002017,16.167470900262003],[-151.30279499998917,16.159160599782012],[-151.32195999975411,16.150526000174921],[-151.34095799991169,16.141573000094013],[-151.35977199967795,16.132297500429445],[-151.37843299958317,16.122709300194174],[-151.39691200008866,16.11280440010313],[-151.4151920004104,16.102594399611974],[-151.43330400017939,16.092075300334955],[-151.45120199997223,16.08125109975856],[-151.46891800036533,16.070131300119556],[-151.48638900025207,16.058712000158835],[-151.50369299963214,16.046998999604284],[-151.5207520003045,16.034997900332996],[-151.53759800014751,16.022712699831345],[-151.55421400017588,16.010143300073366],[-151.57060199958252,15.997298199652334],[-151.58674600032757,15.984175699748903],[-151.60264599971305,15.970785100252328],[-151.61830100039077,15.957127599958937],[-151.63371299975506,15.943209600242994],[-151.64886499971988,15.929035200214457],[-151.66374199959353,15.914606099591936],[-151.67836000011383,15.899928099902013],[-151.69270299964364,15.88500790019458],[-151.70678699982011,15.869846299966923],[-151.72058100011299,15.854451199763218],[-151.73408499962295,15.838825200422775],[-151.74731399994107,15.822974199699672],[-151.76023899972998,15.806902900148884],[-151.77287299958917,15.790615999828674],[-151.7852019997724,15.774119400090399],[-151.79724100007201,15.757417700066924],[-151.80897499979633,15.740514800118092],[-151.82037400025982,15.723417300368283],[-151.83148199989429,15.706131899867444],[-151.84227000006038,15.688659700285086],[-151.85273699981261,15.671010999757982],[-151.86288500014257,15.653185800084771],[-151.87269600022015,15.635193799554372],[-151.88217200013761,15.617038699776288],[-151.89134200033297,15.598727199800578],[-151.90016199967647,15.580265000429563],[-151.90864599971303,15.561656000224389],[-151.91677899975096,15.542906800208812],[-151.92459100027435,15.524023100286001],[-151.93203700010739,15.505011600405169],[-151.93916299957269,15.485877000423386],[-151.94592300014625,15.466626199939299],[-151.95233199982187,15.447263700059864],[-151.95837399966027,15.427794500116249],[-151.96408100023788,15.40822980026519],[-151.969421000079,15.388570800202388],[-151.97442599976,15.368823100006182],[-151.97906499964992,15.34899429984722],[-151.98332199991029,15.329092999942134],[-151.987228000172,15.309120200337134],[-151.99078399958182,15.289085399671592],[-151.99395800026142,15.268994299647375],[-151.99677999999693,15.248855600305831],[-151.99923699998749,15.228669200023717],[-152.00131200034846,15.208444600138307],[-152.00303599981146,15.188187600377603],[-152.004378999691,15.167905800012818],[-152.00538600026363,15.147604899846385],[-152.00599699966173,15.127287900016711],[-152.00624100012197,15.106966999827307],[-151.14463800004359,15.096837000327469],[-151.14451599981345,15.091031999727136],[-151.14430199983735,15.085228000072277],[-151.14396699967722,15.079428700274434],[-151.14355499956349,15.073636999747862],[-151.14302100011898,15.067853900337354],[-151.14238000023673,15.062076599755414],[-151.14163199991677,15.056313500367878],[-151.14079299989695,15.050564800025654],[-151.1398470003387,15.044830299978514],[-151.13877899965104,15.039114000410905],[-151.1376339999091,15.033413900331368],[-151.13638299977555,15.027736699689058],[-151.13501000031118,15.022079499969095],[-151.13354500020151,15.016446099907739],[-151.13197299965412,15.010840399864719],[-151.1303100003062,15.005259500425723],[-151.12855500031293,14.999708200373277],[-151.12667800008956,14.994190200417563],[-151.12471000016629,14.988699899580865],[-151.12264999959771,14.983245800053794],[-151.12048300039007,14.977827999862427],[-151.11824000037564,14.972447400127578],[-151.11587500013107,14.967102999903659],[-151.11341900018664,14.961802500085469],[-151.11086999955074,14.956543899681378],[-151.10823100016046,14.951327300314802],[-151.10548400028631,14.946156499822735],[-151.10266099960538,14.941032400225254],[-151.09974700012387,14.935956999815801],[-151.09674099999708,14.930930099844375],[-151.09362800033188,14.92595769968824],[-151.09043899985988,14.921036700283651],[-151.08715799964187,14.916170099970259],[-151.08378599972403,14.911359799914976],[-151.08033799989869,14.906607599661129],[-151.07679700028126,14.901913599932811],[-151.07316600011075,14.897281600365716],[-151.06947299977904,14.892708799571608],[-151.06568899974747,14.888200800326786],[-151.0618129999699,14.883755699665926],[-151.05787700012337,14.879377399747341],[-151.05383299979303,14.875065799846936],[-151.04974400008544,14.870824800324442],[-151.04556299973257,14.866651499966906],[-151.04132100016395,14.862549800033378],[-151.03698699995002,14.85851959979982],[-151.03257799987472,14.85456369975509],[-151.02812200032997,14.850682300447943],[-151.02357500018601,14.846876099752365],[-151.01896699992702,14.843148200329324],[-151.01429700040617,14.839499499702299],[-151.00955200012461,14.835927000430843],[-151.00476100041976,14.832437499591094],[-150.99989299986197,14.829027200245207],[-150.99496500013456,14.825700799552408],[-150.98999000003838,14.822458300210542],[-150.98495499987325,14.81929970042097],[-150.97985800044628,14.816226000229847],[-150.97468600025863,14.813239099904649],[-150.96948200039392,14.8103380002986],[-150.9642490000912,14.807525599926635],[-150.95892299999636,14.80480379995555],[-150.95356800036285,14.802170799942587],[-150.94818100015294,14.799630199873945],[-150.94273399987412,14.797178299938707],[-150.93725599996435,14.794821700261423],[-150.93171699993951,14.79255579991036],[-150.92614700028375,14.790382400227713],[-150.92053200035144,14.788304299903643],[-150.9148859998889,14.786321599662244],[-150.90920999984152,14.784432400135302],[-150.90348800037083,14.782639500013033],[-150.89775100020842,14.780943900240914],[-150.89198300041505,14.779346500141003],[-150.88616900029905,14.777845400345086],[-150.88035600022914,14.776443500267476],[-150.87449599979047,14.775140799908115],[-150.86862199960552,14.773934399852806],[-150.86273199958202,14.772826200368968],[-150.85681199997373,14.771821000239129],[-150.85087599962759,14.770912200238001],[-150.84492500038837,14.770106299766042],[-150.83897400024983,14.769399599911765],[-150.83299299962715,14.768793099821835],[-150.82701099985766,14.768287699717689],[-150.82103000013433,14.76788329977461],[-150.81503299967312,14.767580999863412],[-150.80902100031884,14.767379799937942],[-150.80302399985763,14.76727679968468],[-150.79402200021505,14.434551200377712],[-150.78202800019199,14.4347525001279],[-150.77005000000742,14.435155900024881],[-150.75807199982285,14.435763400160909],[-150.74609399963828,14.436569199908774],[-150.73416099973028,14.437580099941783],[-150.72221400007595,14.438789400310725],[-150.71032699959127,14.44020079992714],[-150.69844100005201,14.441811599925529],[-150.68659999989001,14.443623500024671],[-150.67478900021212,14.445634799606466],[-150.66301000021124,14.447844500423514],[-150.65127599958763,14.4502515997317],[-150.63958700013987,14.452856100228985],[-150.62794500016153,14.455658000116728],[-150.61636400029829,14.45865439998073],[-150.60482799981227,14.461846399691751],[-150.59335300034061,14.465231900232141],[-150.58194000013083,14.46881099962809],[-150.57060199978238,14.472581900134742],[-150.55932599959513,14.476543400257867],[-150.54812600021467,14.480691900011323],[-150.53700299988844,14.485031100105346],[-150.52595500032291,14.489556299783544],[-150.51498399981165,14.494267499945295],[-150.5041049999457,14.499160800230868],[-150.49331699977964,14.504239100054576],[-150.48262000021276,14.509496700412512],[-150.47201500039188,14.514935499773628],[-150.46151700010938,14.520551700300871],[-150.45111099957288,14.526342399881969],[-150.44081100032733,14.532309499683777],[-150.43063399955935,14.538448299849279],[-150.4205630000823,14.544755900064899],[-150.41059900014366,14.551234199698683],[-150.40077200022753,14.557880400060526],[-150.39103700005742,14.564690599891435],[-150.38143899990985,14.571661899776984],[-150.37196400003847,14.578796399634257],[-150.36262500014357,14.586087199864494],[-150.35342400031729,14.593535400338567],[-150.3443449998218,14.601138099843581],[-150.33541900008669,14.608889600274949],[-150.32661399963629,14.616794599691161],[-150.31796299999237,14.624845499720152],[-150.30946400016339,14.633038499827023],[-150.30110200035693,14.64137650032535],[-150.29289200036544,14.649852800366602],[-150.2848360002811,14.658465399858471],[-150.27694699980412,14.667213400378273],[-150.2691960002951,14.676094100362604],[-150.26162700018583,14.68510150043403],[-150.25421099993761,14.694236800288252],[-150.2469640002883,14.703494999694612],[-150.2398680004078,14.712872499566345],[-150.2329560000193,14.722372100392249],[-150.22622699997598,14.731984100286127],[-150.21964999974762,14.741706800428631],[-150.21325699991053,14.751540199920441],[-150.20706200021107,14.761480300375695],[-150.20101900032651,14.771522499963567],[-150.19517499972636,14.781664800390388],[-150.18951400037074,14.791905400314135],[-150.18402099976925,14.802239400228302],[-150.17871100041225,14.81266399964403],[-150.17361500013206,14.823175399825004],[-150.16870100015095,14.833774599918002],[-150.16397099966181,14.844449999567985],[-150.1594390002096,14.855207400301424],[-150.15509000020327,14.866038299927766],[-150.15095500017304,14.876940700153341],[-150.14700299958866,14.887909900221871],[-150.14326499987976,14.898944900087201],[-150.13970899957059,14.91004180028898],[-150.13636800018298,14.921196900116968],[-150.13322399998754,14.932407399981685],[-150.13028000002191,14.943668400376509],[-150.12754799994016,14.954978000134759],[-150.12500000024974,14.966329600031145],[-150.12266499958997,14.977724100287162],[-150.12054399980568,14.989153899832729],[-150.11862200020505,15.00062080001004],[-150.11691299963513,15.012117400297939],[-150.11541699989453,15.023639699612602],[-150.11413600017619,15.035186800430608],[-150.11303699985757,15.046752900326226],[-150.11216700020682,15.058337199802054],[-150.11149599984043,15.069932899983485],[-150.11103800030338,15.081539199574536],[-150.11079399984314,15.09315300041078],[-149.5937960002851,15.106971699684323],[-149.59403999984605,15.127293599919824],[-149.59465000009735,15.147609700427495],[-149.59564199997823,15.167912499962029],[-149.59699999965019,15.188193300280716],[-149.59872400001251,15.208449399820097],[-149.60080000041961,15.228673899880732],[-149.60325600036404,15.24886039998762],[-149.60606400035326,15.269000999596585],[-149.60925299992593,15.289090200252701],[-149.61280800018898,15.309124900194149],[-149.61671399955137,15.329097699799149],[-149.62098699965023,15.348999999750333],[-149.6256260004395,15.368827799863197],[-149.63059999959023,15.388575599884177],[-149.63594100037679,15.408234599946979],[-149.64166299984748,15.427801100240742],[-149.64770499968591,15.447267499695499],[-149.65411400026082,15.466630899796314],[-149.66087299988894,15.485881800105119],[-149.66799900025359,15.505016300262184],[-149.67544600013272,15.524028800189114],[-149.68325799975679,15.542912500111925],[-149.69139099979472,15.561660799906122],[-149.69987499983128,15.580269800111353],[-149.708694000028,15.598732000381631],[-149.71784999957774,15.617043500357397],[-149.72734100018693,15.635198600135425],[-149.73715200026453,15.653190599766504],[-149.74729899964902,15.671015699614998],[-149.75775099960887,15.688663499920722],[-149.76855499961346,15.706136700448496],[-149.77964800035485,15.723422100050016],[-149.79107700040316,15.740521400242585],[-149.80279500028894,15.757423399970094],[-149.81483499973535,15.774125099993512],[-149.82716399991858,15.790620800409727],[-149.83979799977777,15.806907699830617],[-149.8527370002123,15.822979000280782],[-149.8659669996772,15.838829000058467],[-149.87947100008651,15.854455899620234],[-149.89324999968764,15.869850200326596],[-149.90733299981801,15.885010699784118],[-149.92167700029324,15.899933799805183],[-149.93629499991422,15.914609900126948],[-149.95118699958027,15.929038999850093],[-149.96632399975272,15.94321249965725],[-149.9817349999702,15.957133299862051],[-149.99739099979473,15.970787999666584],[-150.01329000003338,15.984178500237761],[-150.0294339998791,15.99730109996591],[-150.04582200018507,16.010147099709002],[-150.06243900025956,16.022716500366357],[-150.0792850001026,16.035001799793349],[-150.09635899966801,16.047002800139239],[-150.11363200031647,16.05871579979447],[-150.13113399983413,16.070133200387033],[-150.14883400038872,16.081256900385767],[-150.16673300022771,16.092079199795364],[-150.18483000020427,16.102596299879451],[-150.20312500031844,16.112808199738765],[-150.22160299987846,16.122711199562332],[-150.24025000003738,16.132299399797603],[-150.25907899959608,16.141573000094013],[-150.27807599970754,16.150529899635274],[-150.29722599968005,16.159160599782012],[-150.31654400020537,16.167472799630161],[-150.33599899985387,16.175455100272814],[-150.35562100000905,16.183107400086556],[-150.37535099974875,16.190429699970821],[-150.39523300020272,16.197420099658018],[-150.41523699998748,16.204070999876876],[-150.43533300041756,16.210386300087805],[-150.45556599997084,16.216362000106358],[-150.47590599996184,16.221994400121616],[-150.49635300039057,16.227283500133581],[-150.51687599982745,16.232229200317477],[-150.53750599970203,16.236825899695646],[-150.55819699969169,16.241073600066727],[-150.57897900028055,16.244974100074785],[-150.59982300013127,16.24852179964148],[-150.62072800009705,16.251720400376314],[-150.64169300013177,16.254566199770466],[-150.66270399958984,16.257057200429585],[-150.68374599957812,16.259193399655828],[-150.7048489996815,16.260974899971814],[-150.72596699957728,16.262399700386027],[-150.7471160000033,16.263469700266569],[-150.76824999973761,16.264183000245396],[-150.78942899974845,16.264539700147168]]]},"properties":{"objectid":3387,"radii":34,"stormid":"cp022026","basin":"cp","stormnum":2,"advnum":"6","validtime":"2026082218","synoptime":"2026082118","timezone":"UTC","tau":24,"ne":70,"se":40,"sw":20,"nw":70,"idp_source":"cp022026_2026082121_forecastradii","idp_filedate":1787346776000,"idp_ingestdate":1787346792000,"st_area(shape)":2.6569577879735817,"st_perimeter(shape)":7.0009706490895658,"binnumber":"CP3"}},{"type":"Feature","id":3388,"geometry":{"type":"Polygon","coordinates":[[[-150.79550200011712,15.599088700283403],[-150.80001799973081,15.100001300020097],[-150.28306599959612,15.103770300259271],[-150.28320299961865,15.112480200101288],[-150.28350800019396,15.121187199629674],[-150.28395099993861,15.129886599886788],[-150.28456100018991,15.138576499705835],[-150.2853240003023,15.147257800207456],[-150.28625500006811,15.155921900275644],[-150.28732299985649,15.164570800002537],[-150.28855900019761,15.173198699660418],[-150.28994800039982,15.181806600194591],[-150.29148900041696,15.190388700078586],[-150.29319800008756,15.198944099990342],[-150.29505899957309,15.207468000248127],[-150.29707299981899,15.215959499731241],[-150.29922500013356,15.224416699970845],[-150.30154400005549,15.232836699754046],[-150.30401599983844,15.241213800076935],[-150.30664100038177,15.249549900307784],[-150.30940200000222,15.257840199865484],[-150.31233200022155,15.26608280028114],[-150.31539899956408,15.274275800388011],[-150.31860399987463,15.282413500282928],[-150.32199099958487,15.290498699555485],[-150.3255000004246,15.298524899704489],[-150.32914700043364,15.306488999867611],[-150.33294700030373,15.314393000136988],[-150.33688400019636,15.322230300388185],[-150.34097299990393,15.329999899675784],[-150.34519999968015,15.337698900384112],[-150.34954799964038,15.34532639959383],[-150.35406500019951,15.352879499689323],[-150.35868800025094,15.360354400135577],[-150.36346400016339,15.367752100079485],[-150.3683780001445,15.375065799747006],[-150.37339799961791,15.382296599908273],[-150.37858599964409,15.389443399793208],[-150.38386500026945,15.39650060022268],[-150.38929699985658,15.403467200251214],[-150.39485199971992,15.410340299565291],[-150.40051299997489,15.41712090000965],[-150.40631100025237,15.423804299928634],[-150.41223099986067,15.430388500129311],[-150.4182589999528,15.436871499620167],[-150.42442300002136,15.443252599627897],[-150.43067899983589,15.44952960041087],[-150.43705699988055,15.455699000008963],[-150.44354200036295,15.461761499893441],[-150.45016500001466,15.467711400161136],[-150.45686300042703,15.473551799875793],[-150.46366900042395,15.479275699613993],[-150.47059599970555,15.484886200238066],[-150.47759999984004,15.4903765001755],[-150.48472600020466,15.495751400007236],[-150.49192799957743,15.50100419978412],[-150.49923700028725,15.50613309996271],[-150.50663799984375,15.511139900086448],[-150.5141140001609,15.516019799574224],[-150.52169800006257,15.520771999828071],[-150.52935799987171,15.525398300391373],[-150.53710900028005,15.529893899783815],[-150.54492199995025,15.534256900435764],[-150.55282600021965,15.538489299741514],[-150.56080600039652,15.542589200131602],[-150.56886299962764,15.546552700346979],[-150.57698099987317,15.550379800387589],[-150.58517500002614,15.554067599939913],[-150.59343000029421,15.557618099995466],[-150.60174599977799,15.561029400286714],[-150.61013800006856,15.564299599646972],[-150.61856099999008,15.567429500271373],[-150.62705999981904,15.570414500329093],[-150.63561999976309,15.573257400308933],[-150.64421100023739,15.575955399722034],[-150.65284700008891,15.578507399596958],[-150.661559999894,15.580913499758367],[-150.67028800039083,15.583172799984879],[-150.67904699961926,15.585287099819936],[-150.68786599981595,15.587250700259744],[-150.69671599964357,15.589065599597859],[-150.70558200020906,15.590730699762105],[-150.71449300015175,15.592248900166737],[-150.72341899988686,15.593612699566563],[-150.73239099994461,15.594828600059998],[-150.74136400004849,15.595891999816104],[-150.75035099989864,15.596805600398284],[-150.75936900027907,15.597565700197038],[-150.76838699976014,15.598174999876505],[-150.77740500014056,15.598630900395904],[-150.78645300010578,15.598936999942737],[-150.79550200011712,15.599088700283403]]]},"properties":{"objectid":3388,"radii":50,"stormid":"cp022026","basin":"cp","stormnum":2,"advnum":"6","validtime":"2026082218","synoptime":"2026082118","timezone":"UTC","tau":24,"ne":30,"se":0,"sw":0,"nw":0,"idp_source":"cp022026_2026082121_forecastradii","idp_filedate":1787346776000,"idp_ingestdate":1787346792000,"st_area(shape)":0.20063751948128405,"st_perimeter(shape)":1.8060599832342263,"binnumber":"CP3"}},{"type":"Feature","id":3389,"geometry":{"type":"Polygon","coordinates":[[[-152.88786299977752,17.030902900148874],[-152.91062900012818,16.864540100045701],[-152.93185399956235,16.864179599608974],[-152.95307899989584,16.863468199897625],[-152.97428900043693,16.862398100192308],[-152.99546800044777,16.860971500234712],[-153.0166319997669,16.859189999918726],[-153.03774999966268,16.857051799700912],[-153.05883799997363,16.854558899673634],[-153.07984900033102,16.851715100371734],[-153.10081500041187,16.848516499636901],[-153.12173500017005,16.844966899802728],[-153.14256300018224,16.84106639979467],[-153.16334499987175,16.836814899787953],[-153.18402100006901,16.832218200409784],[-153.20462000031267,16.827272400401114],[-153.22511300016475,16.821981400121672],[-153.24552900006321,16.816347099838936],[-153.26580799993917,16.810371399820383],[-153.28599500006911,16.804056200333491],[-153.30606100001506,16.79740139975496],[-153.32598899989236,16.790411000067763],[-153.34579500043884,16.783088700183498],[-153.36544800022494,16.775430699567266],[-153.38497899978094,16.767446499556456],[-153.40434299972958,16.759134299708307],[-153.42356899960956,16.750501600368693],[-153.44261200004368,16.741540900292478],[-153.46150199971743,16.732265499553307],[-153.48019400015289,16.722675300125161],[-153.4987339998741,16.712770499858834],[-153.51707500031094,16.702556599907325],[-153.53523300040257,16.692035700187546],[-153.5532070001029,16.681211499611152],[-153.57093800028841,16.670087799612418],[-153.58850099992114,16.658664700016004],[-153.60583499978532,16.64695170036083],[-153.62295499967342,16.634948699922688],[-153.63984699983908,16.622659699785459],[-153.65650900019011,16.610088299935228],[-153.67294299991943,16.597240399924658],[-153.68913300008779,16.584117900021226],[-153.70509300044154,16.570722599768317],[-153.72077899985089,16.557064100328091],[-153.73623700043714,16.543144200344727],[-153.75141899998678,16.528966900002558],[-153.7663569999755,16.514535900011936],[-153.78102099991912,16.499855000008381],[-153.79540999977158,16.484931899987316],[-153.809524999579,16.469768500216276],[-153.82334900035599,16.454370499698939],[-153.83689900018862,16.438743600137173],[-153.85015900013767,16.422891600267292],[-153.86312900020312,16.406816500181492],[-153.87580900038498,16.390527699593804],[-153.888168000153,16.374029199588051],[-153.90023800008356,16.357324600150321],[-153.91198699960026,16.340419799933954],[-153.92343100034032,16.323320399916668],[-153.93456999960571,16.306030299558813],[-153.94538900030204,16.288557099930358],[-153.95588699968519,16.270906400210322],[-153.96606399955385,16.253080400140504],[-153.9758910003693,16.235086400417174],[-153.98539699987157,16.216930400417766],[-153.99458299990545,16.198616000128425],[-154.00343299973306,16.180152899636767],[-154.01193199956205,16.16154100001728],[-154.02009600013022,16.142789799909451],[-154.02790799975429,16.12390330039716],[-154.03538500011757,16.10489079957091],[-154.04251099958287,16.085756300313165],[-154.04928599994886,16.066503499736882],[-154.05571000031617,16.047138200267852],[-154.06178299978552,16.027669899646298],[-154.06750500015556,16.008102400205757],[-154.0728759996276,15.988442400096801],[-154.07784999967765,15.968694699900595],[-154.08250400025932,15.948864899695479],[-154.08677700035821,15.928961800247009],[-154.09069800041232,15.90898989996407],[-154.09425399982214,15.888954199976467],[-154.09742699955629,15.86886309995225],[-154.10025000023725,15.848720600075751],[-154.10270700022781,15.828534099968863],[-154.10479700038118,15.808309599908227],[-154.10650600005178,15.788051600101426],[-154.10786399972372,15.767770799782738],[-154.10885599960463,15.747468000248148],[-154.10946699990205,15.727153800008011],[-154.10972600015469,15.706830000404352],[-153.2456209998092,15.696822199884764],[-153.2454989995791,15.691018100405131],[-153.24528499960297,15.685214000026235],[-153.24494900029603,15.67941570027449],[-153.24453700018233,15.673623100425857],[-153.24398800004607,15.667838099848552],[-153.24336199995625,15.66206359975547],[-153.24259899984389,15.656302499560866],[-153.24175999982404,15.650550799979555],[-153.24079899957408,15.644817399803287],[-153.23974599957813,15.639098199922103],[-153.2385860000438,15.633400000110043],[-153.23732000011782,15.627722699643016],[-153.23594699975416,15.622067500015248],[-153.23448199964449,15.616434099953892],[-153.23292499978882,15.610828399910872],[-153.23124699974915,15.605246500425778],[-153.22947699996351,15.599695200373333],[-153.22759999974011,15.594176300196239],[-153.22563199981687,15.588687899627018],[-153.22355700035519,15.583232899878567],[-153.22139000024822,15.57781599990858],[-153.21911599970355,15.572434400127577],[-153.2167510003583,15.567090999949812],[-153.21429400036774,15.561789500085524],[-153.21174599977797,15.556531899727531],[-153.20909099964985,15.551315300360955],[-153.20634499982179,15.546144499868888],[-153.20350600020166,15.541020400271407],[-153.20057700002846,15.535946800304714],[-153.19757099990164,15.530920000158005],[-153.19445800023644,15.525947600001871],[-153.19125399997205,15.521026599697962],[-153.18795799996164,15.516160000283946],[-153.18458600004379,15.511349700228607],[-153.18112200037993,15.50659749997476],[-153.17756700011688,15.501905399614657],[-153.17393499990024,15.497271499780027],[-153.17021199998374,15.492700600152716],[-153.16641200011364,15.488190699741153],[-153.16253700038217,15.483745599979613],[-153.15858499979782,15.479367300060972],[-153.1545560001592,15.475057600428045],[-153.15043599992137,15.470816600006231],[-153.1462399997761,15.466643299648695],[-153.14198300041505,15.462541599715166],[-153.1376340004087,15.458511400380985],[-153.1332240002873,15.454555500336198],[-153.12873800025841,15.450676000397266],[-153.12419100011448,15.446869900425725],[-153.11958299985548,15.44314190027859],[-153.11489899968899,15.439491300283407],[-153.11013799956893,15.435920700380166],[-153.10531600023313,15.4324303002183],[-153.10043299988297,15.42902090019453],[-153.09550500015555,15.425694500400994],[-153.09051500026698,15.422452000159808],[-153.08544899957158,15.419292400324139],[-153.08035300019071,15.41621879995779],[-153.07517999995696,15.413232799853972],[-153.06996200034595,15.41033270029402],[-153.06469700036618,15.407522200189533],[-153.05935699962575,15.404800400218448],[-153.05400099994611,15.402166400159388],[-153.04858400015141,15.399624800044649],[-153.04312100003403,15.39717290010941],[-153.03761299964015,15.394816400256786],[-153.03207399961531,15.392548599638303],[-153.02648900016715,15.390378999591292],[-153.02085900044244,15.388300900166541],[-153.01519800018747,15.386316299657665],[-153.0095060003016,15.38442989972026],[-153.00378399993156,15.382636999597992],[-152.99801600013822,15.380942300047252],[-152.99221799986071,15.379342999679807],[-152.98640399974471,15.377843899976142],[-152.98056000004388,15.37643999980628],[-152.97470099965133,15.375137300346296],[-152.96879599983544,15.373931900337084],[-152.96287500018104,15.372823699953926],[-152.9569549996734,15.37181759960265],[-152.95100400043418,15.370909699822903],[-152.94503799960393,15.37010290002894],[-152.93907199967296,15.36939810044214],[-152.93307500011107,15.36879160035221],[-152.92707799964987,15.368285200201967],[-152.92106600029558,15.367881800304986],[-152.91505400004198,15.36757760012631],[-152.90902699999597,15.367374400108645],[-152.90299999994997,15.367274300168958],[-152.89399700026127,15.03454779974129],[-152.88195799996166,15.03474899966676],[-152.86994900014616,15.03515429983122],[-152.85792499963895,15.035759899699769],[-152.84593199966199,15.03656770043915],[-152.83395400037674,15.037576700204681],[-152.82200599977699,15.038785899849529],[-152.81005900012266,15.040198300411362],[-152.79815699984559,15.041808100363653],[-152.78627000026023,15.043620100287512],[-152.7744140003058,15.045631399869364],[-152.76261899956708,15.047839200418878],[-152.75085400021186,15.050247199948444],[-152.73913600032608,15.052852599767789],[-152.7274629998175,15.055652600287431],[-152.71583599963159,15.058650000197474],[-152.70426900041394,15.061840999862397],[-152.69278000029669,15.065227500448941],[-152.68131999971814,15.068804699577356],[-152.66995199978487,15.07257460003791],[-152.6586300001743,15.076534299718276],[-152.64740000030969,15.080683699693111],[-152.63624600035254,15.085022899787134],[-152.62516800030289,15.089548100364652],[-152.61416600016071,15.094257400258925],[-152.60327099955691,15.099151599866559],[-152.592452999806,15.104229000368207],[-152.58171099996261,15.10948659982688],[-152.5710910003493,15.114923499819781],[-152.56054699974416,15.120537800079546],[-152.55012500026845,15.126328499660644],[-152.53981000033116,15.132296600407926],[-152.52958700013986,15.13843350030595],[-152.51948500013256,15.144742999889672],[-152.5095060004015,15.151219400155355],[-152.49963400020886,15.157863600424946],[-152.48988300020022,15.164671899988321],[-152.4802549995685,15.171645199966122],[-152.47076399985863,15.178775800363042],[-152.46139500037887,15.186066599693959],[-152.45216400006848,15.193515800214129],[-152.44305399994207,15.201115600304831],[-152.43409699967671,15.208868000058317],[-152.42527800037934,15.216772100152411],[-152.41659500015905,15.224822000135362],[-152.40806599984595,15.233014100020853],[-152.39968900024709,15.241351099573706],[-152.39144899977143,15.249827399614958],[-152.38337699984859,15.258438099738669],[-152.37545799978679,15.267186200083188],[-152.36769100043924,15.276064899975268],[-152.36010699963825,15.28507230004675],[-152.35266099980521,15.294207599900972],[-152.34538299962566,15.303464899985272],[-152.33828699974515,15.312844300124482],[-152.33135999956426,15.322338100323236],[-152.32459999989001,15.331950200041831],[-152.31800799986922,15.341673900230433],[-152.31160000023974,15.351506199851372],[-152.30535900021761,15.361444499863921],[-152.29931600033308,15.371486700351056],[-152.2934420001481,15.381628999878558],[-152.28775000026221,15.391869499977588],[-152.28225699966072,15.402201700348314],[-152.27694700030375,15.412626299764042],[-152.27183500018504,15.423137699945016],[-152.26687599992738,15.433734899945819],[-152.26214600033757,15.444410299595802],[-152.25761399998603,15.455166800107861],[-152.25325000018728,15.46599960000168],[-152.24910000036465,15.476900099959778],[-152.24513199994175,15.487869300028308],[-152.24137900044045,15.498903299847541],[-152.23780800033887,15.509999299827939],[-152.2344510002134,15.521154399655984],[-152.23129300027165,15.532362900327712],[-152.22834800025993,15.543623899823274],[-152.22560100038578,15.554931600213308],[-152.22305299979601,15.566285100377229],[-152.22071800003559,15.57767959973387],[-152.21858199955955,15.589110400224911],[-152.21665999995895,15.600576400180842],[-152.21495100028835,15.612071000376488],[-152.21342500006361,15.623595199958629],[-152.21212799960742,15.635142299877373],[-152.21104399998052,15.64670749955161],[-152.21015899963805,15.658291799926758],[-152.20950299996341,15.669887500108189],[-152.20902999973461,15.68149379969924],[-152.20878600017369,15.693104700221852],[-151.51745600029409,15.707270599858418],[-151.51771499964744,15.730498299557041],[-151.51841699964473,15.753716499716802],[-151.51951599996335,15.776918399664567],[-151.52104200018809,15.800098400221145],[-151.52299500031893,15.823248900316628],[-151.52535999966418,15.846365899766624],[-151.52813700002244,15.869436299945448],[-151.53135700012538,15.892458000036811],[-151.53497299960418,15.915422399824024],[-151.53901699993452,15.938322099685308],[-151.54347200033246,15.961152100289326],[-151.54833999999093,15.983900099809887],[-151.55361899971697,16.006567000267012],[-151.55931099960287,16.029138599566863],[-151.56541399955634,16.051610900223011],[-151.57194500036138,16.073980299551295],[-151.57885699985059,16.096235299719467],[-151.58618200039891,16.118370100100151],[-151.59391800011554,16.140378999891084],[-151.60205100015344,16.162254299996107],[-151.61056499977482,16.183988599894121],[-151.61949199955606,16.2055779003],[-151.62879899977395,16.227014500319058],[-151.63850400035923,16.248291000329516],[-151.64860500032043,16.269399599611972],[-151.65907300011878,16.290336600154092],[-151.66993700019233,16.311096200429461],[-151.68118299989544,16.331666899907646],[-151.69279500028895,16.352046999769357],[-151.70477299957417,16.372228600369738],[-151.71711700044912,16.392208099924005],[-151.72984300005433,16.411973999700479],[-151.74290499986577,16.431524299606906],[-151.75633200032146,16.450853299740118],[-151.77012599971502,16.469951600386196],[-151.78424100042176,16.488817199654193],[-151.79872099997408,16.507442500071477],[-151.81353799977879,16.525819799844044],[-151.8286899997436,16.543947199603735],[-151.84416200007615,16.561817199903999],[-151.85996999971564,16.579423900292909],[-151.87609899976894,16.596763600060228],[-151.89254800018998,16.613828699934686],[-151.909302000287,16.630615199731835],[-151.92636100006001,16.647117600097317],[-151.94372599955514,16.663330100403925],[-151.96136499999466,16.679248800292044],[-151.97932399990259,16.694869999950697],[-151.99755899994781,16.710184100016363],[-152.01606800003808,16.7251929998572],[-152.03485100017343,16.739887199934458],[-152.05389399970824,16.754262899713183],[-152.07321200023355,16.768318199825217],[-152.09278900011219,16.782045400275138],[-152.11260999955175,16.795440699628728],[-152.13265999965918,16.808502200316411],[-152.15295400022686,16.821224199737173],[-152.17349200035545,16.833604800321439],[-152.19424399956085,16.84563640009992],[-152.21524000012582,16.857318900147277],[-152.23642000018279,16.868646599660963],[-152.25781200012364,16.87961769999697],[-152.27940400029431,16.890224500260615],[-152.30117799986471,16.900468799995281],[-152.32316600031058,16.910345099846609],[-152.34530599967206,16.919851299897687],[-152.36764500011657,16.928983700337653],[-152.39012099968431,16.93774030017488],[-152.41278099964333,16.94611739959845],[-152.43557699957879,16.954111100047385],[-152.45851099958287,16.961723299990467],[-152.48159800034736,16.968946499981143],[-152.50480700044264,16.97578239973808],[-152.52813699982261,16.982227300349791],[-152.55157499968641,16.988279299750047],[-152.57514999957274,16.993934600101852],[-152.59878500042734,16.9991950998741],[-152.62254299975956,17.004055000238225],[-152.64637799994466,17.008518199755258],[-152.67030299978353,17.012579000320727],[-152.69428999978359,17.016235400043797],[-152.71833799989869,17.019491200358743],[-152.74244700012886,17.02234080028785],[-152.76658599994386,17.024786000273821],[-152.79080199971244,17.026822999781757],[-152.81503300017275,17.028453799803174],[-152.83929400021785,17.029678299613977],[-152.8635710001015,17.030494699670783],[-152.88786299977752,17.030902900148874]]]},"properties":{"objectid":3389,"radii":34,"stormid":"cp022026","basin":"cp","stormnum":2,"advnum":"6","validtime":"2026082306","synoptime":"2026082118","timezone":"UTC","tau":36,"ne":80,"se":40,"sw":20,"nw":70,"idp_source":"cp022026_2026082121_forecastradii","idp_filedate":1787346776000,"idp_ingestdate":1787346792000,"st_area(shape)":3.0039470933662193,"st_perimeter(shape)":7.5974308422378058,"binnumber":"CP3"}},{"type":"Feature","id":3390,"geometry":{"type":"Polygon","coordinates":[[[-152.89546200037094,16.199085199822264],[-152.89999399982315,15.699999799651152],[-152.38156099974026,15.703744900406946],[-152.38169899980892,15.712452899981486],[-152.38198899969251,15.721159900409191],[-152.38243100029035,15.729861299859238],[-152.38305700038018,15.73855109985351],[-152.38381999959321,15.747230500087653],[-152.38475000021225,15.755894699980558],[-152.38581800000063,15.764545400150212],[-152.38707000018027,15.773173299808093],[-152.38845800033636,15.781779300074788],[-152.3899990003535,15.790363300226261],[-152.3917080000241,15.798918700138017],[-152.39356999955575,15.807440799953099],[-152.39558399980166,15.815936099971168],[-152.39776599970105,15.824391399943295],[-152.40008499962295,15.832809399634243],[-152.40255700030525,15.84118840022461],[-152.40518199994926,15.849526399823617],[-152.40795900030753,15.857816700280637],[-152.41088899962756,15.866059299796973],[-152.41397099966181,15.874252299903844],[-152.41719099976476,15.882391900066295],[-152.4205629996826,15.890475299795412],[-152.42408800036085,15.898502300341022],[-152.42775000016229,15.906466500328861],[-152.43156399977869,15.914370499698919],[-152.43551600036304,15.92220879999627],[-152.43960600011673,15.929977400137034],[-152.44383199984682,15.93767739999214],[-152.44822700017585,15.945304900101178],[-152.45272799999711,15.952857000150573],[-152.45738199967946,15.96033480001114],[-152.46217300028366,15.96773149990895],[-152.46708700026477,15.975048099890046],[-152.47213700022229,15.982277900005215],[-152.47732500024847,15.989424699890151],[-152.48263499960547,15.996481900319566],[-152.48806800013801,16.003448500348156],[-152.49363699974765,16.010322599708331],[-152.49932899963355,16.01710320015269],[-152.50512699991103,16.023786500246899],[-152.51107800004959,16.030370700447634],[-152.517119999888,16.036855700030685],[-152.52328500000266,16.043237700259795],[-152.52957200034746,16.049514799968165],[-152.53597999997695,16.055684999962921],[-152.54248000025171,16.061746599626019],[-152.54910299990345,16.067697499939811],[-152.55583199994675,16.073537799829751],[-152.56265299973606,16.079263699660146],[-152.56959499970938,16.084873200238121],[-152.57663000037414,16.090364500221654],[-152.58377099963184,16.09573940005339],[-152.59100300038807,16.100990299562795],[-152.5983280000371,16.10612110000892],[-152.60575900007771,16.111127900132601],[-152.61325100023339,16.116010699934009],[-152.62084999992746,16.120763800409179],[-152.62854000022074,16.125389100027064],[-152.63630699956829,16.129884700318826],[-152.64414999972263,16.13425060038503],[-152.65208399957683,16.138482999690837],[-152.66007999959223,16.14258190003477],[-152.66815200041441,16.14654349998267],[-152.67630000024474,16.150371600069434],[-152.68452500002866,16.154058500299698],[-152.69279500008909,16.157611799944732],[-152.70114100005702,16.161024100282134],[-152.70954900018612,16.164295199863716],[-152.71801800043031,16.167425200312891],[-152.72654699984409,16.170408200278359],[-152.73510699978812,16.173252100304296],[-152.74372899989334,16.175950999938834],[-152.7523960002751,16.178504900081236],[-152.76110800003408,16.180908199753731],[-152.76988199995426,16.183170299569781],[-152.77868700040466,16.185281799815357],[-152.78752100039378,16.187246299577225],[-152.79638700005992,16.18906210003604],[-152.80529800000261,16.190727200200286],[-152.81422399973772,16.192243600162158],[-152.82318100000307,16.193609200004687],[-152.83216899989935,16.194826099644899],[-152.84117100044122,16.195888500254227],[-152.85018899992232,16.196802099937088],[-152.85922200009514,16.197565100049474],[-152.86827100010649,16.198171600139347],[-152.87731900007171,16.198629400026903],[-152.88639799966788,16.198934600251732],[-152.89546200037094,16.199085199822264]]]},"properties":{"objectid":3390,"radii":50,"stormid":"cp022026","basin":"cp","stormnum":2,"advnum":"6","validtime":"2026082306","synoptime":"2026082118","timezone":"UTC","tau":36,"ne":30,"se":0,"sw":0,"nw":0,"idp_source":"cp022026_2026082121_forecastradii","idp_filedate":1787346776000,"idp_ingestdate":1787346792000,"st_area(shape)":0.20122160546192128,"st_perimeter(shape)":1.8087287147325768,"binnumber":"CP3"}},{"type":"Feature","id":3391,"geometry":{"type":"Polygon","coordinates":[[[-155.38935899991782,17.264539699947306],[-155.4106450003664,17.264539699947306],[-155.43193099991564,17.264185000137786],[-155.45320099962635,17.263471600334242],[-155.47445699959079,17.262399700186165],[-155.49568199992427,17.260973000403794],[-155.51687599972752,17.259189599820331],[-155.53805499973836,17.257053399694769],[-155.55917399968027,17.254560499667491],[-155.5802310003603,17.251716599641497],[-155.60125699961077,17.248517999805983],[-155.62222299969159,17.244966499704333],[-155.64309700002644,17.241064100328117],[-155.66391000024623,17.236814499689558],[-155.68463099982071,17.232215900043911],[-155.70527600038702,17.227268199767764],[-155.72581499966242,17.221977200387641],[-155.74626200009115,17.216342900104905],[-155.76658600024365,17.210365299818875],[-155.78681899979694,17.204048200064506],[-155.80691500022701,17.19739150011776],[-155.82690400021934,17.190401100430563],[-155.84674100039678,17.183076900278877],[-155.86645500029795,17.175420799930123],[-155.88601700038419,17.167434699651778],[-155.90542599971005,17.159120600435529],[-155.92466700028174,17.150484099661583],[-155.94377099993162,17.141525299852844],[-155.9626920001356,17.132249800188276],[-155.98144499978682,17.12265780031737],[-156.00001499999217,17.112750999958848],[-156.01840199985233,17.102535199739805],[-156.03659099957488,17.092014300020082],[-156.05458100001306,17.08118820007553],[-156.07238800010603,17.070062599809262],[-156.08996600043051,17.058637599945428],[-156.10732999987951,17.046924600290197],[-156.12448100029783,17.034919699584634],[-156.14140300004834,17.02262880007919],[-156.15811199986882,17.010057400228959],[-156.17457600008225,16.997205699683434],[-156.19079599983544,16.984081300411844],[-156.20678699982011,16.970687900426412],[-156.22251899955211,16.957027399994672],[-156.23800699972318,16.943101899932856],[-156.25321999980306,16.928924599590744],[-156.26817299958418,16.914489700139711],[-156.28286700001195,16.899810800228408],[-156.29728700039468,16.884885799939866],[-156.31141699999446,16.869720499901291],[-156.32528700019483,16.854320500191079],[-156.33885199981987,16.838691700361835],[-156.35214200025302,16.82283780022442],[-156.3651429999494,16.806760799871142],[-156.37782300013126,16.790472000182774],[-156.39022800022195,16.773973500177021],[-156.40231299994491,16.757266999572494],[-156.41409299999188,16.740362200255504],[-156.42556800036286,16.723260899970683],[-156.43672200031997,16.705970799612828],[-156.44755599990938,16.688493699624701],[-156.45806899998428,16.670841200361224],[-156.46826199969146,16.653013200199155],[-156.47810400029928,16.635017400033121],[-156.48764000028569,16.616859399941518],[-156.49684100011197,16.598546999744372],[-156.50570699977814,16.580079999792304],[-156.51420599960713,16.561468100172817],[-156.5223999997601,16.542716999889763],[-156.53022800012204,16.523828500285219],[-156.53770400043919,16.504816100183007],[-156.54484599974302,16.485679599933746],[-156.55163599990141,16.466424899989306],[-156.55807500006111,16.447059599620957],[-156.56414800042978,16.427589399631245],[-156.5698849996929,16.408021900190704],[-156.57524100027186,16.38835909959289],[-156.58024599995287,16.368610400249906],[-156.58488499984279,16.348783500358365],[-156.58918800042579,16.328878399918381],[-156.59309399978818,16.308904600267226],[-156.59664900005123,16.288869900325778],[-156.59985400036174,16.268777800255407],[-156.60266100030483,16.248636199700968],[-156.60511800029539,16.228446999829316],[-156.60720800044879,16.208223300165287],[-156.60893199991179,16.187965400183202],[-156.61029099962985,16.167684599864515],[-156.61126699967221,16.147380800283827],[-156.61187699992354,16.12706569982231],[-156.6121370002223,16.106744799632963],[-155.40000900001525,16.100002299866389],[-155.39398199996924,15.434549299910429],[-155.38192699983111,15.434751499881941],[-155.36988800043079,15.435155899825077],[-155.35786399992358,15.435761499693569],[-155.34584000031569,15.436569199708913],[-155.33383199964697,15.437579200419918],[-155.32185400036175,15.438789400110863],[-155.30989099996958,15.440197900312967],[-155.29795800006158,15.44180970035751],[-155.28604099999208,15.443621599557332],[-155.27418500003765,15.445631999817067],[-155.26235999971414,15.447840699688697],[-155.25056499987477,15.450246799850049],[-155.23883100015044,15.45285130034739],[-155.22712700001097,15.455651299967656],[-155.21548500003266,15.458649600099079],[-155.20390300012326,15.461839700441942],[-155.19238300037509,15.465225200083069],[-155.18090800000411,15.468803400156958],[-155.16950999958672,15.472573299718135],[-155.15818799997615,15.476532899573783],[-155.1469269995813,15.480682400272713],[-155.13574199999323,15.485019700099201],[-155.12464900015115,15.489544899777457],[-155.11363200021657,15.494254099846955],[-155.10269200023555,15.499147400132529],[-155.09185799974682,15.504224799734857],[-155.0811159999034,15.50948240009285],[-155.07046499975985,15.514918300039653],[-155.05990600026163,15.520533600345516],[-155.04946900009421,15.526325200147994],[-155.03912399967277,15.532287600092786],[-155.02886999985054,15.538426400258288],[-155.01875300005082,15.544735899842067],[-155.00875899962804,15.551212300107693],[-154.99887099959687,15.55785469993458],[-154.98910499979581,15.564662899673237],[-154.97944600043249,15.571635199604941],[-154.96992500023848,15.578767800094056],[-154.96054100006702,15.586056700056815],[-154.95129399991808,15.593504899631569],[-154.94218399979167,15.601105699768368],[-154.93319699994152,15.608858100421116],[-154.9243619999063,15.61676030024779],[-154.91567999973213,15.624808299963206],[-154.90711999978808,15.633001300070077],[-154.8987270003507,15.641337400300927],[-154.89047200008267,15.649813700342122],[-154.88238500036738,15.658424399566513],[-154.87445099961386,15.667170499818837],[-154.86666899957459,15.676048300388914],[-154.85905500008809,15.685057599828497],[-154.85160800020896,15.694191000314561],[-154.844315000237,15.703447300352764],[-154.83718899987235,15.712825800270593],[-154.83026099964533,15.722321499837506],[-154.82348600017869,15.731930700141845],[-154.8168790003655,15.741653400284349],[-154.81045499999817,15.751487699997483],[-154.80419900018364,15.761426000010033],[-154.79814099960737,15.77146630022969],[-154.79226700032171,15.781608599757192],[-154.78657500043585,15.791847199588744],[-154.78105200024953,15.802181200402231],[-154.77574199999322,15.812604000274519],[-154.77059900024358,15.823116299777553],[-154.76565599982445,15.833711600410197],[-154.76089499970439,15.844389000152376],[-154.75633199972194,15.855144499719017],[-154.75198399976171,15.865975400244679],[-154.74781800010055,15.876874900156679],[-154.74385099972378,15.887844100225209],[-154.74008200038392,15.89888000031192],[-154.73651100028235,15.909975100070938],[-154.7331390003645,15.921129199852828],[-154.72998000037663,15.93233780034933],[-154.72701999967316,15.943598700020118],[-154.72425800000661,15.954906500234927],[-154.72172500010859,15.966260000398847],[-154.71937599970255,15.977654499755488],[-154.7172390000797,15.989083300154334],[-154.71530199978739,16.000549300110265],[-154.71357700027826,16.012044900352009],[-154.71208199968444,16.02356909993415],[-154.71077000033517,16.035114299585416],[-154.70967100001656,16.046682399573228],[-154.70880100036578,16.058263799634801],[-154.70811500020702,16.069862400129807],[-154.70767199956305,16.081466699628606],[-154.7074130002097,16.093078600197373],[-154.18788099980821,16.106750500435396],[-154.18812600031458,16.12707139972548],[-154.18873599966656,16.147386600011714],[-154.18971299975505,16.16768840039947],[-154.19107100032633,16.187971100086315],[-154.19279499978933,16.208227199625696],[-154.1948849999427,16.228452699732429],[-154.19734199993326,16.248640100060697],[-154.20014999992247,16.268783599983294],[-154.20335400018686,16.288875600228891],[-154.20690899955062,16.308910399995113],[-154.21083099965082,16.328884099821494],[-154.21511800039531,16.348787299994058],[-154.21975700028526,16.368616100153019],[-154.22476199996623,16.388366699763537],[-154.23013300033762,16.408025699826339],[-154.23585499980831,16.427595100433678],[-154.24192800017698,16.447065400248164],[-154.24836700033671,16.466430699717137],[-154.25515699959578,16.485683399569382],[-154.26229899979893,16.504819899818642],[-154.26977500011608,16.523834200188332],[-154.27760299957868,16.542720800424718],[-154.28579699973167,16.561471899808453],[-154.2943120002985,16.580081900059781],[-154.30316200012612,16.598550800279327],[-154.3123629999524,16.616865199669348],[-154.32189899993881,16.635023099936234],[-154.33175700038518,16.65301699983479],[-154.34193400025381,16.670844999996916],[-154.35246300016723,16.688499500251851],[-154.36328099991812,16.705972699880363],[-154.37445099971379,16.723264699606318],[-154.38591000024624,16.740364099623662],[-154.39770500008561,16.757270800107506],[-154.40978999980857,16.773977299812657],[-154.42218000010683,16.790475799818466],[-154.43487500008112,16.806766499774312],[-154.44786099998507,16.822841599860112],[-154.46115100041825,16.838695499997471],[-154.47473099983569,16.854324299826715],[-154.48858600024363,16.869724300436246],[-154.50271599984345,16.884889599575502],[-154.51715100001854,16.899814599864044],[-154.53182999975459,16.914493599600064],[-154.54678300043503,16.928928400125699],[-154.56201200035346,16.943109500103503],[-154.57748399978666,16.957031199630308],[-154.59321600041801,16.970691700062048],[-154.60920700040268,16.98408510004748],[-154.62542700015584,16.997209500218389],[-154.6418910003693,17.010061299689369],[-154.65860000018978,17.022630700346667],[-154.67552199994026,17.034921599852112],[-154.69268800015101,17.046928399925832],[-154.71005199960001,17.058641399581063],[-154.72763099997059,17.070064500076739],[-154.74542200022506,17.081190100343008],[-154.76342799960241,17.09201620028756],[-154.78161600017819,17.102537199832057],[-154.80000300003834,17.112754799594484],[-154.81857300024367,17.122659699685528],[-154.83731100010249,17.132251699556434],[-154.85623200030648,17.1415291003878],[-154.87533599995635,17.150487900196595],[-154.89457699962875,17.159124400071164],[-154.91398599985394,17.167436599919313],[-154.93354799994017,17.175422700197601],[-154.95326199984135,17.183078799647035],[-154.97311399981115,17.190402999798721],[-154.99308800001111,17.197393400385238],[-155.01319900023358,17.204051999700141],[-155.03341699999447,17.210365299818875],[-155.05375699998547,17.216344800372383],[-155.07418799967635,17.221979099755799],[-155.09472699985108,17.227270100035241],[-155.11537200041741,17.232215900043911],[-155.13610799978429,17.236816399957036],[-155.15692100000408,17.241064100328117],[-155.1777950003389,17.244966499704333],[-155.19876100041975,17.248517999805983],[-155.21977199987782,17.251716599641497],[-155.24084500039638,17.254562399934969],[-155.26196300029216,17.257053399694769],[-155.28312699961126,17.259191500087809],[-155.30432100031382,17.260973000403794],[-155.32554599974802,17.262399700186165],[-155.34680199971243,17.263471600334242],[-155.36807300036858,17.264185000137786],[-155.38935899991782,17.264539699947306]]]},"properties":{"objectid":3391,"radii":34,"stormid":"cp022026","basin":"cp","stormnum":2,"advnum":"6","validtime":"2026082318","synoptime":"2026082118","timezone":"UTC","tau":48,"ne":70,"se":40,"sw":0,"nw":70,"idp_source":"cp022026_2026082121_forecastradii","idp_filedate":1787346776000,"idp_ingestdate":1787346792000,"st_area(shape)":2.5757665278053739,"st_perimeter(shape)":7.1733276665975456,"binnumber":"CP3"}},{"type":"Feature","id":3392,"geometry":{"type":"Polygon","coordinates":[[[-157.99089099971977,17.398176199572106],[-158.00761400018587,17.231815299736411],[-158.02281199957403,17.231561699912675],[-158.03799400002299,17.231050500080642],[-158.05317699961876,17.23028759979303],[-158.06834400027532,17.229270900032134],[-158.08349600024013,17.228000600447501],[-158.09860199988231,17.226474799872278],[-158.11369299973208,17.224697100091248],[-158.12873800015851,17.22266960012206],[-158.14375300010079,17.220388399605099],[-158.15872199972043,17.2178573997993],[-158.17363000012432,17.215074499888374],[-158.18849200020557,17.212043799881599],[-158.20330799996415,17.208763100037174],[-158.21804799981527,17.205236399640285],[-158.23271199975889,17.201463699590192],[-158.2473140004407,17.19744299979476],[-158.26185600015421,17.193182000249237],[-158.27629100032931,17.18867679969469],[-158.29064899965152,17.183929400021952],[-158.30493200001172,17.178945500234761],[-158.31910699988805,17.173719400430116],[-158.33319100006452,17.168258699879232],[-158.34716799980328,17.162563299656711],[-158.36102300021122,17.156637199946942],[-158.37478599997385,17.150474500298117],[-158.38842799955245,17.14408489989836],[-158.40196200044588,17.137470200089808],[-158.41535900041745,17.130628600429702],[-158.4286190003665,17.123561899562162],[-158.4417570000854,17.11627580008826],[-158.4547729995742,17.108770400034075],[-158.46763600010124,17.101049400109844],[-158.48034699991405,17.093112900140341],[-158.49291999965817,17.084964799585975],[-158.50534099958739,17.076608700231475],[-158.51760899965552,17.068044700102973],[-158.52970900007023,17.059276599735426],[-158.54164099993213,17.050308199663846],[-158.5534209999791,17.04114149998037],[-158.56501799968086,17.031776399961018],[-158.57644699972917,17.022220599601155],[-158.58770800012402,17.012476000067466],[-158.59877000033518,17.002544400004183],[-158.60967999983205,16.992425900135345],[-158.62037700029825,16.98213009982436],[-158.6308749996814,16.97165490005375],[-158.64118999961872,16.961006200376005],[-158.6513060002716,16.950187699702724],[-158.6612239998876,16.939197499565068],[-158.67095900005774,16.928045300050712],[-158.68046599960613,16.916730899711411],[-158.68975800003159,16.905262000341168],[-158.6988530003656,16.893638600141401],[-158.70773299977805,16.88186070001143],[-158.71636999967566,16.869939799582198],[-158.7248230000813,16.857875799928365],[-158.7330320000267,16.845670700242749],[-158.74101300024969,16.83333020042852],[-158.74879500028896,16.820858000296596],[-158.75631700002944,16.808258100031424],[-158.76362599983995,16.795535999886624],[-158.7706910000895,16.782690000143532],[-158.77752699967121,16.769729600340895],[-158.784118999692,16.756656600022211],[-158.79046600010574,16.743475000271189],[-158.79657000010533,16.730188400174654],[-158.80244400029031,16.71680260035987],[-158.80806000026871,16.703319500194937],[-158.81344600043249,16.689744900307062],[-158.8185730003436,16.676082600331881],[-158.82344100000208,16.662336300080312],[-158.82806400005347,16.648511900004337],[-158.83242799985223,16.634611099822564],[-158.83656299988246,16.620637899719441],[-158.8404080000291,16.606599800040897],[-158.84402499955399,16.592500700247285],[-158.84736599984095,16.578340499614512],[-158.85044899992133,16.564126999761356],[-158.85328700039466,16.549865700042176],[-158.85584999987751,16.535556800106406],[-158.858154000007,16.52120969966802],[-158.86019899988386,16.506822600083069],[-158.86198400036125,16.49240879962656],[-158.86349499989424,16.477962500369244],[-158.86476099982019,16.463495299968258],[-158.86573799990867,16.449008899940907],[-158.86647000039014,16.434509299664569],[-158.86692799992719,16.419996300389073],[-158.86712600006476,16.405481300122062],[-158.00001499959248,16.40000149976953],[-156.95945700004043,16.406150800419255],[-156.95968599980895,16.42357250037071],[-156.96022000015282,16.440984699884154],[-156.96108999980356,16.458387399858736],[-156.96226500002965,16.475771000031784],[-156.96374499993172,16.493133500310933],[-156.96554600024763,16.510467500175139],[-156.96768199982435,16.527771000431471],[-156.97010800018398,16.545034399917768],[-156.97286999985053,16.562253999722429],[-156.97593700009239,16.579425799661067],[-156.97930900001026,16.596542400111787],[-156.98300200034197,16.613601700258414],[-156.98700000034967,16.630594300386804],[-156.99131799982575,16.647520099772919],[-156.99592600008475,16.664369599777331],[-157.00085399981216,16.681140900132561],[-157.00608800016099,16.697824500400486],[-157.01162700018583,16.71441839958959],[-157.01745600009426,16.730918899687595],[-157.02358999967865,16.747316400431657],[-157.0300449996769,16.763612699566579],[-157.03677399972022,16.779796599633528],[-157.04379299964714,16.795864100448],[-157.05111700014936,16.81181339976871],[-157.05874600032757,16.827636699574157],[-157.06663499990523,16.843330399878198],[-157.07482900005823,16.858886699961374],[-157.08329800030239,16.874307599915937],[-157.09205600038402,16.889581699935661],[-157.10108899965752,16.904708900195715],[-157.11039699992153,16.919681499801527],[-157.11998000027671,16.93449589966616],[-157.12983699977764,16.949148200329319],[-157.13995399957733,16.963634499632576],[-157.15032999962969,16.977947200103358],[-157.16097999972712,16.992082600132051],[-157.17187500033091,17.006038699626401],[-157.18304400008046,17.019811600025434],[-157.19444299964465,17.033395800176152],[-157.20610000031468,17.046785399626629],[-157.21800199969246,17.05997849990797],[-157.23013299973806,17.072969400217801],[-157.24252300003633,17.085756300113303],[-157.25512700031072,17.098333399866647],[-157.26796000035364,17.110698700284956],[-157.28103599991138,17.122844700122926],[-157.29432700039067,17.13477129955595],[-157.30783099990063,17.146474799672433],[-157.32154800023994,17.157949399845052],[-157.33547999970213,17.16919140026306],[-157.34959400036274,17.180198700110054],[-157.36393699989256,17.190969499842709],[-157.37846399981365,17.201497999733022],[-157.39318799982624,17.211782500062441],[-157.40809600023016,17.221818899922425],[-157.42318700007991,17.231603600226094],[-157.43846100027486,17.241130800346298],[-157.45390300012329,17.250404399743388],[-157.46951299962515,17.259416600395923],[-157.48529099967982,17.268167500330037],[-157.50122100044874,17.276653299909981],[-157.51730300013327,17.284870099675516],[-157.53353899972498,17.292814299640384],[-157.54992700003095,17.300491300233432],[-157.56645200035945,17.307888000131243],[-157.58309900001876,17.315008199868657],[-157.59988399974671,17.321845999893128],[-157.61679099970479,17.328403500121567],[-157.63381999989301,17.334678599737742],[-157.65095499957349,17.340667699654773],[-157.66819799973783,17.346366900412249],[-157.68554700029375,17.351776100386871],[-157.70298799969635,17.356895400302619],[-157.72053500038987,17.361722899892072],[-157.73815900013767,17.366254800418858],[-157.75585899979293,17.370491000259619],[-157.77365100009351,17.374431600138394],[-157.7914889998174,17.378070800327293],[-157.80940200030199,17.381412500286785],[-157.82739299988697,17.384454699924618],[-157.84539800011754,17.387193700329135],[-157.8634950000941,17.389629399877037],[-157.88160699986307,17.3917656000026],[-157.8997649999547,17.393596599903276],[-157.91793799983873,17.395122500303273],[-157.93614200025303,17.396341300210963],[-157.95439100004452,17.397260699621711],[-157.97264099988215,17.397871000246596],[-157.99089099971977,17.398176199572106]]]},"properties":{"objectid":3392,"radii":34,"stormid":"cp022026","basin":"cp","stormnum":2,"advnum":"6","validtime":"2026082406","synoptime":"2026082118","timezone":"UTC","tau":60,"ne":60,"se":0,"sw":0,"nw":50,"idp_source":"cp022026_2026082121_forecastradii","idp_filedate":1787346776000,"idp_ingestdate":1787346792000,"st_area(shape)":1.37795350259677,"st_perimeter(shape)":4.983956560326936,"binnumber":"CP3"}},{"type":"Feature","id":3393,"geometry":{"type":"Polygon","coordinates":[[[-160.59086599966608,17.798175800373031],[-160.60765100029334,17.631813000269858],[-160.62287900016565,17.631559400446122],[-160.63809200024554,17.631050099982247],[-160.65330500032542,17.630287199694635],[-160.66850299971358,17.629268599666261],[-160.68367000037014,17.627998399906346],[-160.69882200033496,17.626474399773883],[-160.71394299976956,17.624696699992853],[-160.7290339996193,17.62266540038803],[-160.74406400025333,17.620386100138546],[-160.75906400040321,17.617853200065269],[-160.77403300002285,17.615072300246595],[-160.7889099998965,17.612039600147568],[-160.80375700018533,17.608757000035666],[-160.81852699962127,17.605232199906254],[-160.83323699988756,17.601457599588684],[-160.84787000020026,17.597438800060729],[-160.86244200039792,17.593173999980252],[-160.87690700015784,17.588670699693182],[-160.8912960000103,17.583923300020444],[-160.90560899995529,17.578939400233253],[-160.91981500036189,17.573713300428608],[-160.93392900012319,17.568250699610246],[-160.94792199970044,17.562555300287045],[-160.96182300043105,17.556625400042321],[-160.97561599977848,17.550464599761597],[-160.98928799984125,17.544075000261216],[-161.00283799967386,17.537458400185187],[-161.01626600017568,17.530616799625761],[-161.02957200044739,17.523549999832767],[-161.04273999975112,17.516264000183583],[-161.05575600013921,17.508756600037202],[-161.06864900025107,17.501033799670267],[-161.08140600038652,17.493097299700764],[-161.09399399992307,17.484949100220945],[-161.10644500033641,17.476591099699647],[-161.11872900024309,17.468027099571145],[-161.13085900024259,17.459259000102918],[-161.14283799957394,17.450288799588577],[-161.15463300031263,17.441120099812906],[-161.16625999959922,17.431756999885749],[-161.17771900013167,17.422201200425206],[-161.18899500031893,17.412452699632524],[-161.2000890002071,17.402519200201084],[-161.210998999704,17.392402599700347],[-161.2217249997089,17.382104900021261],[-161.23225399962232,17.371627799983116],[-161.24259900004373,17.360979100305372],[-161.25273099963584,17.350158700263933],[-161.26267999978208,17.339170500218529],[-161.27240000015979,17.328016299712601],[-161.28193700019233,17.316703799640777],[-161.29124499955699,17.305231099735579],[-161.30036900032903,17.293605800167711],[-161.30924999978757,17.281829800305161],[-161.31793199996176,17.269908899875986],[-161.3263850003674,17.257841099687141],[-161.33461000015132,17.245637900269003],[-161.34262099995911,17.233295400362579],[-161.35040299999838,17.220823300055372],[-161.35795600026913,17.208223299965482],[-161.3652650000796,17.195497500009765],[-161.37234500012158,17.18265339963483],[-161.37919600039501,17.169691099564716],[-161.3857880004158,17.156618100145351],[-161.39216599956114,17.143434500302078],[-161.39828500025249,17.130147900205543],[-161.40417500027596,17.11676409958369],[-161.40979000020826,17.103279100050543],[-161.41517600037204,17.089704500162668],[-161.42031900012168,17.076042200187544],[-161.42520100042574,17.062293999668498],[-161.42984000031569,17.04846760039959],[-161.43420400011445,17.034568800310012],[-161.43833900014465,17.020595600206946],[-161.44220000012982,17.006555600260867],[-161.44580099981621,16.992456399743219],[-161.44915799994166,16.978296299834483],[-161.45225499976834,16.964080799889132],[-161.45507800044928,16.949819599994669],[-161.45764199997825,16.935512499602339],[-161.45996099990015,16.921161700252412],[-161.46200599977698,16.906778299579003],[-161.46379100025439,16.892360700386178],[-161.46531699957978,16.8779162995977],[-161.46656799971333,16.863449100096034],[-161.46755999959422,16.848960899625979],[-161.46829200007565,16.834459300156709],[-161.46874999961273,16.819948200249371],[-161.4689479997503,16.805433299807078],[-160.60002100006901,16.799999200302977],[-159.55731200024854,16.806085599670837],[-159.55752600022464,16.823507299622293],[-159.55805999966918,16.840919500035056],[-159.55891400038072,16.858320199917443],[-159.56008899970749,16.875705700357912],[-159.56158400030128,16.893068299562515],[-159.56340000040962,16.910402300326041],[-159.56552100019391,16.927703900314896],[-159.56796300039207,16.94496920006867],[-159.57070900022009,16.962188700048614],[-159.5737920003005,16.979360599811969],[-159.57717900001077,16.996478999806129],[-159.58085599960461,17.013536500409316],[-159.58486900030405,17.030532800348624],[-159.58918799982624,17.047456700366581],[-159.59381099987766,17.064308199563925],[-159.59873999965117,17.081077599651621],[-159.60398899979242,17.097764999555238],[-159.60952799981726,17.11436079991114],[-159.61538700020981,17.130859399741666],[-159.62152099979423,17.147258799853887],[-159.62797499974636,17.163553199620594],[-159.6347199996282,17.179737099687543],[-159.64176900003923,17.195808400137707],[-159.64910900037998,17.211757700357737],[-159.65672299986647,17.227581000163184],[-159.6646579997668,17.243274699567849],[-159.67285199991977,17.258836699554195],[-159.68135099974876,17.274255799965317],[-159.69010899983039,17.289531700427744],[-159.69915799984173,17.304658899788535],[-159.70849599969054,17.319631600118385],[-159.71809399983815,17.334447900250552],[-159.72795100023839,17.349100100189617],[-159.73809799962291,17.363586400392194],[-159.74850500020551,17.377903000323329],[-159.75917100014146,17.392038299627984],[-159.77009600033008,17.405998199657347],[-159.7812650000796,17.419771199881097],[-159.79270899992034,17.433355300207097],[-159.80438200042889,17.446744899657517],[-159.81631500033691,17.459940000031111],[-159.82847599996734,17.472934699976577],[-159.84088100005803,17.485721599872079],[-159.85351599996335,17.498298599800705],[-159.86639400028281,17.51066590031121],[-159.87947099988665,17.522811900149236],[-159.89279199995076,17.534740399849738],[-159.90632599994487,17.546445800233641],[-159.92007399991508,17.557918500138783],[-159.93403599986144,17.569162399924949],[-159.94818100015294,17.580173500306955],[-159.962555000213,17.590944300039553],[-159.97712700041066,17.601474800022118],[-159.99186700026178,17.6117591996275],[-160.00680500025049,17.621795700211521],[-160.02192699973116,17.631578400422995],[-160.03724700024878,17.641111400271029],[-160.05270399988962,17.650384899843402],[-160.06835899966802,17.659400900131573],[-160.0841670002068,17.668151899890404],[-160.10012799970735,17.676635700277473],[-160.11625699976065,17.68485640040268],[-160.13252299983648,17.692802399910988],[-160.14894099972727,17.700475699793856],[-160.1654969996867,17.707874299959087],[-160.18218999966868,17.714994399871784],[-160.19900499988077,17.721836100255985],[-160.21594200032297,17.728393599585104],[-160.23300200014211,17.734670600368077],[-160.25019799993765,17.740659700285107],[-160.26747099968679,17.746360800410741],[-160.28486599966607,17.751770000385363],[-160.30235300029065,17.756891300393363],[-160.31991599992338,17.761718799982759],[-160.3375700001553,17.766252500052985],[-160.35531600013323,17.770486799626269],[-160.37315399985712,17.774427400404363],[-160.39103699985759,17.778068499961421],[-160.40899699981162,17.781410199920913],[-160.42701699983459,17.784450500190587],[-160.44506800038783,17.787191399963262],[-160.46319599999532,17.789627100410485],[-160.48135400008695,17.791763299636727],[-160.49954199976341,17.79359249999402],[-160.51777599976251,17.795120199937401],[-160.53602599960013,17.796342800380046],[-160.55430599992187,17.797258400155158],[-160.57257099955191,17.797870600148201],[-160.59086599966608,17.798175800373031]]]},"properties":{"objectid":3393,"radii":34,"stormid":"cp022026","basin":"cp","stormnum":2,"advnum":"6","validtime":"2026082418","synoptime":"2026082118","timezone":"UTC","tau":72,"ne":60,"se":0,"sw":0,"nw":50,"idp_source":"cp022026_2026082121_forecastradii","idp_filedate":1787346776000,"idp_ingestdate":1787346792000,"st_area(shape)":1.3809168989676273,"st_perimeter(shape)":4.9911772550984157,"binnumber":"CP3"}},{"type":"Feature","id":3394,"geometry":{"type":"Polygon","coordinates":[[[-165.59236100015994,18.531816500431262],[-165.60000600017668,17.700002699565061],[-164.72683700002744,17.70533560015798],[-164.72703600021117,17.719852399968431],[-164.72749299970209,17.734361599608292],[-164.72821000039113,17.748863199976824],[-164.72921800011054,17.763351400446936],[-164.73046900024409,17.777820600040798],[-164.73199499956951,17.792264900105181],[-164.73378000004689,17.806680699754622],[-164.73583999971615,17.82106780023895],[-164.73814399984565,17.835416800045437],[-164.74073799985874,17.849725699981207],[-164.74357600033207,17.863988899967921],[-164.74667400020488,17.878204300088498],[-164.75003100033032,17.892364499821952],[-164.75366199960152,17.906465499883041],[-164.75755300007083,17.920505499829119],[-164.76168800010103,17.934476900388802],[-164.76608300043006,17.948381400381436],[-164.77073700011238,17.9622077996504],[-164.77563500025497,17.975954099901912],[-164.7807919997509,17.989620200412048],[-164.78620900044493,18.003194800299923],[-164.79185500000816,18.016679799833014],[-164.79775999982405,18.030067400090559],[-164.80390900010019,18.043354000187094],[-164.81030299998338,18.056537600030367],[-164.81694000028071,18.069614399984687],[-164.82382200018509,18.082576799879575],[-164.83093299985799,18.095422699797894],[-164.83828699994501,18.108148599578328],[-164.84587099984668,18.120752300378513],[-164.8536830003701,18.133224499611117],[-164.86173999960121,18.145568799960301],[-164.86999499986928,18.157774000369955],[-164.87849399969824,18.16984179965948],[-164.88720700040267,18.181766499724347],[-164.89614899997628,18.193544399854318],[-164.90530400037923,18.205169700321562],[-164.91465800006657,18.216644299594918],[-164.9242249996839,18.22795869993422],[-164.93400600017668,18.239114799808306],[-164.94401600043798,18.250106800388664],[-164.95419300030665,18.260929099798261],[-164.9645840001514,18.271579699743484],[-164.97517400017989,18.282056799781628],[-164.98593099981571,18.292356499552966],[-164.99690200032697,18.302476899689282],[-165.00805700033021,18.312410400020099],[-165.01939399973321,18.322160700356164],[-165.03089899968901,18.331716499816764],[-165.04258699998999,18.341083500103593],[-165.05444299994443,18.350254100146742],[-165.06646699955232,18.359226200029241],[-165.07865899971299,18.367994300396788],[-165.09100299968861,18.376560199893447],[-165.10353100005554,18.384920099782903],[-165.11617999970713,18.39307020042952],[-165.12898300016525,18.401006700399023],[-165.14193700039218,18.40873149995889],[-165.15502899978844,18.416240699648711],[-165.16827399994506,18.423530599657568],[-165.18164100033181,18.430597299625845],[-165.19512900000328,18.437439000009988],[-165.20875499974338,18.444059399721652],[-165.22248799992119,18.450450900388887],[-165.23635900016765,18.456611599945518],[-165.25032000006786,18.462541600014958],[-165.26440400024433,18.468240700048398],[-165.27858000016678,18.473703399792214],[-165.29287700027328,18.478927600228701],[-165.30723599964159,18.483915299651471],[-165.32170100030083,18.488664599591743],[-165.33625799980678,18.493169800146291],[-165.35089100011947,18.497434600226768],[-165.36560100038579,18.501453399754723],[-165.38037099982171,18.505229900339771],[-165.39524799969536,18.508758500104818],[-165.41014100030685,18.512039199949243],[-165.42510999992649,18.51507190004827],[-165.44013999966117,18.517852799866944],[-165.45523100041027,18.520385699940221],[-165.47035199984484,18.522668799825396],[-165.48550399980965,18.524698299886779],[-165.50070200009714,18.526475899843035],[-165.51592999996944,18.528001800243032],[-165.53117399968025,18.529272099827665],[-165.54644799987523,18.530288699763844],[-165.56175199965497,18.531051600051455],[-165.57704199968845,18.531560899615954],[-165.59236100015994,18.531816500431262]]]},"properties":{"objectid":3394,"radii":34,"stormid":"cp022026","basin":"cp","stormnum":2,"advnum":"6","validtime":"2026082518","synoptime":"2026082118","timezone":"UTC","tau":96,"ne":50,"se":0,"sw":0,"nw":0,"idp_source":"cp022026_2026082121_forecastradii","idp_filedate":1787346776000,"idp_ingestdate":1787346792000,"st_area(shape)":0.56550208122568268,"st_perimeter(shape)":3.0320324130188254,"binnumber":"CP3"}}]}