{"type":"FeatureCollection","features":[{"type":"Feature","id":407,"geometry":{"type":"Polygon","coordinates":[[[-147.19099399997305,14.897160500356961],[-147.20901500004214,14.897160500356961],[-147.22700499958097,14.896854399910751],[-147.24500999981157,14.896245000406566],[-147.26300000024972,14.895331399824386],[-147.28094500041135,14.894110699649218],[-147.29890400031928,14.892586700416018],[-147.31681799995064,14.890760400372301],[-147.33465599967457,14.888629900149908],[-147.35249300025168,14.886196099970164],[-147.37028499965294,14.883461999971473],[-147.38801599983844,14.880428299826292],[-147.40570099970128,14.877090500226529],[-147.42329399981816,14.873456999940743],[-147.44085700035021,14.869525899600717],[-147.45831300044452,14.865297299930603],[-147.47569299973208,14.860772100252348],[-147.49299599996533,14.855955100247797],[-147.510192999807,14.850845299870855],[-147.52732800038683,14.845445600334301],[-147.5443419998833,14.83975409957219],[-147.56124899984138,14.833777400406859],[-147.57804900026107,14.82751459991897],[-147.59472699955131,14.820966699953374],[-147.61128200036393,14.814139400413126],[-147.62773099988564,14.807032599674869],[-147.6440119997539,14.799648299629439],[-147.66017200033747,14.791988399645049],[-147.67620799969933,14.784055700210558],[-147.69207800039931,14.775853199665562],[-147.70779400029281,14.767383599573577],[-147.72335800037135,14.758647899980758],[-147.73876999973561,14.749651000393499],[-147.75401300029964,14.740393599585104],[-147.76907299961914,14.730878800216601],[-147.78396600023063,14.721111300346365],[-147.79865999975911,14.711093899563934],[-147.81320200037194,14.700825700345945],[-147.82754499990173,14.690316200432449],[-147.84170499998567,14.679563499556025],[-147.8556520001396,14.668574300363787],[-147.86941499990223,14.657350500425366],[-147.88250700019782,14.645463900139021],[-147.89442400026732,14.632511099607711],[-147.90518199994926,14.618530300233317],[-147.9147339997742,14.603554699589836],[-147.92303500036488,14.587622599803296],[-147.93009899966901,14.570772199577505],[-147.93582200008515,14.553039600397369],[-147.94021600036803,14.534465799657085],[-147.94322199959552,14.515090899925212],[-147.94532799958742,14.495387100134678],[-147.94694500041135,14.475799599771847],[-147.94809000015331,14.456340799588361],[-147.94876099962036,14.43702029984712],[-147.94895899975793,14.417848600132913],[-147.94872999998941,14.398836100205983],[-147.94802900003825,14.379989599840314],[-147.94686899960456,14.361321399962776],[-147.94525099963383,14.34283830034741],[-147.94322199959552,14.324552500297784],[-147.94076499960497,14.30647279968008],[-147.93792700003095,14.288604699647294],[-147.93460100043575,14.270958900333142],[-147.93090800010404,14.253546699920378],[-147.92681900039648,14.236370100300007],[-147.92231799967587,14.219443299968475],[-147.917435000225,14.202770200184716],[-147.91218600008375,14.186360400312367],[-147.90657000010535,14.170223200240628],[-147.90060400017438,14.154361699932622],[-147.89427199955304,14.138787300093952],[-147.88761900031653,14.12350459985754],[-147.88060000038962,14.108521499767562],[-147.87324500025647,14.093843500077583],[-147.86561600007826,14.079476399616283],[-147.85765099969379,14.065428699674897],[-147.84941100011747,14.051705399584648],[-147.84085100017344,14.038312899820596],[-147.83203099993062,14.025256199713965],[-147.82293699964274,14.012538900150275],[-147.81359899979392,14.000168800050233],[-147.80400099964632,13.988148699902695],[-147.79414400014539,13.976483299564734],[-147.78408799956145,13.965181399801907],[-147.77378800031588,13.954240799973093],[-147.76327500024098,13.943669299898431],[-147.75256299998239,13.933469799891498],[-147.74165299958617,13.92364689998459],[-147.73057599958264,13.914200799827199],[-147.71932999987951,13.905137999719045],[-147.70793200036144,13.896458600384221],[-147.69636500024447,13.888168299927258],[-147.68466200015109,13.880268100192779],[-147.67282099998909,13.872757899557541],[-147.66087300028866,13.865643500447334],[-147.64883399998902,13.858923900118043],[-147.6366730003586,13.852601999782621],[-147.62445099971379,13.846676800294233],[-147.6121370002223,13.841152200214026],[-147.59976199971643,13.836025200302913],[-147.58732599999482,13.831299799846022],[-147.57484399995056,13.826974899871857],[-147.56233200032148,13.823049500334321],[-147.54980500000067,13.819526700297104],[-147.53726199984135,13.816402399751098],[-147.5247039998896,13.813677800190476],[-147.51214599993787,13.811350799899628],[-147.49963400030879,13.809421499602649],[-147.48713699957278,13.807887099710001],[-147.47468600005877,13.806747399672872],[-147.4622959997605,13.805999799551273],[-147.44995099973877,13.805641200281286],[-147.43768299967061,13.80567169988916],[-147.42549100040927,13.806087499638522],[-147.41339099999456,13.806886700161215],[-147.40138200017907,13.808063499930711],[-147.38948099994809,13.809617999671104],[-147.37773100038527,13.811545399700549],[-147.36608900040696,13.813841799659485],[-147.35458399955186,13.81650540000436],[-147.34323100031034,13.819528599665261],[-147.33204699986908,13.822910299670752],[-147.32101400009594,13.826641100306688],[-147.31015000002239,13.830722800217188],[-147.29948400008644,13.83514599968828],[-147.28901700033421,13.839907599656158],[-147.27876299961267,13.845003099913242],[-147.26870699992801,13.850424799564962],[-147.25886500021949,13.85616780000413],[-147.24928299991043,13.862227399574977],[-147.2399140004307,13.868595099684228],[-147.23121600041799,13.874828299886246],[-147.22369399977819,13.880456000044489],[-147.21722399998754,13.885442700320482],[-147.21185299961616,13.889756199589101],[-147.2075039996098,13.893357299999536],[-147.2041630002222,13.896216400366711],[-147.20184300025417,13.898296400058939],[-147.20045500009809,13.899570500178584],[-147.19999699966172,13.900001500269184],[-147.19953900012467,13.899570500178584],[-147.19816599976099,13.898296400058939],[-147.19581600020817,13.896215400320614],[-147.19248999971364,13.893357299999536],[-147.18814099970729,13.889755200442266],[-147.18275500044282,13.885442700320482],[-147.17630000044457,13.880456000044489],[-147.16876199996625,13.874829299932401],[-147.16009499958449,13.868596099730382],[-147.15071100031233,13.862226500252916],[-147.14112900000327,13.856168700225453],[-147.13128700029475,13.850424799564962],[-147.12123099971078,13.845003099913242],[-147.11096200009615,13.839908599702255],[-147.10051000013632,13.83514689990966],[-147.08984400020037,13.830722800217188],[-147.07899499991922,13.826641100306688],[-147.06796300019221,13.82290740025644],[-147.05677799970485,13.819527599619164],[-147.04540999977158,13.81650449978298],[-147.0339049998158,13.813843699926963],[-147.02227799962989,13.811547299968083],[-147.01049799958292,13.809619899938582],[-146.99859600020517,13.808065400198188],[-146.9866180000206,13.806886700161215],[-146.9745029998135,13.806087499638522],[-146.96232600034455,13.805673600156638],[-146.95004299958467,13.805643999870824],[-146.93769799956294,13.806001699818751],[-146.92532299995639,13.80674929994035],[-146.91284199995826,13.807888999977479],[-146.90034500012158,13.809421499602649],[-146.88781699975465,13.811351799945726],[-146.87527499964145,13.813678700411856],[-146.86274700017384,13.816403399797196],[-146.85020400001451,13.819527599619164],[-146.83766199990129,13.823051500426516],[-146.8251500002722,13.826976800139335],[-146.81266800022794,13.831301700113499],[-146.80023199960701,13.836026200349011],[-146.78787199979288,13.841153100435349],[-146.77554299960966,13.846678699662391],[-146.76329000023324,13.852603900050099],[-146.75116000023374,13.858926800431618],[-146.73910500009561,13.865646399861589],[-146.72715800044128,13.872760799871173],[-146.71534699986407,13.880269999560994],[-146.70364399977069,13.888171200240834],[-146.69207799969985,13.896462400019857],[-146.68066400034326,13.905139899986523],[-146.6694029999484,13.914203600316057],[-146.65832499989875,13.923648800252067],[-146.64743000019428,13.933472600380355],[-146.63671899998178,13.943672200212006],[-146.62620499986076,13.95424270024057],[-146.61590599976199,13.965183300069384],[-146.60585000007737,13.976487199924463],[-146.59600800036884,13.988151600216327],[-146.58641100026736,14.00017070031771],[-146.57705699968071,14.012541799564531],[-146.56796300029214,14.025258099981443],[-146.55914300004932,14.038314800088074],[-146.55059799989769,14.051709200119603],[-146.54232799983723,14.065431599988472],[-146.53439299993693,14.079479200105141],[-146.52673300012776,14.09384540034506],[-146.51942400031729,14.10852340003504],[-146.51238999969866,14.12350850021727],[-146.50570699997797,14.13879009968349],[-146.49939000004838,14.154365499568314],[-146.49340800027892,14.17022609965494],[-146.48779300034661,14.186365100169382],[-146.48255899999776,14.202773999820351],[-146.47767599964757,14.21944709960411],[-146.47318999961871,14.2363738999357],[-146.46910099991112,14.253548600187912],[-146.46539299978701,14.270961799747397],[-146.46209699977663,14.288608600007024],[-146.45922899971848,14.306476600215092],[-146.45675699993552,14.324558300025672],[-146.45472699985109,14.342841099936948],[-146.45312499971888,14.361324300276351],[-146.45198100002304,14.379991500107792],[-146.45127900002575,14.398837999574141],[-146.45101899972698,14.417853399814703],[-146.45123299970308,14.437025100428173],[-146.45190400006948,14.456344600123316],[-146.45304899981141,14.475803400306802],[-146.45466599973602,14.495389899724216],[-146.45675699993552,14.515094800284942],[-146.45977799985474,14.53446960019204],[-146.46418799997613,14.553043400033005],[-146.46991000034615,14.570774099844982],[-146.47694400006546,14.587626500162969],[-146.48527500024099,14.603557599903468],[-146.49482700006592,14.618532199601475],[-146.50556899990934,14.632513999921287],[-146.51751699960977,14.645466799553276],[-146.53059400011293,14.657353399839678],[-146.54435699987556,14.668577199778099],[-146.55830400002949,14.67956730009098],[-146.57244900032103,14.690319099846704],[-146.58677700005842,14.70082949998158],[-146.60131799972584,14.711096799877566],[-146.61602799999213,14.721115099982001],[-146.63091999965818,14.730882599852237],[-146.64599599971552,14.740395499852582],[-146.66124000032568,14.749652899761656],[-146.67663599985141,14.758649800248236],[-146.69219999992995,14.767384499794957],[-146.70791599982346,14.775857000200517],[-146.72380100031583,14.784057599578716],[-146.73982199988529,14.791990299912527],[-146.75598100042274,14.799650199896973],[-146.77227800012952,14.807033499896249],[-146.78871199985883,14.814141299781284],[-146.80526699977213,14.820968600220851],[-146.82195999975411,14.82751459991897],[-146.83874500038138,14.833777400406859],[-146.85565200033946,14.839755999839667],[-146.87266499978983,14.845445600334301],[-146.88978599972401,14.850847200138332],[-146.90699800025743,14.855956999615955],[-146.92430099959137,14.860773999620505],[-146.94168099977824,14.865297299930603],[-146.95915199966498,14.869526899646814],[-146.97670000040461,14.873456999940743],[-146.99430800031388,14.877090500226529],[-147.0119629996926,14.880427399604969],[-147.0297089996705,14.883463900238951],[-147.04748500013255,14.886198000237641],[-147.06532299985648,14.888629900149908],[-147.08319100006452,14.890760400372301],[-147.10110499969591,14.892588599784176],[-147.11906399960381,14.894110699649218],[-147.13702399955784,14.895331399824386],[-147.15499900020362,14.896245000406566],[-147.17300400043419,14.896855399956905],[-147.19099399997305,14.897160500356961]]]},"properties":{"objectid":407,"radii":34,"stormid":"cp022026","basin":"cp","stormnum":2,"advnum":"6","validtime":"2026082121","synoptime":"2026082118","timezone":"UTC","tau":0,"ne":60,"se":0,"sw":0,"nw":60,"idp_source":"cp022026_2026082121_initialradii","idp_filedate":1787346776000,"idp_ingestdate":1787346797000,"st_area(shape)":1.3395232247178821,"st_perimeter(shape)":4.2689707697954224,"binnumber":"CP3"}}]}