{"type":"FeatureCollection","features":[{"type":"Feature","id":1,"geometry":{"type":"Polygon","coordinates":[[[-115.12522571189697,18.525356983138408],[-115.35044214319026,18.590566035094582],[-115.57441403507954,18.643791097381381],[-115.79680865729358,18.685274266594263],[-116.0172932795611,18.71525764022806],[-116.23553516981212,18.73398331487823],[-116.45120159867474,18.741693387140231],[-116.66395983317966,18.738629954508951],[-116.87347714395491,18.725035113579793],[-117.07942079893064,18.701150961847532],[-117.28145806783544,18.667219595008419],[-117.47925622039816,18.623483110557231],[-117.6724825245488,18.570183605988746],[-117.86080425001603,18.507563176999156],[-118.04388866562931,18.435863921083239],[-118.22140304111736,18.355327935735772],[-118.39301464441024,18.266197316653006],[-118.55839074523664,18.168714161329603],[-118.71719861332525,18.063120567260512],[-118.86910551660623,17.949658630141812],[-119.01377872480822,17.828570447468337],[-119.15088550586131,17.700098115835544],[-119.28009313129286,17.564483732738211],[-119.40106886813368,17.421969394771907],[-119.51347998611237,17.272797198532032],[-119.61699380621911,17.11720926939239],[-119.71139347672749,16.955510252696172],[-119.79682355646185,16.788199875623889],[-119.87349890515026,16.615815812250048],[-119.94163438162133,16.438895734850405],[-120.00144484380439,16.257977316600034],[-120.05314515142749,16.073598230673952],[-120.09695016152062,15.88629615024729],[-120.13307473291252,15.696608747595747],[-120.16173372533109,15.505073696793829],[-120.18314199580635,15.312228671016499],[-120.1975144040664,15.118611342539566],[-120.2050658080405,14.924759384538106],[-120.20601106655738,14.731210470187193],[-120.20056503844569,14.538502271762582],[-120.18894258163476,14.347172464237985],[-120.17135855585258,14.15775871898984],[-120.14802781812921,13.970798709193218],[-120.11916522819263,13.786830108922516],[-120.08498564397217,13.606390590453543],[-120.04570392429656,13.430017826961262],[-120.00153492799444,13.258249491620859],[-119.95269351299515,13.09162325670809],[-119.89939453812735,12.930676796297234],[-119.8418528622197,12.775947782664161],[-119.7802832361823,12.627973218089664],[-119.71486402705312,12.48706232636539],[-119.6456844152035,12.35296597729814],[-119.57282016222064,12.225351052109488],[-119.49634703059087,12.103884433819701],[-119.41634078459941,11.988233002751031],[-119.33287718583335,11.878063640125049],[-119.24603199857779,11.773043228961967],[-119.15588098441981,11.672838649584151],[-119.06249990764451,11.577116784112434],[-118.96596452983908,11.485544513768446],[-118.86635061438926,11.397788719773757],[-118.76373392378144,11.31351628514858],[-118.65819022230085,11.232394089315903],[-118.54979527153444,11.154089015295938],[-118.43862483486816,11.078267945209632],[-118.32475467568764,11.004597758479918],[-118.20826055647939,10.932745338127006],[-118.08921823883054,10.862377565372469],[-117.96770348792552,10.793161322337312],[-117.84379206535147,10.724763489343673],[-117.71755973449405,10.656850949411933],[-117.58908225783983,10.58909058286423],[-117.45843539877455,10.521149271821571],[-117.32569492068393,10.452693897505526],[-117.19093654018906,10.383392451800376],[-117.05423061575021,10.313047227747518],[-116.91563708718172,10.241721353257958],[-116.77521470089761,10.169507923452045],[-116.63302220061399,10.096500036147859],[-116.48911833274474,10.022790784667109],[-116.34356184100608,9.9484732668279321],[-116.19641147091255,9.8736405786499404],[-116.0477259670796,9.7983858143539919],[-115.89756407592125,9.7228020708590179],[-115.74598454025426,9.6469824441845731],[-115.59304610649252,9.5710200294509491],[-115.43880752015082,9.4950079235769635],[-115.28332752494521,9.4190392207835316],[-115.1266648663904,9.3432070188889611],[-114.96887828910167,9.2676044130133732],[-114.81002653949309,9.1923244991764363],[-114.65016836038143,9.1174603724983285],[-114.48936249818064,9.043105129897981],[-114.32766769840543,8.9693518664955718],[-114.16514270477194,8.8962936783107693],[-114.00184626279469,8.8240236613630145],[-113.83783711708918,8.7526349125712954],[-113.67317401406939,8.6822205252571507],[-113.50791569655206,8.6128735981382079],[-113.34212065554374,8.5446867380026674],[-113.17583203781817,8.4777233146793378],[-113.00906921207439,8.4120013766623174],[-112.84184950105356,8.3475350747839911],[-112.67419022569828,8.2843385580781046],[-112.50610870964914,8.2224259782764193],[-112.33762227564739,8.1618114844126239],[-112.16874824553503,8.1025092273191035],[-111.9995039420532,8.0445333569290369],[-111.82990668794321,7.9878980231753758],[-111.65997380594627,7.9326173759912422],[-111.4897226170051,7.8787055671083976],[-111.31917044565944,7.8261767446611543],[-111.14833461285201,7.7750450594820677],[-110.97723244132402,7.7253246624034091],[-110.80588125471604,7.677029702458924],[-110.63429837397069,7.6301743313804309],[-110.46250112362787,7.5847726982016184],[-110.29050682373082,7.5408389537548715],[-110.11833279792017,7.4983872470739357],[-109.94599636983651,7.4574317289912528],[-109.77351485952306,7.4179865503391511],[-109.60090559151973,7.3800658610508094],[-109.42818588766846,7.3436838101598596],[-109.25537306981124,7.3088545493980632],[-109.08248393638445,7.2755912961015952],[-108.90951674270343,7.2438743910904009],[-108.73644668816405,7.2136432920044626],[-108.56324753414629,7.1848349033082854],[-108.38989303933221,7.157386126768472],[-108.2163569633031,7.1312338650509446],[-108.04261306564035,7.106315022620322],[-107.86863510772395,7.08256650124315],[-107.6943968464372,7.0599252044847276],[-107.51987204405947,7.0383280350109203],[-107.34503445837345,7.0177118963870271],[-107.16985785075912,6.9980136903796506],[-106.99431597899911,6.9791703223526156],[-106.81838260447353,6.9611186931732618],[-106.64203148496495,6.9437957064068883],[-106.46523638185346,6.9271382656186233],[-106.28797105472029,6.9110832734744463],[-106.11020926224757,6.8955676326402795],[-105.93192476401657,6.8805282466813651],[-105.75309132140728,6.8659020182636823],[-105.5736826922024,6.8516258509524164],[-105.39367263688257,6.8376366474134898],[-105.2130349150292,6.8238713103128816],[-105.03174328622356,6.8102667423164576],[-104.84977151004705,6.7967598478887794],[-104.6670981934268,6.7832917232345835],[-104.48381341515687,6.769899937532216],[-104.30011872859637,6.7567185302361281],[-104.11622053175205,6.7438857361379405],[-103.93232522532878,6.7315397882308048],[-103.74863920733344,6.7198189222056044],[-103.56536887847085,6.7088613710555478],[-103.38272063674788,6.6988053704716322],[-103.20090088107071,6.689789152547462],[-103.02011601214417,6.6819509529742618],[-102.84057242797508,6.6754290065435384],[-102.6624765292683,6.6703615453491807],[-102.48603471403072,6.6668868050821288],[-102.31145338206784,6.6651430205341171],[-102.13893893228578,6.6652684237988638],[-101.9686977635908,6.6674012514667425],[-101.80093627668771,6.6716797356314146],[-101.63586086958338,6.678242111983991],[-101.47367794118395,6.6872266144168293],[-101.3145938921943,6.6987714768223441],[-101.15881512152055,6.7130149339921559],[-101.00654802716963,6.7300952189193595],[-100.85799900984631,6.7501505672950088],[-100.71337446845683,6.7733192121120851],[-100.57288080190739,6.7997393881623793],[-100.43671527109279,6.8295416158530315],[-100.30492895121006,6.8627330241099003],[-100.17745534368908,6.8992214998724535],[-100.05422461977031,6.938912121497367],[-99.93516695249275,6.9817099646433007],[-99.8202125121976,7.0275201067676676],[-99.709291471024471,7.0762476235291274],[-99.60233400021383,7.1277975941837326],[-99.499270272804722,7.1820750943902567],[-99.400030459138293,7.2389852007065656],[-99.304544731354156,7.2984329896908662],[-99.212743261592152,7.3603235396997206],[-99.124556220193313,7.4245619272912222],[-99.039913780196684,7.4910532290234642],[-98.958746112842732,7.5597025214543123],[-98.880983390271126,7.6304148820412934],[-98.806555782823011,7.7030953873423869],[-98.735393463537434,7.7776491139156292],[-98.667426602755427,7.8539811401176394],[-98.602585373516092,7.9319965416072478],[-98.540799947059782,8.0116003958417537],[-98.482000494627016,8.0926977793791366],[-98.426117188357466,8.1751937696768664],[-98.37308019949154,8.2589934432929226],[-98.322819700168907,8.3440018767853417],[-98.275274586852618,8.4301264076077587],[-98.2304851788478,8.5173006496054313],[-98.188557232829908,8.6054751679448032],[-98.149597591855297,8.6946008110787147],[-98.113713103476869,8.7846284265608006],[-98.081010613448939,8.8755088637432209],[-98.051596965727299,8.9671929701795534],[-98.025579006965472,9.0596315934234326],[-98.003063582917889,9.1527755837263385],[-97.984157538439547,9.2465757868432092],[-97.968967720184025,9.3409830530256386],[-97.957600972107059,9.4359482289277707],[-97.950164141761604,9.53142216300256],[-97.946764073103395,9.6273557046022233],[-97.947507611886692,9.7236997012803386],[-97.952501604765132,9.8204050005904264],[-97.961852896593825,9.9174224518847609],[-97.975668332227656,10.01470290271692],[-97.994054759219637,10.112197200640423],[-98.017119021525502,10.209856195906866],[-98.04496796489957,10.307630734271129],[-98.077708435096099,10.405471665085429],[-98.115447277869464,10.503329837701983],[-98.158291338974038,10.60115609787573],[-98.206347463264706,10.698901295858263],[-98.259725965181076,10.796514242238629],[-98.318567334115073,10.893926021069149],[-98.383027602441814,10.991058588283352],[-98.453262927541971,11.087833824271684],[-98.529429469494346,11.184173609424647],[-98.611683386578932,11.279999825032064],[-98.700180837975211,11.375234350584947],[-98.795077981963175,11.469799067373174],[-98.896530978621684,11.563615855787248],[-99.004695985331352,11.656606595318237],[-99.119729161271664,11.748693168155341],[-99.241786666521364,11.839797454688949],[-99.371024658461124,11.929841334410185],[-99.507599296270428,12.018746687709609],[-99.651666739128586,12.106435396776305],[-99.80338314621514,12.192829341101344],[-99.962904676709343,12.277850400175964],[-100.1303874879921,12.36142045708857],[-100.30598774014197,12.443461389531649],[-100.48986159143919,12.523895080593604],[-100.68216520016375,12.602643408866356],[-100.88305472729371,12.679628255639614],[-101.09268632931054,12.754771502203198],[-101.31121616719224,12.827995028048235],[-101.53880039831961,12.899220713565228],[-101.77552701505959,12.968413989714008],[-102.02103083780281,13.035829799006137],[-102.27476181870287,13.101841191917629],[-102.53616936402483,13.166821566062538],[-102.80470288093312,13.231144318155884],[-103.0798117756928,13.295182847610477],[-103.36094545546831,13.359310551141164],[-103.64755332742402,13.423900826362171],[-103.93908479692573,13.489327071787045],[-104.23498927203718,13.555962685030011],[-104.53471615902345,13.624181062805917],[-104.83771486414958,13.694355603628367],[-105.14343479458,13.766859705111415],[-105.45132535657984,13.842066764869458],[-105.76083595731347,13.92035018141587],[-106.07141600304601,14.002083351465615],[-106.38251490094183,14.087639673532237],[-106.69358205816536,14.177392544330587],[-107.00406688008235,14.271715362374209],[-107.31341877475654,14.37098152527733],[-107.62108714845306,14.475564431553437],[-107.92652140743689,14.585837477917437],[-108.22917095887254,14.702174061983499],[-108.52848520992438,14.824947582265224],[-108.82391356595821,14.95453143547752],[-109.11499451378569,15.091150921577935],[-109.40172451637324,15.234269925916465],[-109.68424680784381,15.38310832169185],[-109.96270468797087,15.536885870586616],[-110.2372414565279,15.694822334283458],[-110.50800041418768,15.856137474465015],[-110.77512486072362,16.020051053713303],[-111.03875809680864,16.185782833710959],[-111.29904342221607,16.352552576140624],[-111.55612413671946,16.519580041785616],[-111.81014354099153,16.686084994127327],[-112.06124493480581,16.851287194848283],[-112.30957161973436,17.014406403832595],[-112.55526689375205,17.174662385460863],[-112.79847405843094,17.331274900516405],[-113.03933641354456,17.483463709782541],[-113.27799725976564,17.630448576740548],[-113.51459989686765,17.77144926217386],[-113.74928762462406,17.905685528664378],[-113.98220374370771,18.032377136995422],[-114.21349155389203,18.150743850648325],[-114.44329435584973,18.260005429507089],[-114.67175544935441,18.359381637053048],[-114.89901813417947,18.448092234069463],[-115.12522571189697,18.525356983138408]]]},"properties":{"objectid":1,"basin":"Pacific","prob2day":"0%","risk2day":"Low","prob7day":"80%","risk7day":"High","idp_source":"gtwo_areas_202608182319","idp_filedate":1787095379000,"idp_ingestdate":1787095387000,"st_area(shape)":159.32943828650602,"st_perimeter(shape)":54.715344071024049}},{"type":"Feature","id":2,"geometry":{"type":"Polygon","coordinates":[[[-132.90863834218567,11.882859393646243],[-132.92339545433668,11.983280618805622],[-132.94181033677751,12.08234672931826],[-132.96389839219694,12.180063452966124],[-132.98967502418293,12.276436519330048],[-133.01915563542417,12.371471656192114],[-133.05235562950861,12.465174593133099],[-133.08929041002432,12.557551060633102],[-133.12997537965998,12.648606785574827],[-133.17442594200355,12.738347498438429],[-133.22265749974372,12.826778927005989],[-133.27468545646855,12.913906801757605],[-133.33052521576599,12.999736851374735],[-133.39019218122411,13.084274803639403],[-133.45370175463216,13.167526388132444],[-133.5210693404776,13.249497335333899],[-133.59231034144904,13.330193372126587],[-133.66744016113444,13.409620228990491],[-133.74647420222254,13.487783634607183],[-133.82942786830137,13.564689317658008],[-133.91631656295891,13.640343006824423],[-134.00715568888387,13.714750432586527],[-134.10196064966414,13.787917321827081],[-134.20074684888789,13.859849405925502],[-134.3035296892437,13.930552412663872],[-134.41032457342021,14.000032070723648],[-134.52114690590491,14.068294109685553],[-134.63601208938633,14.13534425913042],[-134.75493552745252,14.201188246840275],[-134.87793262279223,14.265831802395894],[-135.00501877899336,14.329280654478737],[-135.13620939874465,14.39154053266958],[-135.27151988563412,14.452617165649826],[-135.41096564414909,14.512516283000195],[-135.55456207517955,14.571243613402203],[-135.7023245841122,14.628804885537193],[-135.85426857273637,14.685205828985943],[-136.01040944464006,14.740452172429968],[-136.17075828846413,14.794551102351647],[-136.33526760921274,14.847529593915738],[-136.50384769231704,14.899428883736107],[-136.67640789151091,14.95029052408853],[-136.85285756052792,15.000156064550879],[-137.03310605310179,15.049067058298249],[-137.21706272206688,15.097065054908512],[-137.40463692205623,15.144191607556763],[-137.59573800590414,15.190488265820932],[-137.79027532824369,15.235996581976792],[-137.98815824100996,15.280758107400857],[-138.18929609883583,15.324814393469637],[-138.39359825455574,15.368206990660212],[-138.60097406370198,15.410977452147847],[-138.81133287731035,15.453167326610981],[-139.02458405091312,15.494818168124084],[-139.24063693734468,15.535971525365767],[-139.45940088943939,15.576668952410387],[-139.68078526272961,15.616951998835816],[-139.90469940825102,15.656862216018567],[-140.13105268243527,15.696441156234528],[-140.3597544363181,15.73573036996072],[-140.59071402543185,15.77477140857377],[-140.82384080261085,15.813605823450132],[-141.05904412068952,15.852275166865581],[-141.29623333430084,15.890820989297367],[-141.53531779717849,15.929284842121888],[-141.77620686215687,15.967708276715712],[-142.01880988296966,16.006132845354671],[-142.26303621335046,16.044600097616524],[-142.50879520703307,16.083151585777216],[-142.75599621685183,16.121828861213089],[-143.00454859743974,16.160673475300769],[-143.25436170253045,16.19972697941671],[-143.50534488495839,16.239030924937367],[-143.75740749845721,16.278626862339991],[-144.01045889676058,16.318556343900298],[-144.26440812333612,16.358860461441282],[-144.51912675859296,16.399524671126812],[-144.77441362329,16.440426382771477],[-145.03005917628988,16.481430587451769],[-145.28585387735447,16.522402281640097],[-145.54158818714504,16.563206456412956],[-145.79705256542348,16.603708107343436],[-146.05203747195168,16.643772227306556],[-146.30633336739092,16.683263809177618],[-146.55973071150305,16.722047848529542],[-146.81201996405002,16.759989337338197],[-147.06299158479371,16.796953269378037],[-147.31243603439538,16.832804639322774],[-147.56014377261693,16.867408440047598],[-147.80590525922025,16.90062966532696],[-148.04951095396726,16.932333308935199],[-148.29075131751921,16.962384363747503],[-148.5294168105373,16.990647825337021],[-148.76529789098478,17.016988685679451],[-148.99818502042228,17.041271938549244],[-149.22786865771229,17.063362577720909],[-149.45413926441543,17.083125597868161],[-149.67678729849496,17.100425990966869],[-149.8956032224107,17.11512875169069],[-150.11037749412597,17.127098873814134],[-150.32090057430199,17.136201350212275],[-150.52696292359997,17.142301175558941],[-150.72835500088249,17.145263342729208],[-150.92486726681082,17.144952845497585],[-151.11629018114687,17.141234677638408],[-151.30241420455181,17.133973832926188],[-151.48302979588829,17.123035305135375],[-151.65792741581751,17.108284087141044],[-151.82689752410138,17.089585172717705],[-151.98973058140112,17.066803556539014],[-152.14621704657935,17.039804231480218],[-152.29614738119659,17.008452190416392],[-152.43931204411547,16.97261242892057],[-152.57554485770893,16.932180597756542],[-152.70493286915649,16.887231379324817],[-152.82765477914467,16.837904262072186],[-152.94388941606363,16.784338818981439],[-153.05381560740429,16.726674625733551],[-153.1576121833555,16.665051258009271],[-153.25545797050884,16.599608290590254],[-153.34753179725456,16.530485299157363],[-153.43401249288215,16.457821857592819],[-153.51507888398322,16.381757541577429],[-153.59090979894799,16.30243192679211],[-153.66168406706595,16.219984588018463],[-153.72758051582807,16.134555100037971],[-153.78877797362449,16.046283039430875],[-153.84545526794616,15.95530797918002],[-153.89779122808264,15.861769495865701],[-153.94596468152474,15.765807163370027],[-153.99015445666276,15.667560558273294],[-154.03053938098756,15.567169255356987],[-154.06729828468801,15.464772829402705],[-154.10060999345635,15.360510856091253],[-154.13065333658213,15.254522909304967],[-154.15760714245559,15.146948565623916],[-154.1816502394669,15.037927399829755],[-154.20296145510699,14.927598985804707],[-154.22171961776607,14.816102900128897],[-154.23810355583436,14.703578717583866],[-154.25229209680273,14.590166013850592],[-154.26446406996078,14.476004362811238],[-154.27479830279935,14.361233340146669],[-154.28347362370869,14.245992520638481],[-154.29066886107898,14.130421480866801],[-154.29656284240119,14.014659793814587],[-154.30133439696476,13.898847036961342],[-154.30516235136133,13.783122783289969],[-154.30822553577977,13.667626609380648],[-154.31070277681161,13.552498090014979],[-154.31276548433954,13.437874377200899],[-154.31441443897509,13.323836907247596],[-154.31547979475664,13.2104113971684],[-154.31578428361772,13.097621142102184],[-154.31515063929049,12.985489437187937],[-154.31340159640646,12.874039577564588],[-154.31035988869783,12.763294859270502],[-154.30584824899742,12.653278576545233],[-154.29968941193673,12.544014024527769],[-154.29170611034863,12.43552450015568],[-154.2817210779653,12.32783329587005],[-154.26955704941821,12.220963709507714],[-154.25503675754024,12.114939034409076],[-154.23798293606356,12.009782567511593],[-154.21821831872035,11.905517602155726],[-154.19556564014209,11.802167434379726],[-154.16984763316165,11.699755360221843],[-154.14088703151123,11.598304673022369],[-154.10850656892293,11.497838669718988],[-154.07252897822968,11.398380645450573],[-154.03277699496226,11.299953893557472],[-153.98907335195355,11.202581710977313],[-153.94124078293569,11.106287392849026],[-153.88910202164089,11.01109423341228],[-153.83247980090201,10.917025528705324],[-153.77119685535052,10.824104573867146],[-153.70507591961791,10.732354664036677],[-153.63393972473841,10.641799094352848],[-153.55761100714219,10.552461159055383],[-153.47591249876274,10.464364155081853],[-153.38866693423154,10.377531376671811],[-153.29569704638149,10.29198611896436],[-153.19682556984409,10.207751677997692],[-153.09187523745217,10.124851347112099],[-152.98066878383722,10.043308424144584],[-152.86302894183211,9.9631462024354391],[-152.73877844516903,9.8843879771235947],[-152.607740144492,9.807057035254104],[-152.469820607435,9.7311697462869233],[-152.32515770366501,9.6567233798801908],[-152.17392891079052,9.5837119321600994],[-152.01631170552071,9.5121293992525011],[-151.8524835654641,9.4419697790821715],[-151.68262196822917,9.3732270686743959],[-151.50690439052511,9.305895263255934],[-151.32550830906112,9.2399683607513907],[-151.13861120324435,9.1754403572867886],[-150.94639054798532,9.1123052507868465],[-150.74902382179187,9.0505570364782102],[-150.54668850227247,8.9901897122855416],[-150.33956206523703,8.9311972752341831],[-150.12782198919336,8.8735737214502137],[-149.91164575174997,8.817313047958919],[-149.69121082871669,8.762409251785698],[-149.46669469860137,8.7088563290564593],[-149.23827483901252,8.656648276796659],[-149.00612872575999,8.6057790920315824],[-148.7704338364523,8.5562427717866285],[-148.53136764959726,8.5080333121877629],[-148.28910764190405,8.4611447111596476],[-148.0438312900819,8.4155709639289853],[-147.79571607173924,8.3713060693197576],[-147.54493946358528,8.3283440216594045],[-147.29167894412788,8.2866788197718506],[-147.03611199007619,8.2463044597831185],[-146.77841607903872,8.2072149387186073],[-146.51876868682535,8.1694042527042257],[-146.25734729284321,8.1328663987654295],[-145.99432937290214,8.0975953739275042],[-145.72989240461069,8.0635851752157919],[-145.46421386557736,8.0308297987563719],[-145.1974712334106,7.9993232415744728],[-144.92984198392034,7.9690595006955505],[-144.66150359561436,7.9400325731448902],[-144.39263354610119,7.9122364559478342],[-144.12340848021711,7.885669836993543],[-143.8539978059539,7.8603722414858908],[-143.58456720451278,7.83640422077832],[-143.31528232561874,7.8138265006925849],[-143.04630882079533,7.7926998061512904],[-142.77781233976759,7.7730848629761908],[-142.5099585331597,7.7550423951905145],[-142.24291305069664,7.7386331304147689],[-141.97684154300271,7.7239177917728057],[-141.71190965980287,7.7109571050864929],[-141.4482830526207,7.6998117961775847],[-141.18612737118116,7.6905425899686861],[-140.92560826520918,7.6832102113822884],[-140.66689138622843,7.6778753871395224],[-140.41014238306445,7.6745988403643537],[-140.15552690724087,7.673441298677119],[-139.90321060938203,7.6744634852018407],[-139.65335913831348,7.677726126659536],[-139.40613814555888,7.6832899488721864],[-139.16171327994385,7.6912156749635869],[-138.92025019389126,7.7015640325541881],[-138.68191453712609,7.7143957447679554],[-138.44687195847399,7.7297715383259629],[-138.21528810945858,7.7477521390501352],[-137.98732864070411,7.7683982700642673],[-137.76315920193554,7.7917706589888667],[-137.54294544377711,7.8179300298471617],[-137.32685301595382,7.8469371084609065],[-137.11504756908994,7.8788526197527631],[-136.90769475380978,7.9137372886451089],[-136.70496022073752,7.951651840959812],[-136.50700961959819,7.9926570025187971],[-136.31400860011672,8.0368134973451788],[-136.12612281381672,8.084182052160088],[-135.94351791042311,8.1348233909868668],[-135.76635953966093,8.1887982405464754],[-135.59481335305372,8.2461673248623129],[-135.42904301822063,8.3069896943190997],[-135.26912240547455,8.3712485217020571],[-135.11500078675681,8.4388216979631352],[-134.9666182564273,8.5095793538042699],[-134.82391490704725,8.5833916253233724],[-134.68683083297645,8.6601286441217553],[-134.55530612767558,8.7396605444986903],[-134.4292808855044,8.8218574607533355],[-134.3086951990241,8.9065895253864369],[-134.19348916259469,8.9937268717978327],[-134.08360286967661,9.0831396342868516],[-133.97897641462976,9.1746979462533318],[-133.87954989001531,9.2682719410973391],[-133.78526339019322,9.3637317522187118],[-133.69605700862394,9.4609475139167785],[-133.61187083876808,9.5597893586921145],[-133.53264497498554,9.6601274208439349],[-133.45831950983739,9.7618318328729288],[-133.38883453858301,9.8647727299776307],[-133.32413015378347,9.9688202446586729],[-133.2641464488994,10.073844510316007],[-133.20882351829067,10.179715661248906],[-133.15810145541775,10.286303830857264],[-133.11192035464057,10.393479151641657],[-133.07022030762101,10.501111758800789],[-133.03294141051759,10.609071783935804],[-133.00002375499218,10.717229362245405],[-132.97140743630405,10.825454627129488],[-132.94703254701432,10.93361771108863],[-132.92683918148293,11.041588749321477],[-132.91076743317041,11.149237873429229],[-132.89875739463798,11.256435217711271],[-132.89074916204413,11.363050916466761],[-132.88668282705072,11.468955103095652],[-132.88649848311843,11.574017910098632],[-132.8901362255063,11.67810947177486],[-132.897536147675,11.781099921524287],[-132.90863834218567,11.882859393646243]]]},"properties":{"objectid":2,"basin":"Pacific","prob2day":"30%","risk2day":"Low","prob7day":"70%","risk7day":"High","idp_source":"gtwo_areas_202608182319","idp_filedate":1787095379000,"idp_ingestdate":1787095387000,"st_area(shape)":158.74271310993521,"st_perimeter(shape)":52.006770864579636}}]}