{"type":"FeatureCollection","features":[{"type":"Feature","id":1,"geometry":{"type":"Polygon","coordinates":[[[-18.058629198078904,13.641389526305716],[-18.080981663173077,13.737595293588072],[-18.104294463918222,13.836992841146866],[-18.128589600429564,13.939423349608035],[-18.153889070124364,14.044728002295585],[-18.180214872218471,14.152747980734887],[-18.20758900682705,14.263324467350401],[-18.236033471367477,14.37629864456693],[-18.265570265954864,14.491511694808992],[-18.296221388006529,14.608804800501275],[-18.32800883763764,14.728019142269716],[-18.360954613164722,14.848995904337642],[-18.395080713803793,14.971576268230308],[-18.430409137871266,15.095601416372403],[-18.466961884583156,15.220912530289183],[-18.504760954054632,15.347350793304599],[-18.543828342803636,15.474757386044644],[-18.584186051844711,15.602973492732644],[-18.625856078595007,15.731840293994537],[-18.668860422270541,15.861198973154217],[-18.713221082986479,15.990890711737109],[-18.758960057260708,16.120756692167731],[-18.806099347007148,16.25063809777015],[-18.854660947844366,16.380376108270923],[-18.904666861686167,16.509811908792699],[-18.956139085050609,16.63878667996147],[-19.009099618952121,16.767141603302491],[-19.063570459908647,16.894717863039091],[-19.119573608934786,17.021356640696524],[-19.177131063447689,17.14689911780016],[-19.236264823562635,17.271186476774631],[-19.296996886696832,17.39405990004451],[-19.359349252965501,17.515360570933751],[-19.423343921584603,17.634929670068345],[-19.489002889971289,17.752608379872981],[-19.556348157341461,17.868237883671554],[-19.625401723810398,17.981659362989376],[-19.696185587694572,18.092714000251078],[-19.76871820757907,18.201249626569165],[-19.842969991271957,18.307204344305205],[-19.918876716387217,18.410581310978841],[-19.996373395215869,18.51138512122651],[-20.075395040948251,18.609620370583798],[-20.155876664976006,18.705291650989068],[-20.237753280489358,18.798403559776602],[-20.320959900678758,18.888960688884822],[-20.405431536935737,18.97696763384937],[-20.491103203350008,19.062428988407248],[-20.577909911313213,19.145349347194781],[-20.665786674015692,19.22573330574761],[-20.754668503748348,19.303585456903477],[-20.844490412802202,19.378910395298647],[-20.935187414367533,19.451712715569499],[-21.026694520735418,19.521997012352358],[-21.118946745096082,19.589767880283603],[-21.211879099740543,19.655029912200803],[-21.305426596959762,19.717787704539091],[-21.399524249044759,19.778045850136039],[-21.494107069185759,19.835808944527287],[-21.589110070573156,19.891081581449953],[-21.684468264598593,19.943868354640983],[-21.780116664452351,19.994173859636078],[-21.875990282425448,20.042002691071502],[-21.972024131708167,20.08735944178494],[-22.068153223692207,20.130248707312148],[-22.164312572467111,20.170675081390016],[-22.260437190323955,20.208643158654979],[-22.356462089553645,20.244157534642625],[-22.452322281547936,20.277222801291373],[-22.547952781295692,20.307843555036186],[-22.643288599289292,20.33602438961401],[-22.738264749618395,20.361769899661283],[-22.832816244573905,20.38508467891495],[-22.926878095547522,20.405973322910654],[-23.02038531662896,20.424440424486136],[-23.113273023531065,20.440490626841097],[-23.205488908086522,20.454134434057039],[-23.297005084117188,20.46539372663932],[-23.387796469531338,20.474291696304874],[-23.477837984934922,20.480851533871316],[-23.567104549135536,20.485096428357622],[-23.65557108183981,20.487049570581348],[-23.743212502754659,20.486734152259487],[-23.830003730687508,20.48417336151158],[-23.915919685345102,20.479390390054618],[-24.000935286434185,20.47240842870616],[-24.085025452762295,20.463250666485237],[-24.168165104036177,20.45194029510867],[-24.250329159962632,20.438500503595492],[-24.331492539349085,20.422954483662636],[-24.411630162801657,20.405325424329021],[-24.490716948228453,20.385636517311582],[-24.568727815336274,20.363910951629236],[-24.645637684731241,20.340171918998976],[-24.72142147432146,20.314442609339096],[-24.79605410471305,20.286746212567778],[-24.869510493814118,20.257105918603429],[-24.941765563130105,20.225544919162814],[-25.01279423056917,20.192086404164343],[-25.082571414938741,20.156753563526252],[-25.1510720377442,20.119569588066156],[-25.218271016893766,20.080557667702351],[-25.284143272094184,20.039740993252394],[-25.348663723951574,19.997142754634581],[-25.411807289474723,19.952786143565788],[-25.473548890169013,19.906694348165786],[-25.533863443942664,19.858890560151394],[-25.59272587140174,19.809397970340171],[-25.650111091353665,19.758239767751206],[-25.705994022605921,19.705439144101376],[-25.760349586663949,19.65101928930892],[-25.813152700536591,19.595003393292131],[-25.864378284829854,19.53741464596925],[-25.913994905540335,19.478273014088472],[-25.96193402533487,19.417579628996805],[-26.008113678203586,19.355328804281044],[-26.052451879250725,19.291514845433937],[-26.094866644479907,19.226132058847554],[-26.135275987196906,19.159174749115493],[-26.173597923405339,19.09063722083124],[-26.209750469108712,19.020513780386807],[-26.243651637612857,18.948798732375735],[-26.275219445820653,18.875486382290831],[-26.304371908836401,18.800571035624955],[-26.331027040865138,18.724046996971481],[-26.355102857011104,18.64590857272259],[-26.376517373278034,18.566150066572447],[-26.395188603870849,18.484765784913179],[-26.411034564793226,18.40175003323759],[-26.423973270250087,18.317097116139166],[-26.433922737144485,18.230801339110656],[-26.440800978782022,18.14285700764492],[-26.444526011166374,18.053258427234766],[-26.445015849401784,17.961999901574359],[-26.442188507693345,17.869075737955086],[-26.435962002943938,17.774480240071171],[-26.426254349358601,17.678207714314681],[-26.412983562041632,17.580252465279216],[-26.39606765609733,17.48060879935673],[-26.375424646629995,17.379271020241504],[-26.350972549643302,17.276233434325661],[-26.322629378442912,17.171490346202631],[-26.290313150831139,17.065036061365277],[-26.25394187921421,16.956864885306345],[-26.213433580495234,16.846971122619379],[-26.168706269778397,16.735349079696391],[-26.119677961268792,16.621993061130979],[-26.066266670969981,16.506897372415949],[-26.008390413086943,16.39005631814473],[-25.945967203623411,16.271464204709446],[-25.878921098429828,16.151118684879521],[-25.807315100411415,16.029094419472017],[-25.731351155031632,15.905543077351297],[-25.65123725119804,15.780619676457036],[-25.567181377818201,15.654479232930385],[-25.479391522900357,15.527276762912436],[-25.388075674452693,15.399167285242186],[-25.293441820483508,15.270305815161407],[-25.195697950799683,15.140847369710457],[-25.095052052510084,15.010946966829181],[-24.991712114522329,14.880759623557935],[-24.88588612484466,14.750440355138437],[-24.777782071485262,14.620144179510419],[-24.667607943351754,14.490026113714293],[-24.555571728452378,14.360241174790531],[-24.441881415694638,14.23094437977943],[-24.326744992187514,14.102290744822142],[-24.21037044773783,13.974435286959078],[-24.092965769454565,13.847533024129916],[-23.974738947144544,13.721738972475748],[-23.855897967017427,13.597208148137668],[-23.736650818880037,13.474095569954727],[-23.617205491639993,13.3525562531687],[-23.497769971506841,13.232745215719262],[-23.378552249186839,13.114817473747564],[-23.259760310889533,12.998928044293962],[-23.141602146421803,12.885231945298187],[-23.024285743791893,12.773884192901335],[-22.90801909010878,12.66503980414376],[-22.79301017607861,12.558853795166669],[-22.679466987911042,12.455481183909626],[-22.567597514513579,12.355076987413156],[-22.457609744793785,12.257796221818296],[-22.349711666759902,12.163793904165459],[-22.24411126931949,12.073225052394378],[-22.141016539581528,11.986244682646145],[-22.040635466453466,11.903007811061741],[-21.943175939018261,11.823669376440705],[-21.848774042687808,11.748326582006314],[-21.757367483222652,11.676917130821096],[-21.668859995392324,11.609351412637693],[-21.583155315765111,11.54553981451096],[-21.500157178211055,11.485392727092801],[-21.419769319298496,11.428820539236654],[-21.341895473796967,11.375733638896463],[-21.266439376475944,11.326042415824986],[-21.193304763004278,11.279657257976226],[-21.122395369050935,11.2364885560022],[-21.053614929385333,11.196446696957651],[-20.986867179676494,11.159442071494539],[-20.922055854693838,11.125385066667604],[-20.859084689206895,11.094186074028244],[-20.797857420683272,11.065755479731763],[-20.73827778209386,11.040003675329501],[-20.680249509107455,11.016841047876198],[-20.623676338292228,10.996177986225234],[-20.568462003518505,10.977924881028571],[-20.514510241354401,10.961992120240268],[-20.461724785670185,10.948290091814442],[-20.410009373034029,10.936729186402943],[-20.359267737316088,10.927219792859262],[-20.309403615084648,10.91967229913746],[-20.260320741109183,10.913997094090746],[-20.211922851058603,10.910104567471933],[-20.164113678803119,10.907905108134344],[-20.116796961810223,10.907309104931358],[-20.069876433950128,10.908226946716354],[-20.023255829992422,10.910569022342656],[-19.976838886505277,10.914245720663587],[-19.930529338258225,10.919167430532639],[-19.884230920020798,10.925244541702398],[-19.837847368361224,10.932387443026187],[-19.791282417149716,10.940506522458179],[-19.744439802055069,10.94951216975096],[-19.697223258746249,10.959314773757967],[-19.649547298568848,10.969830178619986],[-19.60142022046665,10.981021706386798],[-19.552898617876792,10.992877128077112],[-19.504039479937944,11.005384414359355],[-19.454899799386112,11.018531537700426],[-19.40553656536008,11.032306469667958],[-19.356006769696535,11.046697181829643],[-19.306367403332843,11.061691645753001],[-19.256675457206484,11.077277833005724],[-19.206987921355335,11.093443716054765],[-19.157361787616253,11.110177265568495],[-19.107854046926604,11.127466454013756],[-19.05852168932438,11.145299252958296],[-19.009421705747002,11.16366363486901],[-18.960611087131838,11.182547569514838],[-18.912146825315631,11.201939030262167],[-18.864085910336371,11.221825988678575],[-18.816485332232162,11.242196415432375],[-18.769402083739067,11.263038282990522],[-18.722893154895075,11.284339563819969],[-18.677015536637555,11.306088228589033],[-18.631826219004665,11.328272248865346],[-18.587382193833037,11.350879596216544],[-18.543740452060092,11.373898244008899],[-18.500957984623142,11.397316162011407],[-18.459091781560346,11.421121323590341],[-18.418198833809015,11.445301699414017],[-18.378336133205835,11.469845261050068],[-18.339560669788966,11.494739980066186],[-18.301929435394982,11.51997382982853],[-18.265499420062042,11.545534780106152],[-18.230327613828194,11.571410804265327],[-18.196471009429388,11.597589872075048],[-18.163986596903783,11.624059957800966],[-18.132931367188689,11.650809030312644],[-18.103362310322211,11.67782506387573],[-18.075336419040354,11.70509602825922],[-18.048910016983541,11.732610734098216],[-18.024109314892826,11.76039596320328],[-18.00091872841648,11.78853118506629],[-17.979319598420602,11.817099747955126],[-17.959293263073505,11.846185003735059],[-17.940821063241344,11.875870302472606],[-17.923884337092375,11.906238993335023],[-17.908464424593376,11.937374427288148],[-17.894542665711299,11.969359953499179],[-17.882100399513718,12.002278923833387],[-17.871118965068035,12.036214686558651],[-17.861579703240579,12.071250592640865],[-17.853463951300171,12.107469993045868],[-17.846753050113023,12.144956236041594],[-17.841428339646029,12.183792673493201],[-17.837471158067387,12.224062654568002],[-17.834862845343935,12.265849529332456],[-17.833584741442564,12.30923664875246],[-17.833618185430794,12.354307362894644],[-17.834944516376197,12.401145020926094],[-17.837545074245668,12.449832972913498],[-17.841401198106666,12.500454570722013],[-17.846494227926144,12.553093162619518],[-17.852805502771616,12.607832100471171],[-17.860316362609922,12.66475473254502],[-17.869008146508634,12.72394441070611],[-17.878862193535269,12.785484483222433],[-17.889859844556042,12.849458301959203],[-17.901982436839887,12.915949216982938],[-17.915211312152223,12.985040576561516],[-17.929527808661305,13.056815733459473],[-17.944913265434707,13.131358035944743],[-17.961349023338641,13.208750834083844],[-17.97881642054125,13.289077478842728],[-17.997296797009426,13.372421320287856],[-18.01677149271012,13.458865708485803],[-18.037221846710736,13.548493993503143],[-18.058629198078904,13.641389526305716]]]},"properties":{"objectid":1,"basin":"Atlantic","prob2day":"60%","risk2day":"Medium","prob7day":"60%","risk7day":"Medium","idp_source":"gtwo_areas_202609240535","idp_filedate":1790228259000,"idp_ingestdate":1790228267000,"st_area(shape)":53.526367142074548,"st_perimeter(shape)":27.902923532341287}},{"type":"Feature","id":2,"geometry":{"type":"Polygon","coordinates":[[[-94.653438810152863,13.929044720837339],[-94.81404489245773,14.037429991301224],[-94.982761982779152,14.148264785691424],[-95.159218778024069,14.261348309676862],[-95.34304397330061,14.376479765329066],[-95.533866265515655,14.49345835831673],[-95.731314350676655,14.612083290711439],[-95.935016923891794,14.732153768182002],[-96.144602681168692,14.853468994598586],[-96.359700319414117,14.975828172931983],[-96.579938533736254,15.099030507951738],[-96.804946020142609,15.222875203527963],[-97.034351475540063,15.347161462631561],[-97.267783595036803,15.471688490931228],[-97.504871074640278,15.596255491397926],[-97.745242610358105,15.720661668801085],[-97.988526898197676,15.844706226111612],[-98.234352635065932,15.968188368098822],[-98.482348515171736,16.090907297733736],[-98.732143236321178,16.212662219785727],[-98.983365492723237,16.333252339024341],[-99.235643981284625,16.452476857521106],[-99.488607398912222,16.570134980944772],[-99.741884439814953,16.686025912266189],[-99.995103800899585,16.799948856254844],[-100.24789417817368,16.911703016780962],[-100.49988426764475,17.021087596815278],[-100.75070276442096,17.127901801127337],[-100.99997836540916,17.231944833587363],[-101.24733976661685,17.333015898964732],[-101.49241566315226,17.430914200230291],[-101.73483475192216,17.525438941254265],[-101.97422572893413,17.616389326806143],[-102.21021728929634,17.703564559856716],[-102.44243812901635,17.786763846074791],[-102.67051694500088,17.865786387531898],[-102.89408243235829,17.940431389896844],[-103.11276328799522,18.010498056140534],[-103.32620625551419,18.075796527687714],[-103.53430310510413,18.136285442919018],[-103.73712219243515,18.192030455940937],[-103.93473577263768,18.243099582479886],[-104.12721609994298,18.289560840960178],[-104.31463542768273,18.331482248906809],[-104.49706601098751,18.368931822046079],[-104.67458010408842,18.401977578802359],[-104.84724996121662,18.430687534901949],[-105.01514783660326,18.455129708769164],[-105.17834598537883,18.475372117029735],[-105.33691666177441,18.491482777208546],[-105.49093211912191,18.503529705931328],[-105.64046461255174,18.511580919823757],[-105.78558639629506,18.515704437310092],[-105.92636972548235,18.515968275016007],[-106.06288685254611,18.512440449567237],[-106.19521003351616,18.505188978488718],[-106.32341152262359,18.494281878406127],[-106.44756357320023,18.479787167743723],[-106.56773844037662,18.461772862227974],[-106.68400837928317,18.440306979383706],[-106.79644564235241,18.415457536736085],[-106.90512248561413,18.387292551809935],[-107.01011116240011,18.355880040331726],[-107.11148392694156,18.321288019826397],[-107.20931303526828,18.283584508718263],[-107.30367073981267,18.242837522733623],[-107.39462929570533,18.199115079397529],[-107.48226095807667,18.152485196234977],[-107.56663797935914,18.103015889871585],[-107.64783261648199,18.05077517693303],[-107.72591712097824,17.995831075843626],[-107.80096374977711,17.938251603229048],[-107.87304475531113,17.878104775714974],[-107.94223239271065,17.81545861082634],[-108.00859891710627,17.750381126088257],[-108.07221643344155,17.68294040467606],[-108.13313916903735,17.61321255171805],[-108.19138662209485,17.541289253096693],[-108.24697430322141,17.46726398524487],[-108.29991772032645,17.391230222796707],[-108.35023238311788,17.313281443983612],[-108.39793380130379,17.233511122540392],[-108.4430374827935,17.152012734899927],[-108.48555893909366,17.068879757494926],[-108.52551367721435,16.984205665858951],[-108.56291720776284,16.898083935525335],[-108.59778503954783,16.810608042926958],[-108.63013268227735,16.721871463597324],[-108.6599756447601,16.631967673969143],[-108.68732943670403,16.540990149575862],[-108.71220956601854,16.449032365951041],[-108.73463154421029,16.356187799527447],[-108.75461087828933,16.262549925838528],[-108.77216307976221,16.168212221317106],[-108.78730365563911,16.073268161496571],[-108.80004811652725,15.977811221011166],[-108.81041197213472,15.881934878092295],[-108.81841073037083,15.785732607374086],[-108.82405990094355,15.689297884389987],[-108.82737499356102,15.59272418557282],[-108.82837151793109,15.496104986456089],[-108.82706498196325,15.399533764371881],[-108.82347089626478,15.303103993054947],[-108.81760476874496,15.206909148938223],[-108.80948210911197,15.111042709353683],[-108.79911842797299,15.015598148935567],[-108.78652923323745,14.920668943217322],[-108.77173003371399,14.826348569530978],[-108.75473634000997,14.732730501611513],[-108.73556366093413,14.63990821769022],[-108.71422750529501,14.547975192401339],[-108.6907433828008,14.457024902177636],[-108.66512680226003,14.36715082165324],[-108.63738555989556,14.278433169455354],[-108.60748240309033,14.190874735280943],[-108.57536377631715,14.104450285052735],[-108.54097609976708,14.019134545123279],[-108.50426579543,13.934902241845123],[-108.46517928259772,13.851728102470076],[-108.42366298415931,13.769586853350745],[-108.37966331940657,13.688453221738939],[-108.33312671032934,13.608301933087887],[-108.28399957711866,13.529107715548776],[-108.23222834176448,13.450845295474153],[-108.17775942445775,13.373489400115886],[-108.12053924628907,13.297014754927147],[-108.06051422924816,13.22139608715986],[-107.99763079262686,13.146608123166516],[-107.93183535841496,13.072625591098301],[-107.86307434770288,12.999423215509125],[-107.7912941806818,12.926975724550175],[-107.7164412793415,12.855257845473318],[-107.6384620629737,12.784244303731782],[-107.55730295446767,12.713909826577378],[-107.47291037401448,12.644229140362654],[-107.38523074270449,12.575176972339534],[-107.29421048162834,12.50672804796119],[-107.19979601097702,12.438857096278127],[-107.10193375274042,12.371538841844199],[-107.0005701271096,12.304748012810705],[-106.89565155517505,12.238459335530024],[-106.78712445802722,12.172647535455553],[-106.67493525765593,12.10728734163763],[-106.55903037335293,12.042353478630275],[-106.43935622620876,11.977820673685301],[-106.31585923911251,11.913663654953837],[-106.18848583135593,11.849857146989905],[-106.05718242402952,11.786375878843899],[-105.92189543822377,11.723194575069726],[-105.78257129502913,11.660287962919313],[-105.63916158393982,11.597632058372938],[-105.49173674345587,11.535232504676515],[-105.34048606647866,11.473124576837904],[-105.1856040143137,11.411344834996271],[-105.02728504466899,11.34992984108942],[-104.86572361795049,11.288916157954475],[-104.70111419546367,11.228340347529127],[-104.53365123491648,11.168238970851974],[-104.36352919671498,11.108648590759969],[-104.19094254126514,11.049605768291713],[-104.01608572807379,10.991147064485574],[-103.83915321754688,10.933309043077998],[-103.66033946739242,10.876128265107468],[-103.47983893981512,10.81964129251179],[-103.29784609342238,10.763884686329334],[-103.1145553886202,10.708895010296601],[-102.93016128401592,10.654708823653436],[-102.74485824091499,10.60136269103549],[-102.55884071792468,10.548893171682664],[-102.37230317635039,10.497336829331346],[-102.18544007390017,10.446730225919339],[-101.99844587187937,10.397109921585752],[-101.81151502979469,10.348512479167709],[-101.62484200715284,10.300974460603015],[-101.43862126346045,10.254532428728737],[-101.2530472591236,10.20922294368404],[-101.06831445454833,10.165082567406671],[-100.884617308342,10.122147862733812],[-100.70215028001132,10.080455391603152],[-100.52110783086158,10.040041715053235],[-100.34168441950027,10.000943395021807],[-100.16407450633329,9.9631969943459353],[-99.988472551766733,9.9268390731648424],[-99.815073013508652,9.8919061952148581],[-99.644070353763709,9.8584349206352044],[-99.475659030239967,9.8264618131622683],[-99.31003350424271,9.7960234329352147],[-99.147388156138391,9.767156326603299],[-98.987860591193225,9.739885686875084],[-98.831431546828298,9.7142053354080531],[-98.678054902211841,9.6901037240077699],[-98.527684535612707,9.6675693035806489],[-98.380274323501112,9.6465905250328206],[-98.235778145045231,9.627155840170019],[-98.094149877614655,9.6092536989991686],[-97.955343399478181,9.592872553325833],[-97.819312588005459,9.5780008531569933],[-97.68601132056591,9.5646270511975899],[-97.555393475428446,9.5527395965552842],[-97.427412931761296,9.5423269419349595],[-97.3020235651353,9.5333775382429167],[-97.179179254718747,9.5258798354861369],[-97.058833878780376,9.5198222854702408],[-96.940941314689837,9.5151933391014722],[-96.825455439816608,9.5119814472860753],[-96.712330132429543,9.5101750609304645],[-96.60151926989829,9.5097626318401467],[-96.492976731390968,9.5107326109213659],[-96.386656394277054,9.5130734481812169],[-96.282512135026934,9.5167735963245264],[-96.180497833707932,9.5218215053583322],[-96.080567365891113,9.5282056261888215],[-95.982674611643915,9.535914409722352],[-95.886773447436553,9.5449363086638641],[-95.792817751537882,9.5552597721209054],[-95.700761401317493,9.5668732518992101],[-95.610558275943561,9.5797651998042852],[-95.5221622518863,9.593924064943792],[-95.435527207414566,9.6093383009219906],[-95.35060702079727,9.6259963568465423],[-95.26735556940389,9.6438866845230109],[-95.185726731503337,9.6629977348576972],[-95.105674384465146,9.683317958756902],[-95.02715240655823,9.704835808026246],[-94.950114676051385,9.7275397326726534],[-94.874518004801985,9.7514174002929508],[-94.800344755306128,9.7764496562268164],[-94.727590443544045,9.802613831263443],[-94.656250692515357,9.8298872283130549],[-94.586321128816962,9.8582471493865569],[-94.517797376347744,9.887670898293436],[-94.450675059006642,9.918135777044597],[-94.384949801591972,9.9496190885502074],[-94.320617229801201,9.9820981348212285],[-94.257672967533324,10.015550218767714],[-94.196112638687225,10.049952643300003],[-94.135931868960483,10.085282711328205],[-94.077126282252038,10.121517724863224],[-94.019691504259413,10.158634987714663],[-93.963623157982227,10.196611800094615],[-93.908916868218796,10.235425467611378],[-93.855568260666587,10.275053290477103],[-93.803572960123915,10.315472572501335],[-93.752926589590345,10.356660616594297],[-93.703624774763455,10.398594724766895],[-93.655663140441504,10.441252199929238],[-93.609037310523377,10.484610344092232],[-93.563742909807331,10.528646461065478],[-93.519775562192365,10.573337852859765],[-93.477130894275263,10.618661821486],[-93.435804529055645,10.664595670753727],[-93.395792091331828,10.711116702673849],[-93.357089205902014,10.758202220156477],[-93.319691497564463,10.805829526111893],[-93.283594591117378,10.853975921651625],[-93.248794110459755,10.902618711484479],[-93.215285680389741,10.951735196722097],[-93.183064925705651,11.001302681173911],[-93.152127470306425,11.051298466850881],[-93.122468939889586,11.101699855763854],[-93.094084959253337,11.152484151722376],[-93.066971151397411,11.203628657636557],[-93.041124878610162,11.255111421055346],[-93.016622140799029,11.306944315727719],[-92.993648057112068,11.359186144724958],[-92.972395786636127,11.411899169011576],[-92.95305848396174,11.465145648652879],[-92.935829308175926,11.518987845512811],[-92.920901416567006,11.573488019656509],[-92.908467964624776,11.628708432048654],[-92.89872211053688,11.684711343653703],[-92.891857011591696,11.741559014537017],[-92.888065824178341,11.79931370566311],[-92.887541706484456,11.858037677097229],[-92.890477815798477,11.917793191602641],[-92.89706730761003,11.978642507445898],[-92.907503341006304,12.040647887390207],[-92.921979071476869,12.103871590601557],[-92.940687657209537,12.168375878044458],[-92.963822255492573,12.234223011582856],[-92.991576022715151,12.301475251281943],[-93.024142117064969,12.370194857207025],[-93.061713694930972,12.440444091221991],[-93.104483912702335,12.512285213392033],[-93.152645929465962,12.585780484681777],[-93.206392901611025,12.660992165156415],[-93.265917985526528,12.737982516679949],[-93.331414339400169,12.816813798418195],[-93.403075119620951,12.897548273134419],[-93.481093483477366,12.980248199994548],[-93.565662588257737,13.064975839963154],[-93.656975591250443,13.15179345400486],[-93.755225650643183,13.240763303084123],[-93.86060592102632,13.331947648165567],[-93.973309561486985,13.425408748415123],[-94.093529729313445,13.521208865696735],[-94.221459580894816,13.619410260974917],[-94.357292273519533,13.720075195214235],[-94.501220964475806,13.823265927580621],[-94.653438810152863,13.929044720837339]]]},"properties":{"objectid":2,"basin":"Pacific","prob2day":"0%","risk2day":"Low","prob7day":"80%","risk7day":"High","idp_source":"gtwo_areas_202609240535","idp_filedate":1790228259000,"idp_ingestdate":1790228267000,"st_area(shape)":93.321287116313172,"st_perimeter(shape)":39.362653046808525}},{"type":"Feature","id":3,"geometry":{"type":"Polygon","coordinates":[[[-140.48259342364747,15.100509079730386],[-140.57520438937098,15.036453801302002],[-140.66623156623371,14.971588773303381],[-140.75561742910099,14.90591464144768],[-140.84330445014018,14.83943205414613],[-140.92923510241798,14.772141657111945],[-141.01335185990035,14.704044098756299],[-141.09559719475465,14.635140025691783],[-141.17591358094694,14.565430085430251],[-141.25424349154383,14.494914923684917],[-141.33052939961203,14.423595188867012],[-141.40471377821819,14.351471527589069],[-141.47673909952971,14.278544587362944],[-141.54654783931124,14.204815014801227],[-141.61408246793144,14.130283456516452],[-141.6792854602557,14.054950560919792],[-141.74209928935062,13.97881697372452],[-141.80246642738365,13.901883343341751],[-141.8603293483207,13.824150315484815],[-141.91563052522849,13.745618537665507],[-141.96831243117367,13.666288658295059],[-142.01831754012227,13.586161323086742],[-142.06558832334235,13.505237178653033],[-142.11006725569922,13.423516873405106],[-142.1516968093602,13.341001053955608],[-142.19041945829127,13.257690367816338],[-142.2261776755592,13.173585460700565],[-142.25891393333126,13.088686981019521],[-142.28857070557353,13.002995575385626],[-142.31509046625195,12.916511890411527],[-142.33841568663456,12.829236574508457],[-142.35848884158668,12.741170273389571],[-142.37525240327568,12.652313634566724],[-142.38864884476828,12.562667305551827],[-142.39862310237419,12.47224311602713],[-142.40513966096648,12.381141710921383],[-142.4081723313879,12.289506087835832],[-142.40769497933974,12.197479503376542],[-142.40368147322135,12.105205217746743],[-142.39610567963331,12.012826486653182],[-142.38494146517638,11.92048657029909],[-142.37016269824983,11.828328726189909],[-142.351743244555,11.736496211830854],[-142.32965697249119,11.64513228652595],[-142.30387774775977,11.554380206881206],[-142.27437943875998,11.464383232200532],[-142.24113591299192,11.375284619989372],[-142.20412103615683,11.287227628652261],[-142.16330867575471,11.200355516593959],[-142.11867269928558,11.114811541319739],[-142.07018697335008,11.030738961234192],[-142.01782536544818,10.948281034742081],[-141.96156174307987,10.867581019348677],[-141.90136997284588,10.788782173458685],[-141.83722392224615,10.712027754577321],[-141.76909745788129,10.637461022008722],[-141.69696444725133,10.565225233258047],[-141.62079875695696,10.495463646730059],[-141.54057425539747,10.428319519930028],[-141.45626480737485,10.36393611216198],[-141.36784428308709,10.302456680031867],[-141.27528654643686,10.24402448284377],[-141.17856546762215,10.188782778102848],[-141.07765491144494,10.136874823314599],[-140.97252874540521,10.088443878682199],[-140.86316083790229,10.043633199912392],[-140.7495250546375,10.002586046309148],[-140.63160089376612,9.9654382550715468],[-140.50946891116121,9.93219243603221],[-140.38329708129515,9.902735959896745],[-140.25325626006827,9.8769524004330833],[-140.11951730248143,9.8547253287110834],[-139.98225106443499,9.8359383184987337],[-139.84162840092989,9.8204749408659495],[-139.6978201687657,9.8082187686813427],[-139.55099722114477,9.7990533748135249],[-139.40133041576598,9.7928623303324116],[-139.24899060763033,9.7895292090059343],[-139.09414865173881,9.7889375819040083],[-138.93697540489092,9.7909710218953023],[-138.77764172118839,9.7955131018483144],[-138.61631845653147,9.8024473937323933],[-138.45317646771974,9.8116574686173976],[-138.28838660795549,9.8230269011706923],[-138.12211973493771,9.8364392615628162],[-137.95454670366735,9.8517781235617008],[-137.78583837004464,9.8689270591365812],[-137.61616558817127,9.8877696402568063],[-137.4456992148468,9.9081894397909309],[-137.27461010507221,9.9300700297082471],[-137.10306911474777,9.9532949819779901],[-136.93124709977377,9.9777478703680345],[-136.75931491515115,10.003312265049146],[-136.58744341678016,10.029871739789087],[-136.41580345966184,10.057309867456581],[-136.24456589969645,10.085510219121431],[-136.07390159188486,10.114356367652363],[-135.90398139302675,10.14373188501861],[-135.73497615812312,10.173520344088729],[-135.56705674217483,10.203605316832068],[-135.40039304330423,10.233871300620137],[-135.23509749385414,10.264258301679433],[-135.0711934519162,10.294792361678276],[-134.9086966151566,10.325506924605008],[-134.747622679443,10.35643543444786],[-134.58798734334113,10.387611335195118],[-134.42980630361791,10.419068069036314],[-134.27309525614106,10.450839081758375],[-134.11786989767756,10.48295781555089],[-133.96414592679298,10.515457714402146],[-133.8119390402544,10.548372222300372],[-133.66126493392949,10.581734783233799],[-133.51213930548448,10.615578840291391],[-133.3645778507871,10.64993783746138],[-133.21859626930228,10.684845218731994],[-133.0742102550991,10.720334427192199],[-132.93143550764245,10.756438907729546],[-132.79028772190077,10.793192102533624],[-132.65078259643957,10.830627455592719],[-132.51293582712663,10.868778411794381],[-132.37676311162824,10.907678413328256],[-132.242280145812,10.947360905081837],[-132.1095026282436,10.98785933014409],[-131.97844625479075,11.029207132503302],[-131.8491267231197,11.071437755248326],[-131.72155972999747,11.114584643266824],[-131.59576097219104,11.158681239647649],[-131.47174614646741,11.203760987479711],[-131.34953095049286,11.249857331650674],[-131.22913108013518,11.297003715249389],[-131.11056223395985,11.345233581364823],[-130.99384010693529,11.394580374884526],[-130.87898039852649,11.445077538897465],[-130.76599880460105,11.496758507499237],[-130.65491234123147,11.549646560540452],[-130.54574180613935,11.603735778683358],[-130.43850867513515,11.659015022025756],[-130.33323442492866,11.715473149766183],[-130.22994052953175,11.773099022901704],[-130.12864846475475,11.831881502429553],[-130.02937970730756,11.891809446648779],[-129.93215573120193,11.952871717455935],[-129.83699801224839,12.015057174049502],[-129.74392802715664,12.078354677426546],[-129.65296725083789,12.1427530885843],[-129.56413715820321,12.208241265821925],[-129.47745922506311,12.274808070136487],[-129.39295492812732,12.342442362525162],[-129.31064574140777,12.411133003085752],[-129.23055314071479,12.480868851016794],[-129.1526986018589,12.55163876821473],[-129.07710360065056,12.62343161297872],[-129.0037896120009,12.696236247205206],[-128.9327781126197,12.770041530092669],[-128.86409057651878,12.844836322638344],[-128.79774847950864,12.920609484939916],[-128.73377329829901,12.997349877095303],[-128.67218650780103,13.075046359202247],[-128.61300958292583,13.153687792257927],[-128.55626399948392,13.23326303546088],[-128.5019712332857,13.313760949808113],[-128.45015276014169,13.395170394498223],[-128.40083005496297,13.477480231427649],[-128.35402459445936,13.560679319794929],[-128.30975785264269,13.644756519697751],[-128.26805130532341,13.729700693032669],[-128.22892642831192,13.815500697199582],[-128.19240316317536,13.902137985479783],[-128.15849286385452,13.989552548811218],[-128.12720389854098,14.077669963797916],[-128.09854463362785,14.166415794453485],[-128.07252343460874,14.255715603892156],[-128.04914866877596,14.345494956127482],[-128.02842870072385,14.435679414273693],[-128.01037189774479,14.52619454054576],[-127.99498662443307,14.616965898957233],[-127.98228124808105,14.707919053521664],[-127.97226413328303,14.798979567353285],[-127.96494364733138,14.890073002667066],[-127.96032815482039,14.981124923476557],[-127.95842602304242,15.072060893795367],[-127.95924561749115,15.162806475838352],[-127.96279530366024,15.253287233619062],[-127.96908344794269,15.343428730251844],[-127.97811841673143,15.433156528850873],[-127.98990857462093,15.52239619253038],[-128.00446228980275,15.61107328620335],[-128.02178792597192,15.699113371185263],[-128.04189385042076,15.786442011489783],[-128.064788428643,15.872984771130405],[-128.09048002613218,15.958667212322155],[-128.1189770101808,16.043414899078471],[-128.1502877462824,16.127153395413018],[-128.18442059993066,16.209808262641332],[-128.22138393751862,16.291305065676397],[-128.2611861245399,16.371569367632333],[-128.3038355273876,16.450526731623484],[-128.34934051155528,16.528102720764082],[-128.39770944343599,16.604222899067679],[-128.4489506894227,16.678812828749187],[-128.50307079208329,16.751799922828297],[-128.56005510236099,16.823133080927107],[-128.61987530240322,16.892775066616196],[-128.68250284233221,16.960688876390691],[-128.74790917586768,17.026837504047705],[-128.81606575403123,17.091183945183047],[-128.88694402964319,17.153691195392469],[-128.96051545552376,17.214322248473138],[-129.03675148269468,17.273040100020751],[-129.11562356397621,17.329807744731795],[-129.1971031512893,17.384588179101343],[-129.28116169655499,17.437344396926505],[-129.36777065349276,17.488039392903772],[-129.45690147222507,17.536636163528271],[-129.54852560647146,17.583097702597058],[-129.64261450815292,17.627387005705884],[-129.73913962919045,17.669467067551238],[-129.83807242150493,17.709300883728929],[-129.93938433701743,17.746851448935388],[-130.04304682944752,17.78208175876631],[-130.14903134981682,17.814954807018864],[-130.2573093500464,17.845433590188179],[-130.36785228385571,17.873481102071366],[-130.48063160226656,17.899060339163441],[-130.59561875719982,17.922134295261628],[-130.71278520147575,17.94266596596168],[-130.83210238701548,17.960618345960029],[-130.95354176663915,17.975954430852426],[-131.07707479226775,17.988637215335359],[-131.20267291492297,17.998629695004581],[-131.33030758832444,18.005894864556467],[-131.45995026439311,18.010395717788299],[-131.59157239504992,18.012095252094355],[-131.72514437281444,18.010958242828792],[-131.86060448171139,18.007003511902667],[-131.99785387995252,18.00031235982766],[-132.13679165820838,17.990969569290314],[-132.27731690804876,17.979059921178532],[-132.4193287192449,17.964668199078289],[-132.56272618336658,17.947879183877376],[-132.7074083910843,17.928777656463808],[-132.85327443306852,17.907448400423505],[-133.00022339998981,17.883976196644312],[-133.14815438341799,17.85844582691351],[-133.29696647402346,17.830942073917697],[-133.4465587624768,17.801549719444154],[-133.5968303394485,17.770353544380725],[-133.74768029650841,17.737438331414012],[-133.89900772342759,17.702888861431973],[-134.05071171267531,17.666789918020413],[-134.20269135312338,17.629226282067407],[-134.35484573724091,17.590282735360063],[-134.50707395479907,17.550044059685717],[-134.65927509736775,17.50859503683165],[-134.81134825561742,17.46602044948429],[-134.96319252021857,17.42240507943103],[-135.11470698274098,17.377833707559716],[-135.26579073295585,17.332391116556948],[-135.41634286243305,17.286162088209949],[-135.56626246184305,17.239231403406677],[-135.71544862275567,17.191683845733053],[-135.86380043404273,17.143604196076922],[-136.01121698907269,17.09507723622562],[-136.15759737671749,17.046187747966314],[-136.30284068854684,16.99702051398566],[-136.44684601613068,16.947660315171561],[-136.58951262820511,16.898191737259026],[-136.73076878854869,16.848667317742638],[-136.87060356500245,16.799072397673172],[-137.00901367953759,16.749383854581367],[-137.14599585412526,16.699578567796777],[-137.28154681163596,16.649633413951051],[-137.41566327583939,16.599525272373569],[-137.54834196780746,16.549231021494563],[-137.67957961130992,16.498727538845003],[-137.80937292831788,16.447991702854949],[-137.93771864170185,16.397000391055315],[-138.0646134743323,16.345730483675027],[-138.19005414818031,16.294158857345508],[-138.31403738611641,16.242262390497046],[-138.43655991011167,16.190017961559818],[-138.55761844393595,16.137402448963996],[-138.67720971045969,16.084392730240438],[-138.79533043075469,16.030965684718694],[-138.91197732769143,15.977098189929677],[-139.02714712503968,15.922767124303505],[-139.14083654477065,15.867949366270352],[-139.25304230975473,15.812621793361188],[-139.36376114196304,15.756761284905508],[-139.47298976426612,15.700344718434167],[-139.5807248995344,15.643348972377339],[-139.68696327063833,15.585750924265881],[-139.79170159864975,15.527527453429343],[-139.8949366082378,15.468655437398638],[-139.99666502047421,15.409111754603941],[-140.09688355912886,15.34887328347537],[-140.19558894617285,15.287916902443214],[-140.29277790447662,15.226219489038328],[-140.38844715601135,15.163757922590207],[-140.48259342364747,15.100509079730386]]]},"properties":{"objectid":3,"basin":"Pacific","prob2day":"0%","risk2day":"Low","prob7day":"20%","risk7day":"Low","idp_source":"gtwo_areas_202609240535","idp_filedate":1790228259000,"idp_ingestdate":1790228267000,"st_area(shape)":85.483267768986593,"st_perimeter(shape)":36.290078341342578}}]}