{"type":"FeatureCollection","features":[{"type":"Feature","id":1,"geometry":{"type":"Polygon","coordinates":[[[-53.944984328064152,25.403119064393422],[-53.855736378930601,25.442354149724395],[-53.771045534723555,25.482720852885222],[-53.690821224719627,25.524206932304253],[-53.614972877296339,25.566800146409776],[-53.543409921730415,25.610488255428777],[-53.476041788197847,25.655259018688923],[-53.412777905076155,25.701100193719128],[-53.353527701642008,25.747999540746378],[-53.298200607172191,25.795944819098281],[-53.246706050943374,25.844923787203186],[-53.198953461333076,25.894924204388644],[-53.154852268517288,25.945933829982437],[-53.114311900873417,25.997940423312002],[-53.077241787678247,26.050931742805801],[-53.043551359107823,26.104895547791443],[-53.013150042640234,26.159819597596481],[-52.985947269350902,26.215691650649319],[-52.961852466717858,26.272499467176829],[-52.940775064917204,26.330230805607357],[-52.922624492326349,26.388873425268514],[-52.907310179121339,26.448415084588646],[-52.894741553679637,26.508843543794626],[-52.88482804527797,26.570146561314914],[-52.877479083193009,26.632311896477006],[-52.872604096701593,26.695327307709249],[-52.870112515080393,26.759180555238572],[-52.869913767606192,26.823859398392642],[-52.871917282656341,26.889351594700486],[-52.876032489507679,26.955644903489656],[-52.882168817436877,27.022727084987139],[-52.890235696619982,27.090585898520544],[-52.900142555434456,27.159209101618899],[-52.911798822257708,27.228584454509132],[-52.92511392816516,27.298699715619534],[-52.939997300634786,27.369542645177091],[-52.956358368943484,27.441101000710773],[-52.974106563267185,27.51336254244751],[-52.993151311983354,27.586315029714967],[-53.013402045268037,27.659946220941492],[-53.03476819059938,27.734243875454638],[-53.057159178153427,27.80919575258207],[-53.080484437206906,27.88478961075208],[-53.104653396137223,27.961013209292332],[-53.129575486019746,28.037854308429758],[-53.155160133433299,28.115300665693326],[-53.181316769453247,28.193340041310023],[-53.207954821557678,28.27196019280882],[-53.234983720821958,28.351148881315964],[-53.262312895623495,28.430893865259804],[-53.289851853480116,28.511182880585636],[-53.317536698459776,28.591995825646961],[-53.345368736377964,28.673293386580667],[-53.373359075660687,28.755033362699692],[-53.401518829230497,28.837173547921054],[-53.429859106412493,28.91967174155775],[-53.458391019230021,29.00248574022487],[-53.487125678806933,29.085573340537394],[-53.516074195367707,29.1688923391103],[-53.545247679136992,29.252400532558681],[-53.574657243037223,29.336055719296155],[-53.604313996393728,29.419815695937757],[-53.634229050330305,29.503638258199203],[-53.664413516870184,29.587481204494111],[-53.694878505338636,29.671302331437573],[-53.725635127758835,29.755059434745249],[-53.756694494355315,29.838710313730132],[-53.788067716251987,29.92221276320862],[-53.819765904572705,30.005524581594329],[-53.851800170441379,30.088603564602977],[-53.884181624981863,30.171407509748917],[-53.916921378418749,30.253894215445825],[-53.95003054097657,30.336021476510098],[-53.98352022557782,30.417747090455975],[-54.01740154154777,30.499028854797928],[-54.05168560001033,30.579824567050252],[-54.086383512988618,30.660092022928666],[-54.121506389807905,30.739789019947466],[-54.157065343390798,30.818873354721688],[-54.193071482163077,30.897302824765688],[-54.229535919047294,30.975035226694501],[-54.266469764268095,31.052028358022426],[-54.303884128049958,31.128240015364554],[-54.341790123315434,31.203627995335864],[-54.380198858490417,31.278150095450712],[-54.419121446497456,31.351764112324076],[-54.458568996661768,31.424427843470369],[-54.498552621006525,31.496099085504511],[-54.539083429756374,31.566735634142333],[-54.580172534934434,31.636295288696772],[-54.621831045865974,31.704735844883487],[-54.664070075473489,31.772015100216834],[-54.70690073218293,31.838090850412584],[-54.75033412981611,31.9029208938843],[-54.794381376798981,31.966463027247073],[-54.839053585154716,32.028675046216563],[-54.884361865107849,32.089514750105764],[-54.930317328681667,32.148939933731128],[-54.976931086100649,32.206908395506218],[-55.024214248488647,32.263377931146749],[-55.072177935063564,32.318306568393552],[-55.120833763267456,32.371666109003854],[-55.170194125758201,32.42344970823757],[-55.22027147904538,32.47365235866954],[-55.27107828053812,32.522269051075966],[-55.322626988544584,32.569294778031747],[-55.374930061373107,32.614724531212289],[-55.42799995553338,32.658553302293228],[-55.481849129333739,32.700776082950028],[-55.536490040183082,32.741387866656851],[-55.591935146389801,32.780383643290634],[-55.648196905362795,32.817758405426218],[-55.705287774511078,32.853507145638389],[-55.763220211243663,32.887624855602724],[-55.822006673868771,32.920106526095424],[-55.881659620694847,32.950947149691331],[-55.942191507332097,32.980141718965285],[-56.003614793887493,33.007685224693489],[-56.065941936870786,33.03357265945084],[-56.129185393690875,33.057799015812066],[-56.193357622656038,33.080359283654161],[-56.258471081175344,33.101248456451231],[-56.324538227557014,33.120461525878852],[-56.391571518310798,33.137993482713227],[-56.459583411744916,33.15383932042846],[-56.528586366167758,33.167994029800752],[-56.598592838088905,33.180452603405058],[-56.669615286716009,33.191210032916842],[-56.741666167659389,33.20026131001157],[-56.814757941026016,33.207601426364874],[-56.888903062426266,33.213225374551541],[-56.964113991067734,33.217128146247092],[-57.040403183460057,33.219304732227727],[-57.117783097911513,33.219750125967664],[-57.196266192730491,33.218459319142426],[-57.275864924426628,33.215427302528155],[-57.356591751308144,33.210649069599015],[-57.438459130784167,33.204119610231999],[-57.52147952116286,33.195833917901155],[-57.605665379853292,33.185786984282061],[-57.691029164264421,33.173973800150918],[-57.777583331805204,33.160389358981888],[-57.865340341683293,33.145028651551172],[-57.954312649509063,33.127886670433611],[-58.044512714490054,33.108958407304783],[-58.135952994035335,33.088238852940833],[-58.228645945553808,33.065723000815979],[-58.322604027353862,33.041405842605684],[-58.417839695945077,33.015282369086208],[-58.514365409635843,32.987347572832391],[-58.612191361342127,32.957597004897991],[-58.711275630965474,32.926039054159162],[-58.811524190788646,32.892694952710031],[-58.912840745903566,32.857586488425852],[-59.015129000502839,32.820735451879727],[-59.118292662376348,32.782163630946968],[-59.222235434817321,32.741892815301355],[-59.32686102381706,32.699944793717407],[-59.432073134467487,32.656341355869017],[-59.537775472759733,32.611104290530704],[-59.643871742886517,32.564255387376363],[-59.750265651738346,32.515816434281135],[-59.856860904407085,32.46580922181829],[-59.963561205085455,32.414255537862914],[-60.070270259764584,32.361177172088958],[-60.176891774435717,32.306595914170259],[-60.283329453291515,32.25053355198196],[-60.389487002323165,32.19301187519801],[-60.495268127521967,32.134052673492249],[-60.600576533080414,32.073677734739817],[-60.705315924090485,32.011908849513929],[-60.809390007442801,31.94876780658916],[-60.912702488229115,31.884276393840651],[-61.015157070642204,31.818456401841615],[-61.116657460673139,31.751329618467253],[-61.217107363413959,31.682917833391457],[-61.316410484855851,31.613242836288009],[-61.414470530090796,31.542326415931484],[-61.511191204210604,31.470190361096456],[-61.606476213206577,31.39685646145665],[-61.700229261271261,31.322346505786754],[-61.792354054395958,31.246682282861229],[-61.882754298571911,31.169885581454537],[-61.971333697991668,31.091978192140004],[-62.057995959545792,31.012981903692037],[-62.142644786527569,30.932918503985888],[-62.225183886726882,30.851809782695454],[-62.305516963437015,30.769677529494516],[-62.383547722649155,30.686543533157646],[-62.459179869455284,30.602429583358742],[-62.532317109846645,30.517357467972886],[-62.602863149814425,30.431348977573407],[-62.67072169265191,30.34442589913607],[-62.735796445249662,30.256610024133465],[-62.797991112699606,30.167923140440735],[-62.857209400992929,30.078387037731773],[-62.913355013423029,29.98802350388172],[-62.966331657779676,29.896854330363226],[-63.016043038255475,29.804901303252677],[-63.062392859942406,29.712186214022722],[-63.105289783196838,29.618732923485766],[-63.144700068153497,29.524589373600861],[-63.180627134934241,29.429819048410479],[-63.213075025991543,29.334485686465428],[-63.242047779281449,29.238653029913564],[-63.267549436357285,29.142384819104279],[-63.289584037872942,29.045744794386906],[-63.308155623583048,28.948796697010096],[-63.323268233242231,28.851604266423919],[-63.334925908403818,28.754231244776292],[-63.343132688822436,28.656741371517228],[-63.347892614252657,28.559198386996115],[-63.34920972624775,28.461666033360871],[-63.34708806366308,28.36420805006162],[-63.341531668051914,28.266888178346903],[-63.332544580068202,28.169770158566109],[-63.320130838567252,28.072917731068571],[-63.304294485102275,27.976394637102942],[-63.285039559428014,27.880264617018611],[-63.262370102198361,27.784591411164854],[-63.236290153167943,27.689438760790324],[-63.206803752990709,27.594870406244411],[-63.173914942320607,27.50095008787639],[-63.137627760912324,27.407741546934972],[-63.097946250319069,27.315308523769488],[-63.054874449396209,27.223714758729272],[-63.008416398797635,27.133023992163658],[-62.958576140076673,27.043299966220616],[-62.90535771208863,26.95460641945084],[-62.848765155487399,26.867007094901624],[-62.788802510927042,26.780565731123716],[-62.725473819061392,26.695346069365769],[-62.658783118745816,26.61141185087638],[-62.588734452432902,26.52882681600488],[-62.515331858978016,26.447654705100717],[-62.438579379034991,26.36795925851311],[-62.35848105325789,26.289804217490769],[-62.275040922300605,26.213253322383082],[-62.1882630250185,26.138370314438589],[-62.098151403864108,26.065218934006737],[-62.004710096793417,25.993862920537481],[-61.907943146259072,25.924366016178851],[-61.807854591116381,25.856791961280123],[-61.704448472019237,25.791204496190687],[-61.597728830521021,25.727667361259876],[-61.487699705476928,25.666244297736284],[-61.374365137540963,25.60699904596936],[-61.257729167367074,25.549995346308322],[-61.137795834709891,25.495296940001936],[-61.014569181122681,25.442967567399478],[-60.888068216474892,25.393062305680985],[-60.758411477707398,25.345578642140765],[-60.625758100755604,25.300490565687198],[-60.490267342963421,25.257772001376907],[-60.35209846077521,25.217396869769857],[-60.211410709736356,25.179339093224712],[-60.068363348089918,25.143572594999398],[-59.923115630481846,25.110071296553258],[-59.775826815155256,25.078809121144161],[-59.626656157655418,25.049759989332188],[-59.475762914426866,25.022897824375264],[-59.323306341914019,24.998196549531258],[-59.169445697460844,24.975630085360308],[-59.014340237511817,24.955172355120226],[-58.858149217612208,24.936797280270412],[-58.701031895105757,24.920478784068791],[-58.543147526437053,24.906190788873971],[-58.384655367151367,24.893907216145237],[-58.225714675491758,24.88360198824131],[-58.066484707003497,24.875249028420058],[-57.907124718131115,24.868822257241504],[-57.747793965319147,24.864295598862952],[-57.588651705911388,24.861642974743631],[-57.42985719545311,24.860838306342885],[-57.271569690388787,24.861855517818015],[-57.113948448062331,24.864668529728988],[-56.957152724918217,24.869251264434467],[-56.801341777400978,24.875577646091642],[-56.646674861955205,24.883621594361216],[-56.493311235025374,24.893357033400491],[-56.341410152156698,24.904757884668811],[-56.19113087159235,24.917798071423988],[-56.042632649776863,24.932451514226159],[-55.896074741356131,24.948692137232513],[-55.751616404573269,24.966493861003016],[-55.609416895872926,24.985830608795709],[-55.469635470800199,25.00667630296914],[-55.332431386699,25.029004865881973],[-55.19796390001386,25.05279021899355],[-55.066392266289938,25.078006285561798],[-54.937875743770462,25.104626987045947],[-54.812573588000589,25.132626245804715],[-54.690645054525532,25.161977985096087],[-54.572249402487842,25.192656126379291],[-54.457545885633976,25.224634591113613],[-54.346693762207224,25.257887303456414],[-54.23985228775274,25.292388184866979],[-54.137180719614378,25.328111156804596],[-54.038838314236671,25.365030142527189],[-53.944984328064152,25.403119064393422]]]},"properties":{"objectid":1,"basin":"Atlantic","prob2day":"0%","risk2day":"Low","prob7day":"20%","risk7day":"Low","idp_source":"gtwo_areas_202609130532","idp_filedate":1789277877000,"idp_ingestdate":1789277931000,"st_area(shape)":67.013881015666684,"st_perimeter(shape)":29.904507722700114}},{"type":"Feature","id":2,"geometry":{"type":"Polygon","coordinates":[[[-115.87800442846151,18.919869548540987],[-115.97938881943838,18.968500580637453],[-116.08268487950352,19.015420148021576],[-116.18783888675512,19.060650034971275],[-116.2947971147949,19.104212023066566],[-116.40350584082182,19.146127895685993],[-116.51391133933674,19.186419436208155],[-116.62595988663935,19.225108426213012],[-116.73959775723063,19.262216649079221],[-116.85477122830946,19.297765888185324],[-116.97142657347752,19.331777925111282],[-117.089510070833,19.364274543235695],[-117.20896799397764,19.395277524138578],[-117.32974661921099,19.424808652997058],[-117.45179222193337,19.452889710491888],[-117.57505107754508,19.479542480900932],[-117.69946946234569,19.504788744904772],[-117.82499365173555,19.528650287680762],[-117.95156992111487,19.551148890808804],[-118.07914454588399,19.572306336768179],[-118.20766380234249,19.592144408038166],[-118.33707396499142,19.610684888896628],[-118.46732131013027,19.627949560923639],[-118.59835211405874,19.643960207497742],[-118.73011265037843,19.658738611098158],[-118.8625491971876,19.672306554204226],[-118.99560802808793,19.684685819295282],[-119.12923541937903,19.695898190649132],[-119.26337764646109,19.705965449845792],[-119.39798098563386,19.714909379364485],[-119.53299171229759,19.722751762583925],[-119.66835610095319,19.729514381983279],[-119.80402042879967,19.735219020941202],[-119.93993096943859,19.739887461037654],[-120.07603400096826,19.743541486550498],[-120.21227579699035,19.746202879059751],[-120.34860263380443,19.747893421944013],[-120.48496078771007,19.748634897682507],[-120.62129653230903,19.748449088754569],[-120.75755614569948,19.747357778538799],[-120.89368590148308,19.74538274951442],[-121.02963207685877,19.742545784160768],[-121.16534094632749,19.738868665856387],[-121.30075883565166,19.734373037685657],[-121.43583647097626,19.729068427965728],[-121.5705323270052,19.722943015108228],[-121.70480566714775,19.715982806561442],[-121.83861575481313,19.708173810672974],[-121.97192185610868,19.699502033092472],[-122.10468323264496,19.689953481268276],[-122.23685914873062,19.679514161749296],[-122.36840886957356,19.668170082883137],[-122.49929165768378,19.655907250319501],[-122.62946677826909,19.642711671506561],[-122.75889349383959,19.628569353892715],[-122.88753106960309,19.613466304026872],[-123.01533876806963,19.597388528457941],[-123.14227585444701,19.580322035533641],[-123.26830159214467,19.56225283180288],[-123.39337524547113,19.543166923814624],[-123.51745607783562,19.523050319017159],[-123.6405033526475,19.50188902395945],[-123.76247633511468,19.479669046089725],[-123.88333428864644,19.456376392856384],[-124.00303647665197,19.431997069909016],[-124.12154216343998,19.406517085595169],[-124.23881061241974,19.379922446463866],[-124.35480108879909,19.352199159963391],[-124.4694728550881,19.32333323264271],[-124.58278517649461,19.29331067105079],[-124.69469731552857,19.262117483535178],[-124.805168537398,19.229739675745577],[-124.91415810461274,19.196163255130273],[-125.0216252823808,19.161374229137493],[-125.12752933411139,19.125358605215581],[-125.23182952411315,19.088102389014182],[-125.33448511489604,19.049591588880844],[-125.43545537256728,19.00981221046527],[-125.53469955963686,18.968750262115066],[-125.63217693951407,18.926391750379139],[-125.72784677740674,18.882722682705776],[-125.82166833672426,18.837729064744678],[-125.91360088177521,18.791396904843396],[-126.00360367506948,18.743712209550949],[-126.09163598271437,18.694660986315625],[-126.17765706632048,18.644229240786956],[-126.26162718664523,18.592404663944251],[-126.34352331115178,18.539203186378074],[-126.42333627754709,18.484664181307039],[-126.50105733812558,18.428827725219492],[-126.57667775057763,18.37173389999964],[-126.65018876719773,18.31342278483379],[-126.72158164567634,18.253934458008985],[-126.79084763920707,18.193309000510112],[-126.85797800368181,18.131586490624159],[-126.92296399409298,18.068807008436806],[-126.98579686543292,18.005010634033681],[-127.04646787179473,17.940237446601031],[-127.1049682690703,17.874527525325163],[-127.1612893131512,17.807920950291759],[-127.2154222572313,17.740457800687068],[-127.26735835720234,17.672178156596772],[-127.31708886805671,17.603122096307857],[-127.36460504478691,17.533329700805211],[-127.40989814328458,17.462841049275141],[-127.45295941674362,17.391696220904009],[-127.49378012195496,17.319935294878121],[-127.5323515130118,17.247598352182365],[-127.56866484490655,17.174725471103727],[-127.60271137263163,17.101356731727947],[-127.63448235207881,17.027532213241216],[-127.66396903734113,16.95329199572916],[-127.69116268341099,16.878676157478822],[-127.71605454618026,16.803724779475147],[-127.73863587974199,16.728477940904384],[-127.75889793998783,16.652975721852215],[-127.77683198101101,16.577258200605627],[-127.79242925870324,16.501365457250188],[-127.80568102805688,16.42533757097226],[-127.81657854316512,16.34921462275679],[-127.82511305991972,16.273036690890706],[-127.83127583241367,16.19684385456037],[-127.83505811743805,16.120676194750729],[-127.83645116818678,16.044573789748711],[-127.83544624055145,15.968576719640055],[-127.83203458862528,15.892725064510273],[-127.82620746919923,15.817058902646352],[-127.81795613636649,15.74161831413403],[-127.80727184422017,15.666443379058819],[-127.79414185296406,15.591572947233885],[-127.77852875439839,15.51703827909347],[-127.76038574420664,15.442867743751492],[-127.73966599738776,15.369089704026749],[-127.71632268984018,15.295732524536504],[-127.69030899656286,15.222824566300858],[-127.66157809345418,15.150394194836338],[-127.63008315731179,15.078469772062476],[-127.59577736223537,15.007079661697162],[-127.55861388412336,14.936252226559134],[-127.51854589887404,14.866015830366393],[-127.4755265832851,14.79639883503836],[-127.42950911055692,14.727429606091562],[-127.38044665838646,14.659136505445531],[-127.32829240177284,14.591547895918779],[-127.27299951571501,14.52469214122948],[-127.21452117701062,14.45859760509552],[-127.15281056065874,14.393292649436376],[-127.08782084165841,14.328805638869255],[-127.0195051968073,14.265164936212955],[-126.94781680200373,14.202398904286156],[-126.87270883134738,14.140535906806804],[-126.79413446163602,14.079604306593637],[-126.71204686786859,14.019632467364602],[-126.62639922594343,13.960648751938493],[-126.53714471175897,13.902681524033255],[-126.44423650121348,13.845759145568252],[-126.34762776840671,13.78990998206018],[-126.24727169103562,13.735162394529027],[-126.14312144319996,13.68154474669285],[-126.03513020169737,13.629085403168972],[-125.92325114152686,13.577812725876754],[-125.8074374376875,13.527755077634879],[-125.68764226697692,13.478940823060668],[-125.5638188043942,13.431398324972861],[-125.43592022673698,13.385155946190082],[-125.30389970720563,13.340242049531071],[-125.16771042439649,13.296684999613205],[-125.02730555150993,13.254513158355735],[-124.88263826534359,13.213754889476718],[-124.73366174089654,13.174438556694156],[-124.58032915496642,13.136592522826788],[-124.42259381025605,13.100245140800723],[-124.26047381371546,13.065419697661071],[-124.09415731970444,13.032126187573624],[-123.92386003960905,13.000372450828081],[-123.74979768031858,12.970166325915329],[-123.57218595321905,12.941515652225689],[-123.39124056699848,12.914428270048745],[-123.20717723034483,12.888912018774761],[-123.02021165374475,12.864974738693377],[-122.83055954588622,12.842624268295481],[-122.63843661635667,12.821868446971393],[-122.44405857474334,12.802715115910019],[-122.24764112973423,12.78517211270298],[-122.04939999181607,12.769247278539183],[-121.8495508687775,12.754948451909684],[-121.64830947200443,12.742283473103953],[-121.44589150928562,12.731260181512312],[-121.2425126902084,12.721886416525024],[-121.03838872436006,12.71417001843173],[-120.83373532132794,12.708118825723375],[-120.62876819069936,12.703740678689485],[-120.4237030411623,12.701043417619758],[-120.21875558320352,12.700034880105761],[-120.0141415246116,12.700722907336456],[-119.81007657587321,12.703115338702048],[-119.60677644567636,12.707220012693597],[-119.40445684360833,12.713044770499891],[-119.20333348015589,12.72059745061199],[-119.00362206310763,12.729885893319477],[-118.80553830295025,12.740917937113238],[-118.60929790837167,12.753701423182292],[-118.41511658895934,12.76824418911815],[-118.22321005340115,12.784554076109885],[-118.03379401308314,12.802638923547647],[-117.84708417489469,12.822506570821702],[-117.66329625022166,12.844164857322426],[-117.48264594775219,12.867621622440083],[-117.30534897617423,12.892884706464145],[-117.13162104597438,12.919961948785044],[-116.96167786494141,12.948861187893669],[-116.79573514446128,12.979590264978867],[-116.63400859232257,13.012157018531695],[-116.47671391901207,13.046569288841738],[-116.32406332046577,13.082834316350784],[-116.17615294859962,13.120939571704014],[-116.03293910265739,13.160848698908467],[-115.89436975595936,13.202523922840896],[-115.76039288092664,13.245927467478793],[-115.63095644998009,13.291021558598175],[-115.50600843644008,13.337768421075907],[-115.38549681362696,13.386130279788745],[-115.26936955486099,13.436069359613384],[-115.15757463166381,13.487547885426693],[-115.05006001825512,13.540528082105425],[-114.9467736870559,13.59497217542571],[-114.84766361048713,13.650842389364925],[-114.75267776276843,13.708100948799881],[-114.66176411542148,13.766710080406028],[-114.57487064266593,13.826632006362161],[-114.49194531692274,13.887828954242991],[-114.41293611061292,13.950263147126691],[-114.3377909970568,14.013896810789333],[-114.2664579495746,14.078692171007049],[-114.19888493968813,14.144611450857894],[-114.13501994251624,14.211616876118057],[-114.07481092958062,14.279670672563611],[-114.01820587420161,14.34873506417199],[-113.96515274880022,14.418772276719324],[-113.91559952759604,14.489744534183046],[-113.86949418211071,14.561614061439911],[-113.82678468566462,14.634343085165369],[-113.78741901157804,14.707893828437591],[-113.75134513227192,14.782228517032593],[-113.71851102106666,14.857309375827185],[-113.68886465128253,14.933098629698122],[-113.66235399534054,15.009558503522271],[-113.63892702566159,15.086651222176329],[-113.61853171556612,15.164339011436368],[-113.60111603927368,15.242584095279938],[-113.58662796740668,15.321348698583733],[-113.575015475084,15.400595047123886],[-113.56622653382738,15.480285365777149],[-113.56020911695708,15.560381878521014],[-113.55691119689413,15.640846811131553],[-113.55628074785812,15.721642388485577],[-113.55826574227007,15.80273083545984],[-113.56281648269442,15.884073859820887],[-113.56990617293144,15.965628082769967],[-113.57952100928708,16.047347240482907],[-113.59164734095191,16.129185037659511],[-113.60627151441878,16.211095174502816],[-113.62337987707957,16.293031355712628],[-113.64295877722572,16.374947284189943],[-113.66499456134983,16.456796661936551],[-113.68947357774334,16.538533191853446],[-113.71638217379819,16.620110576841796],[-113.74570669690644,16.701482520701916],[-113.77743349535945,16.782602725435595],[-113.81154891475052,16.863424894843149],[-113.8480393042704,16.943902730926425],[-113.88689101131104,17.023989936586418],[-113.92809038236516,17.103640214724294],[-113.97162376572413,17.182807268240992],[-114.0174775087799,17.261444800936943],[-114.06563795892458,17.339506514813934],[-114.11609146355011,17.416946112773019],[-114.16882437094785,17.49371729771525],[-114.22382302761054,17.569773773441057],[-114.28107378093017,17.645069241052795],[-114.34056298009733,17.719557405250214],[-114.40227697070554,17.793191967135726],[-114.46620210104601,17.865926631409025],[-114.53232471851084,17.937715100071955],[-114.60063117139134,18.008511075126137],[-114.6711078061802,18.078268261271376],[-114.74374097026947,18.146940360509348],[-114.81851701195046,18.214481075741219],[-114.89542227771585,18.280844108968608],[-114.97444311675633,18.345983164891265],[-115.05556587466526,18.409851944611717],[-115.13877690063339,18.47240415193022],[-115.22406254115327,18.533593490647206],[-115.31140914361697,18.593373661865144],[-115.40080305631591,18.651698368485086],[-115.49223062664203,18.708521315206667],[-115.585678201088,18.763796204031735],[-115.68113212794526,18.817476736961964],[-115.77857875460575,18.869516617797785],[-115.87800442846151,18.919869548540987]]]},"properties":{"objectid":2,"basin":"Pacific","prob2day":"80%","risk2day":"High","prob7day":"90%","risk7day":"High","idp_source":"gtwo_areas_202609130532","idp_filedate":1789277877000,"idp_ingestdate":1789277931000,"st_area(shape)":82.623337732917406,"st_perimeter(shape)":35.160514588665819}},{"type":"Feature","id":3,"geometry":{"type":"MultiPolygon","coordinates":[[[[-147.99457505469493,13.771815126966658],[-147.99446863072265,13.769781832665558],[-147.99415319081703,13.76769628325701],[-147.99363447984729,13.765559916756899],[-147.99291824538062,13.76337416938253],[-147.9920102322863,13.761140477351262],[-147.99091618723216,13.758860276880398],[-147.9896418568861,13.756535005086562],[-147.98819298701665,13.754166099086319],[-147.98657532339237,13.751754994197768],[-147.98479461268116,13.749303127537416],[-147.9828566006515,13.746811935322683],[-147.98076703397135,13.744282854670132],[-147.97853165840922,13.741717321797125],[-147.97615621973367,13.739116772920852],[-147.97364646551188,13.736482646057425],[-147.97100814061312,13.733816375625395],[-147.96824699080591,13.731119398741384],[-147.96536876365744,13.72839315342145],[-147.96237920493627,13.725639074983462],[-147.95928406041097,13.72285859964478],[-147.95608907585009,13.720053164522085],[-147.95279999882081,13.717224205832565],[-147.94942257419237,13.714373160692958],[-147.9459625477333,13.711501465320509],[-147.94242566701084,13.708610556831843],[-147.93881767779351,13.705701870545056],[-147.93514432584988,13.702776843576601],[-147.93141135784779,13.699836912143894],[-147.92762451865653,13.696883513363616],[-147.92378955674258,13.6939180834529],[-147.91991221607583,13.690942059528538],[-147.9159982433242,13.687956877807778],[-147.9120533851555,13.68496397450798],[-147.90808338823769,13.681964785846333],[-147.90409399743996,13.678960748939573],[-147.90009095943014,13.675953300904268],[-147.89608002087618,13.672943877058401],[-147.8945750468009,13.67181509389161],[-147.89407338427918,13.672191381027574],[-147.89006136743808,13.675201073770666],[-147.88605581582317,13.67820915133143],[-147.88206247520299,13.681214174794491],[-147.87808709044677,13.684214710640504],[-147.87413540912175,13.687209319954263],[-147.87021317609711,13.690196566518466],[-147.86632613894008,13.693175015015072],[-147.8624800434192,13.696143228327458],[-147.85868063530299,13.699099769339],[-147.85493366036005,13.702043201832453],[-147.85124486525825,13.704972089590399],[-147.84761999666543,13.707884995496272],[-147.84406480035017,13.710780483332769],[-147.84058502208103,13.713657116882587],[-147.83718640852584,13.716513459029045],[-147.83387470545321,13.719348074454217],[-147.83065565953098,13.722159524242784],[-147.82753501562837,13.724946373976138],[-147.82451852131263,13.727707186537543],[-147.82161192325157,13.73044052570981],[-147.81882096541514,13.733144953476938],[-147.81615139537053,13.735819035420263],[-147.81360895978557,13.738461333523844],[-147.81119940352957,13.741070411570377],[-147.80892847327033,13.743644832443181],[-147.80680191567578,13.74618316082433],[-147.80482547651445,13.748683959597201],[-147.80300490155489,13.751145792544435],[-147.80134593746496,13.753567222549407],[-147.79985433091255,13.755946813394871],[-147.79853582676691,13.758283127964148],[-147.79739617169588,13.760574730939197],[-147.79644111236735,13.762820185203509],[-147.79567639454987,13.765018053640404],[-147.79510776401202,13.767166900032521],[-147.79474096742163,13.769265288162671],[-147.79458175054725,13.771311780914118],[-147.79463505246562,13.773305043692972],[-147.794898776857,13.775244618744296],[-147.79536720852977,13.777130504269508],[-147.79603460171541,13.778962698469911],[-147.79689520794741,13.780741202244826],[-147.79794328415517,13.782466014694933],[-147.79917308187214,13.784137136719607],[-147.80057885532983,13.785754568318794],[-147.80215485965897,13.787318309492548],[-147.80389534729235,13.788828360240757],[-147.80579457246148,13.790284719664214],[-147.80784678939773,13.791687388662183],[-147.81004625143328,13.7930363663354],[-147.81238721279954,13.794331653583072],[-147.81486392682868,13.795573250405312],[-147.81747064775212,13.796761156802063],[-147.82020162980129,13.797895372773382],[-147.82305112630834,13.798975897419893],[-147.8260133906054,13.800002731640916],[-147.82908267782324,13.80097587453713],[-147.83225324129396,13.801895327907175],[-147.83551933434973,13.802761089952469],[-147.83887521032261,13.803573161572274],[-147.84231512524275,13.804331541867327],[-147.84583333064361,13.805036232636155],[-147.84942408165597,13.805687232080231],[-147.85308163161193,13.806284540199499],[-147.85680023474296,13.806828158792655],[-147.86057414438116,13.807318086060945],[-147.86439761475802,13.807754322903804],[-147.86826489920566,13.808136868421855],[-147.8721702528548,13.808465724413793],[-147.87610792813828,13.808740889080923],[-147.88007217928757,13.808962362423244],[-147.88405725963474,13.809130146239397],[-147.88805742520992,13.809244238730798],[-147.89206692664726,13.809304640796654],[-147.89608002087618,13.809311352437078],[-147.90009095943014,13.80926437275275],[-147.90409399743996,13.809163702642877],[-147.90808338823769,13.809009342107572],[-147.9120533851555,13.808801291146835],[-147.9159982433242,13.808539548861233],[-147.91991221607583,13.8082241161502],[-147.92378955674258,13.807854993013677],[-147.92762451865653,13.807432178552347],[-147.93141135784779,13.806955673665527],[-147.93514432584988,13.806425478353276],[-147.93881767779351,13.805841592615536],[-147.94242566701084,13.805204015552988],[-147.9459625477333,13.804512748065008],[-147.94942257419237,13.803767790151539],[-147.95279999882081,13.802969140913262],[-147.95608907585009,13.802116802148817],[-147.95928406041097,13.801210772059619],[-147.96237920493627,13.800251050645613],[-147.96536876365744,13.799237639705439],[-147.96824699080591,13.798170537440512],[-147.97100814061312,13.797049744750041],[-147.97364646551188,13.795875260734817],[-147.97615621973367,13.794647086294162],[-147.97853165840922,13.793365221427962],[-147.98076703397135,13.79202966613633],[-147.9828566006515,13.790640420419209],[-147.98479461268116,13.789197483377279],[-147.98657532339237,13.787700855909918],[-147.98819298701665,13.786150537117749],[-147.9896418568861,13.78454652879941],[-147.99091618723216,13.782888829156263],[-147.9920102322863,13.781177439087685],[-147.99291824538062,13.779412357694298],[-147.99363447984729,13.777593585875422],[-147.99415319081703,13.775721123631115],[-147.99446863072265,13.773794970961262],[-147.99457505469493,13.771815126966658]]],[[[-147.89808611877928,13.669181508420024],[-147.9020938251698,13.666172893064697],[-147.90609075768225,13.663166971178896],[-147.91007116964869,13.66016517897998],[-147.9140293161999,13.65716895358446],[-147.91795944976872,13.654179731209751],[-147.92185582458654,13.651198948073159],[-147.92571269398556,13.64822804219051],[-147.92952431309649,13.645268447980641],[-147.93328493435214,13.642321603459379],[-147.93698881288333,13.639388944844086],[-147.94063020202213,13.636471909251327],[-147.94420335510068,13.633571931999199],[-147.94770252724976,13.63069045020427],[-147.95112197000282,13.627828900083784],[-147.95445594028934,13.62498871875448],[-147.95769868874342,13.62217134243366],[-147.96084447139515,13.619378207338514],[-147.9638875415767,13.616610751485155],[-147.96682215351947,13.613870409292076],[-147.96964255965631,13.611158618775391],[-147.97234301511796,13.60847681615229],[-147.97491777323657,13.605826437640133],[-147.97736108824355,13.603208920355542],[-147.97966721347103,13.600625699616501],[-147.98183040225118,13.598078213438953],[-147.98384491061404,13.595567897140882],[-147.98570499009313,13.59309618873823],[-147.98740489491988,13.590664523549037],[-147.98893888022505,13.588274337790608],[-147.99030119934079,13.585927069478828],[-147.99148610469987,13.58362415393168],[-147.99248785233243,13.581367028265902],[-147.99330069377191,13.579157128698682],[-147.99391888504843,13.576995892346702],[-147.99433667859475,13.574884754527943],[-147.99454832864237,13.57282515325835],[-147.99454832864237,13.570818494178297],[-147.99433667859475,13.568865495846069],[-147.99391888504843,13.566966187939386],[-147.99330069377191,13.565120571357397],[-147.99248785233243,13.563328645200954],[-147.99148610469987,13.561590409469943],[-147.99030119934079,13.559905864164421],[-147.98893888022505,13.558275010183706],[-147.98740489491988,13.556697846628481],[-147.98570499009313,13.555174373498687],[-147.98384491061404,13.553704591693702],[-147.98183040225118,13.552288500314148],[-147.97966721347103,13.55092609936014],[-147.97736108824355,13.549617388831564],[-147.97491777323657,13.548362369627796],[-147.97234301511796,13.547161040849517],[-147.96964255965631,13.546013402496669],[-147.96682215351947,13.54491945456931],[-147.9638875415767,13.54387919796676],[-147.96084447139515,13.542892631789641],[-147.95769868874342,13.541959756937388],[-147.95445594028934,13.541080571611246],[-147.95112197000282,13.540255077609856],[-147.94770252724976,13.539483274034012],[-147.94420335510068,13.538765161782919],[-147.94063020202213,13.538100739057995],[-147.93698881288333,13.53749000765788],[-147.93328493435214,13.536932967582516],[-147.92952431309649,13.53642961703332],[-147.92571269398556,13.535979957808934],[-147.92185582458654,13.535583989010036],[-147.91795944976872,13.535241710636569],[-147.9140293161999,13.534953123587911],[-147.91007116964869,13.534718226964742],[-147.90609075768225,13.534537020767061],[-147.9020938251698,13.534409505894132],[-147.89808611877928,13.534335680547372],[-147.89407338427918,13.534315546525363],[-147.89006136743808,13.53434910382822],[-147.88605581582317,13.534436350657188],[-147.88206247520299,13.534577288810965],[-147.87808709044677,13.534771917390231],[-147.87413540912175,13.535020237294248],[-147.87021317609711,13.535322246724434],[-147.86632613894008,13.535677947479428],[-147.8624800434192,13.536087338659911],[-147.85868063530299,13.536550421165146],[-147.85493366036005,13.537067194095869],[-147.85124486525825,13.53763765745208],[-147.84761999666543,13.538261811233724],[-147.84406480035017,13.538939656340233],[-147.84058502208103,13.539671191872173],[-147.83718640852584,13.540456417829546],[-147.83387470545321,13.541295334212464],[-147.83065565953098,13.542187941920133],[-147.82753501562837,13.543134240053291],[-147.82451852131263,13.544134228611881],[-147.82161192325157,13.545187908495336],[-147.81882096541514,13.546295278804223],[-147.81615139537053,13.547456339538599],[-147.81360895978557,13.548671090698406],[-147.81119940352957,13.549939533183021],[-147.80892847327033,13.551261666093126],[-147.80680191567578,13.552637489428719],[-147.80482547651445,13.55406700408912],[-147.80300490155489,13.555550208275633],[-147.80134593746496,13.557087103786955],[-147.79985433091255,13.558677690623085],[-147.79853582676691,13.560321966985327],[-147.79739617169588,13.562019934672378],[-147.79644111236735,13.563771592784917],[-147.79567639454987,13.565576942222265],[-147.79510776401202,13.567435982085044],[-147.79474096742163,13.569348712373312],[-147.79458175054725,13.571315133087069],[-147.79463505246562,13.57333514350222],[-147.794898776857,13.575407763357703],[-147.79536720852977,13.577531560932925],[-147.79603460171541,13.579705097312512],[-147.79689520794741,13.581926938077856],[-147.79794328415517,13.584195646112335],[-147.79917308187214,13.586509784299267],[-147.80057885532983,13.58886791732067],[-147.80215485965897,13.591268607160657],[-147.80389534729235,13.593710417601812],[-147.80579457246148,13.596191913326265],[-147.80784678939773,13.598711656318017],[-147.81004625143328,13.601268211259082],[-147.81238721279954,13.60386014013352],[-147.81486392682868,13.606486007623289],[-147.81747064775212,13.609144376611823],[-147.82020162980129,13.611833810881819],[-147.82305112630834,13.614552874215917],[-147.8260133906054,13.617300129497494],[-147.82908267782324,13.620074140509303],[-147.83225324129396,13.622873470134664],[-147.83551933434973,13.625696682156274],[-147.83887521032261,13.628542340356887],[-147.84231512524275,13.631409007619766],[-147.84583333064361,13.634295247727664],[-147.84942408165597,13.637199624463221],[-147.85308163161193,13.640120701609248],[-147.85680023474296,13.643057041149689],[-147.86057414438116,13.646007207766559],[-147.86439761475802,13.648969764343292],[-147.86826489920566,13.651943273763209],[-147.8721702528548,13.654926301607645],[-147.87610792813828,13.657917408961396],[-147.88007217928757,13.660915160506363],[-147.88405725963474,13.663918120025357],[-147.88805742520992,13.666924850401642],[-147.89206692664726,13.669933914518651],[-147.8945750468009,13.67181509389161],[-147.89808611877928,13.669181508420024]]]]},"properties":{"objectid":3,"basin":"Pacific","prob2day":"0%","risk2day":"nearZero","prob7day":"0%","risk7day":"nearZero","idp_source":"gtwo_areas_202609130532","idp_filedate":1789277877000,"idp_ingestdate":1789277931000,"st_area(shape)":0.035743736413903313,"st_perimeter(shape)":1.0345477045146376}}]}