{"type":"FeatureCollection","features":[{"type":"Feature","id":1,"geometry":{"type":"Point","coordinates":[-57.568716275835357,27.600820234566299]},"properties":{"objectid":1,"basin":"Atlantic","prob2day":"10%","risk2day":"Low","prob7day":"20%","risk7day":"Low","idp_source":"gtwo_points_202609262351","idp_filedate":1790467085000,"idp_ingestdate":1790467150000}},{"type":"Feature","id":2,"geometry":{"type":"Point","coordinates":[-99.066029781249313,11.983031561457551]},"properties":{"objectid":2,"basin":"Pacific","prob2day":"90%","risk2day":"High","prob7day":"90%","risk7day":"High","idp_source":"gtwo_points_202609262351","idp_filedate":1790467085000,"idp_ingestdate":1790467150000}},{"type":"Feature","id":3,"geometry":{"type":"Point","coordinates":[-140.01015821373051,11.80775129438689]},"properties":{"objectid":3,"basin":"Pacific","prob2day":"30%","risk2day":"Low","prob7day":"70%","risk7day":"High","idp_source":"gtwo_points_202609262351","idp_filedate":1790467085000,"idp_ingestdate":1790467150000}}]}