{"type":"FeatureCollection","features":[{"type":"Feature","id":1,"geometry":{"type":"Point","coordinates":[-110.69053764359728,11.92996575111863]},"properties":{"objectid":1,"basin":"Pacific","prob2day":"20%","risk2day":"Low","prob7day":"80%","risk7day":"High","idp_source":"gtwo_points_202609110553","idp_filedate":1789106280000,"idp_ingestdate":1789106356000}},{"type":"Feature","id":2,"geometry":{"type":"Point","coordinates":[-143.92551941968537,11.691803159888082]},"properties":{"objectid":2,"basin":"Pacific","prob2day":"20%","risk2day":"Low","prob7day":"20%","risk7day":"Low","idp_source":"gtwo_points_202609110553","idp_filedate":1789106280000,"idp_ingestdate":1789106356000}}]}