{"type":"FeatureCollection","features":[{"type":"Feature","id":1,"geometry":{"type":"Polygon","coordinates":[[[-90.481982163545922,22.324029184099686],[-90.467394028611409,22.388800403815708],[-90.453600984297907,22.453165765787617],[-90.440630444639226,22.517118417181337],[-90.428509825467984,22.580651505162962],[-90.417266539918785,22.643758175999153],[-90.406928003824191,22.706431576855948],[-90.397521631218183,22.768664853999951],[-90.389074836134682,22.830451154597256],[-90.381615034406195,22.891783625813844],[-90.375169640966078,22.952655413916375],[-90.36976606894882,23.013059665171568],[-90.365431733287778,23.072989527644722],[-90.362194049815457,23.132438147602556],[-90.360080431666461,23.191398671311788],[-90.359118294673465,23.24986424683766],[-90.359335052870279,23.307828019547628],[-90.360758121190258,23.365283136607616],[-90.363414914566533,23.42222274518366],[-90.36733284613382,23.478639992441856],[-90.372539332624001,23.534528023749431],[-90.379061787171622,23.589879987171798],[-90.386927624709983,23.644689029874996],[-90.396164260172384,23.698948297226252],[-90.406799107592633,23.752650936391717],[-90.418859582803407,23.805790095436691],[-90.432373098939252,23.858358919728516],[-90.447367071832787,23.910350556433173],[-90.463868915517935,23.961758151817378],[-90.481906044927939,24.012574853946489],[-90.501505874996042,24.062793809087168],[-90.522695819756166,24.112408164405394],[-90.545503293242291,24.161411065268567],[-90.569955711286923,24.209795659742042],[-90.596080488823418,24.257555094991801],[-90.623905038986265,24.304682516385185],[-90.653456776708765,24.351171071088174],[-90.684763117823536,24.39701390716624],[-90.717851476364444,24.44220416998661],[-90.75274926726479,24.486735006715321],[-90.789483903659118,24.530599564518411],[-90.828082802279425,24.573790990561918],[-90.868573376260201,24.616302430213125],[-90.910982701490354,24.658126965886936],[-90.955308306632958,24.699251990886808],[-91.001495663094261,24.739654874672851],[-91.04948494347525,24.779311968672573],[-91.099216321276117,24.818199622514726],[-91.150629967299039,24.856294186727496],[-91.203666055044323,24.893572010939693],[-91.258264758012047,24.930009446578822],[-91.314366247004614,24.965582843273751],[-91.371910695522104,25.000268550653232],[-91.430838276165389,25.03404292104409],[-91.491089161535456,25.066882303175873],[-91.552603523333858,25.098763047576711],[-91.615321535959993,25.129661503875468],[-91.679183370216265,25.159554024398858],[-91.744129198703433,25.188416957876427],[-91.810099195821124,25.216226654836419],[-91.877033532371513,25.242959465806848],[-91.94487238185485,25.268591741315959],[-92.013555915972631,25.29309983099256],[-92.083024308225163,25.316460085364781],[-92.153217731213203,25.338648855860129],[-92.22407635663842,25.359642490308829],[-92.295540357101686,25.379417341936914],[-92.367549906103193,25.397949758574669],[-92.440045176243814,25.415216092548746],[-92.512966338325725,25.431192692588809],[-92.58625356764793,25.445855910122305],[-92.659847034113227,25.459182094777987],[-92.733686912121186,25.471147597084098],[-92.80771337337336,25.481728766669391],[-92.881866590470679,25.490901955860693],[-92.956086736913278,25.498643512488229],[-93.030313984402767,25.504929787979449],[-93.104488504640699,25.50973713286254],[-93.178550472026586,25.513041897665573],[-93.252440059161302,25.514820432017473],[-93.326097436847135,25.515049085546991],[-93.399462778584279,25.513704210581011],[-93.47247625697355,25.510762155848965],[-93.545078045515311,25.506199271879041],[-93.617208315011624,25.499991909199366],[-93.688807238962795,25.492116418338185],[-93.759816456763986,25.482550803676816],[-93.830202240241078,25.471300848755334],[-93.899951303709599,25.458395387637154],[-93.96905097752051,25.443863953159052],[-94.037488592924149,25.427736077258317],[-94.105251482969436,25.410041293670929],[-94.172326978007504,25.390809133434914],[-94.238702409288635,25.370069130286254],[-94.304365109861806,25.34785081436371],[-94.369302410078035,25.324183720302585],[-94.433501642087037,25.299097379140903],[-94.496950137139038,25.272621322815951],[-94.559635227383751,25.244785085963088],[-94.621544243172195,25.215618198721018],[-94.682664516654029,25.185150193926461],[-94.742983379978909,25.153410604416024],[-94.802488164397175,25.12042896212705],[-94.861166201159165,25.08623479989626],[-94.919004821515216,25.050857649660941],[-94.975991357614987,25.014327044257811],[-95.032113141608079,24.976672515624216],[-95.087357503845624,24.937923596596875],[-95.141711776477223,24.898109819113017],[-95.195163290753158,24.857260715110044],[-95.247699378823199,24.815405818323995],[-95.299307371937573,24.772574658893518],[-95.349974601346673,24.728796771453972],[-95.399688398300839,24.6841016879427],[-95.448436095849047,24.63851893939767],[-95.496205024342316,24.592078059554922],[-95.542982515030928,24.544808580351855],[-95.588755900963974,24.4967400337257],[-95.633512512492359,24.447901952513234],[-95.677239680866478,24.398323868651744],[-95.719924739135308,24.348035314977949],[-95.761555017649869,24.297065824328456],[-95.80211784855976,24.245444927741346],[-95.841600563115378,24.193202158053282],[-95.87999049256706,24.140367048100927],[-95.917274969064465,24.086969130720945],[-95.95344132385793,24.033037936951359],[-95.988476888197738,23.97860299962889],[-96.022368995132922,23.923693851590144],[-96.055107023670132,23.868338909613158],[-96.086693001780532,23.812559716058217],[-96.117133777801484,23.756375188164554],[-96.146436205466387,23.69980424227208],[-96.174607143904439,23.642865791123484],[-96.201653448647619,23.585578750159357],[-96.227581976127169,23.527962033021538],[-96.252399582774444,23.470034554251413],[-96.276113124121252,23.411815227490877],[-96.298729459297022,23.353322968180578],[-96.32025544203492,23.294576689962412],[-96.340697930564943,23.23559530737765],[-96.360063780419011,23.176397734068303],[-96.378359848028481,23.117002884575584],[-96.395592990723856,23.057429674340142],[-96.411770064936434,22.997697016104553],[-96.426897926198251,22.937823825309408],[-96.440983431839811,22.877829015596717],[-96.45403343829247,22.817731501507751],[-96.466054801088092,22.757550196684349],[-96.477054378456671,22.697304016567273],[-96.487039025030867,22.637011874798304],[-96.496015598141241,22.576692685918886],[-96.503990955118411,22.516365364470118],[-96.510971950594922,22.456048824094125],[-96.516965442800824,22.395761979332008],[-96.521978287268041,22.335523743825831],[-96.526017341327133,22.275353033915508],[-96.529089460510079,22.215268761444349],[-96.531201501248177,22.155289841852834],[-96.532360320871987,22.095435190581725],[-96.532572775812866,22.03572371947422],[-96.531845721602679,21.976174344870287],[-96.530186015572042,21.916805980411823],[-96.527600513252992,21.857637539740836],[-96.524096072875352,21.79868793829786],[-96.519679549071839,21.739976088825586],[-96.514357800072332,21.681520907663923],[-96.508137680509435,21.623341307555449],[-96.501026048613141,21.565456203940812],[-96.493029759915373,21.507884509562587],[-96.484155670847429,21.450645139861479],[-96.474410627048712,21.393757009378646],[-96.463796189742254,21.337239190936032],[-96.452300044511333,21.281111172842486],[-96.439907632231325,21.225392509956521],[-96.426604391979026,21.170102758036023],[-96.412375762831061,21.115261472838824],[-96.397207185662978,21.060888210122926],[-96.381084098652138,21.007002523847518],[-96.3639919417746,20.953623971569186],[-96.345916155006421,20.900772107247064],[-96.326842177424453,20.848466486639211],[-96.30675544900464,20.796726665503343],[-96.285641409723155,20.745572198698142],[-96.263485497757415,20.695022642880815],[-96.240273153982741,20.645097552909874],[-96.215989817475986,20.595816483643944],[-96.19062092821315,20.547198991740231],[-96.164151924371708,20.499264631157928],[-96.136568247726359,20.452032958554355],[-96.1078553355552,20.405523529687287],[-96.07799862963293,20.359755898516028],[-96.04698356813708,20.314749621697842],[-96.014795591043594,20.270524254990505],[-95.981420137429325,20.227099352353378],[-95.946842648169593,20.18449447044361],[-95.911048561441874,20.142729165019091],[-95.874023317222225,20.101822990938444],[-95.835752355486704,20.061795503060182],[-95.796221115312107,20.022666258041511],[-95.755415036674492,19.984454810741056],[-95.713319558650596,19.947180716017385],[-95.669920121216535,19.910863530527649],[-95.625202164348309,19.875522810029793],[-95.579151126223394,19.841178108483064],[-95.531752448616487,19.80784898254467],[-95.482991568805744,19.775554986173802],[-95.432853927666542,19.744315676927101],[-95.381324964275564,19.714150608763703],[-95.328390119508299,19.685079338340927],[-95.27403483064279,19.657121419617965],[-95.218244538554529,19.630296409252026],[-95.16100468321946,19.604623862101676],[-95.102300703714377,19.580123334824179],[-95.042119123698512,19.556814265366199],[-94.980482280532726,19.534712289340803],[-94.917455672741028,19.513828453120766],[-94.853107367311054,19.494173527886119],[-94.787505433928516,19.475758288414397],[-94.720717939581164,19.458593505885744],[-94.652812953055218,19.442689955976846],[-94.583858542237806,19.428058408968525],[-94.513922775015942,19.414709640537637],[-94.44307371837732,19.402654420964893],[-94.371379442906857,19.391903525927148],[-94.298908013793721,19.382467726604432],[-94.225727501622828,19.374357796874961],[-94.151905972482552,19.36758450881814],[-94.077511495159285,19.362158637211451],[-94.00261213843936,19.358090953235035],[-93.927275968411095,19.355392231666315],[-93.851571055659576,19.354073244584697],[-93.775565466273122,19.354144764069758],[-93.699327269937442,19.355617564898864],[-93.62292453274091,19.358502420050797],[-93.546425324369125,19.362810100705701],[-93.469897711809836,19.368551381641112],[-93.393409763849434,19.375737035835698],[-93.317029548374876,19.384377835368923],[-93.240825133273177,19.394484553219684],[-93.164864587330726,19.406067964165345],[-93.089215976635899,19.419138839386051],[-93.013947371773668,19.43370795186064],[-92.939126838832465,19.449786076366479],[-92.864822446598509,19.467383984983087],[-92.791102262958987,19.486512449789871],[-92.718034356700116,19.507182245564309],[-92.645686794809649,19.529404144385921],[-92.574127646073919,19.553188919233378],[-92.50342497837994,19.578547343085575],[-92.433646859614782,19.605490189820557],[-92.364861357665404,19.634028231517789],[-92.297136541318253,19.664172241156166],[-92.230540477560908,19.695932992613677],[-92.16514123517976,19.729321258869163],[-92.101006882061881,19.764347812002086],[-92.038205486993547,19.801023425890548],[-91.976800053779357,19.839355286117723],[-91.916803853714782,19.879315349124226],[-91.858201928376218,19.920855571327706],[-91.800978993785407,19.96392767981871],[-91.745119767762958,20.008483402587103],[-91.690608967229934,20.054474468522017],[-91.637431309107512,20.101852603814734],[-91.585571511216187,20.150569536455066],[-91.535014289577703,20.200576995332199],[-91.485744362012611,20.25182670663736],[-91.437746445441974,20.304270399259678],[-91.391005257686402,20.357859801189022],[-91.345505514767581,20.412546638616618],[-91.301231933606743,20.468282639532333],[-91.258169232923649,20.525019533724617],[-91.216302128740153,20.582709046485434],[-91.175615337977376,20.641302906703913],[-91.136093577556437,20.700752841470603],[-91.097721566197208,20.761010579674632],[-91.060484019022169,20.822027847507286],[-91.02436565475108,20.883756373857693],[-90.989351189405738,20.946147885816401],[-90.955425340806755,21.009154112272597],[-90.922572824975816,21.072726779417451],[-90.890778360632737,21.136817615240886],[-90.860026662900054,21.201378348632034],[-90.830302451396904,21.266360705782063],[-90.801590441245764,21.331716415580274],[-90.773875350267076,21.397397205117045],[-90.747141895382072,21.463354803281675],[-90.721374793511814,21.529540935366015],[-90.696558762476798,21.595907332057891],[-90.6726785191982,21.662405718649154],[-90.649718780597141,21.728987824028991],[-90.627664262695475,21.795605375288005],[-90.606499685112283,21.86221010131527],[-90.5862097629701,21.928753729201389],[-90.566779213190046,21.995187986036854],[-90.548192754491936,22.061464600710906],[-90.53043510289757,22.12753529941466],[-90.513490976227445,22.193351811037417],[-90.497345090503416,22.258865863568872],[-90.481982163545922,22.324029184099686]]]},"properties":{"objectid":1,"basin":"Atlantic","prob2day":"0%","risk2day":"Low","prob7day":"30%","risk7day":"Low","idp_source":"gtwo_areas_202610041146","idp_filedate":1791114471000,"idp_ingestdate":1791114486000,"st_area(shape)":30.279383704895309,"st_perimeter(shape)":19.608243871332455}},{"type":"Feature","id":2,"geometry":{"type":"Polygon","coordinates":[[[-92.860665127193784,13.149857853956917],[-92.859421001477926,13.21489336913379],[-92.860828595163412,13.279736389822688],[-92.864927447843343,13.344328867483398],[-92.87175709641275,13.408612751777184],[-92.881357080464795,13.472529994164063],[-92.893766937793828,13.536022545204446],[-92.909026208892328,13.599032354559654],[-92.927174430655327,13.661501373689589],[-92.948251142675986,13.723371554054097],[-92.97229588364803,13.784584844415178],[-92.999348191365812,13.845083196232679],[-93.029447605422547,13.904808560966444],[-93.062633664511907,13.963702888277794],[-93.098945906428355,14.021708128727312],[-93.138423870764939,14.078766233774786],[-93.181107095316065,14.134819153980914],[-93.227035118775632,14.189808839006844],[-93.276247480736572,14.243677241211856],[-93.32878371899335,14.296366309357836],[-93.384683373139069,14.347817994904688],[-93.443985980968137,14.397974248412993],[-93.506731081174337,14.446777020443278],[-93.572958213350773,14.494168262455503],[-93.642706914392477,14.540089924110873],[-93.716016724791928,14.584483956869235],[-93.792927182343476,14.627292310391965],[-93.873477825740963,14.668456936138853],[-93.957708193678116,14.70791978467048],[-94.04565782574798,14.745622805648111],[-94.137366258845645,14.781507951430967],[-94.232873032564271,14.815517171680256],[-94.332217685597584,14.847592416057296],[-94.435439756639369,14.877675636921253],[-94.542566630945146,14.90572745835567],[-94.65352917403203,14.931856808944701],[-94.768212225014054,14.956243339058972],[-94.886500338819474,14.979067133441617],[-95.008278071275868,15.000508279533619],[-95.133429976412174,15.02074686207817],[-95.261840610955346,15.039962967616987],[-95.393394528034946,15.058336681792582],[-95.527976285277248,15.076048090247298],[-95.665470435811869,15.093277278623646],[-95.805761536365708,15.110204334362663],[-95.948734140967758,15.127009341308167],[-96.094272805445542,15.143872386001931],[-96.242262084727315,15.160973554985731],[-96.39258653464077,15.178492933901907],[-96.545130709214732,15.19661060839303],[-96.69977916517621,15.215506664101383],[-96.856416455654823,15.235361186669593],[-97.014927138276732,15.256354263538583],[-97.175195767070875,15.278665978552226],[-97.337106896066302,15.30247641825224],[-97.500545082889175,15.327965670079777],[-97.665394880669112,15.355313816979219],[-97.831540845233746,15.384700947291037],[-97.9988675324106,15.41630714575831],[-98.167259497127986,15.450312498922813],[-98.336601294314164,15.48689709152768],[-98.506777478897448,15.526241011014008],[-98.677672606705357,15.568524341225498],[-98.849171231766832,15.613927170502677],[-99.021157911708144,15.662629582689249],[-99.193517198759594,15.714811664326987],[-99.366133650547454,15.770653501058348],[-99.538893616147391,15.830322244476122],[-99.711715672740013,15.89375283942212],[-99.884546273791386,15.960679377951067],[-100.05733279007609,16.030829330409404],[-100.23002259416728,16.10393016804295],[-100.4025630577388,16.179709358500247],[-100.57490155246455,16.257894373926376],[-100.74698544911911,16.338212683768461],[-100.91876212027552,16.420391758373114],[-101.09017893760779,16.504159067187345],[-101.26118327368903,16.58924208055771],[-101.43172249839449,16.675368268830709],[-101.60174398519666,16.762265101453409],[-101.77119510487012,16.849660049671684],[-101.94002322908864,16.937280582932715],[-102.1081757304255,17.024854170683568],[-102.27559998055455,17.11210828417012],[-102.44224335025029,17.198770392839492],[-102.60805321208596,17.284567966138866],[-102.77297693683607,17.369228476213323],[-102.93696189797311,17.45247939071146],[-103.09995546627164,17.534048180878983],[-103.26190501250625,17.613662317062449],[-103.42275791014936,17.691049268708923],[-103.58246152997555,17.765936507064282],[-103.74096324365865,17.838051500676329],[-103.89821042287264,17.90712171989162],[-104.05415044019054,17.972874635955804],[-104.20873066728637,18.035037718316175],[-104.36189847493455,18.093338436419856],[-104.51360123570834,18.147504261512609],[-104.66378632038226,18.197262662142293],[-104.81240110152953,18.242341109554729],[-104.95939295172326,18.282469552627902],[-105.10470926691903,18.317526615261215],[-105.24829748444125,18.347621376225675],[-105.3901050425136,18.372882734450798],[-105.53007938025911,18.39343959246338],[-105.66816793680073,18.409420850092317],[-105.80431815216087,18.420955407166446],[-105.93847746546254,18.428172166212619],[-106.07059331492945,18.431200026160411],[-106.20061314058387,18.430167889536619],[-106.32848438154889,18.425204654371441],[-106.45415447694745,18.41643922409105],[-106.57757086590266,18.40400049762502],[-106.69868098843676,18.388017376600772],[-106.81743228277355,18.368618760847255],[-106.93377218803596,18.345933551991948],[-107.04764814424635,18.320090649863744],[-107.15900759052778,18.291218955190743],[-107.26779796510391,18.259447369600593],[-107.37396670799706,18.224904792022699],[-107.47746125922964,18.187720124983912],[-107.57822905612596,18.148022268313184],[-107.67621753870833,18.105940122738616],[-107.77137414699916,18.061602588988421],[-107.86364631922214,18.015138567790814],[-107.95298149539957,17.966676959873951],[-108.0393271146545,17.916346665965989],[-108.12263061521065,17.86427658589588],[-108.20283943709023,17.810595621291043],[-108.27990101851708,17.755432672879692],[-108.35376280041282,17.698916640490722],[-108.42437222100108,17.64117642485229],[-108.49167672030433,17.582340928491192],[-108.55562375273388,17.522539018860755],[-108.6161777537003,17.461868926210116],[-108.67335199090155,17.40034074273126],[-108.72716845995637,17.337948807191822],[-108.77764915828192,17.274687461057624],[-108.82481607969822,17.210551043995622],[-108.86869122252182,17.145533896572204],[-108.90929658057263,17.079630359353757],[-108.94665415036866,17.012834772007238],[-108.98078592842774,16.945141475099149],[-109.0117139103686,16.876544809195707],[-109.0394600918097,16.807039113964095],[-109.06404646836972,16.73661873086985],[-109.08549503656661,16.665277998680835],[-109.1038277929182,16.593011258862646],[-109.11906673124457,16.519812851082349],[-109.13123384986221,16.445677116805655],[-109.14035114349036,16.370598393900877],[-109.14644060774776,16.294571025632479],[-109.14952423915224,16.217589349868717],[-109.14962403332237,16.139647708075415],[-109.1467619867762,16.060740440818847],[-109.14096009423287,15.980861887766025],[-109.13224035310969,15.900006389483451],[-109.12062475812598,15.818168285638023],[-109.10613530490031,15.735341917695507],[-109.08879399084992,15.651521624423594],[-109.06862281069408,15.566701748187256],[-109.04564376095072,15.480876627754299],[-109.01987883723842,15.394040603691053],[-108.99135003517591,15.306188015664532],[-108.96007935128097,15.217313206039762],[-108.92608878117221,15.127410512685174],[-108.88940032046833,15.036474277965681],[-108.85002521699005,14.944506471396664],[-108.80791456740326,14.851551764102794],[-108.76299855913612,14.757669671418341],[-108.71520735893239,14.662919721268281],[-108.66447113353587,14.567361445174697],[-108.61072004789179,14.471054371062507],[-108.55388427054254,14.374058029554533],[-108.49389396553397,14.276431949475011],[-108.43067930050921,14.178235661446763],[-108.36417044221201,14.07952869429397],[-108.2942975555876,13.980370577740132],[-108.22099080827905,13.880820841508751],[-108.14418036613091,13.78093901532344],[-108.06379639498755,13.680784628907645],[-107.97976906159283,13.580417211085546],[-107.89202853358984,13.479896292480078],[-107.80050497502447,13.379281401015987],[-107.70512855353979,13.278632068215529],[-107.60582943587968,13.178007822902828],[-107.50253778788851,13.077468194801497],[-107.39518377541083,12.977072712735662],[-107.28369756519038,12.876880907328143],[-107.16800932397103,12.776952307403178],[-107.04804921849654,12.677346443583644],[-106.92374741371208,12.578122843794347],[-106.79503407636145,12.479341039557482],[-106.6618393731884,12.381060558797913],[-106.52409347093686,12.283340932138458],[-106.38172653545115,12.186241689302676],[-106.23466873347519,12.089822359114692],[-106.08285023085335,11.994142471298176],[-105.92620119343024,11.899261555576459],[-105.76465178884888,11.805239141673212],[-105.59814816930248,11.712136483312179],[-105.42682233368367,11.620034861220006],[-105.25092618209754,11.5290284820789],[-105.07071361114413,11.439211767509221],[-104.88643851922217,11.350679137332463],[-104.6983548029317,11.263525013168987],[-104.50671636067142,11.177843816638983],[-104.3117770890413,11.093729968463435],[-104.11379088733946,11.011277889363214],[-103.91301165126657,10.930582000059417],[-103.70969328012069,10.85173672307144],[-103.50408966960248,10.774836477321685],[-103.29645471990932,10.699975685329775],[-103.08704232584256,10.627248768715845],[-102.87610638670031,10.556750146402294],[-102.66390079998183,10.488574240908633],[-102.45067946228727,10.422815472955847],[-102.23669627291457,10.359568264164182],[-102.02220512756446,10.298927034355302],[-101.80745992463574,10.240986205149397],[-101.59271456252696,10.185840198166773],[-101.37822293693887,10.133583434128298],[-101.16423894716957,10.084310333755013],[-100.95101649071836,10.038115317767847],[-100.73880946418535,9.9950928077869889],[-100.52787176596911,9.9553372254327428],[-100.31845729356917,9.9189429905267161],[-100.11081994358545,9.8860045246892128],[-99.905213615315972,9.8566162486411031],[-99.701892204461558,9.8308725840026909],[-99.501109610320157,9.8088679514949035],[-99.303119729491812,9.7906967718386682],[-99.108176460375262,9.7764534666542886],[-98.916529640030774,9.7662294088602835],[-98.72830598833059,9.7600235264646926],[-98.543489885849453,9.7577278720438017],[-98.362057785638171,9.7592285455610863],[-98.1839861398484,9.7644116451814398],[-98.009251399732193,9.7731632708683946],[-97.837830017441263,9.7853695216862207],[-97.669698446925679,9.8009164975984504],[-97.504833138538402,9.81969029766924],[-97.343210546229614,9.841577020962859],[-97.184807120352218,9.8664627665435773],[-97.029599314856398,9.894233633475551],[-96.877563580994376,9.9247757217223125],[-96.728676370917697,9.9579751303481316],[-96.582914137677221,9.9937179584171645],[-96.440253332525174,10.031890305893057],[-96.300670408512417,10.072378271839909],[-96.164141816891231,10.11506795532199],[-96.030644011611741,10.15984545540357],[-95.900153443026852,10.206596871148804],[-95.772646564187482,10.255208302521282],[-95.648099827245119,10.305565848585161],[-95.526489684351361,10.357555609304086],[-95.407792587657696,10.411063682842837],[-95.291984990215042,10.465976169165003],[-95.179043343275566,10.522179167334855],[-95.068944099890189,10.579558776416548],[-94.961663711311132,10.638001095474294],[-94.857178629689884,10.697392225371061],[-94.755465308976738,10.757618264271628],[-94.656500199524487,10.818565310340944],[-94.560259754384049,10.880119465341181],[-94.466720425706967,10.942166826537971],[-94.375858706114286,11.004593679155107],[-94.287657661371895,11.067316333182362],[-94.202114138456636,11.130314061944546],[-94.119226720036977,11.193574068988255],[-94.038993990580082,11.257083556960708],[-93.961414531855041,11.320829726710656],[-93.886486927429644,11.384799782683956],[-93.814209759972357,11.448980925729302],[-93.744581613050912,11.513360359393232],[-93.677601070233095,11.577925286323023],[-93.613266714187432,11.642662908266743],[-93.551577127582277,11.707560427871613],[-93.492530893086155,11.77260504778485],[-93.436126595166115,11.837783970653845],[-93.382362816490684,11.903084399125873],[-93.331238139728271,11.968493534948834],[-93.282751147547344,12.033998580770003],[-93.236900424414955,12.09958674013609],[-93.193684552100308,12.165245214794936],[-93.153102114171134,12.230961206494612],[-93.11515169419522,12.296721918781657],[-93.079831874841034,12.362514553404026],[-93.047141238777044,12.428326313908372],[-93.017078369570982,12.49414440204265],[-92.98964184989137,12.559956019554818],[-92.964830263305885,12.625748370890733],[-92.942642192483106,12.691508656899146],[-92.923076221890028,12.757224080227274],[-92.906130932396536,12.822881844421715],[-92.891804908469624,12.888469150331161],[-92.880096732777872,12.953973202401528],[-92.871004988889013,13.019381201481394],[-92.864528258572193,13.08468035111747],[-92.860665127193784,13.149857853956917]]]},"properties":{"objectid":2,"basin":"Pacific","prob2day":"20%","risk2day":"Low","prob7day":"90%","risk7day":"High","idp_source":"gtwo_areas_202610041146","idp_filedate":1791114471000,"idp_ingestdate":1791114486000,"st_area(shape)":88.574966553769926,"st_perimeter(shape)":39.518432355279032}}]}