{"type":"FeatureCollection","features":[{"type":"Feature","id":41,"geometry":{"type":"LineString","coordinates":[[-94.39,29.54],[-94.05,29.69],[-93.84,29.69],[-93.66,29.77],[-93.46,29.78],[-93.3,29.78],[-93.13,29.77],[-92.76,29.68],[-92.61,29.59]]},"properties":{"objectid":41,"name":"High Island, TX to Vermilion/Cameron Parish Line, LA...1-3 ft","folderpath":"Peak Storm Surge Forecast: AL052026, adv: 005A, forecast cycle: 2026090115/Lines/High Island, TX to Vermilion","symbolid":0,"altmode":-1,"base":0,"clamped":0,"extruded":0,"snippet":" ","popupinfo":"{\"peak_surge_range\": \"1-3 ft\", \"color\": \"blue\"}","idp_source":"AL052026pss_polylines","idp_subset":"al052026","idp_filedate":1788285769000,"idp_ingestdate":1788285784000,"st_length(shape)":1.8648561597242255,"shape_leng":1.86485616}},{"type":"Feature","id":42,"geometry":{"type":"LineString","coordinates":[[-94.76,29.38],[-94.64,29.46],[-94.39,29.54]]},"properties":{"objectid":42,"name":"Port Bolivar, TX to High Island, TX...1-2 ft","folderpath":"Peak Storm Surge Forecast: AL052026, adv: 005A, forecast cycle: 2026090115/Lines","symbolid":0,"altmode":-1,"base":0,"clamped":0,"extruded":0,"snippet":" ","popupinfo":"{\"peak_surge_range\": \"1-2 ft\", \"color\": \"blue\"}","idp_source":"AL052026pss_polylines","idp_subset":"al052026","idp_filedate":1788285769000,"idp_ingestdate":1788285784000,"st_length(shape)":0.40671014565793556,"shape_leng":0.40671014999999999}}]}