{"type":"FeatureCollection","features":[{"type":"Feature","id":1,"geometry":{"type":"Polygon","coordinates":[[[-90.88599177030386,10.344169705167872],[-90.935785640195036,10.430905089698285],[-90.988154448968544,10.514667032257876],[-91.043011842822182,10.595543041378392],[-91.100271467953803,10.673620624692205],[-91.159846972359787,10.748987292529648],[-91.221652002237988,10.821730551623773],[-91.285600203786259,10.891937910506329],[-91.351605223202398,10.959696879507533],[-91.419580708482783,11.025094964461175],[-91.489440305825326,11.088219675697587],[-91.561097661427823,11.149158519949879],[-91.634466421488071,11.207999007548324],[-91.709460234002506,11.264828646125238],[-91.785992745168926,11.319734943313108],[-91.86397760118524,11.372805409442208],[-91.94332844914851,11.424127551245647],[-92.02395893615585,11.473788877255004],[-92.105782707505853,11.521876896901404],[-92.18871341029552,11.568479117817162],[-92.27266469252146,11.613683048534028],[-92.357550199482034,11.65757619758358],[-92.443283577375098,11.700246074396944],[-92.529778475096464,11.741780185707114],[-92.616948537045232,11.78226604094516],[-92.704707410318633,11.821791148642717],[-92.792968742013727,11.860443016432214],[-92.881646179227687,11.898309153744606],[-92.97065336815831,11.935477068212265],[-93.059903955003392,11.97203426836694],[-93.149311586860165,12.008068262740267],[-93.238789910825631,12.043666560763313],[-93.328252572198323,12.078916669169075],[-93.417613219874113,12.113906098287941],[-93.506785498252043,12.148722354852907],[-93.595683054429344,12.183452947395722],[-93.684219536402395,12.218185385347397],[-93.772308589469731,12.253007177239567],[-93.85987223971199,12.288002503213079],[-93.946946260361528,12.323210375858309],[-94.033648400553147,12.35863725320678],[-94.120098220656246,12.394288874731899],[-94.206415280140959,12.430170981705601],[-94.292719137578047,12.466289311802427],[-94.379129354236227,12.502649606294426],[-94.465765488686259,12.539257605554212],[-94.552747100398278,12.576119048155704],[-94.640193749741627,12.613239673572195],[-94.728224995287178,12.650625223075735],[-94.81696039830365,12.688281436139505],[-94.906519515563105,12.726214052236855],[-94.997021909233638,12.764428811740402],[-95.088587137886009,12.802931453224119],[-95.181334761889673,12.841727717959941],[-95.275384338916012,12.88082334542122],[-95.370855430233803,12.920224074181817],[-95.46786759531318,12.959935646413101],[-95.566540392724846,12.999963799789668],[-95.666993383737577,13.040314275583512],[-95.76934612602281,13.080992813267869],[-95.873718180849266,13.122005151416715],[-95.980229105888441,13.163357032201418],[-96.088998462408995,13.205054193296519],[-96.200145809881121,13.247102375974009],[-96.313790706875523,13.289507319707184],[-96.430052713761654,13.332274763969338],[-96.549051390009538,13.375410449133085],[-96.670906295089367,13.418920114671721],[-96.795736988471162,13.46280950005854],[-96.923663030524324,13.507084345666158],[-97.054803978920404,13.551750390967925],[-97.189279395827327,13.596813377235719],[-97.327208838916704,13.642279042144196],[-97.468711868557762,13.688153126965403],[-97.61390804332143,13.734441370273146],[-97.762916042241443,13.781149284911692],[-97.915747748959348,13.828254745760034],[-98.072207643667696,13.875681954358868],[-98.232076378122258,13.923348944698205],[-98.395134601380676,13.971173752566756],[-98.561162964299285,14.019074412854025],[-98.729942118633744,14.066968959549968],[-98.901252713441863,14.114775428443409],[-99.074875399579923,14.162411854423681],[-99.250590827904261,14.209796270581535],[-99.428179649271272,14.256846714504434],[-99.607422513637971,14.303481218383638],[-99.788100070961377,14.349617818907348],[-99.969992972997204,14.395174550065576],[-100.15288186970241,14.440069446747714],[-100.33654741103408,14.48422054474247],[-100.52077024874791,14.527545877140653],[-100.70533103280081,14.569963480630292],[-100.89001041314992,14.611391388302081],[-101.07458904065163,14.651747635944787],[-101.25884756616216,14.690950259347119],[-101.4425666405379,14.728917290700565],[-101.625526913736,14.765566767592361],[-101.80750903571334,14.800816724012748],[-101.98829365822564,14.834585193951682],[-102.16766143033067,14.866790212298611],[-102.34539300468333,14.897349814842244],[-102.52126902944207,14.926182036471971],[-102.69507015636253,14.953204911177863],[-102.86657703630107,14.978336473849311],[-103.03557031921474,15.001494760275079],[-103.20183065506058,15.02259780444524],[-103.36513869559423,15.041563641249184],[-103.52527509077271,15.058310305576299],[-103.68202049145242,15.072755833215297],[-103.83515554759038,15.084818257256927],[-103.98446090914354,15.0944156134899],[-104.12971722786767,15.101465937702983],[-104.27073773885547,15.105897767967747],[-104.4075259620534,15.10770098781046],[-104.54015428928892,15.106887685018762],[-104.66869521131485,15.103469977957275],[-104.79322121528674,15.097459983191811],[-104.91380479195749,15.088869819086995],[-105.03051842938191,15.077711604007447],[-105.14343461651424,15.06399745451904],[-105.2526258423087,15.047739490785034],[-105.35816459571942,15.028949828471923],[-105.46012336480135,15.007640585944444],[-105.55857463940799,14.983823881566991],[-105.65359090759421,14.957511832804983],[-105.74524465921354,14.92871655802287],[-105.8336083823209,14.897450174685957],[-105.91875456587042,14.86372480115881],[-106.00075569971568,14.827552554007298],[-106.0796842719115,14.788945552495363],[-106.15561277141217,14.74791591318899],[-106.22861368717184,14.70447575535195],[-106.29875950724539,14.658637195550284],[-106.36612272238563,14.61041235304782],[-106.43077581974819,14.559813344410429],[-106.49279128918653,14.506852288002847],[-106.55224161965492,14.451541301290149],[-106.60919929920817,14.393892502637016],[-106.66373681680057,14.333918010408013],[-106.71592666228554,14.27162994116901],[-106.76584132371801,14.207040413284574],[-106.8135532900522,14.140161545119327],[-106.85913505114161,14.071005454138515],[-106.90265909414177,13.999584258706705],[-106.94419790890629,13.925910075389822],[-106.98382398528861,13.849995023451697],[-107.02160981044432,13.77185121945837],[-107.05762787332759,13.691490782673611],[-107.0919506646913,13.608925829663463],[-107.12464808973743,13.524171063443987],[-107.15573067503055,13.437300629520564],[-107.18514956939703,13.348448115887948],[-107.21285333431382,13.257749695192445],[-107.23879053665382,13.165341540080135],[-107.26290973969265,13.07135982319744],[-107.28515950850442,12.975940717190497],[-107.30548840726408,12.879220395604932],[-107.32384500104587,12.78133503018762],[-107.34017785402466,12.682420794484244],[-107.35443553127465,12.582613861140942],[-107.36656659607144,12.482050401904644],[-107.3765196143886,12.380866590321034],[-107.38424315040095,12.279198599036249],[-107.38968576828347,12.177182600696597],[-107.39279603311036,12.074954767948327],[-107.39352250905642,11.972651274336954],[-107.39181376119603,11.870408290710202],[-107.38761835280462,11.768361991512847],[-107.38088484985582,11.666648549391198],[-107.37156181652449,11.565404136092127],[-107.35959781698557,11.464764925161319],[-107.34494141541387,11.364867088345591],[-107.32754117778302,11.26584679919057],[-107.30734566736857,11.167840231241826],[-107.28430345014402,11.070983555346913],[-107.25836308848562,10.975412945051517],[-107.22947314926631,10.881264573901092],[-107.19758219576164,10.788674613642627],[-107.16263879214642,10.697779236922372],[-107.12459150439429,10.608714617285898],[-107.08338889578084,10.521616926480135],[-107.03897953138016,10.436622338050597],[-106.9913119753673,10.353867024643591],[-106.94033479371564,10.273487158006049],[-106.88599654880159,10.195618912582859],[-106.8282458065986,10.120398459221633],[-106.76703113128161,10.04796188693166],[-106.70230056002271,9.9783835975251236],[-106.63400068208568,9.9115675703872057],[-106.56207783582335,9.8473886010032743],[-106.4864783622865,9.7857214866573941],[-106.40714859892859,9.7264410228350471],[-106.32403488590114,9.6694220059209783],[-106.23708356245635,9.6145392305012365],[-106.14624096874559,9.561667494759206],[-106.05145344312183,9.5106815932810491],[-105.9526673257364,9.4614563224514541],[-105.84982895584153,9.4138664786552226],[-105.7428846726894,9.3677868573777232],[-105.63178081553212,9.3230922550037008],[-105.51646372362183,9.2796574670186374],[-105.39687973711005,9.2373572907065409],[-105.27297519524899,9.1960665206535168],[-105.14469643639131,9.1556599541436867],[-105.01198980158796,9.1160123857631561],[-104.87480162919172,9.0769986127958759],[-104.73307825845478,9.0384934316267049],[-104.5867660286292,9.0003716368416917],[-104.43581127986658,8.9625080257249579],[-104.280160351419,8.924777392862552],[-104.11975958253862,8.8870545364378586],[-103.95455531247757,8.8492142501376634],[-103.78449388138739,8.8111313321454077],[-103.60952162762089,8.7726805770471401],[-103.42958489043025,8.7337367812276057],[-103.24463001086622,8.6941747410716061],[-103.05460332638233,8.6538692520644531],[-102.85945117802936,8.6126951105910052],[-102.65911990416015,8.5705271130359506],[-102.45355584402688,8.5272400548847713],[-102.24270533778099,8.4827087325220987],[-102.02651472377539,8.4368079414334716],[-101.80493034306079,8.3894124780035781],[-101.57789853399004,8.3403971386171634],[-101.34539654191678,8.2896603889159337],[-101.10767061110971,8.2373067085379148],[-100.86510549132527,8.1835466548543536],[-100.61808707625744,8.1285916593777188],[-100.36700126049965,8.0726531554189478],[-100.11223393774594,8.0159425762889782],[-99.854171003488943,7.9586713535002787],[-99.59319834962406,7.9010509194645238],[-99.329701872543296,7.8432927083919139],[-99.064067465940695,7.7856081517949178],[-98.796681022610983,7.7282086829844729],[-98.527928438046899,7.6713057343722539],[-98.258195605942376,7.6151107383699923],[-97.987868420890834,7.5598351291880022],[-97.717332776586261,7.5056903374392618],[-97.446974567622078,7.4528877964347657],[-97.17717968859165,7.4016389394856219],[-96.908334032289645,7.352155199902711],[-96.640823494208803,7.3046480082990684],[-96.375033967143793,7.2593287988851216],[-96.111351346587298,7.2164090040724318],[-95.850161526233364,7.1761000562727304],[-95.591850400675355,7.1386133887970118],[-95.336803863607315,7.1041604340568938],[-95.085407808723289,7.0729526244641647],[-94.838048131515961,7.0452013924304424],[-94.59511072478,7.0211181712667212],[-94.356981484008202,7.0009143933846758],[-94.124046302894442,6.9848014920953005],[-93.896691075132935,6.9729908998103269],[-93.675301694417556,6.9656940480419962],[-93.460264057140421,6.9631223719000559],[-93.251964055196879,6.9654873010982215],[-93.050787584079615,6.973000270746013],[-92.857120536583409,6.9858727123558992],[-92.671348809100152,7.0043160592388745],[-92.493858294424626,7.0285417438065565],[-92.325030025415231,7.0587571802997786],[-92.165024865604948,7.0949877511839077],[-92.013698174331182,7.1370062598311392],[-91.870882807195699,7.1845669035399169],[-91.736411621598961,7.2374238796085137],[-91.610117472243473,7.2953313862346363],[-91.491833215630322,7.3580436198173516],[-91.381391709159971,7.4253147794536289],[-91.278625807534866,7.4968990615425923],[-91.183368368155584,7.5725506633825717],[-91.095452246623779,7.6520237840705363],[-91.014710299440651,7.7350726200055533],[-90.940975383107343,7.8214513684860094],[-90.874080352326303,7.9109142286088741],[-90.813858065397312,8.0032153958739514],[-90.760141377022819,8.0981090702775305],[-90.712763143704024,8.1953494464199252],[-90.671556222841332,8.2946907242976522],[-90.636353468237871,8.395887100309551],[-90.606987738193482,8.4986927726534987],[-90.583291888309873,8.6028619386277114],[-90.565098775088302,8.7081487955306329],[-90.552241254130479,8.8143075406605931],[-90.544552181937547,8.9210923722153552],[-90.54186441501065,9.0282574874931925],[-90.544010808951555,9.1355570846918681],[-90.550824220261461,9.2427453602103355],[-90.562137505441399,9.3495765131456778],[-90.577783520093249,9.4558047389976423],[-90.597595120718154,9.5611842368631983],[-90.621405163817144,9.6654692040406758],[-90.64904650589142,9.7684138378284615],[-90.680352001643485,9.8697723355249991],[-90.715154508473688,9.9692988962272011],[-90.753286882883231,10.066747715434872],[-90.794581980473936,10.161872991345604],[-90.838872657746833,10.25442892215716],[-90.88599177030386,10.344169705167872]]]},"properties":{"objectid":1,"basin":"Pacific","prob2day":"0%","risk2day":"Low","prob7day":"60%","risk7day":"Medium","idp_source":"gtwo_areas_202610091143","idp_filedate":1791546491000,"idp_ingestdate":1791546520000,"st_area(shape)":93.704469789015491,"st_perimeter(shape)":40.866067981309129}}]}