{
"type": "FeatureCollection",
"name": "al092021-013_5day_pgn",
"features": [
{ "type": "Feature", "properties": { "STORMNAME": "Ida", "STORMTYPE": "HU", "ADVDATE": "700 AM CDT Sun Aug 29 2021", "ADVISNUM": "13", "STORMNUM": 9.0, "FCSTPRD": 120.0, "BASIN": "AL" }, "geometry": { "type": "Polygon", "coordinates": [ [ [ -89.5884, 28.2379 ], [ -89.5665, 28.24 ], [ -89.5439, 28.2441 ], [ -89.5205, 28.2501 ], [ -89.4966, 28.2577 ], [ -89.4729, 28.2669 ], [ -89.4504, 28.2778 ], [ -89.4192, 28.2973 ], [ -89.4006, 28.3124 ], [ -89.383, 28.3287 ], [ -89.3668, 28.3462 ], [ -89.3517, 28.3649 ], [ -89.333, 28.3968 ], [ -89.3232, 28.4209 ], [ -89.3162, 28.4474 ], [ -89.312, 28.4759 ], [ -89.3107, 28.5056 ], [ -89.312, 28.5354 ], [ -89.3162, 28.5639 ], [ -89.3232, 28.5904 ], [ -89.333, 28.6145 ], [ -89.3517, 28.6464 ], [ -89.3668, 28.6651 ], [ -89.3828, 28.6829 ], [ -89.3995, 28.6999 ], [ -89.4162, 28.717 ], [ -89.4332, 28.7338 ], [ -89.45, 28.7508 ], [ -89.4585, 28.7592 ], [ -89.4837, 28.7846 ], [ -89.4923, 28.793 ], [ -89.5175, 28.8184 ], [ -89.5345, 28.8352 ], [ -89.5512, 28.8522 ], [ -89.5682, 28.869 ], [ -89.585, 28.886 ], [ -89.602, 28.9028 ], [ -89.6187, 28.9198 ], [ -89.6272, 28.9282 ], [ -89.6525, 28.9536 ], [ -89.661, 28.962 ], [ -89.6778, 28.9789 ], [ -89.6947, 28.9958 ], [ -89.72, 29.0212 ], [ -89.7283, 29.0297 ], [ -89.7529, 29.0558 ], [ -89.7609, 29.0647 ], [ -89.7764, 29.083 ], [ -89.7985, 29.1115 ], [ -89.8128, 29.131 ], [ -89.8271, 29.1505 ], [ -89.8343, 29.1602 ], [ -89.856, 29.1891 ], [ -89.8634, 29.1986 ], [ -89.8854, 29.2273 ], [ -89.8926, 29.237 ], [ -89.9068, 29.2566 ], [ -89.9207, 29.2765 ], [ -89.9411, 29.3068 ], [ -89.9543, 29.3273 ], [ -89.9541, 29.3275 ], [ -89.9799, 29.3692 ], [ -89.986, 29.3801 ], [ -89.9979, 29.402 ], [ -90.0095, 29.4241 ], [ -90.021, 29.4464 ], [ -90.0322, 29.469 ], [ -90.0434, 29.4916 ], [ -90.0547, 29.5141 ], [ -90.0712, 29.5483 ], [ -90.0766, 29.5598 ], [ -90.0872, 29.5829 ], [ -90.0974, 29.6065 ], [ -90.1069, 29.6307 ], [ -90.1165, 29.6549 ], [ -90.1261, 29.6791 ], [ -90.1357, 29.7033 ], [ -90.141, 29.715 ], [ -90.1565, 29.7501 ], [ -90.1671, 29.7733 ], [ -90.1778, 29.7964 ], [ -90.1885, 29.8195 ], [ -90.1986, 29.8432 ], [ -90.208, 29.8675 ], [ -90.2172, 29.8921 ], [ -90.2261, 29.917 ], [ -90.2346, 29.9423 ], [ -90.243, 29.9677 ], [ -90.2515, 29.993 ], [ -90.26, 30.0183 ], [ -90.2684, 30.0437 ], [ -90.2768, 30.0691 ], [ -90.2851, 30.0945 ], [ -90.2932, 30.1202 ], [ -90.3009, 30.1463 ], [ -90.3083, 30.1727 ], [ -90.3155, 30.1993 ], [ -90.3224, 30.2262 ], [ -90.3291, 30.2533 ], [ -90.3359, 30.2803 ], [ -90.3426, 30.3073 ], [ -90.3494, 30.3344 ], [ -90.3527, 30.3479 ], [ -90.3627, 30.3886 ], [ -90.3689, 30.4162 ], [ -90.3745, 30.4444 ], [ -90.3791, 30.4736 ], [ -90.3824, 30.5041 ], [ -90.3846, 30.5357 ], [ -90.3858, 30.5683 ], [ -90.3863, 30.6016 ], [ -90.3865, 30.6352 ], [ -90.3865, 30.669 ], [ -90.3865, 30.7028 ], [ -90.3865, 30.7366 ], [ -90.3865, 30.7704 ], [ -90.3863, 30.8041 ], [ -90.3858, 30.8374 ], [ -90.3846, 30.87 ], [ -90.3824, 30.9016 ], [ -90.3791, 30.932 ], [ -90.3746, 30.9614 ], [ -90.3696, 30.9902 ], [ -90.3645, 31.0188 ], [ -90.3595, 31.0476 ], [ -90.3549, 31.0768 ], [ -90.3506, 31.1063 ], [ -90.346, 31.1355 ], [ -90.3409, 31.1642 ], [ -90.3352, 31.1923 ], [ -90.329, 31.2199 ], [ -90.3224, 31.2471 ], [ -90.3155, 31.274 ], [ -90.3083, 31.3006 ], [ -90.3009, 31.327 ], [ -90.2932, 31.3531 ], [ -90.2893, 31.366 ], [ -90.2809, 31.3915 ], [ -90.2726, 31.4169 ], [ -90.2642, 31.4423 ], [ -90.2556, 31.4675 ], [ -90.2464, 31.4921 ], [ -90.2325, 31.5288 ], [ -90.2228, 31.5529 ], [ -90.2178, 31.5648 ], [ -90.2078, 31.5886 ], [ -90.1936, 31.6251 ], [ -90.1889, 31.6373 ], [ -90.1744, 31.6735 ], [ -90.1648, 31.6977 ], [ -90.16, 31.7097 ], [ -90.1495, 31.733 ], [ -90.1384, 31.7557 ], [ -90.127, 31.7782 ], [ -90.1085, 31.8103 ], [ -90.0957, 31.8313 ], [ -90.0828, 31.8521 ], [ -90.0763, 31.8625 ], [ -90.057, 31.8939 ], [ -90.0445, 31.9151 ], [ -90.0322, 31.9366 ], [ -90.0199, 31.9581 ], [ -90.0073, 31.9794 ], [ -89.9945, 32.0003 ], [ -89.988, 32.0107 ], [ -89.968, 32.0414 ], [ -89.9613, 32.0516 ], [ -89.941, 32.082 ], [ -89.9275, 32.1023 ], [ -89.9141, 32.1225 ], [ -89.9006, 32.1428 ], [ -89.8938, 32.153 ], [ -89.88, 32.173 ], [ -89.8588, 32.2025 ], [ -89.8444, 32.2218 ], [ -89.8371, 32.2314 ], [ -89.8223, 32.2503 ], [ -89.8077, 32.2695 ], [ -89.7934, 32.289 ], [ -89.7719, 32.3182 ], [ -89.7648, 32.3279 ], [ -89.7505, 32.3474 ], [ -89.7359, 32.3666 ], [ -89.721, 32.3855 ], [ -89.6993, 32.4145 ], [ -89.6921, 32.4242 ], [ -89.6778, 32.4437 ], [ -89.6562, 32.4728 ], [ -89.6489, 32.4823 ], [ -89.6338, 32.501 ], [ -89.6179, 32.5189 ], [ -89.6017, 32.5364 ], [ -89.585, 32.5535 ], [ -89.5682, 32.5705 ], [ -89.5429, 32.5958 ], [ -89.5345, 32.6043 ], [ -89.5175, 32.6211 ], [ -89.5008, 32.6381 ], [ -89.4837, 32.6549 ], [ -89.467, 32.6719 ], [ -89.45, 32.6887 ], [ -89.4332, 32.7057 ], [ -89.4162, 32.7225 ], [ -89.3995, 32.7395 ], [ -89.3825, 32.7563 ], [ -89.3658, 32.7733 ], [ -89.3487, 32.7901 ], [ -89.332, 32.8071 ], [ -89.315, 32.8239 ], [ -89.2983, 32.8409 ], [ -89.2813, 32.8577 ], [ -89.2643, 32.8745 ], [ -89.2467, 32.8907 ], [ -89.2289, 32.9066 ], [ -89.2103, 32.9218 ], [ -89.1911, 32.9364 ], [ -89.1717, 32.9507 ], [ -89.1522, 32.9651 ], [ -89.133, 32.9797 ], [ -89.1144, 32.9948 ], [ -89.0963, 33.0105 ], [ -89.0783, 33.0262 ], [ -89.0602, 33.0418 ], [ -89.0415, 33.057 ], [ -89.0224, 33.0716 ], [ -89.0029, 33.0859 ], [ -88.9835, 33.1003 ], [ -88.9641, 33.1146 ], [ -88.9449, 33.1292 ], [ -88.926, 33.1441 ], [ -88.9068, 33.1587 ], [ -88.8874, 33.173 ], [ -88.8679, 33.1873 ], [ -88.8485, 33.2017 ], [ -88.8291, 33.216 ], [ -88.8099, 33.2306 ], [ -88.791, 33.2455 ], [ -88.7718, 33.2601 ], [ -88.7524, 33.2744 ], [ -88.7327, 33.2885 ], [ -88.7127, 33.3023 ], [ -88.7026, 33.309 ], [ -88.6823, 33.3226 ], [ -88.6621, 33.3361 ], [ -88.6317, 33.3564 ], [ -88.6115, 33.3699 ], [ -88.6014, 33.3766 ], [ -88.571, 33.3969 ], [ -88.5507, 33.4104 ], [ -88.5406, 33.4172 ], [ -88.5103, 33.4375 ], [ -88.49, 33.451 ], [ -88.4695, 33.4643 ], [ -88.4591, 33.4707 ], [ -88.4276, 33.4899 ], [ -88.4063, 33.5024 ], [ -88.3955, 33.5085 ], [ -88.3634, 33.527 ], [ -88.3423, 33.5397 ], [ -88.3319, 33.5462 ], [ -88.3008, 33.5657 ], [ -88.28, 33.5786 ], [ -88.2694, 33.585 ], [ -88.2376, 33.6038 ], [ -88.2268, 33.6099 ], [ -88.1947, 33.6284 ], [ -88.1841, 33.6347 ], [ -88.1528, 33.6541 ], [ -88.132, 33.6671 ], [ -88.1216, 33.6736 ], [ -88.1007, 33.6864 ], [ -88.0686, 33.7049 ], [ -88.0465, 33.7166 ], [ -88.0243, 33.7282 ], [ -88.0022, 33.7398 ], [ -87.9911, 33.7456 ], [ -87.9585, 33.7636 ], [ -87.9479, 33.77 ], [ -87.927, 33.7828 ], [ -87.9062, 33.7958 ], [ -87.8854, 33.8088 ], [ -87.854, 33.828 ], [ -87.8432, 33.8341 ], [ -87.8102, 33.8518 ], [ -87.7992, 33.8576 ], [ -87.7769, 33.8691 ], [ -87.743, 33.8858 ], [ -87.7318, 33.8915 ], [ -87.6982, 33.9086 ], [ -87.6755, 33.9196 ], [ -87.6643, 33.9253 ], [ -87.6307, 33.9424 ], [ -87.6081, 33.9534 ], [ -87.5968, 33.9591 ], [ -87.5632, 33.9762 ], [ -87.5519, 33.9817 ], [ -87.5293, 33.9929 ], [ -87.5069, 34.0043 ], [ -87.4844, 34.0155 ], [ -87.4619, 34.0267 ], [ -87.4282, 34.0438 ], [ -87.4169, 34.0493 ], [ -87.3944, 34.0605 ], [ -87.372, 34.0719 ], [ -87.3494, 34.0831 ], [ -87.3157, 34.1 ], [ -87.2933, 34.1114 ], [ -87.2819, 34.1169 ], [ -87.2482, 34.1338 ], [ -87.237, 34.1395 ], [ -87.2031, 34.1563 ], [ -87.1919, 34.1619 ], [ -87.1695, 34.1733 ], [ -87.1469, 34.1845 ], [ -87.1244, 34.1957 ], [ -87.0908, 34.2128 ], [ -87.0681, 34.2239 ], [ -87.0569, 34.2296 ], [ -87.0233, 34.2466 ], [ -87.0004, 34.2574 ], [ -86.9889, 34.2628 ], [ -86.9542, 34.2788 ], [ -86.9302, 34.2885 ], [ -86.9059, 34.298 ], [ -86.8939, 34.3028 ], [ -86.8697, 34.3124 ], [ -86.8455, 34.322 ], [ -86.8103, 34.3374 ], [ -86.7988, 34.3429 ], [ -86.7644, 34.3591 ], [ -86.742, 34.3704 ], [ -86.7308, 34.3761 ], [ -86.7081, 34.3872 ], [ -86.6737, 34.4034 ], [ -86.6621, 34.4087 ], [ -86.6265, 34.4237 ], [ -86.6022, 34.4332 ], [ -86.5902, 34.438 ], [ -86.566, 34.4476 ], [ -86.5417, 34.4571 ], [ -86.5177, 34.4668 ], [ -86.4939, 34.4769 ], [ -86.4699, 34.4866 ], [ -86.4456, 34.496 ], [ -86.4214, 34.5057 ], [ -86.3973, 34.5153 ], [ -86.373, 34.5247 ], [ -86.349, 34.5345 ], [ -86.3252, 34.5445 ], [ -86.3012, 34.5542 ], [ -86.2769, 34.5637 ], [ -86.2527, 34.5733 ], [ -86.2286, 34.5829 ], [ -86.2042, 34.5923 ], [ -86.1802, 34.6021 ], [ -86.1565, 34.6121 ], [ -86.1324, 34.6218 ], [ -86.108, 34.6311 ], [ -86.0834, 34.6403 ], [ -86.0586, 34.6492 ], [ -86.0334, 34.6578 ], [ -86.008, 34.6662 ], [ -85.9702, 34.679 ], [ -85.9575, 34.6832 ], [ -85.9321, 34.6916 ], [ -85.9068, 34.6999 ], [ -85.8815, 34.7085 ], [ -85.8563, 34.717 ], [ -85.8309, 34.7254 ], [ -85.8057, 34.7339 ], [ -85.7808, 34.7428 ], [ -85.7562, 34.752 ], [ -85.7318, 34.7613 ], [ -85.7078, 34.7711 ], [ -85.684, 34.7811 ], [ -85.66, 34.7908 ], [ -85.6233, 34.8047 ], [ -85.611, 34.8093 ], [ -85.5862, 34.8183 ], [ -85.5609, 34.8268 ], [ -85.5355, 34.8352 ], [ -85.5103, 34.8437 ], [ -85.4851, 34.8522 ], [ -85.4597, 34.8606 ], [ -85.4343, 34.869 ], [ -85.4091, 34.8775 ], [ -85.3838, 34.886 ], [ -85.3585, 34.8944 ], [ -85.3204, 34.907 ], [ -85.3078, 34.9113 ], [ -85.2826, 34.9198 ], [ -85.2572, 34.9282 ], [ -85.2318, 34.9366 ], [ -85.2065, 34.945 ], [ -85.1808, 34.9531 ], [ -85.1548, 34.9608 ], [ -85.1285, 34.9682 ], [ -85.1019, 34.9754 ], [ -85.0751, 34.9824 ], [ -85.0485, 34.9896 ], [ -85.0222, 34.997 ], [ -84.9962, 35.0047 ], [ -84.9705, 35.0128 ], [ -84.9451, 35.0212 ], [ -84.9198, 35.0296 ], [ -84.8944, 35.038 ], [ -84.8691, 35.0465 ], [ -84.8439, 35.055 ], [ -84.8185, 35.0634 ], [ -84.7805, 35.076 ], [ -84.7679, 35.0803 ], [ -84.7427, 35.0888 ], [ -84.7046, 35.1014 ], [ -84.6919, 35.1056 ], [ -84.6541, 35.1184 ], [ -84.6414, 35.1226 ], [ -84.6034, 35.1352 ], [ -84.578, 35.1436 ], [ -84.5653, 35.1478 ], [ -84.5397, 35.1559 ], [ -84.5136, 35.1636 ], [ -84.4873, 35.171 ], [ -84.4607, 35.1782 ], [ -84.434, 35.1852 ], [ -84.4074, 35.1924 ], [ -84.3811, 35.1998 ], [ -84.355, 35.2075 ], [ -84.3164, 35.2196 ], [ -84.3034, 35.2235 ], [ -84.2774, 35.2312 ], [ -84.2511, 35.2386 ], [ -84.2245, 35.2458 ], [ -84.1976, 35.2527 ], [ -84.1706, 35.2595 ], [ -84.1436, 35.2662 ], [ -84.1166, 35.273 ], [ -84.0896, 35.2797 ], [ -84.0626, 35.2865 ], [ -84.0355, 35.2931 ], [ -84.0081, 35.2995 ], [ -83.9804, 35.3056 ], [ -83.9525, 35.3114 ], [ -83.9243, 35.3169 ], [ -83.8961, 35.3225 ], [ -83.8681, 35.3283 ], [ -83.8405, 35.3344 ], [ -83.8131, 35.3407 ], [ -83.7859, 35.3473 ], [ -83.7589, 35.3541 ], [ -83.7318, 35.3607 ], [ -83.7044, 35.3671 ], [ -83.6767, 35.3732 ], [ -83.6488, 35.379 ], [ -83.6206, 35.3845 ], [ -83.5924, 35.3901 ], [ -83.5644, 35.3959 ], [ -83.5368, 35.402 ], [ -83.5094, 35.4083 ], [ -83.4822, 35.4149 ], [ -83.4552, 35.4217 ], [ -83.4281, 35.4283 ], [ -83.4007, 35.4347 ], [ -83.373, 35.4408 ], [ -83.3451, 35.4466 ], [ -83.3169, 35.4521 ], [ -83.2887, 35.4577 ], [ -83.2607, 35.4635 ], [ -83.2331, 35.4696 ], [ -83.2056, 35.4759 ], [ -83.1785, 35.4826 ], [ -83.1515, 35.4893 ], [ -83.1244, 35.4959 ], [ -83.097, 35.5023 ], [ -83.0693, 35.5084 ], [ -83.0414, 35.5142 ], [ -83.0132, 35.5197 ], [ -82.985, 35.5253 ], [ -82.957, 35.5311 ], [ -82.9293, 35.5372 ], [ -82.9019, 35.5435 ], [ -82.8748, 35.5502 ], [ -82.8478, 35.5569 ], [ -82.8207, 35.5635 ], [ -82.7933, 35.5699 ], [ -82.7656, 35.576 ], [ -82.7377, 35.5818 ], [ -82.7095, 35.5873 ], [ -82.6813, 35.5929 ], [ -82.6533, 35.5987 ], [ -82.6256, 35.6048 ], [ -82.5982, 35.6111 ], [ -82.5711, 35.6178 ], [ -82.5441, 35.6245 ], [ -82.5033, 35.6344 ], [ -82.4896, 35.6375 ], [ -82.4619, 35.6436 ], [ -82.434, 35.6494 ], [ -82.4058, 35.655 ], [ -82.3775, 35.6605 ], [ -82.3496, 35.6663 ], [ -82.3219, 35.6724 ], [ -82.2945, 35.6787 ], [ -82.2674, 35.6854 ], [ -82.2404, 35.6921 ], [ -82.2133, 35.6987 ], [ -82.1859, 35.7051 ], [ -82.1582, 35.7112 ], [ -82.1303, 35.717 ], [ -82.1021, 35.7226 ], [ -82.0738, 35.7281 ], [ -82.0459, 35.7339 ], [ -82.0182, 35.74 ], [ -81.9908, 35.7464 ], [ -81.9637, 35.753 ], [ -81.9367, 35.7597 ], [ -81.9096, 35.7664 ], [ -81.8822, 35.7727 ], [ -81.8545, 35.7788 ], [ -81.8266, 35.7846 ], [ -81.7983, 35.7901 ], [ -81.7701, 35.7957 ], [ -81.7422, 35.8015 ], [ -81.7145, 35.8076 ], [ -81.6871, 35.814 ], [ -81.66, 35.8206 ], [ -81.633, 35.8273 ], [ -81.6059, 35.834 ], [ -81.5785, 35.8403 ], [ -81.5508, 35.8464 ], [ -81.5228, 35.8522 ], [ -81.4946, 35.8578 ], [ -81.4664, 35.8633 ], [ -81.4385, 35.8691 ], [ -81.4108, 35.8752 ], [ -81.3834, 35.8816 ], [ -81.3428, 35.8916 ], [ -81.3293, 35.8949 ], [ -81.3022, 35.9016 ], [ -81.2748, 35.9079 ], [ -81.2471, 35.914 ], [ -81.2191, 35.9198 ], [ -81.1909, 35.9254 ], [ -81.1627, 35.9309 ], [ -81.1348, 35.9367 ], [ -81.1071, 35.9428 ], [ -81.0797, 35.9492 ], [ -81.0526, 35.9558 ], [ -81.0256, 35.9626 ], [ -80.9986, 35.9693 ], [ -80.9716, 35.9761 ], [ -80.9446, 35.9828 ], [ -80.9176, 35.9896 ], [ -80.8906, 35.9964 ], [ -80.8635, 36.003 ], [ -80.8361, 36.0093 ], [ -80.8084, 36.0154 ], [ -80.7805, 36.0212 ], [ -80.7522, 36.0268 ], [ -80.724, 36.0323 ], [ -80.6961, 36.0381 ], [ -80.6684, 36.0442 ], [ -80.641, 36.0506 ], [ -80.6139, 36.0572 ], [ -80.5869, 36.064 ], [ -80.5598, 36.0706 ], [ -80.5324, 36.0769 ], [ -80.5047, 36.083 ], [ -80.4768, 36.0888 ], [ -80.4485, 36.0944 ], [ -80.4203, 36.0999 ], [ -80.3924, 36.1057 ], [ -80.3647, 36.1118 ], [ -80.3373, 36.1182 ], [ -80.3102, 36.1248 ], [ -80.2832, 36.1316 ], [ -80.2561, 36.1382 ], [ -80.2287, 36.1446 ], [ -80.201, 36.1506 ], [ -80.173, 36.1564 ], [ -80.1448, 36.162 ], [ -80.1166, 36.1675 ], [ -80.0887, 36.1733 ], [ -80.061, 36.1794 ], [ -80.0336, 36.1858 ], [ -80.0065, 36.1924 ], [ -79.9795, 36.1992 ], [ -79.9524, 36.2058 ], [ -79.9249, 36.2122 ], [ -79.8973, 36.2182 ], [ -79.8693, 36.224 ], [ -79.8411, 36.2296 ], [ -79.8129, 36.2351 ], [ -79.785, 36.241 ], [ -79.7573, 36.247 ], [ -79.7299, 36.2534 ], [ -79.7028, 36.26 ], [ -79.6758, 36.2668 ], [ -79.6486, 36.2734 ], [ -79.6213, 36.2798 ], [ -79.5936, 36.2858 ], [ -79.5656, 36.2917 ], [ -79.5374, 36.2972 ], [ -79.5092, 36.3027 ], [ -79.4813, 36.3086 ], [ -79.4536, 36.3146 ], [ -79.4262, 36.321 ], [ -79.3856, 36.331 ], [ -79.3721, 36.3344 ], [ -79.3449, 36.341 ], [ -79.3175, 36.3474 ], [ -79.2899, 36.3535 ], [ -79.2619, 36.3593 ], [ -79.2337, 36.3648 ], [ -79.2055, 36.3704 ], [ -79.1776, 36.3762 ], [ -79.1499, 36.3823 ], [ -79.1225, 36.3886 ], [ -79.0954, 36.3952 ], [ -79.0684, 36.402 ], [ -79.0414, 36.4087 ], [ -79.0144, 36.4155 ], [ -78.9874, 36.4223 ], [ -78.9604, 36.429 ], [ -78.9334, 36.4358 ], [ -78.9062, 36.4424 ], [ -78.8789, 36.4488 ], [ -78.8512, 36.4549 ], [ -78.8232, 36.4607 ], [ -78.795, 36.4662 ], [ -78.7668, 36.4718 ], [ -78.7389, 36.4776 ], [ -78.7112, 36.4837 ], [ -78.6838, 36.49 ], [ -78.6567, 36.4966 ], [ -78.6297, 36.5034 ], [ -78.6025, 36.51 ], [ -78.5751, 36.5164 ], [ -78.5475, 36.5225 ], [ -78.5195, 36.5283 ], [ -78.4913, 36.5338 ], [ -78.4631, 36.5394 ], [ -78.4352, 36.5452 ], [ -78.4075, 36.5513 ], [ -78.3801, 36.5576 ], [ -78.353, 36.5642 ], [ -78.326, 36.571 ], [ -78.2988, 36.5776 ], [ -78.2714, 36.584 ], [ -78.2438, 36.5901 ], [ -78.2158, 36.5959 ], [ -78.1876, 36.6014 ], [ -78.1594, 36.607 ], [ -78.1315, 36.6128 ], [ -78.1038, 36.6189 ], [ -78.0764, 36.6252 ], [ -78.0493, 36.6319 ], [ -78.0223, 36.6386 ], [ -77.9953, 36.6454 ], [ -77.9683, 36.6521 ], [ -77.9413, 36.6589 ], [ -77.9143, 36.6657 ], [ -77.8741, 36.6761 ], [ -77.8608, 36.6797 ], [ -77.8345, 36.6872 ], [ -77.8085, 36.6949 ], [ -77.7828, 36.703 ], [ -77.7574, 36.7114 ], [ -77.7321, 36.7197 ], [ -77.7068, 36.7283 ], [ -77.682, 36.7372 ], [ -77.6574, 36.7464 ], [ -77.6208, 36.7604 ], [ -77.6089, 36.7654 ], [ -77.5852, 36.7754 ], [ -77.549, 36.7899 ], [ -77.5369, 36.7946 ], [ -77.5127, 36.8042 ], [ -77.4885, 36.8138 ], [ -77.4644, 36.8234 ], [ -77.4408, 36.8336 ], [ -77.4177, 36.8443 ], [ -77.3947, 36.8551 ], [ -77.3609, 36.8718 ], [ -77.3497, 36.8775 ], [ -77.3158, 36.8943 ], [ -77.2934, 36.9057 ], [ -77.271, 36.917 ], [ -77.2596, 36.9226 ], [ -77.2371, 36.9338 ], [ -77.2035, 36.9508 ], [ -77.1921, 36.9564 ], [ -77.1696, 36.9676 ], [ -77.1473, 36.9791 ], [ -77.1252, 36.9907 ], [ -77.0925, 37.0087 ], [ -77.0715, 37.0214 ], [ -77.0507, 37.0344 ], [ -77.0404, 37.041 ], [ -77.0099, 37.0611 ], [ -76.9897, 37.0747 ], [ -76.9593, 37.0949 ], [ -76.9492, 37.1017 ], [ -76.9289, 37.1152 ], [ -76.8987, 37.1356 ], [ -76.8887, 37.1425 ], [ -76.8593, 37.1638 ], [ -76.8495, 37.1709 ], [ -76.8304, 37.1855 ], [ -76.8019, 37.2077 ], [ -76.7923, 37.215 ], [ -76.7632, 37.2365 ], [ -76.7534, 37.2437 ], [ -76.7244, 37.2653 ], [ -76.7055, 37.2802 ], [ -76.6962, 37.2878 ], [ -76.6784, 37.3037 ], [ -76.6608, 37.3199 ], [ -76.6438, 37.3367 ], [ -76.6185, 37.362 ], [ -76.6016, 37.3789 ], [ -76.5931, 37.3873 ], [ -76.5763, 37.4043 ], [ -76.5593, 37.4211 ], [ -76.5341, 37.4465 ], [ -76.5256, 37.4549 ], [ -76.5004, 37.4803 ], [ -76.4919, 37.4887 ], [ -76.4751, 37.5057 ], [ -76.4581, 37.5225 ], [ -76.4329, 37.5479 ], [ -76.4244, 37.5563 ], [ -76.4076, 37.5733 ], [ -76.3909, 37.5904 ], [ -76.3667, 37.6169 ], [ -76.3512, 37.6351 ], [ -76.3436, 37.6444 ], [ -76.3219, 37.6734 ], [ -76.3148, 37.6831 ], [ -76.3005, 37.7026 ], [ -76.2861, 37.7221 ], [ -76.2716, 37.7413 ], [ -76.2494, 37.7698 ], [ -76.235, 37.7891 ], [ -76.2278, 37.7989 ], [ -76.2138, 37.8186 ], [ -76.1933, 37.8488 ], [ -76.1865, 37.8589 ], [ -76.1733, 37.8794 ], [ -76.154, 37.9108 ], [ -76.1416, 37.9322 ], [ -76.1355, 37.943 ], [ -76.1181, 37.9763 ], [ -76.1066, 37.9986 ], [ -76.0954, 38.0211 ], [ -76.0842, 38.0437 ], [ -76.0729, 38.0662 ], [ -76.0617, 38.0888 ], [ -76.0505, 38.1113 ], [ -76.0448, 38.1225 ], [ -76.028, 38.1565 ], [ -76.0173, 38.1795 ], [ -76.0119, 38.191 ], [ -75.9965, 38.2263 ], [ -75.987, 38.2506 ], [ -75.9778, 38.2752 ], [ -75.9689, 38.3001 ], [ -75.9604, 38.3254 ], [ -75.9521, 38.3508 ], [ -75.9437, 38.3762 ], [ -75.9357, 38.402 ], [ -75.9284, 38.4285 ], [ -75.9217, 38.4556 ], [ -75.9155, 38.4832 ], [ -75.9098, 38.5113 ], [ -75.9043, 38.5395 ], [ -75.8986, 38.5677 ], [ -75.8931, 38.5959 ], [ -75.888, 38.6246 ], [ -75.8835, 38.6539 ], [ -75.8801, 38.6844 ], [ -75.8778, 38.7159 ], [ -75.8761, 38.7479 ], [ -75.8743, 38.78 ], [ -75.872, 38.8115 ], [ -75.8688, 38.8417 ], [ -75.8649, 38.8705 ], [ -75.8611, 38.8981 ], [ -75.8583, 38.9248 ], [ -75.8572, 38.9507 ], [ -75.8583, 38.9767 ], [ -75.8611, 39.0033 ], [ -75.8649, 39.0309 ], [ -75.8688, 39.0597 ], [ -75.872, 39.09 ], [ -75.8743, 39.1215 ], [ -75.8761, 39.1535 ], [ -75.8778, 39.1856 ], [ -75.8801, 39.2171 ], [ -75.8835, 39.2475 ], [ -75.8881, 39.2767 ], [ -75.8936, 39.305 ], [ -75.8998, 39.3326 ], [ -75.9064, 39.3597 ], [ -75.9133, 39.3866 ], [ -75.9205, 39.4133 ], [ -75.9279, 39.4396 ], [ -75.9356, 39.4657 ], [ -75.9437, 39.4914 ], [ -75.9521, 39.5169 ], [ -75.9604, 39.5423 ], [ -75.9689, 39.5676 ], [ -75.9778, 39.5924 ], [ -75.987, 39.617 ], [ -75.9919, 39.6291 ], [ -76.0066, 39.665 ], [ -76.0173, 39.6882 ], [ -76.0226, 39.6997 ], [ -76.0391, 39.7339 ], [ -76.0505, 39.7563 ], [ -76.0617, 39.7789 ], [ -76.0729, 39.8015 ], [ -76.0843, 39.8238 ], [ -76.096, 39.846 ], [ -76.102, 39.8568 ], [ -76.1142, 39.8784 ], [ -76.1331, 39.9102 ], [ -76.1462, 39.9309 ], [ -76.1529, 39.941 ], [ -76.173, 39.9716 ], [ -76.1865, 39.9919 ], [ -76.1933, 40.002 ], [ -76.2135, 40.0324 ], [ -76.2338, 40.0628 ], [ -76.2407, 40.0728 ], [ -76.2616, 40.1026 ], [ -76.2687, 40.1123 ], [ -76.276, 40.1219 ], [ -76.2979, 40.1507 ], [ -76.3126, 40.1698 ], [ -76.327, 40.1891 ], [ -76.3413, 40.2086 ], [ -76.3557, 40.2281 ], [ -76.3701, 40.2474 ], [ -76.385, 40.2663 ], [ -76.4005, 40.2846 ], [ -76.4165, 40.3023 ], [ -76.433, 40.3196 ], [ -76.4497, 40.3366 ], [ -76.4666, 40.3535 ], [ -76.4835, 40.3704 ], [ -76.5089, 40.3957 ], [ -76.5174, 40.4041 ], [ -76.5434, 40.4287 ], [ -76.5523, 40.4367 ], [ -76.5798, 40.4598 ], [ -76.5894, 40.4671 ], [ -76.6087, 40.4816 ], [ -76.6282, 40.4959 ], [ -76.6475, 40.5104 ], [ -76.6664, 40.5253 ], [ -76.6847, 40.5407 ], [ -76.7028, 40.5564 ], [ -76.73, 40.5799 ], [ -76.7393, 40.5875 ], [ -76.7582, 40.6023 ], [ -76.7875, 40.6237 ], [ -76.7974, 40.6306 ], [ -76.8277, 40.651 ], [ -76.8378, 40.6578 ], [ -76.8581, 40.6713 ], [ -76.8783, 40.6848 ], [ -76.8985, 40.6983 ], [ -76.9188, 40.7119 ], [ -76.9494, 40.7319 ], [ -76.9702, 40.7448 ], [ -76.9913, 40.7576 ], [ -77.0126, 40.77 ], [ -77.0234, 40.7761 ], [ -77.0555, 40.7946 ], [ -77.0766, 40.8073 ], [ -77.0974, 40.8203 ], [ -77.1078, 40.8268 ], [ -77.1389, 40.8463 ], [ -77.1708, 40.865 ], [ -77.1816, 40.8711 ], [ -77.204, 40.8825 ], [ -77.2267, 40.8936 ], [ -77.2499, 40.9041 ], [ -77.2739, 40.9139 ], [ -77.2982, 40.9233 ], [ -77.3223, 40.9331 ], [ -77.3586, 40.9474 ], [ -77.3706, 40.9523 ], [ -77.3938, 40.9628 ], [ -77.4167, 40.9736 ], [ -77.4514, 40.9896 ], [ -77.4629, 40.995 ], [ -77.4861, 41.0055 ], [ -77.5224, 41.0199 ], [ -77.5347, 41.0245 ], [ -77.5593, 41.0337 ], [ -77.5844, 41.0423 ], [ -77.6098, 41.0507 ], [ -77.6477, 41.0634 ], [ -77.6729, 41.0719 ], [ -77.6983, 41.0803 ], [ -77.711, 41.0845 ], [ -77.7491, 41.0971 ], [ -77.7618, 41.1013 ], [ -77.7877, 41.1091 ], [ -77.8271, 41.1203 ], [ -77.8537, 41.1275 ], [ -77.867, 41.131 ], [ -77.9075, 41.1411 ], [ -77.9345, 41.1479 ], [ -77.948, 41.1513 ], [ -77.975, 41.1581 ], [ -78.0155, 41.1682 ], [ -78.0426, 41.1748 ], [ -78.0563, 41.1781 ], [ -78.0982, 41.1867 ], [ -78.1269, 41.1919 ], [ -78.156, 41.1965 ], [ -78.1855, 41.2008 ], [ -78.2146, 41.2054 ], [ -78.2434, 41.2104 ], [ -78.2577, 41.2129 ], [ -78.2863, 41.2181 ], [ -78.33, 41.225 ], [ -78.3602, 41.2285 ], [ -78.3913, 41.2312 ], [ -78.4226, 41.2336 ], [ -78.4537, 41.2363 ], [ -78.4839, 41.2398 ], [ -78.4987, 41.2419 ], [ -78.5276, 41.2468 ], [ -78.5707, 41.2543 ], [ -78.6, 41.2588 ], [ -78.6303, 41.2622 ], [ -78.6619, 41.2643 ], [ -78.6945, 41.2655 ], [ -78.7277, 41.2661 ], [ -78.7613, 41.2662 ], [ -78.795, 41.2662 ], [ -78.8288, 41.2662 ], [ -78.8625, 41.2662 ], [ -78.8963, 41.2662 ], [ -78.93, 41.2662 ], [ -78.9638, 41.2662 ], [ -78.9975, 41.2662 ], [ -79.0312, 41.2662 ], [ -79.065, 41.2662 ], [ -79.0986, 41.2661 ], [ -79.1318, 41.2655 ], [ -79.1643, 41.2643 ], [ -79.1959, 41.2622 ], [ -79.2263, 41.2588 ], [ -79.2556, 41.2543 ], [ -79.2843, 41.2493 ], [ -79.3131, 41.2443 ], [ -79.3424, 41.2398 ], [ -79.3726, 41.2363 ], [ -79.4037, 41.2336 ], [ -79.435, 41.2312 ], [ -79.4504, 41.2297 ], [ -79.4963, 41.225 ], [ -79.5255, 41.2205 ], [ -79.5542, 41.2154 ], [ -79.5824, 41.2098 ], [ -79.6104, 41.2042 ], [ -79.6386, 41.1986 ], [ -79.6669, 41.1931 ], [ -79.6948, 41.1873 ], [ -79.7225, 41.1812 ], [ -79.7499, 41.1748 ], [ -79.777, 41.1682 ], [ -79.804, 41.1614 ], [ -79.831, 41.1547 ], [ -79.858, 41.1479 ], [ -79.885, 41.1411 ], [ -79.912, 41.1344 ], [ -79.9388, 41.1275 ], [ -79.9654, 41.1203 ], [ -79.9918, 41.1129 ], [ -80.0178, 41.1052 ], [ -80.0435, 41.0971 ], [ -80.0815, 41.0845 ], [ -80.0942, 41.0803 ], [ -80.1196, 41.0719 ], [ -80.1448, 41.0634 ], [ -80.1701, 41.0549 ], [ -80.1954, 41.0465 ], [ -80.2207, 41.038 ], [ -80.2455, 41.0291 ], [ -80.2701, 41.0199 ], [ -80.2945, 41.0105 ], [ -80.3304, 40.9958 ], [ -80.3423, 40.9908 ], [ -80.3785, 40.9763 ], [ -80.3906, 40.9716 ], [ -80.4268, 40.9571 ], [ -80.439, 40.9524 ], [ -80.4631, 40.9428 ], [ -80.4867, 40.9327 ], [ -80.5098, 40.922 ], [ -80.5328, 40.9112 ], [ -80.5666, 40.8944 ], [ -80.5891, 40.883 ], [ -80.6004, 40.8775 ], [ -80.6341, 40.8606 ], [ -80.6453, 40.8549 ], [ -80.6679, 40.8437 ], [ -80.6904, 40.8325 ], [ -80.7128, 40.8211 ], [ -80.7354, 40.8099 ], [ -80.7691, 40.793 ], [ -80.7803, 40.7873 ], [ -80.8029, 40.7761 ], [ -80.8366, 40.7592 ], [ -80.8478, 40.7535 ], [ -80.8704, 40.7423 ], [ -80.9041, 40.7254 ], [ -80.9265, 40.714 ], [ -80.9378, 40.7085 ], [ -80.9716, 40.6916 ], [ -80.994, 40.6802 ], [ -81.0053, 40.6747 ], [ -81.0279, 40.6634 ], [ -81.0503, 40.6521 ], [ -81.0841, 40.6353 ], [ -81.1066, 40.624 ], [ -81.1178, 40.6183 ], [ -81.1517, 40.6015 ], [ -81.1741, 40.5902 ], [ -81.1965, 40.5788 ], [ -81.2078, 40.5733 ], [ -81.2304, 40.562 ], [ -81.2528, 40.5507 ], [ -81.2753, 40.5395 ], [ -81.309, 40.5226 ], [ -81.3314, 40.5112 ], [ -81.3429, 40.5058 ], [ -81.3659, 40.495 ], [ -81.3889, 40.4843 ], [ -81.4126, 40.4742 ], [ -81.4489, 40.4598 ], [ -81.4609, 40.4549 ], [ -81.4851, 40.4454 ], [ -81.5092, 40.4358 ], [ -81.5445, 40.4203 ], [ -81.5559, 40.4149 ], [ -81.5789, 40.4041 ], [ -81.6015, 40.393 ], [ -81.6352, 40.376 ], [ -81.6578, 40.3649 ], [ -81.6802, 40.3535 ], [ -81.6914, 40.3479 ], [ -81.714, 40.3366 ], [ -81.7365, 40.3254 ], [ -81.7701, 40.3084 ], [ -81.7815, 40.3028 ], [ -81.804, 40.2916 ], [ -81.8376, 40.2746 ], [ -81.8603, 40.2635 ], [ -81.8715, 40.2578 ], [ -81.8939, 40.2465 ], [ -81.9164, 40.2352 ], [ -81.939, 40.224 ], [ -81.9614, 40.2126 ], [ -81.9839, 40.2014 ], [ -82.0177, 40.1845 ], [ -82.0289, 40.1788 ], [ -82.0514, 40.1676 ], [ -82.0852, 40.1507 ], [ -82.0964, 40.145 ], [ -82.1305, 40.1285 ], [ -82.142, 40.1231 ], [ -82.1651, 40.1125 ], [ -82.1887, 40.1023 ], [ -82.2129, 40.0927 ], [ -82.237, 40.0831 ], [ -82.2612, 40.0735 ], [ -82.2853, 40.0639 ], [ -82.309, 40.0538 ], [ -82.3321, 40.0431 ], [ -82.3665, 40.0269 ], [ -82.3777, 40.0212 ], [ -82.4001, 40.0098 ], [ -82.434, 39.9931 ], [ -82.4564, 39.9817 ], [ -82.4676, 39.976 ], [ -82.4901, 39.9648 ], [ -82.5239, 39.9479 ], [ -82.5351, 39.9422 ], [ -82.5576, 39.931 ], [ -82.5802, 39.9198 ], [ -82.6138, 39.9027 ], [ -82.6364, 39.8917 ], [ -82.6588, 39.8803 ], [ -82.6701, 39.8746 ], [ -82.7039, 39.8579 ], [ -82.7151, 39.8522 ], [ -82.7487, 39.8351 ], [ -82.7602, 39.8297 ], [ -82.7946, 39.8135 ], [ -82.8062, 39.8082 ], [ -82.8299, 39.7981 ], [ -82.854, 39.7885 ], [ -82.8782, 39.7789 ], [ -82.9023, 39.7693 ], [ -82.9265, 39.7597 ], [ -82.9501, 39.7496 ], [ -82.9732, 39.7389 ], [ -82.9962, 39.7281 ], [ -83.0188, 39.717 ], [ -83.0524, 39.6999 ], [ -83.0751, 39.6888 ], [ -83.0863, 39.6832 ], [ -83.1087, 39.6718 ], [ -83.1313, 39.6606 ], [ -83.1538, 39.6494 ], [ -83.1762, 39.638 ], [ -83.2101, 39.6212 ], [ -83.2325, 39.6099 ], [ -83.2549, 39.5985 ], [ -83.2663, 39.593 ], [ -83.2888, 39.5818 ], [ -83.3224, 39.5647 ], [ -83.3337, 39.5592 ], [ -83.3675, 39.5423 ], [ -83.3787, 39.5366 ], [ -83.4129, 39.5201 ], [ -83.4358, 39.5093 ], [ -83.4474, 39.504 ], [ -83.483, 39.489 ], [ -83.4952, 39.4843 ], [ -83.5194, 39.4747 ], [ -83.5557, 39.4603 ], [ -83.5797, 39.4506 ], [ -83.5913, 39.4453 ], [ -83.6144, 39.4347 ], [ -83.6373, 39.4238 ], [ -83.66, 39.4127 ], [ -83.6936, 39.3957 ], [ -83.7049, 39.3902 ], [ -83.7275, 39.3789 ], [ -83.7499, 39.3676 ], [ -83.7724, 39.3564 ], [ -83.795, 39.3451 ], [ -83.8286, 39.3281 ], [ -83.8513, 39.317 ], [ -83.8625, 39.3113 ], [ -83.8961, 39.2943 ], [ -83.9074, 39.2888 ], [ -83.9412, 39.2719 ], [ -83.9524, 39.2662 ], [ -83.9862, 39.2494 ], [ -84.0087, 39.238 ], [ -84.0199, 39.2324 ], [ -84.0537, 39.2156 ], [ -84.0649, 39.2099 ], [ -84.0874, 39.1986 ], [ -84.1212, 39.1818 ], [ -84.1436, 39.1704 ], [ -84.166, 39.1591 ], [ -84.1774, 39.1535 ], [ -84.1999, 39.1423 ], [ -84.2335, 39.1253 ], [ -84.2449, 39.1197 ], [ -84.2786, 39.1028 ], [ -84.2898, 39.0972 ], [ -84.3124, 39.0859 ], [ -84.3461, 39.069 ], [ -84.3573, 39.0634 ], [ -84.3798, 39.0521 ], [ -84.4136, 39.0352 ], [ -84.436, 39.0239 ], [ -84.4473, 39.0183 ], [ -84.4699, 39.0071 ], [ -84.5035, 38.9901 ], [ -84.5148, 38.9845 ], [ -84.5374, 38.9733 ], [ -84.5598, 38.9619 ], [ -84.5937, 38.9452 ], [ -84.6049, 38.9395 ], [ -84.6385, 38.9225 ], [ -84.6612, 38.9114 ], [ -84.6724, 38.9057 ], [ -84.706, 38.8887 ], [ -84.7173, 38.8831 ], [ -84.7398, 38.8719 ], [ -84.7735, 38.8549 ], [ -84.7848, 38.8493 ], [ -84.8185, 38.8324 ], [ -84.8409, 38.8211 ], [ -84.8523, 38.8155 ], [ -84.886, 38.7986 ], [ -84.8972, 38.7929 ], [ -84.9311, 38.7762 ], [ -84.9535, 38.7648 ], [ -84.9647, 38.7591 ], [ -84.9873, 38.7479 ], [ -85.021, 38.731 ], [ -85.0434, 38.7197 ], [ -85.0548, 38.7141 ], [ -85.0773, 38.7029 ], [ -85.1109, 38.6858 ], [ -85.1222, 38.6803 ], [ -85.1448, 38.6691 ], [ -85.1672, 38.6577 ], [ -85.1897, 38.6465 ], [ -85.2235, 38.6296 ], [ -85.2347, 38.6239 ], [ -85.2572, 38.6127 ], [ -85.291, 38.5958 ], [ -85.3134, 38.5844 ], [ -85.3247, 38.5789 ], [ -85.3585, 38.562 ], [ -85.3697, 38.5563 ], [ -85.4035, 38.5396 ], [ -85.426, 38.5282 ], [ -85.4484, 38.5168 ], [ -85.4597, 38.5113 ], [ -85.4934, 38.4944 ], [ -85.5159, 38.483 ], [ -85.5385, 38.4719 ], [ -85.5497, 38.4663 ], [ -85.5833, 38.4492 ], [ -85.5947, 38.4437 ], [ -85.6284, 38.4268 ], [ -85.6395, 38.421 ], [ -85.6616, 38.4093 ], [ -85.6943, 38.3914 ], [ -85.7156, 38.3789 ], [ -85.7369, 38.3665 ], [ -85.7585, 38.3543 ], [ -85.7696, 38.3485 ], [ -85.7921, 38.3373 ], [ -85.8268, 38.3213 ], [ -85.8387, 38.3163 ], [ -85.8625, 38.3063 ], [ -85.886, 38.296 ], [ -85.9089, 38.2852 ], [ -85.9314, 38.274 ], [ -85.9535, 38.2622 ], [ -85.9853, 38.2434 ], [ -86.0061, 38.2305 ], [ -86.0269, 38.2175 ], [ -86.0477, 38.2045 ], [ -86.0582, 38.1981 ], [ -86.0795, 38.1857 ], [ -86.1125, 38.168 ], [ -86.1235, 38.1622 ], [ -86.157, 38.145 ], [ -86.1797, 38.1339 ], [ -86.1909, 38.1282 ], [ -86.2245, 38.1112 ], [ -86.2472, 38.1001 ], [ -86.2696, 38.0888 ], [ -86.2808, 38.0831 ], [ -86.3149, 38.0666 ], [ -86.3264, 38.0612 ], [ -86.3495, 38.0505 ], [ -86.3731, 38.0403 ], [ -86.3973, 38.0307 ], [ -86.4214, 38.0211 ], [ -86.4456, 38.0115 ], [ -86.4697, 38.002 ], [ -86.4934, 37.9918 ], [ -86.5279, 37.9757 ], [ -86.5394, 37.9703 ], [ -86.5733, 37.9535 ], [ -86.5845, 37.9479 ], [ -86.6184, 37.9311 ], [ -86.6296, 37.9254 ], [ -86.652, 37.9141 ], [ -86.6745, 37.9028 ], [ -86.7083, 37.8859 ], [ -86.7195, 37.8803 ], [ -86.7533, 37.8635 ], [ -86.7757, 37.8521 ], [ -86.7982, 37.8408 ], [ -86.8095, 37.8352 ], [ -86.832, 37.824 ], [ -86.8657, 37.807 ], [ -86.8883, 37.7959 ], [ -86.8995, 37.7902 ], [ -86.9332, 37.7732 ], [ -86.9445, 37.7676 ], [ -86.967, 37.7564 ], [ -87.0006, 37.7394 ], [ -87.012, 37.7338 ], [ -87.0457, 37.7169 ], [ -87.0569, 37.7112 ], [ -87.0908, 37.6945 ], [ -87.1132, 37.6831 ], [ -87.1356, 37.6718 ], [ -87.1583, 37.6607 ], [ -87.1807, 37.6493 ], [ -87.2028, 37.6377 ], [ -87.2139, 37.6319 ], [ -87.2358, 37.62 ], [ -87.2676, 37.6012 ], [ -87.278, 37.5947 ], [ -87.3092, 37.5752 ], [ -87.3196, 37.5687 ], [ -87.351, 37.5495 ], [ -87.3618, 37.5434 ], [ -87.3948, 37.5257 ], [ -87.4169, 37.5141 ], [ -87.4281, 37.5084 ], [ -87.4507, 37.4972 ], [ -87.4732, 37.486 ], [ -87.4955, 37.4745 ], [ -87.5176, 37.4629 ], [ -87.5395, 37.451 ], [ -87.5713, 37.4322 ], [ -87.5921, 37.4192 ], [ -87.6025, 37.4127 ], [ -87.6337, 37.3932 ], [ -87.6442, 37.3869 ], [ -87.6654, 37.3743 ], [ -87.6977, 37.3559 ], [ -87.719, 37.3435 ], [ -87.7295, 37.3371 ], [ -87.7608, 37.3178 ], [ -87.7816, 37.3048 ], [ -87.792, 37.2983 ], [ -87.8235, 37.2791 ], [ -87.8341, 37.2729 ], [ -87.8664, 37.2545 ], [ -87.8877, 37.2421 ], [ -87.9088, 37.2293 ], [ -87.9296, 37.2164 ], [ -87.9602, 37.1964 ], [ -87.9703, 37.1896 ], [ -87.9906, 37.1761 ], [ -88.0108, 37.1626 ], [ -88.0311, 37.149 ], [ -88.0513, 37.1355 ], [ -88.0716, 37.122 ], [ -88.0918, 37.1085 ], [ -88.1121, 37.095 ], [ -88.1424, 37.0747 ], [ -88.1424, 37.0747 ], [ -88.1828, 37.0475 ], [ -88.2026, 37.0336 ], [ -88.2125, 37.0265 ], [ -88.2319, 37.0122 ], [ -88.2415, 37.0049 ], [ -88.27, 36.9827 ], [ -88.2989, 36.9609 ], [ -88.3086, 36.9538 ], [ -88.3383, 36.9328 ], [ -88.3483, 36.9259 ], [ -88.3685, 36.9124 ], [ -88.3888, 36.8989 ], [ -88.409, 36.8854 ], [ -88.429, 36.8716 ], [ -88.4487, 36.8575 ], [ -88.4681, 36.8432 ], [ -88.4968, 36.8211 ], [ -88.5062, 36.8137 ], [ -88.5254, 36.7991 ], [ -88.5448, 36.7848 ], [ -88.574, 36.7633 ], [ -88.5933, 36.7488 ], [ -88.6122, 36.7339 ], [ -88.6215, 36.7264 ], [ -88.6396, 36.7107 ], [ -88.6577, 36.695 ], [ -88.6757, 36.6793 ], [ -88.6944, 36.6642 ], [ -88.7135, 36.6496 ], [ -88.733, 36.6352 ], [ -88.7427, 36.6281 ], [ -88.7718, 36.6066 ], [ -88.791, 36.592 ], [ -88.8099, 36.5771 ], [ -88.8291, 36.5625 ], [ -88.8485, 36.5482 ], [ -88.8777, 36.5266 ], [ -88.8874, 36.5195 ], [ -88.9066, 36.5049 ], [ -88.9252, 36.4897 ], [ -88.9523, 36.4662 ], [ -88.9614, 36.4584 ], [ -88.9795, 36.4427 ], [ -88.9981, 36.4275 ], [ -89.0172, 36.4129 ], [ -89.0367, 36.3986 ], [ -89.0561, 36.3843 ], [ -89.0756, 36.3699 ], [ -89.0947, 36.3553 ], [ -89.1136, 36.3405 ], [ -89.1328, 36.3259 ], [ -89.1522, 36.3115 ], [ -89.1717, 36.2972 ], [ -89.1911, 36.2829 ], [ -89.2103, 36.2683 ], [ -89.2289, 36.2531 ], [ -89.247, 36.2374 ], [ -89.2651, 36.2218 ], [ -89.2832, 36.2061 ], [ -89.3018, 36.1909 ], [ -89.321, 36.1763 ], [ -89.3404, 36.162 ], [ -89.3598, 36.1477 ], [ -89.3694, 36.1404 ], [ -89.3976, 36.1179 ], [ -89.4154, 36.102 ], [ -89.433, 36.0857 ], [ -89.4503, 36.0692 ], [ -89.4678, 36.053 ], [ -89.4856, 36.0371 ], [ -89.5043, 36.0219 ], [ -89.5234, 36.0073 ], [ -89.5429, 35.993 ], [ -89.5623, 35.9786 ], [ -89.5815, 35.964 ], [ -89.6001, 35.9489 ], [ -89.6179, 35.9329 ], [ -89.6355, 35.9167 ], [ -89.6525, 35.8999 ], [ -89.6695, 35.8832 ], [ -89.6862, 35.8661 ], [ -89.7032, 35.8494 ], [ -89.7202, 35.8326 ], [ -89.7378, 35.8164 ], [ -89.7556, 35.8004 ], [ -89.7742, 35.7853 ], [ -89.7934, 35.7707 ], [ -89.8128, 35.7564 ], [ -89.8323, 35.742 ], [ -89.8514, 35.7274 ], [ -89.87, 35.7123 ], [ -89.8879, 35.6963 ], [ -89.9054, 35.6801 ], [ -89.9224, 35.6633 ], [ -89.9394, 35.6466 ], [ -89.9562, 35.6295 ], [ -89.9732, 35.6128 ], [ -89.9899, 35.5957 ], [ -90.0069, 35.579 ], [ -90.0237, 35.5619 ], [ -90.0407, 35.5452 ], [ -90.0659, 35.5197 ], [ -90.0744, 35.5114 ], [ -90.0996, 35.4859 ], [ -90.1082, 35.4775 ], [ -90.1249, 35.4605 ], [ -90.1419, 35.4437 ], [ -90.1586, 35.4267 ], [ -90.1756, 35.4099 ], [ -90.1924, 35.3929 ], [ -90.2094, 35.3761 ], [ -90.2261, 35.3591 ], [ -90.2431, 35.3423 ], [ -90.2599, 35.3253 ], [ -90.2769, 35.3085 ], [ -90.2936, 35.2915 ], [ -90.3106, 35.2747 ], [ -90.3274, 35.2577 ], [ -90.3444, 35.2409 ], [ -90.3611, 35.2239 ], [ -90.3781, 35.2071 ], [ -90.4034, 35.1817 ], [ -90.4119, 35.1733 ], [ -90.4286, 35.1563 ], [ -90.4456, 35.1395 ], [ -90.4623, 35.1225 ], [ -90.4794, 35.1057 ], [ -90.4961, 35.0887 ], [ -90.5131, 35.0719 ], [ -90.5298, 35.0549 ], [ -90.5468, 35.0381 ], [ -90.5636, 35.0211 ], [ -90.5806, 35.0043 ], [ -90.5973, 34.9873 ], [ -90.6143, 34.9705 ], [ -90.6311, 34.9535 ], [ -90.6481, 34.9367 ], [ -90.6648, 34.9197 ], [ -90.6818, 34.9029 ], [ -90.6986, 34.8859 ], [ -90.7234, 34.86 ], [ -90.7315, 34.8513 ], [ -90.7474, 34.8334 ], [ -90.7698, 34.8052 ], [ -90.7771, 34.7955 ], [ -90.7986, 34.7663 ], [ -90.813, 34.747 ], [ -90.8203, 34.7374 ], [ -90.8354, 34.7187 ], [ -90.8595, 34.6921 ], [ -90.8676, 34.6833 ], [ -90.884, 34.666 ], [ -90.9082, 34.6395 ], [ -90.9237, 34.6213 ], [ -90.9313, 34.6119 ], [ -90.953, 34.583 ], [ -90.9602, 34.5733 ], [ -90.9818, 34.5442 ], [ -90.989, 34.5346 ], [ -91.0042, 34.5159 ], [ -91.0198, 34.4978 ], [ -91.0355, 34.4797 ], [ -91.0587, 34.4522 ], [ -91.0735, 34.4333 ], [ -91.0808, 34.4237 ], [ -91.1023, 34.3945 ], [ -91.1166, 34.375 ], [ -91.131, 34.3557 ], [ -91.1383, 34.3461 ], [ -91.1532, 34.3272 ], [ -91.1749, 34.2982 ], [ -91.1821, 34.2885 ], [ -91.1961, 34.2688 ], [ -91.2166, 34.2386 ], [ -91.2301, 34.2183 ], [ -91.2369, 34.2082 ], [ -91.2504, 34.1879 ], [ -91.2706, 34.1575 ], [ -91.2773, 34.1473 ], [ -91.2909, 34.1271 ], [ -91.3043, 34.1068 ], [ -91.3246, 34.0764 ], [ -91.3381, 34.0561 ], [ -91.3448, 34.0459 ], [ -91.365, 34.0154 ], [ -91.3716, 34.0051 ], [ -91.3909, 33.9737 ], [ -91.4034, 33.9525 ], [ -91.4157, 33.931 ], [ -91.428, 33.9095 ], [ -91.4405, 33.8883 ], [ -91.4534, 33.8673 ], [ -91.4663, 33.8465 ], [ -91.4793, 33.8257 ], [ -91.4858, 33.8153 ], [ -91.5045, 33.7834 ], [ -91.5106, 33.7725 ], [ -91.528, 33.7393 ], [ -91.5395, 33.717 ], [ -91.5507, 33.6944 ], [ -91.5562, 33.683 ], [ -91.5732, 33.6494 ], [ -91.5844, 33.6268 ], [ -91.5956, 33.6042 ], [ -91.607, 33.5818 ], [ -91.618, 33.559 ], [ -91.6289, 33.5361 ], [ -91.6395, 33.5129 ], [ -91.6496, 33.4893 ], [ -91.6592, 33.4651 ], [ -91.6688, 33.4409 ], [ -91.6784, 33.4167 ], [ -91.6831, 33.4045 ], [ -91.6981, 33.3688 ], [ -91.7088, 33.3457 ], [ -91.7194, 33.3226 ], [ -91.7301, 33.2994 ], [ -91.7408, 33.2763 ], [ -91.7509, 33.2526 ], [ -91.7603, 33.2283 ], [ -91.7695, 33.2037 ], [ -91.7784, 33.1788 ], [ -91.7827, 33.1662 ], [ -91.7953, 33.1281 ], [ -91.8038, 33.1028 ], [ -91.8081, 33.0903 ], [ -91.8207, 33.0521 ], [ -91.8248, 33.0394 ], [ -91.8332, 33.014 ], [ -91.8418, 32.9889 ], [ -91.8544, 32.9507 ], [ -91.8628, 32.9253 ], [ -91.8711, 32.8999 ], [ -91.8792, 32.8742 ], [ -91.8869, 32.8481 ], [ -91.8944, 32.8217 ], [ -91.9015, 32.7951 ], [ -91.9084, 32.7682 ], [ -91.915, 32.741 ], [ -91.9213, 32.7136 ], [ -91.9274, 32.6858 ], [ -91.9332, 32.6579 ], [ -91.9388, 32.6296 ], [ -91.9443, 32.6013 ], [ -91.95, 32.5732 ], [ -91.9556, 32.5451 ], [ -91.9613, 32.517 ], [ -91.967, 32.4888 ], [ -91.9725, 32.4606 ], [ -91.978, 32.4323 ], [ -91.9809, 32.4183 ], [ -91.9892, 32.3759 ], [ -91.9944, 32.3473 ], [ -91.9988, 32.3179 ], [ -92.0023, 32.2876 ], [ -92.005, 32.2565 ], [ -92.0075, 32.2252 ], [ -92.0102, 32.1941 ], [ -92.0137, 32.1638 ], [ -92.0181, 32.1345 ], [ -92.0231, 32.1057 ], [ -92.0281, 32.0768 ], [ -92.0326, 32.0475 ], [ -92.036, 32.0171 ], [ -92.0381, 31.9854 ], [ -92.0393, 31.9529 ], [ -92.0399, 31.9196 ], [ -92.04, 31.8859 ], [ -92.04, 31.8521 ], [ -92.04, 31.8183 ], [ -92.04, 31.7845 ], [ -92.04, 31.7507 ], [ -92.04, 31.7169 ], [ -92.0399, 31.6833 ], [ -92.0393, 31.65 ], [ -92.0381, 31.6174 ], [ -92.0359, 31.5858 ], [ -92.0326, 31.5553 ], [ -92.0281, 31.526 ], [ -92.0231, 31.4972 ], [ -92.0181, 31.4684 ], [ -92.0137, 31.4391 ], [ -92.0102, 31.4088 ], [ -92.0075, 31.3777 ], [ -92.005, 31.3463 ], [ -92.0023, 31.3152 ], [ -91.9988, 31.2849 ], [ -91.9944, 31.2556 ], [ -91.9894, 31.2268 ], [ -91.9843, 31.1981 ], [ -91.9792, 31.1693 ], [ -91.9747, 31.1401 ], [ -91.9703, 31.1106 ], [ -91.9658, 31.0814 ], [ -91.9606, 31.0528 ], [ -91.955, 31.0246 ], [ -91.9488, 30.9971 ], [ -91.9421, 30.9699 ], [ -91.9388, 30.9564 ], [ -91.9286, 30.9158 ], [ -91.9219, 30.8887 ], [ -91.9151, 30.8617 ], [ -91.9084, 30.8347 ], [ -91.9015, 30.8078 ], [ -91.8944, 30.7811 ], [ -91.8869, 30.7548 ], [ -91.8792, 30.7287 ], [ -91.8711, 30.703 ], [ -91.8628, 30.6775 ], [ -91.8544, 30.6521 ], [ -91.846, 30.6267 ], [ -91.8375, 30.6014 ], [ -91.829, 30.5761 ], [ -91.8207, 30.5507 ], [ -91.8123, 30.5253 ], [ -91.8038, 30.5 ], [ -91.7953, 30.4747 ], [ -91.7869, 30.4493 ], [ -91.7784, 30.424 ], [ -91.7695, 30.3991 ], [ -91.7603, 30.3745 ], [ -91.7509, 30.3502 ], [ -91.7407, 30.3265 ], [ -91.7301, 30.3034 ], [ -91.7193, 30.2804 ], [ -91.7025, 30.2465 ], [ -91.6969, 30.2353 ], [ -91.6857, 30.2127 ], [ -91.6688, 30.1789 ], [ -91.6631, 30.1677 ], [ -91.6519, 30.1451 ], [ -91.6407, 30.1225 ], [ -91.6294, 30.1001 ], [ -91.6182, 30.0775 ], [ -91.607, 30.0549 ], [ -91.5955, 30.0326 ], [ -91.5839, 30.0104 ], [ -91.572, 29.9885 ], [ -91.5596, 29.9671 ], [ -91.5403, 29.9358 ], [ -91.5271, 29.9152 ], [ -91.5203, 29.9051 ], [ -91.5068, 29.8848 ], [ -91.4933, 29.8645 ], [ -91.4731, 29.8341 ], [ -91.4663, 29.824 ], [ -91.4461, 29.7935 ], [ -91.4326, 29.7733 ], [ -91.4191, 29.753 ], [ -91.4123, 29.7428 ], [ -91.3921, 29.7124 ], [ -91.3786, 29.6921 ], [ -91.3648, 29.6721 ], [ -91.3508, 29.6524 ], [ -91.3436, 29.6426 ], [ -91.3219, 29.6137 ], [ -91.3071, 29.5948 ], [ -91.2925, 29.5756 ], [ -91.2782, 29.5561 ], [ -91.271, 29.5464 ], [ -91.2496, 29.5172 ], [ -91.2352, 29.4977 ], [ -91.228, 29.4881 ], [ -91.2058, 29.4596 ], [ -91.1912, 29.4404 ], [ -91.1841, 29.4306 ], [ -91.1626, 29.4014 ], [ -91.1555, 29.3917 ], [ -91.1337, 29.3628 ], [ -91.1186, 29.3441 ], [ -91.1027, 29.3262 ], [ -91.0946, 29.3175 ], [ -91.0698, 29.2916 ], [ -91.053, 29.2746 ], [ -91.0447, 29.2661 ], [ -91.0201, 29.24 ], [ -91.0042, 29.2221 ], [ -90.9966, 29.2128 ], [ -90.9817, 29.1939 ], [ -90.9601, 29.1648 ], [ -90.9458, 29.1453 ], [ -90.9313, 29.1261 ], [ -90.9162, 29.1075 ], [ -90.9002, 29.0896 ], [ -90.8921, 29.0808 ], [ -90.8757, 29.0635 ], [ -90.8505, 29.038 ], [ -90.8335, 29.0212 ], [ -90.8252, 29.0127 ], [ -90.8083, 28.9958 ], [ -90.7914, 28.9789 ], [ -90.766, 28.9536 ], [ -90.7577, 28.9451 ], [ -90.7323, 28.9198 ], [ -90.7156, 28.9028 ], [ -90.6986, 28.886 ], [ -90.6818, 28.869 ], [ -90.6648, 28.8522 ], [ -90.6565, 28.8437 ], [ -90.6396, 28.8268 ], [ -90.6141, 28.8016 ], [ -90.5965, 28.7854 ], [ -90.5876, 28.7774 ], [ -90.5601, 28.7543 ], [ -90.5409, 28.7397 ], [ -90.5215, 28.7254 ], [ -90.502, 28.711 ], [ -90.4826, 28.6967 ], [ -90.4634, 28.6821 ], [ -90.4445, 28.6672 ], [ -90.4251, 28.6529 ], [ -90.4051, 28.6391 ], [ -90.3846, 28.6259 ], [ -90.3635, 28.6131 ], [ -90.3419, 28.601 ], [ -90.3206, 28.5885 ], [ -90.2996, 28.5758 ], [ -90.2788, 28.5628 ], [ -90.258, 28.5499 ], [ -90.2372, 28.5369 ], [ -90.2161, 28.5242 ], [ -90.1945, 28.512 ], [ -90.1724, 28.5004 ], [ -90.1503, 28.4887 ], [ -90.1165, 28.4718 ], [ -90.1052, 28.4663 ], [ -90.0828, 28.4549 ], [ -90.0604, 28.4436 ], [ -90.0265, 28.4268 ], [ -90.0153, 28.4211 ], [ -89.9929, 28.4098 ], [ -89.959, 28.393 ], [ -89.9478, 28.3873 ], [ -89.9257, 28.3757 ], [ -89.9035, 28.3641 ], [ -89.8819, 28.3519 ], [ -89.8609, 28.3392 ], [ -89.8401, 28.3262 ], [ -89.8193, 28.3132 ], [ -89.7873, 28.2946 ], [ -89.7764, 28.2885 ], [ -89.7534, 28.2774 ], [ -89.7293, 28.2677 ], [ -89.6917, 28.2554 ], [ -89.667, 28.2483 ], [ -89.6431, 28.2429 ], [ -89.6315, 28.2416 ], [ -89.5884, 28.2379 ] ] ] } }
]
}
