{
"type": "FeatureCollection",
"name": "al092021_2021082912_initialradii",
"features": [
{ "type": "Feature", "properties": { "RADII": 34.0, "STORMID": "al092021", "BASIN": "al", "STORMNUM": 9.0, "ADVNUM": "13", "VALIDTIME": "2021082912", "SYNOPTIME": "2021082906", "TIMEZONE": "UTC", "TAU": 0.0, "NE": 120.0, "SE": 100.0, "SW": 80.0, "NW": 110.0 }, "geometry": { "type": "Polygon", "coordinates": [ [ [ -89.5804, 30.4121 ], [ -89.6191, 30.4103 ], [ -89.6577, 30.4078 ], [ -89.6962, 30.4048 ], [ -89.7346, 30.4012 ], [ -89.7728, 30.397 ], [ -89.811, 30.3922 ], [ -89.849, 30.3869 ], [ -89.8868, 30.3809 ], [ -89.9245, 30.3744 ], [ -89.9619, 30.3673 ], [ -89.9992, 30.3597 ], [ -90.0363, 30.3514 ], [ -90.0732, 30.3427 ], [ -90.1099, 30.3333 ], [ -90.1463, 30.3234 ], [ -90.1825, 30.313 ], [ -90.2184, 30.302 ], [ -90.254, 30.2905 ], [ -90.2894, 30.2784 ], [ -90.3244, 30.2658 ], [ -90.3592, 30.2527 ], [ -90.3936, 30.2391 ], [ -90.4277, 30.225 ], [ -90.4615, 30.2103 ], [ -90.495, 30.1952 ], [ -90.528, 30.1795 ], [ -90.5608, 30.1634 ], [ -90.5931, 30.1468 ], [ -90.6251, 30.1297 ], [ -90.6566, 30.1121 ], [ -90.6878, 30.0941 ], [ -90.7185, 30.0756 ], [ -90.7489, 30.0566 ], [ -90.7788, 30.0372 ], [ -90.8082, 30.0174 ], [ -90.8372, 29.9971 ], [ -90.8658, 29.9765 ], [ -90.8939, 29.9554 ], [ -90.9216, 29.9339 ], [ -90.9487, 29.912 ], [ -90.9754, 29.8897 ], [ -91.0014, 29.8669 ], [ -91.0266, 29.8434 ], [ -91.0508, 29.8193 ], [ -91.0742, 29.7946 ], [ -91.0968, 29.7693 ], [ -91.1183, 29.7434 ], [ -91.139, 29.7169 ], [ -91.1587, 29.69 ], [ -91.1775, 29.6625 ], [ -91.1954, 29.6347 ], [ -91.2127, 29.6066 ], [ -91.2293, 29.5784 ], [ -91.2453, 29.55 ], [ -91.2607, 29.5215 ], [ -91.2754, 29.4928 ], [ -91.2895, 29.464 ], [ -91.3029, 29.435 ], [ -91.3157, 29.4059 ], [ -91.3279, 29.3767 ], [ -91.3393, 29.3474 ], [ -91.3502, 29.3181 ], [ -91.3604, 29.2886 ], [ -91.3699, 29.2591 ], [ -91.3788, 29.2295 ], [ -91.3871, 29.1999 ], [ -91.3947, 29.1703 ], [ -91.4017, 29.1406 ], [ -91.408, 29.1109 ], [ -91.4137, 29.0813 ], [ -91.4188, 29.0516 ], [ -91.4233, 29.0219 ], [ -91.4271, 28.9923 ], [ -91.4303, 28.9627 ], [ -91.4329, 28.9332 ], [ -91.4348, 28.9037 ], [ -91.4362, 28.8743 ], [ -91.4369, 28.845 ], [ -91.437, 28.8158 ], [ -91.4366, 28.7866 ], [ -91.4355, 28.7576 ], [ -91.4338, 28.7287 ], [ -91.4316, 28.6999 ], [ -91.4287, 28.6712 ], [ -91.4253, 28.6427 ], [ -91.4214, 28.6143 ], [ -91.4168, 28.5861 ], [ -91.4117, 28.5581 ], [ -91.406, 28.5303 ], [ -91.3998, 28.5026 ], [ -91.3931, 28.4751 ], [ -91.3858, 28.4479 ], [ -91.378, 28.4208 ], [ -91.3696, 28.394 ], [ -91.3607, 28.3674 ], [ -91.3514, 28.341 ], [ -91.3415, 28.3149 ], [ -91.3311, 28.289 ], [ -91.3202, 28.2634 ], [ -91.3089, 28.238 ], [ -91.2971, 28.213 ], [ -91.2848, 28.1882 ], [ -91.272, 28.1636 ], [ -91.2588, 28.1394 ], [ -91.2452, 28.1155 ], [ -91.2311, 28.0919 ], [ -91.2166, 28.0686 ], [ -91.2017, 28.0456 ], [ -91.1864, 28.0229 ], [ -91.1706, 28.0006 ], [ -91.1545, 27.9786 ], [ -91.138, 27.9569 ], [ -91.1211, 27.9356 ], [ -91.1038, 27.9146 ], [ -91.0862, 27.894 ], [ -91.0682, 27.8738 ], [ -91.0499, 27.8539 ], [ -91.0313, 27.8344 ], [ -91.0123, 27.8152 ], [ -90.993, 27.7964 ], [ -90.9735, 27.778 ], [ -90.9536, 27.76 ], [ -90.9334, 27.7424 ], [ -90.913, 27.7252 ], [ -90.8923, 27.7084 ], [ -90.8713, 27.6919 ], [ -90.8501, 27.6759 ], [ -90.8286, 27.6603 ], [ -90.8069, 27.6451 ], [ -90.785, 27.6302 ], [ -90.7629, 27.6158 ], [ -90.741, 27.6015 ], [ -90.7196, 27.5868 ], [ -90.6989, 27.5717 ], [ -90.6786, 27.5563 ], [ -90.659, 27.5404 ], [ -90.6398, 27.5241 ], [ -90.6211, 27.5074 ], [ -90.6028, 27.4902 ], [ -90.585, 27.4725 ], [ -90.5672, 27.4547 ], [ -90.549, 27.4371 ], [ -90.5304, 27.4197 ], [ -90.5114, 27.4027 ], [ -90.4921, 27.3858 ], [ -90.4723, 27.3692 ], [ -90.4522, 27.3529 ], [ -90.4317, 27.3369 ], [ -90.4108, 27.3212 ], [ -90.3896, 27.3057 ], [ -90.368, 27.2906 ], [ -90.3461, 27.2757 ], [ -90.3238, 27.2612 ], [ -90.3011, 27.2469 ], [ -90.2782, 27.233 ], [ -90.2549, 27.2195 ], [ -90.2312, 27.2062 ], [ -90.2073, 27.1933 ], [ -90.1831, 27.1807 ], [ -90.1585, 27.1685 ], [ -90.1337, 27.1567 ], [ -90.1085, 27.1452 ], [ -90.0831, 27.1341 ], [ -90.0574, 27.1233 ], [ -90.0314, 27.113 ], [ -90.0052, 27.103 ], [ -89.9787, 27.0934 ], [ -89.9519, 27.0842 ], [ -89.9249, 27.0754 ], [ -89.8977, 27.067 ], [ -89.8702, 27.059 ], [ -89.8426, 27.0514 ], [ -89.8147, 27.0442 ], [ -89.7866, 27.0375 ], [ -89.7583, 27.0312 ], [ -89.7298, 27.0253 ], [ -89.7011, 27.0198 ], [ -89.6723, 27.0148 ], [ -89.6433, 27.0102 ], [ -89.6142, 27.0061 ], [ -89.5849, 27.0024 ], [ -89.5554, 26.9992 ], [ -89.5258, 26.9964 ], [ -89.4962, 26.9941 ], [ -89.4664, 26.9922 ], [ -89.4365, 26.9908 ], [ -89.4065, 26.9899 ], [ -89.3764, 26.9894 ], [ -89.3462, 26.9894 ], [ -89.316, 26.9899 ], [ -89.2857, 26.9908 ], [ -89.2554, 26.9922 ], [ -89.225, 26.9941 ], [ -89.1946, 26.9965 ], [ -89.1642, 26.9994 ], [ -89.1338, 27.0027 ], [ -89.1033, 27.0066 ], [ -89.0729, 27.0109 ], [ -89.0425, 27.0157 ], [ -89.0121, 27.021 ], [ -88.9818, 27.0267 ], [ -88.9515, 27.033 ], [ -88.9212, 27.0397 ], [ -88.8911, 27.047 ], [ -88.861, 27.0547 ], [ -88.831, 27.0629 ], [ -88.801, 27.0716 ], [ -88.7712, 27.0808 ], [ -88.7415, 27.0905 ], [ -88.712, 27.1006 ], [ -88.6825, 27.1112 ], [ -88.6532, 27.1224 ], [ -88.6241, 27.134 ], [ -88.5951, 27.146 ], [ -88.5663, 27.1586 ], [ -88.5377, 27.1716 ], [ -88.5093, 27.1851 ], [ -88.4811, 27.1991 ], [ -88.4531, 27.2135 ], [ -88.4253, 27.2284 ], [ -88.3978, 27.2438 ], [ -88.3705, 27.2597 ], [ -88.3434, 27.276 ], [ -88.3166, 27.2927 ], [ -88.2901, 27.3099 ], [ -88.2639, 27.3276 ], [ -88.2379, 27.3457 ], [ -88.2123, 27.3642 ], [ -88.187, 27.3832 ], [ -88.1619, 27.4026 ], [ -88.1373, 27.4224 ], [ -88.1129, 27.4427 ], [ -88.0889, 27.4634 ], [ -88.0653, 27.4845 ], [ -88.042, 27.506 ], [ -88.0191, 27.5279 ], [ -87.9966, 27.5502 ], [ -87.9745, 27.5729 ], [ -87.9528, 27.596 ], [ -87.9315, 27.6195 ], [ -87.9106, 27.6433 ], [ -87.8901, 27.6676 ], [ -87.8701, 27.6922 ], [ -87.8505, 27.7171 ], [ -87.8314, 27.7424 ], [ -87.8127, 27.7681 ], [ -87.7945, 27.7941 ], [ -87.7768, 27.8204 ], [ -87.7596, 27.8471 ], [ -87.7428, 27.8741 ], [ -87.7266, 27.9013 ], [ -87.7108, 27.9289 ], [ -87.6956, 27.9568 ], [ -87.6809, 27.985 ], [ -87.6668, 28.0135 ], [ -87.6531, 28.0422 ], [ -87.64, 28.0712 ], [ -87.6275, 28.1005 ], [ -87.6155, 28.13 ], [ -87.6041, 28.1598 ], [ -87.5933, 28.1897 ], [ -87.583, 28.22 ], [ -87.5733, 28.2504 ], [ -87.5643, 28.281 ], [ -87.5558, 28.3119 ], [ -87.5479, 28.3429 ], [ -87.5406, 28.3741 ], [ -87.5339, 28.4055 ], [ -87.5278, 28.437 ], [ -87.5224, 28.4687 ], [ -87.5176, 28.5005 ], [ -87.5134, 28.5325 ], [ -87.5098, 28.5646 ], [ -87.5069, 28.5968 ], [ -87.5046, 28.6291 ], [ -87.503, 28.6615 ], [ -87.502, 28.694 ], [ -87.5017, 28.7266 ], [ -87.502, 28.7592 ], [ -87.503, 28.7919 ], [ -87.5047, 28.8246 ], [ -87.507, 28.8573 ], [ -87.51, 28.8901 ], [ -87.5136, 28.9229 ], [ -87.518, 28.9557 ], [ -87.523, 28.9885 ], [ -87.5286, 29.0212 ], [ -87.535, 29.054 ], [ -87.542, 29.0867 ], [ -87.5497, 29.1193 ], [ -87.5581, 29.1519 ], [ -87.5672, 29.1844 ], [ -87.577, 29.2168 ], [ -87.5874, 29.2492 ], [ -87.5985, 29.2814 ], [ -87.6103, 29.3135 ], [ -87.6228, 29.3455 ], [ -87.6359, 29.3773 ], [ -87.6497, 29.409 ], [ -87.6643, 29.4405 ], [ -87.6794, 29.4719 ], [ -87.6953, 29.5031 ], [ -87.7118, 29.5341 ], [ -87.729, 29.5649 ], [ -87.7469, 29.5954 ], [ -87.7654, 29.6258 ], [ -87.7846, 29.6559 ], [ -87.8044, 29.6858 ], [ -87.8249, 29.7154 ], [ -87.846, 29.7447 ], [ -87.8678, 29.7738 ], [ -87.8905, 29.8023 ], [ -87.9143, 29.8302 ], [ -87.9392, 29.8572 ], [ -87.9652, 29.8835 ], [ -87.9923, 29.9089 ], [ -88.0203, 29.9335 ], [ -88.0494, 29.9572 ], [ -88.0795, 29.98 ], [ -88.1105, 30.0019 ], [ -88.1423, 30.0231 ], [ -88.1744, 30.0438 ], [ -88.2069, 30.064 ], [ -88.2398, 30.0837 ], [ -88.2731, 30.1028 ], [ -88.3067, 30.1214 ], [ -88.3407, 30.1394 ], [ -88.375, 30.157 ], [ -88.4097, 30.1739 ], [ -88.4446, 30.1903 ], [ -88.4799, 30.2062 ], [ -88.5155, 30.2215 ], [ -88.5513, 30.2362 ], [ -88.5874, 30.2504 ], [ -88.6238, 30.264 ], [ -88.6604, 30.277 ], [ -88.6973, 30.2895 ], [ -88.7344, 30.3013 ], [ -88.7716, 30.3126 ], [ -88.8091, 30.3233 ], [ -88.8468, 30.3334 ], [ -88.8846, 30.343 ], [ -88.9226, 30.3519 ], [ -88.9607, 30.3602 ], [ -88.999, 30.368 ], [ -89.0374, 30.3751 ], [ -89.0759, 30.3816 ], [ -89.1145, 30.3876 ], [ -89.1532, 30.3929 ], [ -89.1919, 30.3977 ], [ -89.2307, 30.4018 ], [ -89.2696, 30.4054 ], [ -89.3085, 30.4083 ], [ -89.3474, 30.4106 ], [ -89.3863, 30.4124 ], [ -89.4251, 30.4135 ], [ -89.464, 30.4141 ], [ -89.5029, 30.414 ], [ -89.5417, 30.4134 ], [ -89.5804, 30.4121 ] ] ] } },
{ "type": "Feature", "properties": { "RADII": 50.0, "STORMID": "al092021", "BASIN": "al", "STORMNUM": 9.0, "ADVNUM": "13", "VALIDTIME": "2021082912", "SYNOPTIME": "2021082906", "TIMEZONE": "UTC", "TAU": 0.0, "NE": 70.0, "SE": 60.0, "SW": 40.0, "NW": 60.0 }, "geometry": { "type": "Polygon", "coordinates": [ [ [ -89.5889, 29.5812 ], [ -89.6106, 29.5793 ], [ -89.6322, 29.5772 ], [ -89.6537, 29.5746 ], [ -89.6751, 29.5718 ], [ -89.6964, 29.5687 ], [ -89.7177, 29.5652 ], [ -89.7388, 29.5614 ], [ -89.7598, 29.5573 ], [ -89.7806, 29.5528 ], [ -89.8014, 29.5481 ], [ -89.822, 29.543 ], [ -89.8424, 29.5376 ], [ -89.8627, 29.5319 ], [ -89.8829, 29.526 ], [ -89.9029, 29.5197 ], [ -89.9227, 29.5131 ], [ -89.9424, 29.5062 ], [ -89.9618, 29.4991 ], [ -89.9811, 29.4916 ], [ -90.0002, 29.4839 ], [ -90.0191, 29.4759 ], [ -90.0378, 29.4676 ], [ -90.0563, 29.459 ], [ -90.0746, 29.4502 ], [ -90.0926, 29.4411 ], [ -90.1105, 29.4317 ], [ -90.1281, 29.4221 ], [ -90.1455, 29.4122 ], [ -90.1626, 29.4021 ], [ -90.1795, 29.3917 ], [ -90.1962, 29.3811 ], [ -90.2126, 29.3702 ], [ -90.2288, 29.3592 ], [ -90.2446, 29.3479 ], [ -90.2603, 29.3363 ], [ -90.2757, 29.3246 ], [ -90.2907, 29.3126 ], [ -90.3056, 29.3004 ], [ -90.3201, 29.288 ], [ -90.3344, 29.2755 ], [ -90.3483, 29.2627 ], [ -90.362, 29.2496 ], [ -90.3751, 29.2363 ], [ -90.3877, 29.2226 ], [ -90.3999, 29.2086 ], [ -90.4116, 29.1943 ], [ -90.4228, 29.1798 ], [ -90.4335, 29.1649 ], [ -90.4437, 29.1498 ], [ -90.4533, 29.1345 ], [ -90.4625, 29.119 ], [ -90.4714, 29.1034 ], [ -90.4799, 29.0877 ], [ -90.488, 29.0719 ], [ -90.4958, 29.0561 ], [ -90.5032, 29.0402 ], [ -90.5102, 29.0243 ], [ -90.5169, 29.0083 ], [ -90.5232, 28.9922 ], [ -90.5292, 28.9761 ], [ -90.5348, 28.96 ], [ -90.54, 28.9439 ], [ -90.5449, 28.9277 ], [ -90.5494, 28.9115 ], [ -90.5536, 28.8954 ], [ -90.5574, 28.8792 ], [ -90.5609, 28.863 ], [ -90.564, 28.8468 ], [ -90.5667, 28.8306 ], [ -90.5691, 28.8145 ], [ -90.5712, 28.7984 ], [ -90.5729, 28.7823 ], [ -90.5743, 28.7663 ], [ -90.5753, 28.7503 ], [ -90.576, 28.7343 ], [ -90.5764, 28.7184 ], [ -90.5764, 28.7026 ], [ -90.5761, 28.6868 ], [ -90.5755, 28.6711 ], [ -90.5745, 28.6555 ], [ -90.5732, 28.6399 ], [ -90.5716, 28.6244 ], [ -90.5697, 28.6091 ], [ -90.5675, 28.5938 ], [ -90.5649, 28.5786 ], [ -90.5621, 28.5635 ], [ -90.5589, 28.5486 ], [ -90.5555, 28.5337 ], [ -90.5518, 28.519 ], [ -90.5477, 28.5044 ], [ -90.5434, 28.4899 ], [ -90.5388, 28.4756 ], [ -90.5339, 28.4614 ], [ -90.5287, 28.4473 ], [ -90.5233, 28.4334 ], [ -90.5176, 28.4196 ], [ -90.5116, 28.406 ], [ -90.5054, 28.3926 ], [ -90.4989, 28.3793 ], [ -90.4922, 28.3661 ], [ -90.4853, 28.3532 ], [ -90.478, 28.3404 ], [ -90.4706, 28.3278 ], [ -90.4629, 28.3153 ], [ -90.455, 28.3031 ], [ -90.4469, 28.291 ], [ -90.4386, 28.2791 ], [ -90.43, 28.2674 ], [ -90.4213, 28.2559 ], [ -90.4123, 28.2446 ], [ -90.4032, 28.2335 ], [ -90.3938, 28.2226 ], [ -90.3843, 28.2119 ], [ -90.3746, 28.2014 ], [ -90.3647, 28.1912 ], [ -90.3547, 28.1811 ], [ -90.3445, 28.1712 ], [ -90.3341, 28.1616 ], [ -90.3236, 28.1522 ], [ -90.313, 28.143 ], [ -90.3021, 28.134 ], [ -90.2912, 28.1252 ], [ -90.2801, 28.1167 ], [ -90.2689, 28.1083 ], [ -90.2576, 28.1003 ], [ -90.2462, 28.0924 ], [ -90.2346, 28.0848 ], [ -90.223, 28.0774 ], [ -90.2112, 28.0702 ], [ -90.1994, 28.0632 ], [ -90.1875, 28.0565 ], [ -90.1758, 28.0497 ], [ -90.1647, 28.0426 ], [ -90.1541, 28.0351 ], [ -90.144, 28.0271 ], [ -90.1345, 28.0187 ], [ -90.1254, 28.0099 ], [ -90.1167, 28.0006 ], [ -90.1085, 27.9909 ], [ -90.1007, 27.9806 ], [ -90.093, 27.9702 ], [ -90.0851, 27.9598 ], [ -90.0768, 27.9495 ], [ -90.0684, 27.9393 ], [ -90.0596, 27.9292 ], [ -90.0506, 27.9192 ], [ -90.0414, 27.9093 ], [ -90.0318, 27.8995 ], [ -90.0221, 27.8898 ], [ -90.012, 27.8802 ], [ -90.0018, 27.8708 ], [ -89.9913, 27.8614 ], [ -89.9805, 27.8523 ], [ -89.9695, 27.8432 ], [ -89.9583, 27.8343 ], [ -89.9468, 27.8255 ], [ -89.9351, 27.8169 ], [ -89.9231, 27.8085 ], [ -89.9109, 27.8002 ], [ -89.8985, 27.7921 ], [ -89.8859, 27.7841 ], [ -89.8731, 27.7763 ], [ -89.86, 27.7687 ], [ -89.8467, 27.7613 ], [ -89.8332, 27.7541 ], [ -89.8195, 27.747 ], [ -89.8056, 27.7402 ], [ -89.7915, 27.7335 ], [ -89.7771, 27.7271 ], [ -89.7626, 27.7209 ], [ -89.7479, 27.7148 ], [ -89.733, 27.709 ], [ -89.7179, 27.7035 ], [ -89.7027, 27.6981 ], [ -89.6873, 27.693 ], [ -89.6717, 27.6881 ], [ -89.6559, 27.6834 ], [ -89.64, 27.679 ], [ -89.6239, 27.6748 ], [ -89.6077, 27.6709 ], [ -89.5913, 27.6672 ], [ -89.5748, 27.6637 ], [ -89.5581, 27.6606 ], [ -89.5414, 27.6577 ], [ -89.5244, 27.655 ], [ -89.5074, 27.6526 ], [ -89.4903, 27.6505 ], [ -89.473, 27.6486 ], [ -89.4556, 27.6471 ], [ -89.4382, 27.6458 ], [ -89.4206, 27.6447 ], [ -89.4029, 27.644 ], [ -89.3852, 27.6435 ], [ -89.3674, 27.6434 ], [ -89.3495, 27.6435 ], [ -89.3316, 27.6439 ], [ -89.3136, 27.6446 ], [ -89.2955, 27.6456 ], [ -89.2774, 27.6469 ], [ -89.2593, 27.6485 ], [ -89.2411, 27.6504 ], [ -89.2229, 27.6526 ], [ -89.2046, 27.6551 ], [ -89.1864, 27.6579 ], [ -89.1681, 27.661 ], [ -89.1499, 27.6644 ], [ -89.1316, 27.6681 ], [ -89.1134, 27.6721 ], [ -89.0951, 27.6765 ], [ -89.0769, 27.6811 ], [ -89.0587, 27.6861 ], [ -89.0406, 27.6913 ], [ -89.0225, 27.6969 ], [ -89.0044, 27.7028 ], [ -88.9864, 27.709 ], [ -88.9685, 27.7155 ], [ -88.9506, 27.7223 ], [ -88.9329, 27.7295 ], [ -88.9151, 27.7369 ], [ -88.8975, 27.7447 ], [ -88.88, 27.7527 ], [ -88.8627, 27.7612 ], [ -88.8456, 27.7701 ], [ -88.8289, 27.7794 ], [ -88.8124, 27.7892 ], [ -88.7963, 27.7994 ], [ -88.7805, 27.81 ], [ -88.765, 27.8211 ], [ -88.7499, 27.8325 ], [ -88.7351, 27.8444 ], [ -88.7207, 27.8566 ], [ -88.7064, 27.869 ], [ -88.6924, 27.8817 ], [ -88.6786, 27.8946 ], [ -88.665, 27.9077 ], [ -88.6517, 27.9211 ], [ -88.6386, 27.9347 ], [ -88.6258, 27.9485 ], [ -88.6132, 27.9626 ], [ -88.6008, 27.9768 ], [ -88.5888, 27.9913 ], [ -88.577, 28.006 ], [ -88.5654, 28.0209 ], [ -88.5542, 28.036 ], [ -88.5432, 28.0513 ], [ -88.5325, 28.0668 ], [ -88.5221, 28.0825 ], [ -88.512, 28.0984 ], [ -88.5022, 28.1144 ], [ -88.4927, 28.1306 ], [ -88.4835, 28.1471 ], [ -88.4746, 28.1636 ], [ -88.466, 28.1804 ], [ -88.4578, 28.1973 ], [ -88.4499, 28.2143 ], [ -88.4422, 28.2315 ], [ -88.435, 28.2489 ], [ -88.428, 28.2664 ], [ -88.4214, 28.284 ], [ -88.4152, 28.3017 ], [ -88.4092, 28.3196 ], [ -88.4037, 28.3376 ], [ -88.3985, 28.3557 ], [ -88.3936, 28.374 ], [ -88.3891, 28.3923 ], [ -88.3849, 28.4107 ], [ -88.3811, 28.4292 ], [ -88.3777, 28.4478 ], [ -88.3747, 28.4665 ], [ -88.372, 28.4853 ], [ -88.3697, 28.5041 ], [ -88.3677, 28.523 ], [ -88.3661, 28.542 ], [ -88.365, 28.561 ], [ -88.3642, 28.58 ], [ -88.3637, 28.5991 ], [ -88.3637, 28.6183 ], [ -88.364, 28.6374 ], [ -88.3647, 28.6566 ], [ -88.3659, 28.6758 ], [ -88.3674, 28.6951 ], [ -88.3693, 28.7143 ], [ -88.3715, 28.7335 ], [ -88.3742, 28.7527 ], [ -88.3773, 28.7719 ], [ -88.3807, 28.7911 ], [ -88.3846, 28.8103 ], [ -88.3888, 28.8294 ], [ -88.3935, 28.8485 ], [ -88.3985, 28.8675 ], [ -88.4039, 28.8866 ], [ -88.4097, 28.9055 ], [ -88.4159, 28.9244 ], [ -88.4225, 28.9432 ], [ -88.4295, 28.9619 ], [ -88.4369, 28.9806 ], [ -88.4447, 28.9992 ], [ -88.4528, 29.0176 ], [ -88.4614, 29.036 ], [ -88.4703, 29.0543 ], [ -88.4796, 29.0725 ], [ -88.4893, 29.0905 ], [ -88.4994, 29.1084 ], [ -88.5098, 29.1262 ], [ -88.5207, 29.1439 ], [ -88.5319, 29.1614 ], [ -88.5435, 29.1788 ], [ -88.5555, 29.196 ], [ -88.5678, 29.213 ], [ -88.5805, 29.2299 ], [ -88.5935, 29.2466 ], [ -88.6071, 29.263 ], [ -88.6214, 29.2789 ], [ -88.6363, 29.2943 ], [ -88.6519, 29.3092 ], [ -88.6681, 29.3236 ], [ -88.685, 29.3374 ], [ -88.7024, 29.3507 ], [ -88.7204, 29.3634 ], [ -88.739, 29.3755 ], [ -88.758, 29.3871 ], [ -88.7771, 29.3985 ], [ -88.7965, 29.4095 ], [ -88.8161, 29.4202 ], [ -88.8358, 29.4306 ], [ -88.8558, 29.4407 ], [ -88.8759, 29.4504 ], [ -88.8962, 29.4598 ], [ -88.9166, 29.4689 ], [ -88.9372, 29.4776 ], [ -88.9579, 29.486 ], [ -88.9788, 29.4941 ], [ -88.9997, 29.5019 ], [ -89.0209, 29.5093 ], [ -89.0421, 29.5163 ], [ -89.0634, 29.523 ], [ -89.0848, 29.5294 ], [ -89.1064, 29.5355 ], [ -89.128, 29.5412 ], [ -89.1497, 29.5465 ], [ -89.1714, 29.5515 ], [ -89.1933, 29.5562 ], [ -89.2152, 29.5605 ], [ -89.2371, 29.5645 ], [ -89.2591, 29.5681 ], [ -89.2811, 29.5714 ], [ -89.3031, 29.5743 ], [ -89.3252, 29.5769 ], [ -89.3473, 29.5791 ], [ -89.3693, 29.581 ], [ -89.3914, 29.5826 ], [ -89.4135, 29.5838 ], [ -89.4355, 29.5847 ], [ -89.4576, 29.5852 ], [ -89.4796, 29.5854 ], [ -89.5015, 29.5852 ], [ -89.5235, 29.5847 ], [ -89.5453, 29.5839 ], [ -89.5672, 29.5827 ], [ -89.5889, 29.5812 ] ] ] } },
{ "type": "Feature", "properties": { "RADII": 64.0, "STORMID": "al092021", "BASIN": "al", "STORMNUM": 9.0, "ADVNUM": "13", "VALIDTIME": "2021082912", "SYNOPTIME": "2021082906", "TIMEZONE": "UTC", "TAU": 0.0, "NE": 45.0, "SE": 35.0, "SW": 20.0, "NW": 30.0 }, "geometry": { "type": "Polygon", "coordinates": [ [ [ -89.5934, 29.1246 ], [ -89.6059, 29.1218 ], [ -89.6182, 29.1189 ], [ -89.6304, 29.1157 ], [ -89.6425, 29.1124 ], [ -89.6545, 29.1089 ], [ -89.6663, 29.1052 ], [ -89.678, 29.1014 ], [ -89.6896, 29.0973 ], [ -89.7011, 29.0931 ], [ -89.7124, 29.0888 ], [ -89.7235, 29.0842 ], [ -89.7346, 29.0795 ], [ -89.7454, 29.0747 ], [ -89.7561, 29.0697 ], [ -89.7667, 29.0645 ], [ -89.7771, 29.0592 ], [ -89.7873, 29.0537 ], [ -89.7974, 29.0481 ], [ -89.8073, 29.0424 ], [ -89.817, 29.0365 ], [ -89.8265, 29.0305 ], [ -89.8359, 29.0244 ], [ -89.8451, 29.0181 ], [ -89.8542, 29.0118 ], [ -89.863, 29.0053 ], [ -89.8717, 28.9986 ], [ -89.8802, 28.9919 ], [ -89.8885, 28.9851 ], [ -89.8966, 28.9782 ], [ -89.9045, 28.9711 ], [ -89.9122, 28.964 ], [ -89.9198, 28.9568 ], [ -89.9271, 28.9495 ], [ -89.9343, 28.9421 ], [ -89.9412, 28.9346 ], [ -89.948, 28.9271 ], [ -89.9545, 28.9195 ], [ -89.9609, 28.9118 ], [ -89.9671, 28.904 ], [ -89.973, 28.8962 ], [ -89.9788, 28.8883 ], [ -89.9844, 28.8804 ], [ -89.9899, 28.8725 ], [ -89.9953, 28.8647 ], [ -90.0006, 28.8568 ], [ -90.0057, 28.849 ], [ -90.0108, 28.8412 ], [ -90.0157, 28.8334 ], [ -90.0206, 28.8256 ], [ -90.0254, 28.8179 ], [ -90.03, 28.8102 ], [ -90.0344, 28.8024 ], [ -90.0387, 28.7946 ], [ -90.0428, 28.7867 ], [ -90.0467, 28.7788 ], [ -90.0504, 28.7709 ], [ -90.054, 28.7629 ], [ -90.0573, 28.7549 ], [ -90.0605, 28.7469 ], [ -90.0635, 28.7389 ], [ -90.0664, 28.7308 ], [ -90.069, 28.7228 ], [ -90.0715, 28.7147 ], [ -90.0738, 28.7066 ], [ -90.0759, 28.6985 ], [ -90.0778, 28.6904 ], [ -90.0796, 28.6823 ], [ -90.0812, 28.6743 ], [ -90.0826, 28.6662 ], [ -90.0838, 28.6581 ], [ -90.0849, 28.6501 ], [ -90.0858, 28.642 ], [ -90.0865, 28.634 ], [ -90.0871, 28.626 ], [ -90.0875, 28.618 ], [ -90.0877, 28.6101 ], [ -90.0877, 28.6022 ], [ -90.0876, 28.5943 ], [ -90.0873, 28.5864 ], [ -90.0869, 28.5786 ], [ -90.0863, 28.5708 ], [ -90.0855, 28.5631 ], [ -90.0846, 28.5554 ], [ -90.0835, 28.5478 ], [ -90.0823, 28.5402 ], [ -90.0809, 28.5326 ], [ -90.0794, 28.5251 ], [ -90.0777, 28.5177 ], [ -90.0758, 28.5103 ], [ -90.0738, 28.503 ], [ -90.0717, 28.4958 ], [ -90.0695, 28.4886 ], [ -90.067, 28.4815 ], [ -90.0645, 28.4745 ], [ -90.0618, 28.4675 ], [ -90.059, 28.4606 ], [ -90.056, 28.4538 ], [ -90.0529, 28.447 ], [ -90.0497, 28.4404 ], [ -90.0464, 28.4338 ], [ -90.0429, 28.4273 ], [ -90.0393, 28.4209 ], [ -90.0357, 28.4146 ], [ -90.0318, 28.4083 ], [ -90.0279, 28.4022 ], [ -90.0239, 28.3962 ], [ -90.0197, 28.3902 ], [ -90.0155, 28.3843 ], [ -90.0111, 28.3786 ], [ -90.0067, 28.3729 ], [ -90.0021, 28.3674 ], [ -89.9974, 28.3619 ], [ -89.9927, 28.3565 ], [ -89.9878, 28.3513 ], [ -89.9829, 28.3461 ], [ -89.9779, 28.3411 ], [ -89.9728, 28.3361 ], [ -89.9677, 28.3313 ], [ -89.9624, 28.3266 ], [ -89.9571, 28.3219 ], [ -89.9517, 28.3174 ], [ -89.9462, 28.313 ], [ -89.9407, 28.3088 ], [ -89.9351, 28.3046 ], [ -89.9294, 28.3005 ], [ -89.9237, 28.2966 ], [ -89.9179, 28.2927 ], [ -89.9121, 28.289 ], [ -89.9062, 28.2854 ], [ -89.9003, 28.2819 ], [ -89.8943, 28.2786 ], [ -89.8885, 28.2751 ], [ -89.8831, 28.2714 ], [ -89.878, 28.2675 ], [ -89.8732, 28.2632 ], [ -89.8688, 28.2587 ], [ -89.8647, 28.2538 ], [ -89.8608, 28.2486 ], [ -89.8573, 28.2432 ], [ -89.854, 28.2373 ], [ -89.8507, 28.2313 ], [ -89.8473, 28.2253 ], [ -89.8437, 28.2194 ], [ -89.84, 28.2135 ], [ -89.8361, 28.2076 ], [ -89.832, 28.2017 ], [ -89.8278, 28.1959 ], [ -89.8234, 28.1901 ], [ -89.8189, 28.1844 ], [ -89.8142, 28.1787 ], [ -89.8094, 28.173 ], [ -89.8043, 28.1674 ], [ -89.7992, 28.1619 ], [ -89.7938, 28.1564 ], [ -89.7884, 28.151 ], [ -89.7827, 28.1456 ], [ -89.7769, 28.1403 ], [ -89.771, 28.1351 ], [ -89.7649, 28.1299 ], [ -89.7586, 28.1249 ], [ -89.7522, 28.1199 ], [ -89.7456, 28.115 ], [ -89.7389, 28.1102 ], [ -89.7321, 28.1054 ], [ -89.7251, 28.1008 ], [ -89.718, 28.0963 ], [ -89.7107, 28.0918 ], [ -89.7033, 28.0875 ], [ -89.6957, 28.0832 ], [ -89.688, 28.0791 ], [ -89.6802, 28.0751 ], [ -89.6723, 28.0712 ], [ -89.6642, 28.0674 ], [ -89.656, 28.0637 ], [ -89.6476, 28.0602 ], [ -89.6392, 28.0568 ], [ -89.6306, 28.0535 ], [ -89.6219, 28.0503 ], [ -89.6131, 28.0473 ], [ -89.6041, 28.0443 ], [ -89.5951, 28.0416 ], [ -89.586, 28.039 ], [ -89.5767, 28.0365 ], [ -89.5674, 28.0341 ], [ -89.5579, 28.032 ], [ -89.5484, 28.0299 ], [ -89.5387, 28.028 ], [ -89.529, 28.0263 ], [ -89.5192, 28.0247 ], [ -89.5093, 28.0233 ], [ -89.4993, 28.022 ], [ -89.4892, 28.0209 ], [ -89.4791, 28.02 ], [ -89.4689, 28.0192 ], [ -89.4586, 28.0186 ], [ -89.4483, 28.0182 ], [ -89.4379, 28.0179 ], [ -89.4275, 28.0179 ], [ -89.417, 28.018 ], [ -89.4064, 28.0182 ], [ -89.3958, 28.0187 ], [ -89.3852, 28.0193 ], [ -89.3745, 28.0201 ], [ -89.3638, 28.0211 ], [ -89.3531, 28.0223 ], [ -89.3423, 28.0236 ], [ -89.3315, 28.0252 ], [ -89.3207, 28.0269 ], [ -89.3099, 28.0288 ], [ -89.2991, 28.0309 ], [ -89.2883, 28.0332 ], [ -89.2775, 28.0357 ], [ -89.2667, 28.0384 ], [ -89.2559, 28.0412 ], [ -89.2451, 28.0443 ], [ -89.2343, 28.0475 ], [ -89.2235, 28.051 ], [ -89.2128, 28.0546 ], [ -89.2021, 28.0585 ], [ -89.1914, 28.0625 ], [ -89.1808, 28.0667 ], [ -89.1702, 28.0712 ], [ -89.1598, 28.0759 ], [ -89.1495, 28.0809 ], [ -89.1394, 28.0861 ], [ -89.1294, 28.0916 ], [ -89.1196, 28.0973 ], [ -89.1099, 28.1033 ], [ -89.1005, 28.1096 ], [ -89.0912, 28.116 ], [ -89.082, 28.1227 ], [ -89.073, 28.1296 ], [ -89.0641, 28.1366 ], [ -89.0552, 28.1437 ], [ -89.0465, 28.1511 ], [ -89.038, 28.1586 ], [ -89.0295, 28.1662 ], [ -89.0212, 28.174 ], [ -89.0131, 28.182 ], [ -89.005, 28.1901 ], [ -88.9972, 28.1983 ], [ -88.9894, 28.2067 ], [ -88.9818, 28.2153 ], [ -88.9744, 28.224 ], [ -88.9671, 28.2328 ], [ -88.9599, 28.2418 ], [ -88.953, 28.2509 ], [ -88.9462, 28.2601 ], [ -88.9395, 28.2695 ], [ -88.9331, 28.279 ], [ -88.9268, 28.2887 ], [ -88.9207, 28.2984 ], [ -88.9148, 28.3083 ], [ -88.909, 28.3183 ], [ -88.9035, 28.3284 ], [ -88.8981, 28.3387 ], [ -88.893, 28.349 ], [ -88.888, 28.3595 ], [ -88.8832, 28.37 ], [ -88.8786, 28.3807 ], [ -88.8743, 28.3915 ], [ -88.8701, 28.4023 ], [ -88.8662, 28.4133 ], [ -88.8625, 28.4243 ], [ -88.8589, 28.4355 ], [ -88.8556, 28.4467 ], [ -88.8526, 28.458 ], [ -88.8497, 28.4694 ], [ -88.8471, 28.4808 ], [ -88.8447, 28.4923 ], [ -88.8425, 28.5039 ], [ -88.8405, 28.5156 ], [ -88.8388, 28.5273 ], [ -88.8373, 28.5391 ], [ -88.8361, 28.5509 ], [ -88.8351, 28.5628 ], [ -88.8343, 28.5747 ], [ -88.8338, 28.5866 ], [ -88.8335, 28.5986 ], [ -88.8335, 28.6107 ], [ -88.8336, 28.6227 ], [ -88.8341, 28.6348 ], [ -88.8348, 28.647 ], [ -88.8357, 28.6591 ], [ -88.8369, 28.6712 ], [ -88.8384, 28.6834 ], [ -88.8401, 28.6956 ], [ -88.8421, 28.7077 ], [ -88.8443, 28.7199 ], [ -88.8467, 28.7321 ], [ -88.8494, 28.7442 ], [ -88.8524, 28.7564 ], [ -88.8556, 28.7685 ], [ -88.8591, 28.7806 ], [ -88.8629, 28.7927 ], [ -88.8669, 28.8047 ], [ -88.8711, 28.8167 ], [ -88.8756, 28.8287 ], [ -88.8804, 28.8406 ], [ -88.8854, 28.8525 ], [ -88.8907, 28.8643 ], [ -88.8962, 28.8761 ], [ -88.902, 28.8878 ], [ -88.908, 28.8995 ], [ -88.9143, 28.9111 ], [ -88.9208, 28.9226 ], [ -88.9276, 28.934 ], [ -88.9347, 28.9454 ], [ -88.942, 28.9567 ], [ -88.9495, 28.9679 ], [ -88.9573, 28.979 ], [ -88.9655, 28.9898 ], [ -88.9744, 29.0001 ], [ -88.9839, 29.01 ], [ -88.9941, 29.0193 ], [ -89.0048, 29.0282 ], [ -89.0161, 29.0364 ], [ -89.028, 29.0442 ], [ -89.0404, 29.0513 ], [ -89.0533, 29.0579 ], [ -89.0666, 29.0641 ], [ -89.0799, 29.07 ], [ -89.0932, 29.0757 ], [ -89.1067, 29.0812 ], [ -89.1202, 29.0864 ], [ -89.1338, 29.0914 ], [ -89.1474, 29.0962 ], [ -89.1611, 29.1007 ], [ -89.1748, 29.105 ], [ -89.1886, 29.109 ], [ -89.2024, 29.1128 ], [ -89.2162, 29.1164 ], [ -89.23, 29.1197 ], [ -89.2439, 29.1229 ], [ -89.2577, 29.1257 ], [ -89.2716, 29.1284 ], [ -89.2854, 29.1308 ], [ -89.2993, 29.1329 ], [ -89.3132, 29.1349 ], [ -89.327, 29.1366 ], [ -89.3408, 29.1381 ], [ -89.3546, 29.1393 ], [ -89.3684, 29.1403 ], [ -89.3821, 29.1411 ], [ -89.3958, 29.1417 ], [ -89.4095, 29.1421 ], [ -89.4231, 29.1422 ], [ -89.4366, 29.1421 ], [ -89.4501, 29.1418 ], [ -89.4635, 29.1413 ], [ -89.4769, 29.1405 ], [ -89.4902, 29.1396 ], [ -89.5034, 29.1384 ], [ -89.5165, 29.1371 ], [ -89.5296, 29.1355 ], [ -89.5425, 29.1337 ], [ -89.5554, 29.1317 ], [ -89.5682, 29.1296 ], [ -89.5808, 29.1272 ], [ -89.5934, 29.1246 ] ] ] } }
]
}
