{
"type": "FeatureCollection",
"name": "al092021_2021082912_forecastradii",
"features": [
{ "type": "Feature", "properties": { "RADII": 34.0, "STORMID": "al092021", "BASIN": "al", "STORMNUM": 9.0, "ADVNUM": "13", "VALIDTIME": "2021082912", "SYNOPTIME": "2021082906", "TIMEZONE": "UTC", "TAU": 0.0, "NE": 120.0, "SE": 100.0, "SW": 80.0, "NW": 110.0 }, "geometry": { "type": "Polygon", "coordinates": [ [ [ -89.5798, 30.4964 ], [ -89.6185, 30.33 ], [ -89.6555, 30.3294 ], [ -89.6925, 30.3283 ], [ -89.7294, 30.3266 ], [ -89.7663, 30.3243 ], [ -89.8032, 30.3215 ], [ -89.84, 30.3181 ], [ -89.8767, 30.3141 ], [ -89.9133, 30.3096 ], [ -89.9498, 30.3045 ], [ -89.9862, 30.2989 ], [ -90.0225, 30.2927 ], [ -90.0586, 30.2859 ], [ -90.0946, 30.2786 ], [ -90.1305, 30.2707 ], [ -90.1662, 30.2623 ], [ -90.2016, 30.2534 ], [ -90.2369, 30.2439 ], [ -90.272, 30.2338 ], [ -90.3069, 30.2233 ], [ -90.3415, 30.2122 ], [ -90.376, 30.2005 ], [ -90.4101, 30.1883 ], [ -90.444, 30.1757 ], [ -90.4777, 30.1625 ], [ -90.511, 30.1487 ], [ -90.5441, 30.1345 ], [ -90.5768, 30.1198 ], [ -90.6093, 30.1046 ], [ -90.6414, 30.0888 ], [ -90.6732, 30.0726 ], [ -90.7046, 30.0559 ], [ -90.7357, 30.0387 ], [ -90.7665, 30.0211 ], [ -90.7968, 30.0029 ], [ -90.8268, 29.9844 ], [ -90.8564, 29.9653 ], [ -90.8856, 29.9458 ], [ -90.9144, 29.9259 ], [ -90.9428, 29.9055 ], [ -90.9707, 29.8847 ], [ -90.9982, 29.8635 ], [ -91.0253, 29.8418 ], [ -91.0519, 29.8198 ], [ -91.078, 29.7973 ], [ -91.1037, 29.7744 ], [ -91.129, 29.7512 ], [ -91.1537, 29.7275 ], [ -91.1779, 29.7035 ], [ -91.2017, 29.6791 ], [ -91.2249, 29.6544 ], [ -91.2476, 29.6293 ], [ -91.2698, 29.6038 ], [ -91.2915, 29.5781 ], [ -91.3127, 29.552 ], [ -91.3333, 29.5255 ], [ -91.3533, 29.4988 ], [ -91.3729, 29.4718 ], [ -91.3918, 29.4444 ], [ -91.4102, 29.4168 ], [ -91.4281, 29.3889 ], [ -91.4453, 29.3608 ], [ -91.462, 29.3323 ], [ -91.4781, 29.3036 ], [ -91.4937, 29.2747 ], [ -91.5086, 29.2456 ], [ -91.5229, 29.2162 ], [ -91.5367, 29.1866 ], [ -91.5498, 29.1568 ], [ -91.5624, 29.1268 ], [ -91.5743, 29.0966 ], [ -91.5856, 29.0662 ], [ -91.5963, 29.0357 ], [ -91.6064, 29.005 ], [ -91.6159, 28.9742 ], [ -91.6247, 28.9432 ], [ -91.6329, 28.9121 ], [ -91.6405, 28.8808 ], [ -91.6475, 28.8495 ], [ -91.6539, 28.8181 ], [ -91.6596, 28.7865 ], [ -91.6647, 28.7549 ], [ -91.6691, 28.7232 ], [ -91.6729, 28.6914 ], [ -91.6761, 28.6596 ], [ -91.6786, 28.6278 ], [ -91.6805, 28.5959 ], [ -91.6818, 28.564 ], [ -91.6824, 28.532 ], [ -91.6824, 28.5001 ], [ -91.1142, 28.48 ], [ -91.1134, 28.4568 ], [ -91.1121, 28.4336 ], [ -91.1104, 28.4104 ], [ -91.1082, 28.3872 ], [ -91.1056, 28.3641 ], [ -91.1025, 28.3411 ], [ -91.099, 28.3181 ], [ -91.095, 28.2951 ], [ -91.0905, 28.2722 ], [ -91.0856, 28.2494 ], [ -91.0803, 28.2266 ], [ -91.0745, 28.204 ], [ -91.0683, 28.1814 ], [ -91.0616, 28.1589 ], [ -91.0544, 28.1366 ], [ -91.0469, 28.1143 ], [ -91.0389, 28.0922 ], [ -91.0305, 28.0702 ], [ -91.0216, 28.0483 ], [ -91.0123, 28.0266 ], [ -91.0026, 28.005 ], [ -90.9925, 27.9836 ], [ -90.9819, 27.9623 ], [ -90.9709, 27.9412 ], [ -90.9596, 27.9202 ], [ -90.9478, 27.8995 ], [ -90.9356, 27.8789 ], [ -90.923, 27.8585 ], [ -90.91, 27.8383 ], [ -90.8966, 27.8183 ], [ -90.8829, 27.7986 ], [ -90.8687, 27.779 ], [ -90.8542, 27.7596 ], [ -90.8393, 27.7405 ], [ -90.824, 27.7216 ], [ -90.8084, 27.703 ], [ -90.7924, 27.6846 ], [ -90.7761, 27.6664 ], [ -90.7594, 27.6485 ], [ -90.7423, 27.6308 ], [ -90.7249, 27.6135 ], [ -90.7072, 27.5963 ], [ -90.6892, 27.5795 ], [ -90.6708, 27.5629 ], [ -90.6521, 27.5467 ], [ -90.6331, 27.5307 ], [ -90.6138, 27.515 ], [ -90.5942, 27.4996 ], [ -90.5743, 27.4845 ], [ -90.5541, 27.4697 ], [ -90.5337, 27.4552 ], [ -90.5129, 27.441 ], [ -90.4919, 27.4272 ], [ -90.4706, 27.4137 ], [ -90.4491, 27.4005 ], [ -90.4273, 27.3876 ], [ -90.4053, 27.3751 ], [ -90.383, 27.3629 ], [ -90.3605, 27.3511 ], [ -90.3378, 27.3396 ], [ -90.3148, 27.3285 ], [ -90.2917, 27.3177 ], [ -90.2683, 27.3073 ], [ -90.2447, 27.2972 ], [ -90.221, 27.2875 ], [ -90.1971, 27.2781 ], [ -90.173, 27.2692 ], [ -90.1487, 27.2606 ], [ -90.1243, 27.2523 ], [ -90.0997, 27.2445 ], [ -90.075, 27.237 ], [ -90.0501, 27.2299 ], [ -90.0251, 27.2232 ], [ -89.9999, 27.2169 ], [ -89.9747, 27.2109 ], [ -89.9493, 27.2054 ], [ -89.9239, 27.2002 ], [ -89.8983, 27.1954 ], [ -89.8727, 27.1911 ], [ -89.8469, 27.1871 ], [ -89.8211, 27.1835 ], [ -89.7953, 27.1803 ], [ -89.7693, 27.1775 ], [ -89.7434, 27.1751 ], [ -89.7174, 27.1731 ], [ -89.6913, 27.1715 ], [ -89.6653, 27.1703 ], [ -89.6392, 27.1695 ], [ -89.6131, 27.1691 ], [ -89.5837, 26.8364 ], [ -89.5512, 26.8369 ], [ -89.5187, 26.8379 ], [ -89.4862, 26.8394 ], [ -89.4537, 26.8414 ], [ -89.4213, 26.8439 ], [ -89.3889, 26.8468 ], [ -89.3566, 26.8503 ], [ -89.3244, 26.8543 ], [ -89.2923, 26.8588 ], [ -89.2602, 26.8637 ], [ -89.2282, 26.8692 ], [ -89.1964, 26.8752 ], [ -89.1646, 26.8816 ], [ -89.133, 26.8885 ], [ -89.1015, 26.8959 ], [ -89.0702, 26.9038 ], [ -89.039, 26.9122 ], [ -89.008, 26.921 ], [ -88.9772, 26.9303 ], [ -88.9465, 26.9401 ], [ -88.916, 26.9504 ], [ -88.8858, 26.9611 ], [ -88.8557, 26.9723 ], [ -88.8259, 26.9839 ], [ -88.7963, 26.996 ], [ -88.7669, 27.0086 ], [ -88.7377, 27.0216 ], [ -88.7089, 27.035 ], [ -88.6802, 27.0489 ], [ -88.6519, 27.0632 ], [ -88.6238, 27.078 ], [ -88.596, 27.0932 ], [ -88.5685, 27.1088 ], [ -88.5413, 27.1248 ], [ -88.5144, 27.1413 ], [ -88.4879, 27.1581 ], [ -88.4616, 27.1754 ], [ -88.4357, 27.193 ], [ -88.4102, 27.2111 ], [ -88.3849, 27.2295 ], [ -88.3601, 27.2484 ], [ -88.3356, 27.2676 ], [ -88.3115, 27.2871 ], [ -88.2877, 27.3071 ], [ -88.2644, 27.3274 ], [ -88.2414, 27.3481 ], [ -88.2189, 27.3691 ], [ -88.1967, 27.3904 ], [ -88.175, 27.4121 ], [ -88.1536, 27.4341 ], [ -88.1328, 27.4565 ], [ -88.1123, 27.4791 ], [ -88.0923, 27.5021 ], [ -88.0727, 27.5254 ], [ -88.0536, 27.5489 ], [ -88.0349, 27.5728 ], [ -88.0168, 27.5969 ], [ -87.999, 27.6214 ], [ -87.9818, 27.646 ], [ -87.965, 27.671 ], [ -87.9487, 27.6962 ], [ -87.9329, 27.7216 ], [ -87.9176, 27.7473 ], [ -87.9029, 27.7732 ], [ -87.8886, 27.7994 ], [ -87.8748, 27.8257 ], [ -87.8615, 27.8523 ], [ -87.8488, 27.879 ], [ -87.8366, 27.906 ], [ -87.8249, 27.9331 ], [ -87.8137, 27.9604 ], [ -87.8031, 27.9879 ], [ -87.793, 28.0155 ], [ -87.7835, 28.0433 ], [ -87.7745, 28.0713 ], [ -87.7661, 28.0993 ], [ -87.7582, 28.1275 ], [ -87.7508, 28.1558 ], [ -87.7441, 28.1842 ], [ -87.7378, 28.2127 ], [ -87.7322, 28.2413 ], [ -87.7271, 28.27 ], [ -87.7226, 28.2988 ], [ -87.7186, 28.3276 ], [ -87.7152, 28.3565 ], [ -87.7124, 28.3854 ], [ -87.7102, 28.4144 ], [ -87.7085, 28.4434 ], [ -87.7074, 28.4724 ], [ -87.3283, 28.4985 ], [ -87.3282, 28.5334 ], [ -87.3288, 28.5682 ], [ -87.3302, 28.603 ], [ -87.3322, 28.6378 ], [ -87.3349, 28.6726 ], [ -87.3383, 28.7073 ], [ -87.3424, 28.7419 ], [ -87.3472, 28.7765 ], [ -87.3527, 28.811 ], [ -87.3588, 28.8454 ], [ -87.3657, 28.8798 ], [ -87.3732, 28.914 ], [ -87.3815, 28.948 ], [ -87.3904, 28.982 ], [ -87.4, 29.0158 ], [ -87.4102, 29.0495 ], [ -87.4212, 29.083 ], [ -87.4328, 29.1163 ], [ -87.4451, 29.1494 ], [ -87.4581, 29.1824 ], [ -87.4717, 29.2151 ], [ -87.486, 29.2476 ], [ -87.5009, 29.2799 ], [ -87.5165, 29.312 ], [ -87.5328, 29.3438 ], [ -87.5497, 29.3754 ], [ -87.5672, 29.4067 ], [ -87.5854, 29.4377 ], [ -87.6042, 29.4685 ], [ -87.6236, 29.499 ], [ -87.6437, 29.5291 ], [ -87.6643, 29.559 ], [ -87.6856, 29.5885 ], [ -87.7075, 29.6177 ], [ -87.7299, 29.6465 ], [ -87.753, 29.675 ], [ -87.7766, 29.7032 ], [ -87.8008, 29.7309 ], [ -87.8256, 29.7583 ], [ -87.8509, 29.7854 ], [ -87.8768, 29.812 ], [ -87.9032, 29.8382 ], [ -87.9302, 29.864 ], [ -87.9577, 29.8894 ], [ -87.9857, 29.9144 ], [ -88.0143, 29.9389 ], [ -88.0433, 29.963 ], [ -88.0728, 29.9867 ], [ -88.1028, 30.0099 ], [ -88.1333, 30.0326 ], [ -88.1643, 30.0549 ], [ -88.1957, 30.0766 ], [ -88.2276, 30.0979 ], [ -88.2599, 30.1187 ], [ -88.2926, 30.139 ], [ -88.3257, 30.1588 ], [ -88.3593, 30.1781 ], [ -88.3932, 30.1969 ], [ -88.4276, 30.2151 ], [ -88.4623, 30.2329 ], [ -88.4974, 30.25 ], [ -88.5328, 30.2667 ], [ -88.5686, 30.2828 ], [ -88.6047, 30.2983 ], [ -88.6411, 30.3133 ], [ -88.6779, 30.3277 ], [ -88.7149, 30.3416 ], [ -88.7522, 30.3549 ], [ -88.7898, 30.3676 ], [ -88.8276, 30.3797 ], [ -88.8657, 30.3913 ], [ -88.9041, 30.4023 ], [ -88.9426, 30.4126 ], [ -88.9814, 30.4224 ], [ -89.0204, 30.4316 ], [ -89.0595, 30.4402 ], [ -89.0989, 30.4482 ], [ -89.1384, 30.4556 ], [ -89.178, 30.4623 ], [ -89.2178, 30.4685 ], [ -89.2577, 30.4741 ], [ -89.2977, 30.479 ], [ -89.3378, 30.4833 ], [ -89.378, 30.4871 ], [ -89.4183, 30.4902 ], [ -89.4586, 30.4926 ], [ -89.499, 30.4945 ], [ -89.5394, 30.4957 ], [ -89.5798, 30.4964 ] ] ] } },
{ "type": "Feature", "properties": { "RADII": 50.0, "STORMID": "al092021", "BASIN": "al", "STORMNUM": 9.0, "ADVNUM": "13", "VALIDTIME": "2021082912", "SYNOPTIME": "2021082906", "TIMEZONE": "UTC", "TAU": 0.0, "NE": 70.0, "SE": 60.0, "SW": 40.0, "NW": 60.0 }, "geometry": { "type": "Polygon", "coordinates": [ [ [ -89.5883, 29.6645 ], [ -89.61, 29.4982 ], [ -89.63, 29.4979 ], [ -89.65, 29.4973 ], [ -89.67, 29.4963 ], [ -89.69, 29.4951 ], [ -89.7099, 29.4936 ], [ -89.7298, 29.4917 ], [ -89.7497, 29.4896 ], [ -89.7695, 29.4871 ], [ -89.7893, 29.4844 ], [ -89.809, 29.4813 ], [ -89.8286, 29.478 ], [ -89.8482, 29.4743 ], [ -89.8677, 29.4704 ], [ -89.8871, 29.4661 ], [ -89.9064, 29.4616 ], [ -89.9256, 29.4567 ], [ -89.9447, 29.4516 ], [ -89.9637, 29.4461 ], [ -89.9826, 29.4404 ], [ -90.0014, 29.4344 ], [ -90.02, 29.4281 ], [ -90.0386, 29.4215 ], [ -90.0569, 29.4147 ], [ -90.0752, 29.4075 ], [ -90.0933, 29.4001 ], [ -90.1112, 29.3924 ], [ -90.129, 29.3844 ], [ -90.1466, 29.3762 ], [ -90.164, 29.3676 ], [ -90.1813, 29.3589 ], [ -90.1984, 29.3498 ], [ -90.2153, 29.3405 ], [ -90.232, 29.3309 ], [ -90.2485, 29.3211 ], [ -90.2648, 29.311 ], [ -90.2809, 29.3007 ], [ -90.2967, 29.2902 ], [ -90.3124, 29.2794 ], [ -90.3279, 29.2683 ], [ -90.3431, 29.257 ], [ -90.3581, 29.2455 ], [ -90.3728, 29.2338 ], [ -90.3873, 29.2218 ], [ -90.4016, 29.2096 ], [ -90.4156, 29.1972 ], [ -90.4294, 29.1846 ], [ -90.4429, 29.1718 ], [ -90.4561, 29.1588 ], [ -90.4691, 29.1455 ], [ -90.4818, 29.1321 ], [ -90.4942, 29.1185 ], [ -90.5064, 29.1047 ], [ -90.5183, 29.0907 ], [ -90.5298, 29.0765 ], [ -90.5412, 29.0622 ], [ -90.5522, 29.0476 ], [ -90.5629, 29.0329 ], [ -90.5733, 29.0181 ], [ -90.5834, 29.0031 ], [ -90.5932, 28.9879 ], [ -90.6027, 28.9726 ], [ -90.6119, 28.9572 ], [ -90.6208, 28.9416 ], [ -90.6294, 28.9259 ], [ -90.6377, 28.91 ], [ -90.6456, 28.894 ], [ -90.6532, 28.8779 ], [ -90.6605, 28.8617 ], [ -90.6675, 28.8454 ], [ -90.6741, 28.829 ], [ -90.6804, 28.8125 ], [ -90.6864, 28.7958 ], [ -90.692, 28.7791 ], [ -90.6973, 28.7624 ], [ -90.7023, 28.7455 ], [ -90.7069, 28.7285 ], [ -90.7112, 28.7115 ], [ -90.7151, 28.6945 ], [ -90.7188, 28.6773 ], [ -90.722, 28.6601 ], [ -90.7249, 28.6429 ], [ -90.7275, 28.6256 ], [ -90.7297, 28.6083 ], [ -90.7316, 28.591 ], [ -90.7332, 28.5736 ], [ -90.7344, 28.5562 ], [ -90.7352, 28.5388 ], [ -90.7357, 28.5214 ], [ -90.7359, 28.504 ], [ -90.3572, 28.4921 ], [ -90.3568, 28.4805 ], [ -90.3563, 28.4689 ], [ -90.3555, 28.4573 ], [ -90.3545, 28.4457 ], [ -90.3533, 28.4341 ], [ -90.3518, 28.4226 ], [ -90.3501, 28.4111 ], [ -90.3482, 28.3996 ], [ -90.3461, 28.3881 ], [ -90.3437, 28.3767 ], [ -90.3411, 28.3653 ], [ -90.3383, 28.354 ], [ -90.3352, 28.3427 ], [ -90.332, 28.3314 ], [ -90.3285, 28.3202 ], [ -90.3248, 28.3091 ], [ -90.3208, 28.298 ], [ -90.3167, 28.287 ], [ -90.3123, 28.276 ], [ -90.3077, 28.2651 ], [ -90.3029, 28.2543 ], [ -90.2979, 28.2435 ], [ -90.2927, 28.2329 ], [ -90.2873, 28.2223 ], [ -90.2816, 28.2118 ], [ -90.2758, 28.2014 ], [ -90.2697, 28.1911 ], [ -90.2635, 28.1809 ], [ -90.257, 28.1707 ], [ -90.2504, 28.1607 ], [ -90.2435, 28.1508 ], [ -90.2365, 28.141 ], [ -90.2293, 28.1313 ], [ -90.2218, 28.1217 ], [ -90.2142, 28.1122 ], [ -90.2064, 28.1028 ], [ -90.1985, 28.0936 ], [ -90.1903, 28.0845 ], [ -90.182, 28.0755 ], [ -90.1735, 28.0666 ], [ -90.1648, 28.0579 ], [ -90.1559, 28.0493 ], [ -90.1469, 28.0408 ], [ -90.1377, 28.0325 ], [ -90.1284, 28.0243 ], [ -90.1189, 28.0163 ], [ -90.1092, 28.0084 ], [ -90.0994, 28.0007 ], [ -90.0895, 27.9931 ], [ -90.0793, 27.9857 ], [ -90.0691, 27.9784 ], [ -90.0587, 27.9713 ], [ -90.0482, 27.9643 ], [ -90.0375, 27.9575 ], [ -90.0267, 27.9509 ], [ -90.0158, 27.9444 ], [ -90.0047, 27.9381 ], [ -89.9936, 27.932 ], [ -89.9823, 27.9261 ], [ -89.9709, 27.9203 ], [ -89.9594, 27.9147 ], [ -89.9477, 27.9093 ], [ -89.936, 27.904 ], [ -89.9242, 27.899 ], [ -89.9122, 27.8941 ], [ -89.9002, 27.8894 ], [ -89.8881, 27.8849 ], [ -89.8759, 27.8806 ], [ -89.8636, 27.8764 ], [ -89.8513, 27.8725 ], [ -89.8389, 27.8687 ], [ -89.8264, 27.8651 ], [ -89.8138, 27.8618 ], [ -89.8012, 27.8586 ], [ -89.7885, 27.8556 ], [ -89.7757, 27.8528 ], [ -89.7629, 27.8502 ], [ -89.75, 27.8478 ], [ -89.7372, 27.8456 ], [ -89.7242, 27.8436 ], [ -89.7112, 27.8418 ], [ -89.6982, 27.8402 ], [ -89.6852, 27.8388 ], [ -89.6721, 27.8376 ], [ -89.659, 27.8366 ], [ -89.6459, 27.8358 ], [ -89.6328, 27.8352 ], [ -89.6197, 27.8348 ], [ -89.6066, 27.8346 ], [ -89.5902, 27.5018 ], [ -89.5705, 27.5021 ], [ -89.5509, 27.5027 ], [ -89.5313, 27.5036 ], [ -89.5117, 27.5048 ], [ -89.4921, 27.5063 ], [ -89.4726, 27.5081 ], [ -89.4531, 27.5102 ], [ -89.4336, 27.5127 ], [ -89.4142, 27.5154 ], [ -89.3949, 27.5183 ], [ -89.3756, 27.5216 ], [ -89.3564, 27.5252 ], [ -89.3372, 27.5291 ], [ -89.3182, 27.5333 ], [ -89.2992, 27.5378 ], [ -89.2803, 27.5425 ], [ -89.2615, 27.5476 ], [ -89.2428, 27.5529 ], [ -89.2242, 27.5585 ], [ -89.2057, 27.5644 ], [ -89.1873, 27.5706 ], [ -89.1691, 27.5771 ], [ -89.1509, 27.5838 ], [ -89.1329, 27.5909 ], [ -89.1151, 27.5982 ], [ -89.0974, 27.6057 ], [ -89.0798, 27.6136 ], [ -89.0624, 27.6217 ], [ -89.0452, 27.6301 ], [ -89.0281, 27.6387 ], [ -89.0112, 27.6476 ], [ -88.9945, 27.6568 ], [ -88.9779, 27.6662 ], [ -88.9616, 27.6759 ], [ -88.9454, 27.6858 ], [ -88.9294, 27.6959 ], [ -88.9137, 27.7063 ], [ -88.8981, 27.717 ], [ -88.8827, 27.7279 ], [ -88.8676, 27.739 ], [ -88.8526, 27.7503 ], [ -88.8379, 27.7619 ], [ -88.8234, 27.7737 ], [ -88.8092, 27.7857 ], [ -88.7952, 27.798 ], [ -88.7814, 27.8104 ], [ -88.7678, 27.8231 ], [ -88.7546, 27.836 ], [ -88.7415, 27.849 ], [ -88.7288, 27.8623 ], [ -88.7163, 27.8757 ], [ -88.704, 27.8894 ], [ -88.692, 27.9032 ], [ -88.6803, 27.9172 ], [ -88.6689, 27.9314 ], [ -88.6577, 27.9458 ], [ -88.6469, 27.9603 ], [ -88.6363, 27.975 ], [ -88.626, 27.9899 ], [ -88.616, 28.0049 ], [ -88.6063, 28.0201 ], [ -88.5969, 28.0354 ], [ -88.5878, 28.0509 ], [ -88.579, 28.0664 ], [ -88.5705, 28.0822 ], [ -88.5623, 28.098 ], [ -88.5544, 28.114 ], [ -88.5468, 28.1301 ], [ -88.5396, 28.1463 ], [ -88.5327, 28.1626 ], [ -88.5261, 28.179 ], [ -88.5198, 28.1956 ], [ -88.5139, 28.2122 ], [ -88.5082, 28.2289 ], [ -88.5029, 28.2457 ], [ -88.498, 28.2625 ], [ -88.4934, 28.2795 ], [ -88.4891, 28.2965 ], [ -88.4851, 28.3135 ], [ -88.4815, 28.3307 ], [ -88.4782, 28.3479 ], [ -88.4753, 28.3651 ], [ -88.4727, 28.3824 ], [ -88.4704, 28.3997 ], [ -88.4685, 28.417 ], [ -88.4669, 28.4344 ], [ -88.4657, 28.4518 ], [ -88.4648, 28.4692 ], [ -88.4643, 28.4866 ], [ -88.2748, 28.5037 ], [ -88.275, 28.5241 ], [ -88.2755, 28.5444 ], [ -88.2765, 28.5647 ], [ -88.2778, 28.585 ], [ -88.2796, 28.6052 ], [ -88.2818, 28.6255 ], [ -88.2843, 28.6457 ], [ -88.2873, 28.6658 ], [ -88.2907, 28.6859 ], [ -88.2944, 28.706 ], [ -88.2986, 28.726 ], [ -88.3032, 28.7459 ], [ -88.3082, 28.7658 ], [ -88.3135, 28.7855 ], [ -88.3193, 28.8052 ], [ -88.3254, 28.8248 ], [ -88.332, 28.8443 ], [ -88.3389, 28.8637 ], [ -88.3463, 28.883 ], [ -88.354, 28.9022 ], [ -88.3621, 28.9212 ], [ -88.3705, 28.9401 ], [ -88.3794, 28.9589 ], [ -88.3886, 28.9776 ], [ -88.3982, 28.9961 ], [ -88.4082, 29.0144 ], [ -88.4185, 29.0326 ], [ -88.4293, 29.0507 ], [ -88.4403, 29.0685 ], [ -88.4518, 29.0862 ], [ -88.4635, 29.1038 ], [ -88.4757, 29.1211 ], [ -88.4882, 29.1382 ], [ -88.501, 29.1552 ], [ -88.5142, 29.172 ], [ -88.5277, 29.1885 ], [ -88.5415, 29.2049 ], [ -88.5557, 29.221 ], [ -88.5702, 29.2369 ], [ -88.585, 29.2526 ], [ -88.6002, 29.268 ], [ -88.6156, 29.2832 ], [ -88.6314, 29.2982 ], [ -88.6474, 29.3129 ], [ -88.6638, 29.3274 ], [ -88.6804, 29.3417 ], [ -88.6973, 29.3556 ], [ -88.7146, 29.3693 ], [ -88.732, 29.3828 ], [ -88.7498, 29.396 ], [ -88.7678, 29.4089 ], [ -88.7861, 29.4215 ], [ -88.8046, 29.4338 ], [ -88.8234, 29.4459 ], [ -88.8425, 29.4577 ], [ -88.8617, 29.4691 ], [ -88.8812, 29.4803 ], [ -88.901, 29.4912 ], [ -88.9209, 29.5018 ], [ -88.9411, 29.512 ], [ -88.9614, 29.522 ], [ -88.982, 29.5316 ], [ -89.0028, 29.5409 ], [ -89.0237, 29.5499 ], [ -89.0448, 29.5586 ], [ -89.0661, 29.5669 ], [ -89.0876, 29.575 ], [ -89.1092, 29.5827 ], [ -89.131, 29.59 ], [ -89.1529, 29.5971 ], [ -89.175, 29.6037 ], [ -89.1972, 29.6101 ], [ -89.2196, 29.6161 ], [ -89.242, 29.6218 ], [ -89.2646, 29.6271 ], [ -89.2873, 29.632 ], [ -89.31, 29.6367 ], [ -89.3329, 29.6409 ], [ -89.3558, 29.6449 ], [ -89.3788, 29.6484 ], [ -89.4019, 29.6516 ], [ -89.4251, 29.6545 ], [ -89.4483, 29.657 ], [ -89.4716, 29.6592 ], [ -89.4949, 29.661 ], [ -89.5182, 29.6624 ], [ -89.5415, 29.6635 ], [ -89.5649, 29.6642 ], [ -89.5883, 29.6645 ] ] ] } },
{ "type": "Feature", "properties": { "RADII": 64.0, "STORMID": "al092021", "BASIN": "al", "STORMNUM": 9.0, "ADVNUM": "13", "VALIDTIME": "2021082912", "SYNOPTIME": "2021082906", "TIMEZONE": "UTC", "TAU": 0.0, "NE": 45.0, "SE": 35.0, "SW": 20.0, "NW": 30.0 }, "geometry": { "type": "Polygon", "coordinates": [ [ [ -89.5925, 29.2486 ], [ -89.605, 28.9991 ], [ -89.6149, 28.9989 ], [ -89.6249, 28.9986 ], [ -89.6348, 28.9982 ], [ -89.6448, 28.9976 ], [ -89.6547, 28.9968 ], [ -89.6646, 28.9959 ], [ -89.6745, 28.9948 ], [ -89.6843, 28.9936 ], [ -89.6942, 28.9922 ], [ -89.704, 28.9907 ], [ -89.7138, 28.989 ], [ -89.7235, 28.9872 ], [ -89.7332, 28.9853 ], [ -89.7429, 28.9831 ], [ -89.7525, 28.9809 ], [ -89.762, 28.9785 ], [ -89.7716, 28.9759 ], [ -89.781, 28.9732 ], [ -89.7904, 28.9703 ], [ -89.7998, 28.9674 ], [ -89.8091, 28.9642 ], [ -89.8183, 28.9609 ], [ -89.8275, 28.9575 ], [ -89.8365, 28.954 ], [ -89.8456, 28.9503 ], [ -89.8545, 28.9464 ], [ -89.8634, 28.9425 ], [ -89.8721, 28.9384 ], [ -89.8808, 28.9341 ], [ -89.8894, 28.9297 ], [ -89.898, 28.9252 ], [ -89.9064, 28.9206 ], [ -89.9147, 28.9158 ], [ -89.923, 28.9109 ], [ -89.9311, 28.9059 ], [ -89.9391, 28.9008 ], [ -89.947, 28.8955 ], [ -89.9549, 28.8901 ], [ -89.9626, 28.8846 ], [ -89.9702, 28.879 ], [ -89.9777, 28.8733 ], [ -89.985, 28.8674 ], [ -89.9923, 28.8615 ], [ -89.9994, 28.8554 ], [ -90.0064, 28.8492 ], [ -90.0133, 28.8429 ], [ -90.0201, 28.8365 ], [ -90.0267, 28.83 ], [ -90.0332, 28.8235 ], [ -90.0396, 28.8168 ], [ -90.0458, 28.81 ], [ -90.0519, 28.8031 ], [ -90.0578, 28.7961 ], [ -90.0636, 28.789 ], [ -90.0693, 28.7819 ], [ -90.0748, 28.7746 ], [ -90.0802, 28.7673 ], [ -90.0854, 28.7599 ], [ -90.0905, 28.7524 ], [ -90.0955, 28.7449 ], [ -90.1002, 28.7372 ], [ -90.1049, 28.7295 ], [ -90.1093, 28.7218 ], [ -90.1137, 28.7139 ], [ -90.1178, 28.706 ], [ -90.1218, 28.698 ], [ -90.1257, 28.69 ], [ -90.1293, 28.6819 ], [ -90.1329, 28.6738 ], [ -90.1362, 28.6656 ], [ -90.1394, 28.6573 ], [ -90.1424, 28.649 ], [ -90.1453, 28.6407 ], [ -90.148, 28.6323 ], [ -90.1505, 28.6239 ], [ -90.1529, 28.6154 ], [ -90.155, 28.6069 ], [ -90.1571, 28.5984 ], [ -90.1589, 28.5898 ], [ -90.1606, 28.5812 ], [ -90.1621, 28.5726 ], [ -90.1634, 28.564 ], [ -90.1646, 28.5553 ], [ -90.1656, 28.5467 ], [ -90.1664, 28.538 ], [ -90.167, 28.5293 ], [ -90.1675, 28.5206 ], [ -90.1678, 28.5119 ], [ -90.1679, 28.5032 ], [ -89.9786, 28.4966 ], [ -89.9785, 28.4908 ], [ -89.9782, 28.485 ], [ -89.9778, 28.4792 ], [ -89.9774, 28.4734 ], [ -89.9768, 28.4676 ], [ -89.9761, 28.4618 ], [ -89.9752, 28.4561 ], [ -89.9743, 28.4503 ], [ -89.9732, 28.4446 ], [ -89.9721, 28.4389 ], [ -89.9708, 28.4332 ], [ -89.9694, 28.4275 ], [ -89.9679, 28.4218 ], [ -89.9663, 28.4162 ], [ -89.9645, 28.4106 ], [ -89.9627, 28.405 ], [ -89.9608, 28.3995 ], [ -89.9587, 28.394 ], [ -89.9565, 28.3885 ], [ -89.9543, 28.383 ], [ -89.9519, 28.3776 ], [ -89.9494, 28.3722 ], [ -89.9468, 28.3669 ], [ -89.9441, 28.3616 ], [ -89.9413, 28.3563 ], [ -89.9384, 28.3511 ], [ -89.9354, 28.3459 ], [ -89.9322, 28.3408 ], [ -89.929, 28.3358 ], [ -89.9257, 28.3307 ], [ -89.9223, 28.3258 ], [ -89.9188, 28.3208 ], [ -89.9152, 28.316 ], [ -89.9115, 28.3112 ], [ -89.9077, 28.3064 ], [ -89.9038, 28.3017 ], [ -89.8998, 28.2971 ], [ -89.8957, 28.2925 ], [ -89.8916, 28.288 ], [ -89.8873, 28.2836 ], [ -89.883, 28.2792 ], [ -89.8786, 28.2749 ], [ -89.8741, 28.2707 ], [ -89.8695, 28.2665 ], [ -89.8648, 28.2624 ], [ -89.86, 28.2584 ], [ -89.8552, 28.2544 ], [ -89.8503, 28.2506 ], [ -89.8453, 28.2468 ], [ -89.8402, 28.243 ], [ -89.8351, 28.2394 ], [ -89.8299, 28.2358 ], [ -89.8246, 28.2323 ], [ -89.8193, 28.2289 ], [ -89.8139, 28.2256 ], [ -89.8084, 28.2224 ], [ -89.8029, 28.2192 ], [ -89.7973, 28.2162 ], [ -89.7916, 28.2132 ], [ -89.7859, 28.2103 ], [ -89.7802, 28.2075 ], [ -89.7743, 28.2047 ], [ -89.7685, 28.2021 ], [ -89.7625, 28.1996 ], [ -89.7566, 28.1971 ], [ -89.7505, 28.1948 ], [ -89.7445, 28.1925 ], [ -89.7384, 28.1903 ], [ -89.7322, 28.1883 ], [ -89.726, 28.1863 ], [ -89.7198, 28.1844 ], [ -89.7135, 28.1826 ], [ -89.7072, 28.1809 ], [ -89.7009, 28.1793 ], [ -89.6945, 28.1778 ], [ -89.6881, 28.1764 ], [ -89.6817, 28.1751 ], [ -89.6753, 28.1739 ], [ -89.6688, 28.1728 ], [ -89.6623, 28.1718 ], [ -89.6558, 28.1709 ], [ -89.6493, 28.1701 ], [ -89.6427, 28.1694 ], [ -89.6362, 28.1688 ], [ -89.6296, 28.1683 ], [ -89.623, 28.1679 ], [ -89.6165, 28.1676 ], [ -89.6099, 28.1674 ], [ -89.6033, 28.1673 ], [ -89.5943, 27.9177 ], [ -89.5827, 27.9179 ], [ -89.5713, 27.9183 ], [ -89.5598, 27.9188 ], [ -89.5483, 27.9195 ], [ -89.5368, 27.9204 ], [ -89.5254, 27.9214 ], [ -89.514, 27.9227 ], [ -89.5026, 27.9241 ], [ -89.4912, 27.9257 ], [ -89.4799, 27.9274 ], [ -89.4686, 27.9293 ], [ -89.4574, 27.9314 ], [ -89.4461, 27.9337 ], [ -89.435, 27.9362 ], [ -89.4239, 27.9388 ], [ -89.4128, 27.9416 ], [ -89.4018, 27.9445 ], [ -89.3908, 27.9476 ], [ -89.38, 27.9509 ], [ -89.3691, 27.9544 ], [ -89.3584, 27.958 ], [ -89.3477, 27.9618 ], [ -89.3371, 27.9658 ], [ -89.3266, 27.9699 ], [ -89.3162, 27.9741 ], [ -89.3058, 27.9786 ], [ -89.2955, 27.9832 ], [ -89.2854, 27.9879 ], [ -89.2753, 27.9928 ], [ -89.2653, 27.9979 ], [ -89.2554, 28.0031 ], [ -89.2456, 28.0084 ], [ -89.236, 28.014 ], [ -89.2264, 28.0196 ], [ -89.2169, 28.0254 ], [ -89.2076, 28.0314 ], [ -89.1984, 28.0375 ], [ -89.1893, 28.0437 ], [ -89.1803, 28.05 ], [ -89.1715, 28.0566 ], [ -89.1628, 28.0632 ], [ -89.1542, 28.07 ], [ -89.1457, 28.0769 ], [ -89.1374, 28.0839 ], [ -89.1292, 28.0911 ], [ -89.1212, 28.0983 ], [ -89.1133, 28.1057 ], [ -89.1056, 28.1133 ], [ -89.098, 28.1209 ], [ -89.0905, 28.1287 ], [ -89.0832, 28.1365 ], [ -89.0761, 28.1445 ], [ -89.0691, 28.1526 ], [ -89.0623, 28.1608 ], [ -89.0556, 28.1691 ], [ -89.0492, 28.1775 ], [ -89.0428, 28.186 ], [ -89.0367, 28.1946 ], [ -89.0307, 28.2033 ], [ -89.0249, 28.2121 ], [ -89.0192, 28.2209 ], [ -89.0138, 28.2299 ], [ -89.0085, 28.2389 ], [ -89.0034, 28.248 ], [ -88.9985, 28.2572 ], [ -88.9937, 28.2665 ], [ -88.9891, 28.2758 ], [ -88.9848, 28.2852 ], [ -88.9806, 28.2947 ], [ -88.9766, 28.3042 ], [ -88.9728, 28.3138 ], [ -88.9691, 28.3235 ], [ -88.9657, 28.3332 ], [ -88.9625, 28.3429 ], [ -88.9594, 28.3527 ], [ -88.9566, 28.3626 ], [ -88.9539, 28.3724 ], [ -88.9514, 28.3824 ], [ -88.9492, 28.3923 ], [ -88.9471, 28.4023 ], [ -88.9452, 28.4124 ], [ -88.9436, 28.4224 ], [ -88.9421, 28.4325 ], [ -88.9408, 28.4426 ], [ -88.9398, 28.4527 ], [ -88.9389, 28.4629 ], [ -88.9382, 28.473 ], [ -88.9378, 28.4832 ], [ -88.9375, 28.4933 ], [ -88.7481, 28.5039 ], [ -88.7483, 28.5169 ], [ -88.7487, 28.53 ], [ -88.7493, 28.5431 ], [ -88.7503, 28.5561 ], [ -88.7515, 28.5691 ], [ -88.7529, 28.5821 ], [ -88.7546, 28.5951 ], [ -88.7566, 28.6081 ], [ -88.7588, 28.621 ], [ -88.7613, 28.6339 ], [ -88.764, 28.6467 ], [ -88.767, 28.6595 ], [ -88.7703, 28.6723 ], [ -88.7738, 28.685 ], [ -88.7775, 28.6976 ], [ -88.7815, 28.7102 ], [ -88.7858, 28.7227 ], [ -88.7903, 28.7352 ], [ -88.7951, 28.7475 ], [ -88.8001, 28.7598 ], [ -88.8053, 28.7721 ], [ -88.8108, 28.7842 ], [ -88.8166, 28.7963 ], [ -88.8225, 28.8083 ], [ -88.8287, 28.8201 ], [ -88.8352, 28.8319 ], [ -88.8419, 28.8436 ], [ -88.8488, 28.8552 ], [ -88.8559, 28.8666 ], [ -88.8633, 28.878 ], [ -88.8709, 28.8892 ], [ -88.8788, 28.9004 ], [ -88.8868, 28.9114 ], [ -88.8951, 28.9222 ], [ -88.9036, 28.933 ], [ -88.9123, 28.9436 ], [ -88.9212, 28.9541 ], [ -88.9303, 28.9644 ], [ -88.9397, 28.9746 ], [ -88.9492, 28.9847 ], [ -88.9589, 28.9946 ], [ -88.9689, 29.0043 ], [ -88.979, 29.0139 ], [ -88.9893, 29.0234 ], [ -88.9999, 29.0327 ], [ -89.0106, 29.0418 ], [ -89.0214, 29.0507 ], [ -89.0325, 29.0595 ], [ -89.0437, 29.0682 ], [ -89.0551, 29.0766 ], [ -89.0667, 29.0849 ], [ -89.0785, 29.093 ], [ -89.0904, 29.1009 ], [ -89.1024, 29.1086 ], [ -89.1146, 29.1161 ], [ -89.127, 29.1235 ], [ -89.1395, 29.1306 ], [ -89.1522, 29.1376 ], [ -89.165, 29.1444 ], [ -89.1779, 29.1509 ], [ -89.1909, 29.1573 ], [ -89.2041, 29.1635 ], [ -89.2174, 29.1695 ], [ -89.2309, 29.1752 ], [ -89.2444, 29.1808 ], [ -89.2581, 29.1861 ], [ -89.2718, 29.1913 ], [ -89.2857, 29.1962 ], [ -89.2997, 29.2009 ], [ -89.3137, 29.2054 ], [ -89.3279, 29.2097 ], [ -89.3421, 29.2138 ], [ -89.3564, 29.2176 ], [ -89.3708, 29.2212 ], [ -89.3852, 29.2246 ], [ -89.3997, 29.2278 ], [ -89.4143, 29.2308 ], [ -89.429, 29.2335 ], [ -89.4437, 29.236 ], [ -89.4584, 29.2383 ], [ -89.4732, 29.2404 ], [ -89.488, 29.2422 ], [ -89.5029, 29.2438 ], [ -89.5178, 29.2452 ], [ -89.5327, 29.2463 ], [ -89.5476, 29.2473 ], [ -89.5626, 29.2479 ], [ -89.5775, 29.2484 ], [ -89.5925, 29.2486 ] ] ] } },
{ "type": "Feature", "properties": { "RADII": 34.0, "STORMID": "al092021", "BASIN": "al", "STORMNUM": 9.0, "ADVNUM": "13", "VALIDTIME": "2021082918", "SYNOPTIME": "2021082906", "TIMEZONE": "UTC", "TAU": 12.0, "NE": 130.0, "SE": 110.0, "SW": 90.0, "NW": 100.0 }, "geometry": { "type": "Polygon", "coordinates": [ [ [ -90.3779, 31.3627 ], [ -90.4169, 30.8636 ], [ -90.4507, 30.8631 ], [ -90.4845, 30.8621 ], [ -90.5183, 30.8605 ], [ -90.552, 30.8585 ], [ -90.5857, 30.8559 ], [ -90.6194, 30.8528 ], [ -90.6529, 30.8492 ], [ -90.6864, 30.8451 ], [ -90.7198, 30.8405 ], [ -90.7531, 30.8354 ], [ -90.7862, 30.8297 ], [ -90.8193, 30.8236 ], [ -90.8522, 30.817 ], [ -90.885, 30.8098 ], [ -90.9176, 30.8022 ], [ -90.95, 30.7941 ], [ -90.9823, 30.7854 ], [ -91.0144, 30.7763 ], [ -91.0462, 30.7667 ], [ -91.0779, 30.7566 ], [ -91.1094, 30.7461 ], [ -91.1406, 30.735 ], [ -91.1716, 30.7235 ], [ -91.2024, 30.7115 ], [ -91.2329, 30.699 ], [ -91.2631, 30.6861 ], [ -91.2931, 30.6727 ], [ -91.3228, 30.6589 ], [ -91.3522, 30.6446 ], [ -91.3812, 30.6299 ], [ -91.41, 30.6147 ], [ -91.4384, 30.5991 ], [ -91.4666, 30.5831 ], [ -91.4943, 30.5666 ], [ -91.5218, 30.5498 ], [ -91.5488, 30.5325 ], [ -91.5755, 30.5148 ], [ -91.6019, 30.4966 ], [ -91.6278, 30.4781 ], [ -91.6534, 30.4592 ], [ -91.6786, 30.44 ], [ -91.7033, 30.4203 ], [ -91.7277, 30.4002 ], [ -91.7516, 30.3798 ], [ -91.7751, 30.3591 ], [ -91.7982, 30.3379 ], [ -91.8209, 30.3165 ], [ -91.8431, 30.2946 ], [ -91.8648, 30.2725 ], [ -91.8861, 30.25 ], [ -91.9069, 30.2272 ], [ -91.9272, 30.2041 ], [ -91.9471, 30.1807 ], [ -91.9664, 30.157 ], [ -91.9853, 30.133 ], [ -92.0037, 30.1087 ], [ -92.0216, 30.0841 ], [ -92.039, 30.0593 ], [ -92.0558, 30.0342 ], [ -92.0722, 30.0088 ], [ -92.088, 29.9832 ], [ -92.1033, 29.9574 ], [ -92.1181, 29.9314 ], [ -92.1323, 29.9051 ], [ -92.146, 29.8786 ], [ -92.1591, 29.8519 ], [ -92.1718, 29.825 ], [ -92.1838, 29.7979 ], [ -92.1953, 29.7707 ], [ -92.2063, 29.7432 ], [ -92.2167, 29.7156 ], [ -92.2265, 29.6879 ], [ -92.2358, 29.66 ], [ -92.2445, 29.632 ], [ -92.2526, 29.6038 ], [ -92.2602, 29.5755 ], [ -92.2671, 29.5471 ], [ -92.2736, 29.5186 ], [ -92.2794, 29.4901 ], [ -92.2847, 29.4614 ], [ -92.2893, 29.4326 ], [ -92.2934, 29.4038 ], [ -92.297, 29.375 ], [ -92.2999, 29.346 ], [ -92.3023, 29.3171 ], [ -92.3041, 29.2881 ], [ -92.3053, 29.2591 ], [ -92.3059, 29.23 ], [ -92.3059, 29.201 ], [ -92.1149, 29.176 ], [ -92.1139, 29.1499 ], [ -92.1125, 29.1238 ], [ -92.1105, 29.0977 ], [ -92.1079, 29.0717 ], [ -92.1049, 29.0457 ], [ -92.1013, 29.0197 ], [ -92.0973, 28.9938 ], [ -92.0927, 28.968 ], [ -92.0876, 28.9423 ], [ -92.082, 28.9166 ], [ -92.0759, 28.891 ], [ -92.0693, 28.8656 ], [ -92.0621, 28.8402 ], [ -92.0545, 28.8149 ], [ -92.0464, 28.7898 ], [ -92.0378, 28.7648 ], [ -92.0287, 28.7399 ], [ -92.0191, 28.7151 ], [ -92.009, 28.6906 ], [ -91.9984, 28.6661 ], [ -91.9874, 28.6419 ], [ -91.9759, 28.6178 ], [ -91.9639, 28.5939 ], [ -91.9514, 28.5701 ], [ -91.9385, 28.5466 ], [ -91.9251, 28.5233 ], [ -91.9113, 28.5001 ], [ -91.897, 28.4772 ], [ -91.8823, 28.4545 ], [ -91.8671, 28.4321 ], [ -91.8515, 28.4098 ], [ -91.8354, 28.3878 ], [ -91.819, 28.3661 ], [ -91.8021, 28.3446 ], [ -91.7848, 28.3234 ], [ -91.767, 28.3024 ], [ -91.7489, 28.2817 ], [ -91.7304, 28.2613 ], [ -91.7114, 28.2412 ], [ -91.6921, 28.2214 ], [ -91.6724, 28.2018 ], [ -91.6524, 28.1826 ], [ -91.6319, 28.1637 ], [ -91.6111, 28.1451 ], [ -91.59, 28.1268 ], [ -91.5685, 28.1088 ], [ -91.5466, 28.0912 ], [ -91.5244, 28.0739 ], [ -91.5019, 28.0569 ], [ -91.479, 28.0403 ], [ -91.4558, 28.024 ], [ -91.4324, 28.0081 ], [ -91.4086, 27.9926 ], [ -91.3845, 27.9774 ], [ -91.3601, 27.9626 ], [ -91.3355, 27.9482 ], [ -91.3105, 27.9341 ], [ -91.2853, 27.9204 ], [ -91.2599, 27.9071 ], [ -91.2342, 27.8942 ], [ -91.2082, 27.8817 ], [ -91.182, 27.8696 ], [ -91.1556, 27.8579 ], [ -91.129, 27.8466 ], [ -91.1021, 27.8357 ], [ -91.0751, 27.8252 ], [ -91.0478, 27.8151 ], [ -91.0203, 27.8054 ], [ -90.9927, 27.7962 ], [ -90.9649, 27.7874 ], [ -90.9369, 27.779 ], [ -90.9088, 27.771 ], [ -90.8805, 27.7635 ], [ -90.8521, 27.7564 ], [ -90.8236, 27.7497 ], [ -90.7949, 27.7435 ], [ -90.7661, 27.7377 ], [ -90.7372, 27.7323 ], [ -90.7082, 27.7274 ], [ -90.6791, 27.7229 ], [ -90.65, 27.7189 ], [ -90.6207, 27.7153 ], [ -90.5914, 27.7122 ], [ -90.5621, 27.7095 ], [ -90.5327, 27.7072 ], [ -90.5032, 27.7054 ], [ -90.4738, 27.7041 ], [ -90.4443, 27.7032 ], [ -90.4148, 27.7027 ], [ -90.382, 27.37 ], [ -90.3461, 27.3706 ], [ -90.3101, 27.3717 ], [ -90.2742, 27.3733 ], [ -90.2383, 27.3755 ], [ -90.2025, 27.3782 ], [ -90.1667, 27.3815 ], [ -90.131, 27.3853 ], [ -90.0954, 27.3897 ], [ -90.0599, 27.3946 ], [ -90.0244, 27.4001 ], [ -89.9891, 27.4061 ], [ -89.9539, 27.4126 ], [ -89.9188, 27.4196 ], [ -89.8838, 27.4272 ], [ -89.849, 27.4354 ], [ -89.8144, 27.444 ], [ -89.7799, 27.4532 ], [ -89.7457, 27.4629 ], [ -89.7116, 27.4732 ], [ -89.6777, 27.4839 ], [ -89.644, 27.4952 ], [ -89.6105, 27.5069 ], [ -89.5773, 27.5192 ], [ -89.5443, 27.532 ], [ -89.5115, 27.5453 ], [ -89.479, 27.5591 ], [ -89.4468, 27.5733 ], [ -89.4149, 27.5881 ], [ -89.3832, 27.6034 ], [ -89.3518, 27.6191 ], [ -89.3208, 27.6353 ], [ -89.29, 27.652 ], [ -89.2596, 27.6691 ], [ -89.2295, 27.6867 ], [ -89.1998, 27.7048 ], [ -89.1704, 27.7233 ], [ -89.1413, 27.7422 ], [ -89.1127, 27.7616 ], [ -89.0844, 27.7815 ], [ -89.0565, 27.8017 ], [ -89.029, 27.8224 ], [ -89.0018, 27.8435 ], [ -88.9751, 27.865 ], [ -88.9489, 27.8869 ], [ -88.923, 27.9092 ], [ -88.8976, 27.9319 ], [ -88.8726, 27.955 ], [ -88.848, 27.9784 ], [ -88.824, 28.0023 ], [ -88.8004, 28.0264 ], [ -88.7772, 28.051 ], [ -88.7545, 28.0759 ], [ -88.7324, 28.1011 ], [ -88.7107, 28.1267 ], [ -88.6895, 28.1526 ], [ -88.6688, 28.1788 ], [ -88.6486, 28.2053 ], [ -88.6289, 28.2322 ], [ -88.6098, 28.2593 ], [ -88.5912, 28.2867 ], [ -88.5731, 28.3144 ], [ -88.5556, 28.3423 ], [ -88.5386, 28.3706 ], [ -88.5222, 28.399 ], [ -88.5064, 28.4278 ], [ -88.4911, 28.4567 ], [ -88.4763, 28.4859 ], [ -88.4622, 28.5153 ], [ -88.4486, 28.545 ], [ -88.4356, 28.5748 ], [ -88.4232, 28.6048 ], [ -88.4114, 28.635 ], [ -88.4001, 28.6654 ], [ -88.3895, 28.6959 ], [ -88.3795, 28.7266 ], [ -88.3701, 28.7575 ], [ -88.3613, 28.7885 ], [ -88.3531, 28.8196 ], [ -88.3455, 28.8508 ], [ -88.3385, 28.8822 ], [ -88.3322, 28.9136 ], [ -88.3265, 28.9452 ], [ -88.3214, 28.9768 ], [ -88.317, 29.0085 ], [ -88.3131, 29.0402 ], [ -88.3099, 29.072 ], [ -88.3074, 29.1039 ], [ -88.3055, 29.1358 ], [ -88.3042, 29.1677 ], [ -87.9224, 29.1961 ], [ -87.9222, 29.2338 ], [ -87.9228, 29.2715 ], [ -87.9241, 29.3093 ], [ -87.9263, 29.3469 ], [ -87.9291, 29.3846 ], [ -87.9327, 29.4222 ], [ -87.9371, 29.4598 ], [ -87.9422, 29.4972 ], [ -87.9481, 29.5346 ], [ -87.9548, 29.5719 ], [ -87.9621, 29.6091 ], [ -87.9703, 29.6462 ], [ -87.9792, 29.6831 ], [ -87.9888, 29.7199 ], [ -87.9992, 29.7566 ], [ -88.0103, 29.793 ], [ -88.0222, 29.8293 ], [ -88.0348, 29.8655 ], [ -88.0481, 29.9014 ], [ -88.0622, 29.9371 ], [ -88.077, 29.9726 ], [ -88.0925, 30.0079 ], [ -88.1087, 30.0429 ], [ -88.1256, 30.0777 ], [ -88.1433, 30.1122 ], [ -88.1617, 30.1464 ], [ -88.1807, 30.1804 ], [ -88.2005, 30.214 ], [ -88.2209, 30.2474 ], [ -88.2421, 30.2804 ], [ -88.2639, 30.3131 ], [ -88.2864, 30.3455 ], [ -88.3095, 30.3775 ], [ -88.3333, 30.4091 ], [ -88.3578, 30.4404 ], [ -88.3829, 30.4714 ], [ -88.4086, 30.5019 ], [ -88.435, 30.532 ], [ -88.462, 30.5617 ], [ -88.4896, 30.5911 ], [ -88.5178, 30.6199 ], [ -88.5466, 30.6484 ], [ -88.576, 30.6764 ], [ -88.606, 30.704 ], [ -88.6366, 30.7311 ], [ -88.6677, 30.7577 ], [ -88.6994, 30.7838 ], [ -88.7316, 30.8095 ], [ -88.7643, 30.8347 ], [ -88.7976, 30.8593 ], [ -88.8314, 30.8835 ], [ -88.8657, 30.9071 ], [ -88.9004, 30.9302 ], [ -88.9357, 30.9528 ], [ -88.9714, 30.9748 ], [ -89.0076, 30.9963 ], [ -89.0442, 31.0173 ], [ -89.0813, 31.0376 ], [ -89.1188, 31.0574 ], [ -89.1567, 31.0767 ], [ -89.195, 31.0953 ], [ -89.2337, 31.1134 ], [ -89.2728, 31.1308 ], [ -89.3122, 31.1477 ], [ -89.352, 31.164 ], [ -89.3922, 31.1796 ], [ -89.4326, 31.1947 ], [ -89.4734, 31.2091 ], [ -89.5145, 31.2229 ], [ -89.5558, 31.2361 ], [ -89.5975, 31.2486 ], [ -89.6393, 31.2605 ], [ -89.6815, 31.2718 ], [ -89.7238, 31.2824 ], [ -89.7664, 31.2924 ], [ -89.8092, 31.3017 ], [ -89.8522, 31.3104 ], [ -89.8954, 31.3184 ], [ -89.9387, 31.3258 ], [ -89.9822, 31.3325 ], [ -90.0258, 31.3385 ], [ -90.0695, 31.3439 ], [ -90.1134, 31.3486 ], [ -90.1573, 31.3526 ], [ -90.2013, 31.356 ], [ -90.2454, 31.3587 ], [ -90.2896, 31.3607 ], [ -90.3337, 31.362 ], [ -90.3779, 31.3627 ] ] ] } },
{ "type": "Feature", "properties": { "RADII": 50.0, "STORMID": "al092021", "BASIN": "al", "STORMNUM": 9.0, "ADVNUM": "13", "VALIDTIME": "2021082918", "SYNOPTIME": "2021082906", "TIMEZONE": "UTC", "TAU": 12.0, "NE": 70.0, "SE": 60.0, "SW": 40.0, "NW": 60.0 }, "geometry": { "type": "Polygon", "coordinates": [ [ [ -90.3882, 30.3645 ], [ -90.4101, 30.1982 ], [ -90.4302, 30.1979 ], [ -90.4504, 30.1973 ], [ -90.4705, 30.1963 ], [ -90.4906, 30.1951 ], [ -90.5107, 30.1936 ], [ -90.5307, 30.1917 ], [ -90.5507, 30.1896 ], [ -90.5707, 30.1871 ], [ -90.5906, 30.1844 ], [ -90.6104, 30.1813 ], [ -90.6302, 30.178 ], [ -90.6499, 30.1743 ], [ -90.6695, 30.1704 ], [ -90.6891, 30.1661 ], [ -90.7085, 30.1616 ], [ -90.7279, 30.1567 ], [ -90.7471, 30.1516 ], [ -90.7663, 30.1461 ], [ -90.7853, 30.1404 ], [ -90.8042, 30.1344 ], [ -90.823, 30.1281 ], [ -90.8416, 30.1215 ], [ -90.8601, 30.1146 ], [ -90.8785, 30.1075 ], [ -90.8967, 30.1001 ], [ -90.9148, 30.0924 ], [ -90.9327, 30.0844 ], [ -90.9504, 30.0761 ], [ -90.968, 30.0676 ], [ -90.9853, 30.0588 ], [ -91.0025, 30.0498 ], [ -91.0196, 30.0405 ], [ -91.0364, 30.0309 ], [ -91.053, 30.0211 ], [ -91.0694, 30.011 ], [ -91.0856, 30.0007 ], [ -91.1016, 29.9901 ], [ -91.1174, 29.9793 ], [ -91.1329, 29.9682 ], [ -91.1482, 29.957 ], [ -91.1633, 29.9455 ], [ -91.1782, 29.9337 ], [ -91.1928, 29.9217 ], [ -91.2072, 29.9096 ], [ -91.2213, 29.8971 ], [ -91.2351, 29.8845 ], [ -91.2487, 29.8717 ], [ -91.262, 29.8587 ], [ -91.2751, 29.8454 ], [ -91.2879, 29.832 ], [ -91.3004, 29.8184 ], [ -91.3127, 29.8046 ], [ -91.3246, 29.7906 ], [ -91.3363, 29.7764 ], [ -91.3477, 29.7621 ], [ -91.3587, 29.7475 ], [ -91.3695, 29.7328 ], [ -91.38, 29.718 ], [ -91.3902, 29.703 ], [ -91.4001, 29.6878 ], [ -91.4097, 29.6725 ], [ -91.4189, 29.6571 ], [ -91.4278, 29.6415 ], [ -91.4365, 29.6257 ], [ -91.4448, 29.6099 ], [ -91.4528, 29.5939 ], [ -91.4604, 29.5778 ], [ -91.4678, 29.5616 ], [ -91.4748, 29.5453 ], [ -91.4814, 29.5289 ], [ -91.4878, 29.5123 ], [ -91.4938, 29.4957 ], [ -91.4995, 29.479 ], [ -91.5048, 29.4622 ], [ -91.5098, 29.4454 ], [ -91.5144, 29.4284 ], [ -91.5188, 29.4114 ], [ -91.5227, 29.3943 ], [ -91.5264, 29.3772 ], [ -91.5296, 29.36 ], [ -91.5326, 29.3428 ], [ -91.5352, 29.3255 ], [ -91.5374, 29.3082 ], [ -91.5393, 29.2908 ], [ -91.5408, 29.2735 ], [ -91.542, 29.2561 ], [ -91.5429, 29.2387 ], [ -91.5434, 29.2213 ], [ -91.5436, 29.2038 ], [ -91.1623, 29.192 ], [ -91.162, 29.1804 ], [ -91.1614, 29.1688 ], [ -91.1606, 29.1572 ], [ -91.1596, 29.1456 ], [ -91.1584, 29.1341 ], [ -91.1569, 29.1225 ], [ -91.1552, 29.111 ], [ -91.1533, 29.0995 ], [ -91.1511, 29.0881 ], [ -91.1487, 29.0766 ], [ -91.1461, 29.0653 ], [ -91.1432, 29.0539 ], [ -91.1402, 29.0426 ], [ -91.1369, 29.0314 ], [ -91.1334, 29.0202 ], [ -91.1296, 29.009 ], [ -91.1256, 28.9979 ], [ -91.1215, 28.9869 ], [ -91.1171, 28.9759 ], [ -91.1125, 28.9651 ], [ -91.1076, 28.9542 ], [ -91.1026, 28.9435 ], [ -91.0973, 28.9328 ], [ -91.0919, 28.9223 ], [ -91.0862, 28.9118 ], [ -91.0803, 28.9013 ], [ -91.0742, 28.891 ], [ -91.0679, 28.8808 ], [ -91.0614, 28.8707 ], [ -91.0547, 28.8606 ], [ -91.0478, 28.8507 ], [ -91.0407, 28.8409 ], [ -91.0334, 28.8312 ], [ -91.026, 28.8216 ], [ -91.0183, 28.8121 ], [ -91.0105, 28.8028 ], [ -91.0024, 28.7935 ], [ -90.9942, 28.7844 ], [ -90.9858, 28.7754 ], [ -90.9773, 28.7666 ], [ -90.9685, 28.7578 ], [ -90.9596, 28.7492 ], [ -90.9505, 28.7408 ], [ -90.9413, 28.7325 ], [ -90.9319, 28.7243 ], [ -90.9223, 28.7163 ], [ -90.9126, 28.7084 ], [ -90.9027, 28.7006 ], [ -90.8927, 28.6931 ], [ -90.8825, 28.6856 ], [ -90.8722, 28.6784 ], [ -90.8617, 28.6712 ], [ -90.8511, 28.6643 ], [ -90.8404, 28.6575 ], [ -90.8295, 28.6509 ], [ -90.8185, 28.6444 ], [ -90.8074, 28.6381 ], [ -90.7962, 28.632 ], [ -90.7848, 28.6261 ], [ -90.7733, 28.6203 ], [ -90.7617, 28.6147 ], [ -90.75, 28.6093 ], [ -90.7382, 28.604 ], [ -90.7263, 28.599 ], [ -90.7143, 28.5941 ], [ -90.7022, 28.5894 ], [ -90.69, 28.5849 ], [ -90.6777, 28.5805 ], [ -90.6654, 28.5764 ], [ -90.6529, 28.5725 ], [ -90.6404, 28.5687 ], [ -90.6278, 28.5651 ], [ -90.6152, 28.5618 ], [ -90.6025, 28.5586 ], [ -90.5897, 28.5556 ], [ -90.5769, 28.5528 ], [ -90.564, 28.5502 ], [ -90.551, 28.5478 ], [ -90.5381, 28.5456 ], [ -90.525, 28.5436 ], [ -90.512, 28.5418 ], [ -90.4989, 28.5402 ], [ -90.4858, 28.5388 ], [ -90.4726, 28.5376 ], [ -90.4594, 28.5366 ], [ -90.4462, 28.5358 ], [ -90.433, 28.5352 ], [ -90.4198, 28.5348 ], [ -90.4066, 28.5345 ], [ -90.3901, 28.2018 ], [ -90.3704, 28.2021 ], [ -90.3506, 28.2027 ], [ -90.3309, 28.2036 ], [ -90.3111, 28.2048 ], [ -90.2914, 28.2063 ], [ -90.2718, 28.2081 ], [ -90.2522, 28.2102 ], [ -90.2326, 28.2126 ], [ -90.213, 28.2153 ], [ -90.1936, 28.2183 ], [ -90.1741, 28.2216 ], [ -90.1548, 28.2252 ], [ -90.1355, 28.2291 ], [ -90.1163, 28.2333 ], [ -90.0972, 28.2378 ], [ -90.0782, 28.2425 ], [ -90.0593, 28.2476 ], [ -90.0404, 28.2529 ], [ -90.0217, 28.2585 ], [ -90.0031, 28.2644 ], [ -89.9846, 28.2706 ], [ -89.9663, 28.2771 ], [ -89.948, 28.2838 ], [ -89.9299, 28.2908 ], [ -89.9119, 28.2981 ], [ -89.8941, 28.3057 ], [ -89.8765, 28.3136 ], [ -89.8589, 28.3217 ], [ -89.8416, 28.33 ], [ -89.8244, 28.3387 ], [ -89.8074, 28.3476 ], [ -89.7906, 28.3567 ], [ -89.7739, 28.3661 ], [ -89.7574, 28.3758 ], [ -89.7411, 28.3857 ], [ -89.7251, 28.3959 ], [ -89.7092, 28.4063 ], [ -89.6935, 28.4169 ], [ -89.678, 28.4278 ], [ -89.6628, 28.4389 ], [ -89.6477, 28.4503 ], [ -89.6329, 28.4619 ], [ -89.6183, 28.4737 ], [ -89.604, 28.4857 ], [ -89.5899, 28.4979 ], [ -89.576, 28.5104 ], [ -89.5624, 28.523 ], [ -89.549, 28.5359 ], [ -89.5359, 28.5489 ], [ -89.523, 28.5622 ], [ -89.5104, 28.5757 ], [ -89.4981, 28.5893 ], [ -89.486, 28.6031 ], [ -89.4743, 28.6172 ], [ -89.4627, 28.6313 ], [ -89.4515, 28.6457 ], [ -89.4406, 28.6602 ], [ -89.4299, 28.6749 ], [ -89.4195, 28.6898 ], [ -89.4095, 28.7048 ], [ -89.3997, 28.72 ], [ -89.3902, 28.7353 ], [ -89.3811, 28.7507 ], [ -89.3722, 28.7663 ], [ -89.3636, 28.7821 ], [ -89.3554, 28.7979 ], [ -89.3475, 28.8139 ], [ -89.3398, 28.83 ], [ -89.3326, 28.8462 ], [ -89.3256, 28.8625 ], [ -89.3189, 28.8789 ], [ -89.3126, 28.8954 ], [ -89.3066, 28.9121 ], [ -89.3009, 28.9288 ], [ -89.2956, 28.9455 ], [ -89.2906, 28.9624 ], [ -89.2859, 28.9793 ], [ -89.2816, 28.9963 ], [ -89.2776, 29.0134 ], [ -89.274, 29.0305 ], [ -89.2707, 29.0477 ], [ -89.2677, 29.0649 ], [ -89.2651, 29.0822 ], [ -89.2628, 29.0995 ], [ -89.2609, 29.1169 ], [ -89.2593, 29.1342 ], [ -89.2581, 29.1516 ], [ -89.2572, 29.169 ], [ -89.2567, 29.1864 ], [ -89.0659, 29.2035 ], [ -89.066, 29.2239 ], [ -89.0666, 29.2442 ], [ -89.0675, 29.2645 ], [ -89.0689, 29.2848 ], [ -89.0706, 29.3051 ], [ -89.0728, 29.3253 ], [ -89.0754, 29.3455 ], [ -89.0784, 29.3656 ], [ -89.0818, 29.3858 ], [ -89.0856, 29.4058 ], [ -89.0897, 29.4258 ], [ -89.0943, 29.4457 ], [ -89.0993, 29.4656 ], [ -89.1047, 29.4854 ], [ -89.1105, 29.505 ], [ -89.1167, 29.5246 ], [ -89.1233, 29.5441 ], [ -89.1303, 29.5635 ], [ -89.1376, 29.5828 ], [ -89.1454, 29.602 ], [ -89.1535, 29.621 ], [ -89.1621, 29.64 ], [ -89.171, 29.6588 ], [ -89.1803, 29.6774 ], [ -89.1899, 29.6959 ], [ -89.2, 29.7143 ], [ -89.2104, 29.7325 ], [ -89.2212, 29.7505 ], [ -89.2323, 29.7684 ], [ -89.2438, 29.7861 ], [ -89.2557, 29.8036 ], [ -89.2679, 29.821 ], [ -89.2805, 29.8381 ], [ -89.2934, 29.8551 ], [ -89.3066, 29.8718 ], [ -89.3202, 29.8884 ], [ -89.3342, 29.9047 ], [ -89.3484, 29.9209 ], [ -89.363, 29.9368 ], [ -89.378, 29.9525 ], [ -89.3932, 29.9679 ], [ -89.4087, 29.9831 ], [ -89.4246, 29.9981 ], [ -89.4408, 30.0128 ], [ -89.4572, 30.0273 ], [ -89.474, 30.0416 ], [ -89.491, 30.0555 ], [ -89.5083, 30.0693 ], [ -89.526, 30.0827 ], [ -89.5438, 30.0959 ], [ -89.562, 30.1088 ], [ -89.5804, 30.1214 ], [ -89.5991, 30.1338 ], [ -89.618, 30.1458 ], [ -89.6371, 30.1576 ], [ -89.6565, 30.1691 ], [ -89.6762, 30.1803 ], [ -89.6961, 30.1911 ], [ -89.7161, 30.2017 ], [ -89.7364, 30.212 ], [ -89.7569, 30.2219 ], [ -89.7776, 30.2316 ], [ -89.7985, 30.2409 ], [ -89.8196, 30.2499 ], [ -89.8409, 30.2586 ], [ -89.8624, 30.2669 ], [ -89.884, 30.2749 ], [ -89.9058, 30.2826 ], [ -89.9277, 30.29 ], [ -89.9498, 30.297 ], [ -89.972, 30.3037 ], [ -89.9944, 30.3101 ], [ -90.0169, 30.3161 ], [ -90.0395, 30.3217 ], [ -90.0622, 30.3271 ], [ -90.085, 30.332 ], [ -90.108, 30.3367 ], [ -90.131, 30.3409 ], [ -90.1541, 30.3449 ], [ -90.1773, 30.3484 ], [ -90.2005, 30.3516 ], [ -90.2239, 30.3545 ], [ -90.2472, 30.357 ], [ -90.2707, 30.3592 ], [ -90.2941, 30.361 ], [ -90.3176, 30.3624 ], [ -90.3411, 30.3635 ], [ -90.3647, 30.3642 ], [ -90.3882, 30.3645 ] ] ] } },
{ "type": "Feature", "properties": { "RADII": 64.0, "STORMID": "al092021", "BASIN": "al", "STORMNUM": 9.0, "ADVNUM": "13", "VALIDTIME": "2021082918", "SYNOPTIME": "2021082906", "TIMEZONE": "UTC", "TAU": 12.0, "NE": 45.0, "SE": 35.0, "SW": 20.0, "NW": 30.0 }, "geometry": { "type": "Polygon", "coordinates": [ [ [ -90.3925, 29.9486 ], [ -90.405, 29.6991 ], [ -90.415, 29.6989 ], [ -90.4251, 29.6986 ], [ -90.4351, 29.6982 ], [ -90.4451, 29.6976 ], [ -90.4551, 29.6968 ], [ -90.465, 29.6959 ], [ -90.475, 29.6948 ], [ -90.4849, 29.6936 ], [ -90.4948, 29.6922 ], [ -90.5047, 29.6907 ], [ -90.5145, 29.689 ], [ -90.5244, 29.6872 ], [ -90.5341, 29.6852 ], [ -90.5438, 29.6831 ], [ -90.5535, 29.6809 ], [ -90.5632, 29.6785 ], [ -90.5727, 29.6759 ], [ -90.5823, 29.6732 ], [ -90.5918, 29.6703 ], [ -90.6012, 29.6673 ], [ -90.6105, 29.6642 ], [ -90.6198, 29.6609 ], [ -90.629, 29.6575 ], [ -90.6382, 29.654 ], [ -90.6472, 29.6503 ], [ -90.6562, 29.6464 ], [ -90.6652, 29.6425 ], [ -90.674, 29.6383 ], [ -90.6828, 29.6341 ], [ -90.6914, 29.6297 ], [ -90.7, 29.6252 ], [ -90.7085, 29.6206 ], [ -90.7169, 29.6158 ], [ -90.7252, 29.6109 ], [ -90.7334, 29.6059 ], [ -90.7414, 29.6008 ], [ -90.7494, 29.5955 ], [ -90.7573, 29.5901 ], [ -90.7651, 29.5846 ], [ -90.7727, 29.579 ], [ -90.7803, 29.5733 ], [ -90.7877, 29.5674 ], [ -90.795, 29.5615 ], [ -90.8022, 29.5554 ], [ -90.8092, 29.5492 ], [ -90.8161, 29.5429 ], [ -90.823, 29.5365 ], [ -90.8296, 29.53 ], [ -90.8362, 29.5234 ], [ -90.8426, 29.5167 ], [ -90.8488, 29.5099 ], [ -90.855, 29.5031 ], [ -90.861, 29.4961 ], [ -90.8668, 29.489 ], [ -90.8725, 29.4819 ], [ -90.8781, 29.4746 ], [ -90.8835, 29.4673 ], [ -90.8888, 29.4599 ], [ -90.8939, 29.4524 ], [ -90.8988, 29.4448 ], [ -90.9037, 29.4372 ], [ -90.9083, 29.4295 ], [ -90.9128, 29.4217 ], [ -90.9172, 29.4139 ], [ -90.9213, 29.406 ], [ -90.9254, 29.398 ], [ -90.9292, 29.39 ], [ -90.9329, 29.3819 ], [ -90.9365, 29.3737 ], [ -90.9398, 29.3655 ], [ -90.9431, 29.3573 ], [ -90.9461, 29.349 ], [ -90.949, 29.3406 ], [ -90.9517, 29.3322 ], [ -90.9542, 29.3238 ], [ -90.9566, 29.3154 ], [ -90.9588, 29.3069 ], [ -90.9608, 29.2983 ], [ -90.9627, 29.2898 ], [ -90.9644, 29.2812 ], [ -90.9659, 29.2726 ], [ -90.9672, 29.2639 ], [ -90.9684, 29.2553 ], [ -90.9694, 29.2466 ], [ -90.9702, 29.2379 ], [ -90.9709, 29.2293 ], [ -90.9713, 29.2206 ], [ -90.9716, 29.2118 ], [ -90.9718, 29.2031 ], [ -90.7812, 29.1966 ], [ -90.781, 29.1908 ], [ -90.7808, 29.1849 ], [ -90.7804, 29.1791 ], [ -90.7799, 29.1734 ], [ -90.7793, 29.1676 ], [ -90.7786, 29.1618 ], [ -90.7778, 29.156 ], [ -90.7768, 29.1503 ], [ -90.7758, 29.1446 ], [ -90.7746, 29.1388 ], [ -90.7733, 29.1331 ], [ -90.7719, 29.1275 ], [ -90.7704, 29.1218 ], [ -90.7687, 29.1162 ], [ -90.767, 29.1106 ], [ -90.7651, 29.105 ], [ -90.7632, 29.0995 ], [ -90.7611, 29.0939 ], [ -90.7589, 29.0884 ], [ -90.7566, 29.083 ], [ -90.7542, 29.0776 ], [ -90.7517, 29.0722 ], [ -90.7491, 29.0669 ], [ -90.7464, 29.0616 ], [ -90.7436, 29.0563 ], [ -90.7406, 29.0511 ], [ -90.7376, 29.0459 ], [ -90.7345, 29.0408 ], [ -90.7312, 29.0357 ], [ -90.7279, 29.0307 ], [ -90.7245, 29.0258 ], [ -90.7209, 29.0208 ], [ -90.7173, 29.016 ], [ -90.7136, 29.0112 ], [ -90.7097, 29.0064 ], [ -90.7058, 29.0017 ], [ -90.7018, 28.9971 ], [ -90.6977, 28.9925 ], [ -90.6935, 28.988 ], [ -90.6892, 28.9836 ], [ -90.6849, 28.9792 ], [ -90.6804, 28.9749 ], [ -90.6759, 28.9707 ], [ -90.6713, 28.9665 ], [ -90.6666, 28.9624 ], [ -90.6618, 28.9584 ], [ -90.6569, 28.9544 ], [ -90.652, 28.9506 ], [ -90.6469, 28.9468 ], [ -90.6419, 28.943 ], [ -90.6367, 28.9394 ], [ -90.6315, 28.9358 ], [ -90.6261, 28.9323 ], [ -90.6208, 28.9289 ], [ -90.6153, 28.9256 ], [ -90.6098, 28.9224 ], [ -90.6043, 28.9192 ], [ -90.5986, 28.9161 ], [ -90.5929, 28.9132 ], [ -90.5872, 28.9103 ], [ -90.5814, 28.9075 ], [ -90.5755, 28.9047 ], [ -90.5696, 28.9021 ], [ -90.5636, 28.8996 ], [ -90.5576, 28.8971 ], [ -90.5515, 28.8948 ], [ -90.5454, 28.8925 ], [ -90.5393, 28.8903 ], [ -90.5331, 28.8883 ], [ -90.5269, 28.8863 ], [ -90.5206, 28.8844 ], [ -90.5143, 28.8826 ], [ -90.5079, 28.8809 ], [ -90.5015, 28.8793 ], [ -90.4951, 28.8778 ], [ -90.4887, 28.8764 ], [ -90.4822, 28.8751 ], [ -90.4758, 28.8739 ], [ -90.4692, 28.8728 ], [ -90.4627, 28.8718 ], [ -90.4562, 28.8709 ], [ -90.4496, 28.8701 ], [ -90.443, 28.8694 ], [ -90.4364, 28.8688 ], [ -90.4298, 28.8683 ], [ -90.4232, 28.8679 ], [ -90.4166, 28.8676 ], [ -90.41, 28.8674 ], [ -90.4033, 28.8673 ], [ -90.3942, 28.6177 ], [ -90.3826, 28.6179 ], [ -90.3711, 28.6183 ], [ -90.3595, 28.6188 ], [ -90.348, 28.6195 ], [ -90.3364, 28.6204 ], [ -90.3249, 28.6214 ], [ -90.3134, 28.6227 ], [ -90.3019, 28.6241 ], [ -90.2905, 28.6257 ], [ -90.2791, 28.6274 ], [ -90.2677, 28.6293 ], [ -90.2564, 28.6314 ], [ -90.2451, 28.6337 ], [ -90.2339, 28.6362 ], [ -90.2227, 28.6388 ], [ -90.2116, 28.6416 ], [ -90.2005, 28.6445 ], [ -90.1895, 28.6476 ], [ -90.1785, 28.6509 ], [ -90.1676, 28.6544 ], [ -90.1568, 28.658 ], [ -90.1461, 28.6618 ], [ -90.1354, 28.6657 ], [ -90.1248, 28.6699 ], [ -90.1143, 28.6741 ], [ -90.1039, 28.6786 ], [ -90.0935, 28.6832 ], [ -90.0833, 28.6879 ], [ -90.0731, 28.6928 ], [ -90.0631, 28.6979 ], [ -90.0531, 28.7031 ], [ -90.0433, 28.7084 ], [ -90.0336, 28.7139 ], [ -90.0239, 28.7196 ], [ -90.0144, 28.7254 ], [ -90.005, 28.7313 ], [ -89.9957, 28.7374 ], [ -89.9866, 28.7437 ], [ -89.9775, 28.75 ], [ -89.9686, 28.7565 ], [ -89.9599, 28.7632 ], [ -89.9512, 28.7699 ], [ -89.9427, 28.7768 ], [ -89.9343, 28.7839 ], [ -89.9261, 28.791 ], [ -89.918, 28.7983 ], [ -89.9101, 28.8057 ], [ -89.9023, 28.8132 ], [ -89.8946, 28.8209 ], [ -89.8871, 28.8286 ], [ -89.8798, 28.8365 ], [ -89.8726, 28.8445 ], [ -89.8656, 28.8526 ], [ -89.8587, 28.8608 ], [ -89.852, 28.8691 ], [ -89.8455, 28.8775 ], [ -89.8391, 28.886 ], [ -89.8329, 28.8946 ], [ -89.8269, 28.9032 ], [ -89.821, 28.912 ], [ -89.8154, 28.9209 ], [ -89.8099, 28.9298 ], [ -89.8045, 28.9389 ], [ -89.7994, 28.948 ], [ -89.7944, 28.9572 ], [ -89.7897, 28.9664 ], [ -89.7851, 28.9758 ], [ -89.7806, 28.9852 ], [ -89.7764, 28.9946 ], [ -89.7724, 29.0042 ], [ -89.7686, 29.0138 ], [ -89.7649, 29.0234 ], [ -89.7615, 29.0331 ], [ -89.7582, 29.0429 ], [ -89.7551, 29.0527 ], [ -89.7522, 29.0625 ], [ -89.7496, 29.0724 ], [ -89.7471, 29.0823 ], [ -89.7448, 29.0923 ], [ -89.7427, 29.1023 ], [ -89.7408, 29.1123 ], [ -89.7392, 29.1224 ], [ -89.7377, 29.1325 ], [ -89.7364, 29.1426 ], [ -89.7353, 29.1527 ], [ -89.7344, 29.1628 ], [ -89.7337, 29.173 ], [ -89.7333, 29.1831 ], [ -89.733, 29.1933 ], [ -89.5424, 29.2038 ], [ -89.5425, 29.2169 ], [ -89.5429, 29.2299 ], [ -89.5436, 29.243 ], [ -89.5445, 29.256 ], [ -89.5457, 29.269 ], [ -89.5472, 29.282 ], [ -89.5489, 29.295 ], [ -89.5509, 29.308 ], [ -89.5531, 29.3209 ], [ -89.5556, 29.3338 ], [ -89.5584, 29.3466 ], [ -89.5614, 29.3594 ], [ -89.5646, 29.3722 ], [ -89.5682, 29.3849 ], [ -89.5719, 29.3975 ], [ -89.576, 29.4101 ], [ -89.5803, 29.4226 ], [ -89.5848, 29.4351 ], [ -89.5896, 29.4475 ], [ -89.5946, 29.4598 ], [ -89.5999, 29.472 ], [ -89.6054, 29.4842 ], [ -89.6112, 29.4962 ], [ -89.6172, 29.5082 ], [ -89.6235, 29.5201 ], [ -89.63, 29.5318 ], [ -89.6367, 29.5435 ], [ -89.6437, 29.5551 ], [ -89.6508, 29.5666 ], [ -89.6583, 29.5779 ], [ -89.6659, 29.5892 ], [ -89.6738, 29.6003 ], [ -89.6819, 29.6113 ], [ -89.6903, 29.6222 ], [ -89.6988, 29.6329 ], [ -89.7076, 29.6435 ], [ -89.7165, 29.654 ], [ -89.7257, 29.6644 ], [ -89.7351, 29.6746 ], [ -89.7447, 29.6846 ], [ -89.7545, 29.6945 ], [ -89.7645, 29.7043 ], [ -89.7747, 29.7139 ], [ -89.7851, 29.7233 ], [ -89.7957, 29.7326 ], [ -89.8065, 29.7418 ], [ -89.8174, 29.7507 ], [ -89.8286, 29.7595 ], [ -89.8399, 29.7681 ], [ -89.8514, 29.7766 ], [ -89.863, 29.7848 ], [ -89.8748, 29.7929 ], [ -89.8868, 29.8008 ], [ -89.899, 29.8086 ], [ -89.9113, 29.8161 ], [ -89.9237, 29.8235 ], [ -89.9363, 29.8306 ], [ -89.9491, 29.8376 ], [ -89.9619, 29.8444 ], [ -89.975, 29.8509 ], [ -89.9881, 29.8573 ], [ -90.0014, 29.8635 ], [ -90.0148, 29.8695 ], [ -90.0283, 29.8752 ], [ -90.0419, 29.8808 ], [ -90.0557, 29.8861 ], [ -90.0695, 29.8913 ], [ -90.0835, 29.8962 ], [ -90.0976, 29.9009 ], [ -90.1117, 29.9054 ], [ -90.126, 29.9097 ], [ -90.1403, 29.9138 ], [ -90.1547, 29.9176 ], [ -90.1692, 29.9212 ], [ -90.1837, 29.9246 ], [ -90.1983, 29.9278 ], [ -90.213, 29.9308 ], [ -90.2278, 29.9335 ], [ -90.2426, 29.936 ], [ -90.2574, 29.9383 ], [ -90.2723, 29.9404 ], [ -90.2872, 29.9422 ], [ -90.3022, 29.9438 ], [ -90.3172, 29.9452 ], [ -90.3322, 29.9463 ], [ -90.3473, 29.9473 ], [ -90.3623, 29.9479 ], [ -90.3774, 29.9484 ], [ -90.3925, 29.9486 ] ] ] } },
{ "type": "Feature", "properties": { "RADII": 34.0, "STORMID": "al092021", "BASIN": "al", "STORMNUM": 9.0, "ADVNUM": "13", "VALIDTIME": "2021083006", "SYNOPTIME": "2021082906", "TIMEZONE": "UTC", "TAU": 24.0, "NE": 100.0, "SE": 120.0, "SW": 80.0, "NW": 70.0 }, "geometry": { "type": "Polygon", "coordinates": [ [ [ -91.0828, 32.2636 ], [ -91.112, 31.7645 ], [ -91.1359, 31.7642 ], [ -91.1598, 31.7635 ], [ -91.1836, 31.7624 ], [ -91.2075, 31.761 ], [ -91.2313, 31.7592 ], [ -91.2551, 31.757 ], [ -91.2788, 31.7545 ], [ -91.3024, 31.7516 ], [ -91.326, 31.7484 ], [ -91.3496, 31.7448 ], [ -91.373, 31.7409 ], [ -91.3964, 31.7366 ], [ -91.4196, 31.732 ], [ -91.4428, 31.727 ], [ -91.4659, 31.7217 ], [ -91.4888, 31.716 ], [ -91.5116, 31.71 ], [ -91.5343, 31.7037 ], [ -91.5569, 31.697 ], [ -91.5793, 31.69 ], [ -91.6016, 31.6826 ], [ -91.6237, 31.6749 ], [ -91.6456, 31.6669 ], [ -91.6674, 31.6585 ], [ -91.6889, 31.6498 ], [ -91.7103, 31.6408 ], [ -91.7316, 31.6315 ], [ -91.7526, 31.6218 ], [ -91.7734, 31.6119 ], [ -91.794, 31.6016 ], [ -91.8143, 31.591 ], [ -91.8345, 31.5801 ], [ -91.8544, 31.569 ], [ -91.8741, 31.5575 ], [ -91.8935, 31.5457 ], [ -91.9127, 31.5336 ], [ -91.9316, 31.5213 ], [ -91.9503, 31.5086 ], [ -91.9687, 31.4957 ], [ -91.9869, 31.4825 ], [ -92.0047, 31.4691 ], [ -92.0223, 31.4554 ], [ -92.0396, 31.4414 ], [ -92.0566, 31.4271 ], [ -92.0733, 31.4126 ], [ -92.0897, 31.3979 ], [ -92.1058, 31.3829 ], [ -92.1215, 31.3677 ], [ -92.137, 31.3522 ], [ -92.1521, 31.3365 ], [ -92.1669, 31.3206 ], [ -92.1813, 31.3045 ], [ -92.1955, 31.2881 ], [ -92.2093, 31.2716 ], [ -92.2227, 31.2548 ], [ -92.2358, 31.2378 ], [ -92.2485, 31.2207 ], [ -92.2609, 31.2033 ], [ -92.2729, 31.1858 ], [ -92.2846, 31.1681 ], [ -92.2959, 31.1502 ], [ -92.3068, 31.1322 ], [ -92.3174, 31.114 ], [ -92.3275, 31.0956 ], [ -92.3373, 31.0771 ], [ -92.3467, 31.0584 ], [ -92.3558, 31.0396 ], [ -92.3644, 31.0207 ], [ -92.3726, 31.0016 ], [ -92.3805, 30.9825 ], [ -92.388, 30.9632 ], [ -92.395, 30.9438 ], [ -92.4017, 30.9243 ], [ -92.408, 30.9047 ], [ -92.4138, 30.885 ], [ -92.4193, 30.8652 ], [ -92.4243, 30.8454 ], [ -92.429, 30.8254 ], [ -92.4332, 30.8054 ], [ -92.437, 30.7854 ], [ -92.4405, 30.7653 ], [ -92.4435, 30.7451 ], [ -92.4461, 30.7249 ], [ -92.4483, 30.7047 ], [ -92.45, 30.6844 ], [ -92.4514, 30.6641 ], [ -92.4524, 30.6438 ], [ -92.4529, 30.6235 ], [ -92.453, 30.6032 ], [ -92.646, 30.5792 ], [ -92.6451, 30.556 ], [ -92.6438, 30.5328 ], [ -92.642, 30.5097 ], [ -92.6398, 30.4865 ], [ -92.637, 30.4634 ], [ -92.6339, 30.4403 ], [ -92.6302, 30.4173 ], [ -92.6261, 30.3944 ], [ -92.6215, 30.3715 ], [ -92.6165, 30.3487 ], [ -92.611, 30.3259 ], [ -92.6051, 30.3033 ], [ -92.5987, 30.2807 ], [ -92.5918, 30.2582 ], [ -92.5845, 30.2359 ], [ -92.5768, 30.2136 ], [ -92.5686, 30.1915 ], [ -92.56, 30.1695 ], [ -92.5509, 30.1477 ], [ -92.5414, 30.1259 ], [ -92.5314, 30.1044 ], [ -92.5211, 30.0829 ], [ -92.5103, 30.0617 ], [ -92.4991, 30.0406 ], [ -92.4874, 30.0196 ], [ -92.4754, 29.9989 ], [ -92.4629, 29.9783 ], [ -92.45, 29.958 ], [ -92.4368, 29.9378 ], [ -92.4231, 29.9178 ], [ -92.409, 29.898 ], [ -92.3946, 29.8785 ], [ -92.3797, 29.8591 ], [ -92.3645, 29.84 ], [ -92.3489, 29.8211 ], [ -92.3329, 29.8025 ], [ -92.3166, 29.7841 ], [ -92.2999, 29.766 ], [ -92.2829, 29.7481 ], [ -92.2654, 29.7304 ], [ -92.2477, 29.713 ], [ -92.2296, 29.6959 ], [ -92.2112, 29.6791 ], [ -92.1924, 29.6626 ], [ -92.1734, 29.6463 ], [ -92.154, 29.6303 ], [ -92.1343, 29.6146 ], [ -92.1142, 29.5992 ], [ -92.0939, 29.5842 ], [ -92.0733, 29.5694 ], [ -92.0524, 29.5549 ], [ -92.0313, 29.5408 ], [ -92.0098, 29.5269 ], [ -91.9881, 29.5134 ], [ -91.9661, 29.5003 ], [ -91.9439, 29.4874 ], [ -91.9214, 29.4749 ], [ -91.8987, 29.4627 ], [ -91.8757, 29.4509 ], [ -91.8525, 29.4394 ], [ -91.8291, 29.4283 ], [ -91.8055, 29.4175 ], [ -91.7817, 29.4071 ], [ -91.7576, 29.397 ], [ -91.7334, 29.3874 ], [ -91.709, 29.378 ], [ -91.6844, 29.3691 ], [ -91.6596, 29.3605 ], [ -91.6347, 29.3522 ], [ -91.6096, 29.3444 ], [ -91.5844, 29.3369 ], [ -91.559, 29.3298 ], [ -91.5335, 29.3231 ], [ -91.5079, 29.3168 ], [ -91.4821, 29.3109 ], [ -91.4563, 29.3053 ], [ -91.4303, 29.3002 ], [ -91.4042, 29.2954 ], [ -91.3781, 29.291 ], [ -91.3518, 29.2871 ], [ -91.3255, 29.2835 ], [ -91.2991, 29.2803 ], [ -91.2727, 29.2775 ], [ -91.2462, 29.2751 ], [ -91.2197, 29.2731 ], [ -91.1931, 29.2715 ], [ -91.1665, 29.2703 ], [ -91.1399, 29.2695 ], [ -91.1133, 29.2691 ], [ -91.0802, 28.6036 ], [ -91.0405, 28.6042 ], [ -91.0008, 28.6054 ], [ -90.9612, 28.6072 ], [ -90.9216, 28.6096 ], [ -90.8821, 28.6126 ], [ -90.8426, 28.6162 ], [ -90.8032, 28.6203 ], [ -90.7639, 28.6251 ], [ -90.7247, 28.6304 ], [ -90.6856, 28.6363 ], [ -90.6466, 28.6429 ], [ -90.6077, 28.65 ], [ -90.569, 28.6577 ], [ -90.5304, 28.6659 ], [ -90.492, 28.6748 ], [ -90.4538, 28.6842 ], [ -90.4157, 28.6942 ], [ -90.3779, 28.7047 ], [ -90.3403, 28.7159 ], [ -90.3028, 28.7276 ], [ -90.2656, 28.7398 ], [ -90.2287, 28.7526 ], [ -90.192, 28.766 ], [ -90.1556, 28.7799 ], [ -90.1194, 28.7944 ], [ -90.0835, 28.8094 ], [ -90.0479, 28.8249 ], [ -90.0126, 28.841 ], [ -89.9777, 28.8576 ], [ -89.943, 28.8747 ], [ -89.9087, 28.8923 ], [ -89.8748, 28.9105 ], [ -89.8411, 28.9291 ], [ -89.8079, 28.9483 ], [ -89.775, 28.968 ], [ -89.7425, 28.9881 ], [ -89.7105, 29.0087 ], [ -89.6788, 29.0299 ], [ -89.6475, 29.0514 ], [ -89.6166, 29.0735 ], [ -89.5862, 29.096 ], [ -89.5562, 29.119 ], [ -89.5267, 29.1424 ], [ -89.4976, 29.1662 ], [ -89.469, 29.1905 ], [ -89.4409, 29.2152 ], [ -89.4132, 29.2404 ], [ -89.3861, 29.2659 ], [ -89.3594, 29.2918 ], [ -89.3333, 29.3182 ], [ -89.3077, 29.3449 ], [ -89.2826, 29.372 ], [ -89.258, 29.3995 ], [ -89.234, 29.4274 ], [ -89.2105, 29.4556 ], [ -89.1876, 29.4841 ], [ -89.1652, 29.513 ], [ -89.1434, 29.5422 ], [ -89.1222, 29.5718 ], [ -89.1016, 29.6016 ], [ -89.0815, 29.6318 ], [ -89.0621, 29.6623 ], [ -89.0432, 29.693 ], [ -89.025, 29.7241 ], [ -89.0074, 29.7554 ], [ -88.9904, 29.7869 ], [ -88.974, 29.8187 ], [ -88.9583, 29.8508 ], [ -88.9432, 29.883 ], [ -88.9287, 29.9156 ], [ -88.9149, 29.9483 ], [ -88.9017, 29.9812 ], [ -88.8892, 30.0143 ], [ -88.8774, 30.0476 ], [ -88.8662, 30.0811 ], [ -88.8557, 30.1147 ], [ -88.8459, 30.1485 ], [ -88.8367, 30.1824 ], [ -88.8282, 30.2164 ], [ -88.8204, 30.2506 ], [ -88.8133, 30.2849 ], [ -88.8069, 30.3193 ], [ -88.8011, 30.3538 ], [ -88.7961, 30.3884 ], [ -88.7918, 30.423 ], [ -88.7881, 30.4577 ], [ -88.7852, 30.4924 ], [ -88.783, 30.5272 ], [ -88.7814, 30.562 ], [ -89.1671, 30.6002 ], [ -89.1671, 30.6293 ], [ -89.1677, 30.6583 ], [ -89.1689, 30.6873 ], [ -89.1707, 30.7163 ], [ -89.1731, 30.7453 ], [ -89.176, 30.7742 ], [ -89.1796, 30.8031 ], [ -89.1837, 30.8319 ], [ -89.1884, 30.8606 ], [ -89.1937, 30.8893 ], [ -89.1996, 30.9179 ], [ -89.2061, 30.9464 ], [ -89.2131, 30.9748 ], [ -89.2208, 31.0031 ], [ -89.229, 31.0312 ], [ -89.2378, 31.0593 ], [ -89.2472, 31.0872 ], [ -89.2571, 31.1149 ], [ -89.2676, 31.1425 ], [ -89.2787, 31.17 ], [ -89.2903, 31.1972 ], [ -89.3026, 31.2243 ], [ -89.3153, 31.2512 ], [ -89.3286, 31.2779 ], [ -89.3425, 31.3044 ], [ -89.3569, 31.3307 ], [ -89.3719, 31.3568 ], [ -89.3874, 31.3826 ], [ -89.4034, 31.4082 ], [ -89.42, 31.4336 ], [ -89.437, 31.4587 ], [ -89.4547, 31.4836 ], [ -89.4728, 31.5081 ], [ -89.4914, 31.5324 ], [ -89.5105, 31.5565 ], [ -89.5302, 31.5802 ], [ -89.5503, 31.6036 ], [ -89.5709, 31.6267 ], [ -89.592, 31.6496 ], [ -89.6136, 31.672 ], [ -89.6356, 31.6942 ], [ -89.6581, 31.716 ], [ -89.6811, 31.7375 ], [ -89.7045, 31.7587 ], [ -89.7283, 31.7794 ], [ -89.7526, 31.7999 ], [ -89.7773, 31.8199 ], [ -89.8024, 31.8396 ], [ -89.828, 31.8589 ], [ -89.8539, 31.8778 ], [ -89.8802, 31.8963 ], [ -89.9069, 31.9145 ], [ -89.934, 31.9322 ], [ -89.9615, 31.9495 ], [ -89.9893, 31.9664 ], [ -90.0175, 31.9829 ], [ -90.046, 31.9989 ], [ -90.0749, 32.0145 ], [ -90.1041, 32.0297 ], [ -90.1336, 32.0444 ], [ -90.1634, 32.0587 ], [ -90.1935, 32.0726 ], [ -90.2239, 32.086 ], [ -90.2546, 32.0989 ], [ -90.2856, 32.1114 ], [ -90.3168, 32.1234 ], [ -90.3482, 32.1349 ], [ -90.3799, 32.146 ], [ -90.4119, 32.1565 ], [ -90.444, 32.1666 ], [ -90.4764, 32.1762 ], [ -90.509, 32.1854 ], [ -90.5417, 32.194 ], [ -90.5746, 32.2021 ], [ -90.6077, 32.2098 ], [ -90.641, 32.2169 ], [ -90.6744, 32.2236 ], [ -90.7079, 32.2297 ], [ -90.7416, 32.2353 ], [ -90.7754, 32.2405 ], [ -90.8093, 32.2451 ], [ -90.8433, 32.2492 ], [ -90.8773, 32.2528 ], [ -90.9115, 32.2559 ], [ -90.9457, 32.2585 ], [ -90.9799, 32.2605 ], [ -91.0142, 32.2621 ], [ -91.0485, 32.2631 ], [ -91.0828, 32.2636 ] ] ] } },
{ "type": "Feature", "properties": { "RADII": 50.0, "STORMID": "al092021", "BASIN": "al", "STORMNUM": 9.0, "ADVNUM": "13", "VALIDTIME": "2021083006", "SYNOPTIME": "2021082906", "TIMEZONE": "UTC", "TAU": 24.0, "NE": 50.0, "SE": 50.0, "SW": 30.0, "NW": 30.0 }, "geometry": { "type": "Polygon", "coordinates": [ [ [ -91.0915, 31.4318 ], [ -91.1051, 31.0991 ], [ -91.1153, 31.0989 ], [ -91.1254, 31.0986 ], [ -91.1356, 31.0982 ], [ -91.1457, 31.0976 ], [ -91.1559, 31.0968 ], [ -91.166, 31.0959 ], [ -91.1761, 31.0948 ], [ -91.1861, 31.0936 ], [ -91.1962, 31.0922 ], [ -91.2062, 31.0907 ], [ -91.2162, 31.089 ], [ -91.2262, 31.0872 ], [ -91.2361, 31.0852 ], [ -91.2459, 31.0831 ], [ -91.2557, 31.0809 ], [ -91.2655, 31.0785 ], [ -91.2752, 31.0759 ], [ -91.2849, 31.0732 ], [ -91.2945, 31.0703 ], [ -91.3041, 31.0673 ], [ -91.3136, 31.0642 ], [ -91.323, 31.0609 ], [ -91.3323, 31.0575 ], [ -91.3416, 31.0539 ], [ -91.3508, 31.0502 ], [ -91.3599, 31.0464 ], [ -91.369, 31.0424 ], [ -91.378, 31.0383 ], [ -91.3868, 31.0341 ], [ -91.3956, 31.0297 ], [ -91.4043, 31.0252 ], [ -91.4129, 31.0206 ], [ -91.4214, 31.0158 ], [ -91.4298, 31.0109 ], [ -91.4382, 31.0059 ], [ -91.4464, 31.0008 ], [ -91.4545, 30.9955 ], [ -91.4624, 30.9901 ], [ -91.4703, 30.9846 ], [ -91.4781, 30.979 ], [ -91.4857, 30.9732 ], [ -91.4932, 30.9674 ], [ -91.5007, 30.9614 ], [ -91.5079, 30.9554 ], [ -91.5151, 30.9492 ], [ -91.5221, 30.9429 ], [ -91.529, 30.9365 ], [ -91.5358, 30.93 ], [ -91.5424, 30.9234 ], [ -91.5489, 30.9167 ], [ -91.5553, 30.9099 ], [ -91.5615, 30.903 ], [ -91.5676, 30.896 ], [ -91.5735, 30.889 ], [ -91.5793, 30.8818 ], [ -91.5849, 30.8746 ], [ -91.5904, 30.8672 ], [ -91.5957, 30.8598 ], [ -91.6009, 30.8524 ], [ -91.606, 30.8448 ], [ -91.6108, 30.8372 ], [ -91.6156, 30.8295 ], [ -91.6201, 30.8217 ], [ -91.6245, 30.8138 ], [ -91.6288, 30.8059 ], [ -91.6329, 30.7979 ], [ -91.6368, 30.7899 ], [ -91.6405, 30.7818 ], [ -91.6441, 30.7737 ], [ -91.6475, 30.7655 ], [ -91.6508, 30.7572 ], [ -91.6539, 30.7489 ], [ -91.6568, 30.7406 ], [ -91.6595, 30.7322 ], [ -91.6621, 30.7238 ], [ -91.6645, 30.7153 ], [ -91.6667, 30.7068 ], [ -91.6688, 30.6983 ], [ -91.6707, 30.6897 ], [ -91.6724, 30.6811 ], [ -91.6739, 30.6725 ], [ -91.6753, 30.6639 ], [ -91.6765, 30.6552 ], [ -91.6775, 30.6466 ], [ -91.6783, 30.6379 ], [ -91.679, 30.6292 ], [ -91.6794, 30.6205 ], [ -91.6797, 30.6118 ], [ -91.6799, 30.6031 ], [ -91.6798, 30.5944 ], [ -91.6796, 30.5857 ], [ -91.6792, 30.577 ], [ -91.6786, 30.5682 ], [ -91.6778, 30.5596 ], [ -91.6769, 30.5509 ], [ -91.6758, 30.5422 ], [ -91.6745, 30.5336 ], [ -91.673, 30.525 ], [ -91.6714, 30.5164 ], [ -91.6696, 30.5078 ], [ -91.6676, 30.4993 ], [ -91.6655, 30.4908 ], [ -91.6632, 30.4823 ], [ -91.6607, 30.4738 ], [ -91.658, 30.4654 ], [ -91.6552, 30.4571 ], [ -91.6522, 30.4488 ], [ -91.649, 30.4405 ], [ -91.6457, 30.4323 ], [ -91.6422, 30.4241 ], [ -91.6385, 30.416 ], [ -91.6347, 30.4079 ], [ -91.6307, 30.3999 ], [ -91.6265, 30.392 ], [ -91.6222, 30.3841 ], [ -91.6177, 30.3763 ], [ -91.6131, 30.3685 ], [ -91.6083, 30.3609 ], [ -91.6034, 30.3533 ], [ -91.5983, 30.3457 ], [ -91.5931, 30.3383 ], [ -91.5877, 30.3309 ], [ -91.5822, 30.3236 ], [ -91.5765, 30.3164 ], [ -91.5707, 30.3093 ], [ -91.5647, 30.3023 ], [ -91.5586, 30.2954 ], [ -91.5524, 30.2885 ], [ -91.546, 30.2818 ], [ -91.5395, 30.2751 ], [ -91.5328, 30.2686 ], [ -91.526, 30.2621 ], [ -91.5191, 30.2558 ], [ -91.5121, 30.2495 ], [ -91.5049, 30.2434 ], [ -91.4977, 30.2374 ], [ -91.4903, 30.2314 ], [ -91.4827, 30.2256 ], [ -91.4751, 30.2199 ], [ -91.4674, 30.2144 ], [ -91.4595, 30.2089 ], [ -91.4516, 30.2036 ], [ -91.4435, 30.1983 ], [ -91.4353, 30.1932 ], [ -91.4271, 30.1883 ], [ -91.4187, 30.1834 ], [ -91.4102, 30.1787 ], [ -91.4017, 30.1741 ], [ -91.393, 30.1696 ], [ -91.3843, 30.1653 ], [ -91.3754, 30.1611 ], [ -91.3665, 30.157 ], [ -91.3576, 30.1531 ], [ -91.3485, 30.1493 ], [ -91.3393, 30.1456 ], [ -91.3301, 30.1421 ], [ -91.3209, 30.1387 ], [ -91.3115, 30.1355 ], [ -91.3021, 30.1323 ], [ -91.2926, 30.1294 ], [ -91.2831, 30.1266 ], [ -91.2735, 30.1239 ], [ -91.2639, 30.1213 ], [ -91.2542, 30.119 ], [ -91.2445, 30.1167 ], [ -91.2347, 30.1146 ], [ -91.2249, 30.1127 ], [ -91.215, 30.1109 ], [ -91.2051, 30.1092 ], [ -91.1952, 30.1077 ], [ -91.1853, 30.1063 ], [ -91.1753, 30.1051 ], [ -91.1653, 30.1041 ], [ -91.1553, 30.1032 ], [ -91.1453, 30.1024 ], [ -91.1352, 30.1018 ], [ -91.1252, 30.1014 ], [ -91.1151, 30.1011 ], [ -91.105, 30.1009 ], [ -91.0916, 29.7682 ], [ -91.0749, 29.7684 ], [ -91.0582, 29.7689 ], [ -91.0415, 29.7697 ], [ -91.0248, 29.7707 ], [ -91.0081, 29.772 ], [ -90.9915, 29.7735 ], [ -90.9749, 29.7752 ], [ -90.9583, 29.7772 ], [ -90.9418, 29.7795 ], [ -90.9253, 29.782 ], [ -90.9089, 29.7847 ], [ -90.8926, 29.7877 ], [ -90.8762, 29.7909 ], [ -90.86, 29.7944 ], [ -90.8438, 29.7982 ], [ -90.8277, 29.8021 ], [ -90.8117, 29.8063 ], [ -90.7958, 29.8108 ], [ -90.78, 29.8155 ], [ -90.7642, 29.8204 ], [ -90.7486, 29.8256 ], [ -90.7331, 29.831 ], [ -90.7176, 29.8366 ], [ -90.7023, 29.8424 ], [ -90.6871, 29.8485 ], [ -90.6721, 29.8549 ], [ -90.6571, 29.8614 ], [ -90.6423, 29.8682 ], [ -90.6276, 29.8751 ], [ -90.6131, 29.8824 ], [ -90.5987, 29.8898 ], [ -90.5844, 29.8974 ], [ -90.5704, 29.9053 ], [ -90.5564, 29.9133 ], [ -90.5427, 29.9216 ], [ -90.5291, 29.9301 ], [ -90.5156, 29.9388 ], [ -90.5024, 29.9476 ], [ -90.4893, 29.9567 ], [ -90.4764, 29.966 ], [ -90.4637, 29.9754 ], [ -90.4512, 29.9851 ], [ -90.4389, 29.9949 ], [ -90.4267, 30.005 ], [ -90.4148, 30.0152 ], [ -90.4031, 30.0255 ], [ -90.3916, 30.0361 ], [ -90.3803, 30.0468 ], [ -90.3692, 30.0577 ], [ -90.3583, 30.0688 ], [ -90.3477, 30.08 ], [ -90.3373, 30.0914 ], [ -90.3271, 30.1029 ], [ -90.3171, 30.1146 ], [ -90.3074, 30.1264 ], [ -90.2979, 30.1384 ], [ -90.2887, 30.1505 ], [ -90.2797, 30.1628 ], [ -90.2709, 30.1752 ], [ -90.2624, 30.1877 ], [ -90.2542, 30.2003 ], [ -90.2462, 30.2131 ], [ -90.2384, 30.226 ], [ -90.2309, 30.239 ], [ -90.2237, 30.2521 ], [ -90.2168, 30.2653 ], [ -90.2101, 30.2786 ], [ -90.2037, 30.2921 ], [ -90.1975, 30.3056 ], [ -90.1916, 30.3192 ], [ -90.186, 30.3329 ], [ -90.1807, 30.3466 ], [ -90.1756, 30.3605 ], [ -90.1709, 30.3744 ], [ -90.1664, 30.3884 ], [ -90.1622, 30.4024 ], [ -90.1582, 30.4166 ], [ -90.1546, 30.4307 ], [ -90.1513, 30.445 ], [ -90.1482, 30.4592 ], [ -90.1454, 30.4736 ], [ -90.1429, 30.4879 ], [ -90.1407, 30.5023 ], [ -90.1388, 30.5167 ], [ -90.1372, 30.5312 ], [ -90.1359, 30.5457 ], [ -90.1349, 30.5602 ], [ -90.1341, 30.5747 ], [ -90.1337, 30.5892 ], [ -90.1336, 30.6037 ], [ -90.1337, 30.6182 ], [ -90.1342, 30.6327 ], [ -90.1349, 30.6472 ], [ -90.1359, 30.6617 ], [ -90.1373, 30.6762 ], [ -90.1389, 30.6906 ], [ -90.1408, 30.7051 ], [ -90.143, 30.7195 ], [ -90.1455, 30.7338 ], [ -90.1483, 30.7481 ], [ -90.1514, 30.7624 ], [ -90.1547, 30.7766 ], [ -90.1584, 30.7908 ], [ -90.1624, 30.8049 ], [ -90.1666, 30.819 ], [ -90.1711, 30.833 ], [ -90.1759, 30.8469 ], [ -90.181, 30.8607 ], [ -90.1864, 30.8745 ], [ -90.1921, 30.8882 ], [ -90.198, 30.9018 ], [ -90.2042, 30.9153 ], [ -90.2107, 30.9287 ], [ -90.2175, 30.942 ], [ -90.2245, 30.9552 ], [ -90.2318, 30.9683 ], [ -90.2394, 30.9813 ], [ -90.2472, 30.9941 ], [ -90.2553, 31.0069 ], [ -90.2637, 31.0195 ], [ -90.2723, 31.032 ], [ -90.2811, 31.0444 ], [ -90.2903, 31.0566 ], [ -90.2996, 31.0687 ], [ -90.3093, 31.0807 ], [ -90.3191, 31.0925 ], [ -90.3292, 31.1041 ], [ -90.3396, 31.1156 ], [ -90.3502, 31.127 ], [ -90.361, 31.1382 ], [ -90.372, 31.1492 ], [ -90.3833, 31.16 ], [ -90.3948, 31.1707 ], [ -90.4065, 31.1812 ], [ -90.4184, 31.1915 ], [ -90.4306, 31.2017 ], [ -90.4429, 31.2117 ], [ -90.4555, 31.2214 ], [ -90.4682, 31.231 ], [ -90.4812, 31.2404 ], [ -90.4943, 31.2496 ], [ -90.5076, 31.2586 ], [ -90.5211, 31.2674 ], [ -90.5348, 31.276 ], [ -90.5487, 31.2844 ], [ -90.5627, 31.2926 ], [ -90.5769, 31.3005 ], [ -90.5913, 31.3083 ], [ -90.6058, 31.3158 ], [ -90.6205, 31.3231 ], [ -90.6353, 31.3302 ], [ -90.6503, 31.3371 ], [ -90.6654, 31.3437 ], [ -90.6807, 31.3501 ], [ -90.6961, 31.3563 ], [ -90.7116, 31.3623 ], [ -90.7272, 31.368 ], [ -90.7429, 31.3735 ], [ -90.7588, 31.3787 ], [ -90.7747, 31.3837 ], [ -90.7908, 31.3885 ], [ -90.807, 31.393 ], [ -90.8232, 31.3973 ], [ -90.8396, 31.4013 ], [ -90.856, 31.4051 ], [ -90.8725, 31.4087 ], [ -90.889, 31.412 ], [ -90.9057, 31.415 ], [ -90.9224, 31.4178 ], [ -90.9391, 31.4203 ], [ -90.9559, 31.4226 ], [ -90.9728, 31.4247 ], [ -90.9897, 31.4265 ], [ -91.0066, 31.428 ], [ -91.0235, 31.4293 ], [ -91.0405, 31.4303 ], [ -91.0575, 31.431 ], [ -91.0745, 31.4316 ], [ -91.0915, 31.4318 ] ] ] } },
{ "type": "Feature", "properties": { "RADII": 64.0, "STORMID": "al092021", "BASIN": "al", "STORMNUM": 9.0, "ADVNUM": "13", "VALIDTIME": "2021083006", "SYNOPTIME": "2021082906", "TIMEZONE": "UTC", "TAU": 24.0, "NE": 25.0, "SE": 25.0, "SW": 15.0, "NW": 15.0 }, "geometry": { "type": "Polygon", "coordinates": [ [ [ -91.0958, 31.0159 ], [ -91.1025, 30.8495 ], [ -91.1076, 30.8495 ], [ -91.1127, 30.8493 ], [ -91.1177, 30.8491 ], [ -91.1228, 30.8488 ], [ -91.1279, 30.8484 ], [ -91.1329, 30.8479 ], [ -91.1379, 30.8474 ], [ -91.143, 30.8468 ], [ -91.148, 30.8461 ], [ -91.153, 30.8454 ], [ -91.158, 30.8445 ], [ -91.1629, 30.8436 ], [ -91.1679, 30.8426 ], [ -91.1728, 30.8416 ], [ -91.1777, 30.8405 ], [ -91.1826, 30.8393 ], [ -91.1874, 30.838 ], [ -91.1922, 30.8366 ], [ -91.197, 30.8352 ], [ -91.2018, 30.8337 ], [ -91.2065, 30.8321 ], [ -91.2112, 30.8305 ], [ -91.2159, 30.8288 ], [ -91.2205, 30.827 ], [ -91.2251, 30.8252 ], [ -91.2297, 30.8233 ], [ -91.2342, 30.8213 ], [ -91.2387, 30.8192 ], [ -91.2431, 30.8171 ], [ -91.2475, 30.8149 ], [ -91.2518, 30.8127 ], [ -91.2561, 30.8104 ], [ -91.2604, 30.808 ], [ -91.2646, 30.8056 ], [ -91.2687, 30.8031 ], [ -91.2728, 30.8005 ], [ -91.2769, 30.7979 ], [ -91.2809, 30.7952 ], [ -91.2848, 30.7924 ], [ -91.2887, 30.7896 ], [ -91.2925, 30.7868 ], [ -91.2962, 30.7838 ], [ -91.2999, 30.7809 ], [ -91.3036, 30.7778 ], [ -91.3072, 30.7747 ], [ -91.3107, 30.7716 ], [ -91.3141, 30.7684 ], [ -91.3175, 30.7652 ], [ -91.3208, 30.7619 ], [ -91.3241, 30.7585 ], [ -91.3273, 30.7552 ], [ -91.3304, 30.7517 ], [ -91.3334, 30.7482 ], [ -91.3364, 30.7447 ], [ -91.3393, 30.7411 ], [ -91.3421, 30.7375 ], [ -91.3449, 30.7339 ], [ -91.3475, 30.7302 ], [ -91.3501, 30.7264 ], [ -91.3527, 30.7226 ], [ -91.3551, 30.7188 ], [ -91.3575, 30.715 ], [ -91.3598, 30.7111 ], [ -91.362, 30.7072 ], [ -91.3641, 30.7032 ], [ -91.3662, 30.6992 ], [ -91.3681, 30.6952 ], [ -91.37, 30.6912 ], [ -91.3718, 30.6871 ], [ -91.3735, 30.683 ], [ -91.3752, 30.6789 ], [ -91.3767, 30.6747 ], [ -91.3782, 30.6706 ], [ -91.3796, 30.6664 ], [ -91.3809, 30.6622 ], [ -91.3821, 30.658 ], [ -91.3832, 30.6537 ], [ -91.3843, 30.6494 ], [ -91.3852, 30.6452 ], [ -91.3861, 30.6409 ], [ -91.3869, 30.6366 ], [ -91.3876, 30.6323 ], [ -91.3881, 30.6279 ], [ -91.3887, 30.6236 ], [ -91.3891, 30.6193 ], [ -91.3894, 30.6149 ], [ -91.3897, 30.6106 ], [ -91.3898, 30.6062 ], [ -91.3899, 30.6019 ], [ -91.3899, 30.5975 ], [ -91.3898, 30.5931 ], [ -91.3896, 30.5888 ], [ -91.3893, 30.5844 ], [ -91.389, 30.5801 ], [ -91.3885, 30.5758 ], [ -91.388, 30.5714 ], [ -91.3874, 30.5671 ], [ -91.3866, 30.5628 ], [ -91.3858, 30.5585 ], [ -91.3849, 30.5542 ], [ -91.384, 30.5499 ], [ -91.3829, 30.5457 ], [ -91.3818, 30.5414 ], [ -91.3805, 30.5372 ], [ -91.3792, 30.533 ], [ -91.3778, 30.5288 ], [ -91.3763, 30.5247 ], [ -91.3747, 30.5205 ], [ -91.3731, 30.5164 ], [ -91.3713, 30.5123 ], [ -91.3695, 30.5083 ], [ -91.3676, 30.5042 ], [ -91.3656, 30.5002 ], [ -91.3635, 30.4962 ], [ -91.3614, 30.4923 ], [ -91.3592, 30.4884 ], [ -91.3569, 30.4845 ], [ -91.3545, 30.4807 ], [ -91.352, 30.4769 ], [ -91.3495, 30.4731 ], [ -91.3469, 30.4694 ], [ -91.3442, 30.4657 ], [ -91.3414, 30.462 ], [ -91.3386, 30.4584 ], [ -91.3357, 30.4549 ], [ -91.3327, 30.4514 ], [ -91.3297, 30.4479 ], [ -91.3265, 30.4445 ], [ -91.3233, 30.4411 ], [ -91.3201, 30.4377 ], [ -91.3168, 30.4345 ], [ -91.3134, 30.4312 ], [ -91.3099, 30.4281 ], [ -91.3064, 30.4249 ], [ -91.3028, 30.4219 ], [ -91.2992, 30.4188 ], [ -91.2955, 30.4159 ], [ -91.2917, 30.413 ], [ -91.2879, 30.4101 ], [ -91.2841, 30.4073 ], [ -91.2801, 30.4046 ], [ -91.2761, 30.4019 ], [ -91.2721, 30.3993 ], [ -91.268, 30.3967 ], [ -91.2639, 30.3942 ], [ -91.2597, 30.3918 ], [ -91.2554, 30.3894 ], [ -91.2512, 30.3871 ], [ -91.2468, 30.3849 ], [ -91.2425, 30.3827 ], [ -91.238, 30.3806 ], [ -91.2336, 30.3786 ], [ -91.2291, 30.3766 ], [ -91.2245, 30.3747 ], [ -91.22, 30.3729 ], [ -91.2153, 30.3711 ], [ -91.2107, 30.3694 ], [ -91.206, 30.3678 ], [ -91.2013, 30.3662 ], [ -91.1965, 30.3647 ], [ -91.1918, 30.3633 ], [ -91.187, 30.362 ], [ -91.1821, 30.3607 ], [ -91.1773, 30.3595 ], [ -91.1724, 30.3584 ], [ -91.1675, 30.3573 ], [ -91.1626, 30.3563 ], [ -91.1577, 30.3554 ], [ -91.1527, 30.3546 ], [ -91.1477, 30.3539 ], [ -91.1427, 30.3532 ], [ -91.1377, 30.3526 ], [ -91.1327, 30.352 ], [ -91.1277, 30.3516 ], [ -91.1227, 30.3512 ], [ -91.1177, 30.3509 ], [ -91.1126, 30.3507 ], [ -91.1076, 30.3505 ], [ -91.1025, 30.3505 ], [ -91.0958, 30.1841 ], [ -91.0874, 30.1842 ], [ -91.079, 30.1845 ], [ -91.0706, 30.1849 ], [ -91.0623, 30.1854 ], [ -91.0539, 30.186 ], [ -91.0455, 30.1867 ], [ -91.0372, 30.1876 ], [ -91.0289, 30.1886 ], [ -91.0206, 30.1898 ], [ -91.0123, 30.191 ], [ -91.0041, 30.1924 ], [ -90.9958, 30.1939 ], [ -90.9877, 30.1955 ], [ -90.9795, 30.1973 ], [ -90.9714, 30.1991 ], [ -90.9633, 30.2011 ], [ -90.9553, 30.2032 ], [ -90.9473, 30.2055 ], [ -90.9394, 30.2078 ], [ -90.9315, 30.2103 ], [ -90.9236, 30.2129 ], [ -90.9158, 30.2156 ], [ -90.9081, 30.2184 ], [ -90.9004, 30.2214 ], [ -90.8928, 30.2244 ], [ -90.8852, 30.2276 ], [ -90.8777, 30.2309 ], [ -90.8703, 30.2343 ], [ -90.8629, 30.2378 ], [ -90.8557, 30.2414 ], [ -90.8484, 30.2451 ], [ -90.8413, 30.249 ], [ -90.8342, 30.2529 ], [ -90.8273, 30.2569 ], [ -90.8204, 30.2611 ], [ -90.8136, 30.2653 ], [ -90.8068, 30.2697 ], [ -90.8002, 30.2742 ], [ -90.7937, 30.2787 ], [ -90.7872, 30.2834 ], [ -90.7808, 30.2881 ], [ -90.7746, 30.2929 ], [ -90.7684, 30.2979 ], [ -90.7623, 30.3029 ], [ -90.7564, 30.308 ], [ -90.7505, 30.3132 ], [ -90.7448, 30.3185 ], [ -90.7391, 30.3239 ], [ -90.7336, 30.3294 ], [ -90.7282, 30.3349 ], [ -90.7228, 30.3405 ], [ -90.7176, 30.3462 ], [ -90.7126, 30.352 ], [ -90.7076, 30.3579 ], [ -90.7027, 30.3638 ], [ -90.698, 30.3698 ], [ -90.6934, 30.3759 ], [ -90.6889, 30.382 ], [ -90.6846, 30.3882 ], [ -90.6803, 30.3945 ], [ -90.6762, 30.4009 ], [ -90.6722, 30.4073 ], [ -90.6684, 30.4137 ], [ -90.6647, 30.4202 ], [ -90.6611, 30.4268 ], [ -90.6576, 30.4334 ], [ -90.6543, 30.4401 ], [ -90.6511, 30.4468 ], [ -90.6481, 30.4536 ], [ -90.6452, 30.4604 ], [ -90.6424, 30.4672 ], [ -90.6397, 30.4741 ], [ -90.6373, 30.4811 ], [ -90.6349, 30.488 ], [ -90.6327, 30.495 ], [ -90.6306, 30.5021 ], [ -90.6287, 30.5091 ], [ -90.6269, 30.5162 ], [ -90.6253, 30.5233 ], [ -90.6238, 30.5305 ], [ -90.6224, 30.5377 ], [ -90.6212, 30.5448 ], [ -90.6201, 30.552 ], [ -90.6192, 30.5593 ], [ -90.6184, 30.5665 ], [ -90.6178, 30.5737 ], [ -90.6173, 30.581 ], [ -90.617, 30.5882 ], [ -90.6168, 30.5955 ], [ -90.6168, 30.6027 ], [ -90.6169, 30.61 ], [ -90.6172, 30.6173 ], [ -90.6176, 30.6245 ], [ -90.6181, 30.6318 ], [ -90.6188, 30.639 ], [ -90.6197, 30.6462 ], [ -90.6207, 30.6534 ], [ -90.6218, 30.6606 ], [ -90.6231, 30.6678 ], [ -90.6245, 30.6749 ], [ -90.6261, 30.6821 ], [ -90.6278, 30.6892 ], [ -90.6297, 30.6963 ], [ -90.6317, 30.7033 ], [ -90.6338, 30.7103 ], [ -90.6361, 30.7173 ], [ -90.6386, 30.7243 ], [ -90.6411, 30.7312 ], [ -90.6439, 30.738 ], [ -90.6467, 30.7449 ], [ -90.6497, 30.7517 ], [ -90.6528, 30.7584 ], [ -90.6561, 30.7651 ], [ -90.6595, 30.7717 ], [ -90.6631, 30.7783 ], [ -90.6667, 30.7849 ], [ -90.6705, 30.7913 ], [ -90.6745, 30.7978 ], [ -90.6785, 30.8041 ], [ -90.6827, 30.8104 ], [ -90.6871, 30.8167 ], [ -90.6915, 30.8228 ], [ -90.6961, 30.8289 ], [ -90.7008, 30.835 ], [ -90.7056, 30.8409 ], [ -90.7106, 30.8468 ], [ -90.7156, 30.8526 ], [ -90.7208, 30.8584 ], [ -90.7261, 30.864 ], [ -90.7315, 30.8696 ], [ -90.7371, 30.8751 ], [ -90.7427, 30.8805 ], [ -90.7485, 30.8858 ], [ -90.7543, 30.8911 ], [ -90.7603, 30.8962 ], [ -90.7663, 30.9013 ], [ -90.7725, 30.9062 ], [ -90.7788, 30.9111 ], [ -90.7851, 30.9159 ], [ -90.7916, 30.9206 ], [ -90.7982, 30.9252 ], [ -90.8048, 30.9296 ], [ -90.8116, 30.934 ], [ -90.8184, 30.9383 ], [ -90.8253, 30.9425 ], [ -90.8323, 30.9466 ], [ -90.8394, 30.9505 ], [ -90.8466, 30.9544 ], [ -90.8538, 30.9581 ], [ -90.8612, 30.9618 ], [ -90.8686, 30.9653 ], [ -90.876, 30.9687 ], [ -90.8836, 30.972 ], [ -90.8912, 30.9752 ], [ -90.8988, 30.9783 ], [ -90.9066, 30.9813 ], [ -90.9143, 30.9841 ], [ -90.9222, 30.9869 ], [ -90.9301, 30.9895 ], [ -90.938, 30.992 ], [ -90.9461, 30.9943 ], [ -90.9541, 30.9966 ], [ -90.9622, 30.9987 ], [ -90.9703, 31.0007 ], [ -90.9785, 31.0026 ], [ -90.9867, 31.0044 ], [ -90.995, 31.006 ], [ -91.0033, 31.0075 ], [ -91.0116, 31.0089 ], [ -91.0199, 31.0102 ], [ -91.0283, 31.0113 ], [ -91.0367, 31.0124 ], [ -91.0451, 31.0132 ], [ -91.0535, 31.014 ], [ -91.0619, 31.0146 ], [ -91.0704, 31.0151 ], [ -91.0788, 31.0155 ], [ -91.0873, 31.0158 ], [ -91.0958, 31.0159 ] ] ] } },
{ "type": "Feature", "properties": { "RADII": 34.0, "STORMID": "al092021", "BASIN": "al", "STORMNUM": 9.0, "ADVNUM": "13", "VALIDTIME": "2021083018", "SYNOPTIME": "2021082906", "TIMEZONE": "UTC", "TAU": 36.0, "NE": 50.0, "SE": 120.0, "SW": 40.0, "NW": 40.0 }, "geometry": { "type": "Polygon", "coordinates": [ [ [ -90.9913, 33.0318 ], [ -91.0069, 32.8655 ], [ -91.0207, 32.8652 ], [ -91.0346, 32.8648 ], [ -91.0484, 32.8642 ], [ -91.0622, 32.8634 ], [ -91.0759, 32.8624 ], [ -91.0897, 32.8612 ], [ -91.1034, 32.8597 ], [ -91.1171, 32.8581 ], [ -91.1308, 32.8563 ], [ -91.1444, 32.8543 ], [ -91.1579, 32.852 ], [ -91.1715, 32.8496 ], [ -91.1849, 32.847 ], [ -91.1983, 32.8441 ], [ -91.2117, 32.8411 ], [ -91.225, 32.8379 ], [ -91.2382, 32.8345 ], [ -91.2513, 32.8308 ], [ -91.2644, 32.827 ], [ -91.2773, 32.823 ], [ -91.2902, 32.8188 ], [ -91.303, 32.8145 ], [ -91.3157, 32.8099 ], [ -91.3283, 32.8051 ], [ -91.3408, 32.8002 ], [ -91.3532, 32.7951 ], [ -91.3655, 32.7898 ], [ -91.3777, 32.7843 ], [ -91.3898, 32.7786 ], [ -91.4017, 32.7728 ], [ -91.4135, 32.7667 ], [ -91.4252, 32.7606 ], [ -91.4367, 32.7542 ], [ -91.4482, 32.7477 ], [ -91.4594, 32.7409 ], [ -91.4706, 32.7341 ], [ -91.4816, 32.727 ], [ -91.4924, 32.7199 ], [ -91.5031, 32.7125 ], [ -91.5136, 32.705 ], [ -91.524, 32.6973 ], [ -91.5342, 32.6895 ], [ -91.5442, 32.6816 ], [ -91.5541, 32.6734 ], [ -91.5638, 32.6652 ], [ -91.5734, 32.6568 ], [ -91.5827, 32.6483 ], [ -91.5919, 32.6396 ], [ -91.6009, 32.6308 ], [ -91.6097, 32.6218 ], [ -91.6183, 32.6128 ], [ -91.6267, 32.6036 ], [ -91.6349, 32.5943 ], [ -91.643, 32.5848 ], [ -91.6508, 32.5753 ], [ -91.6585, 32.5656 ], [ -91.6659, 32.5558 ], [ -91.6731, 32.5459 ], [ -91.6801, 32.5359 ], [ -91.687, 32.5258 ], [ -91.6936, 32.5156 ], [ -91.6999, 32.5054 ], [ -91.7061, 32.495 ], [ -91.7121, 32.4845 ], [ -91.7178, 32.4739 ], [ -91.7233, 32.4633 ], [ -91.7286, 32.4526 ], [ -91.7337, 32.4418 ], [ -91.7385, 32.4309 ], [ -91.7431, 32.42 ], [ -91.7475, 32.409 ], [ -91.7517, 32.3979 ], [ -91.7556, 32.3868 ], [ -91.7593, 32.3756 ], [ -91.7628, 32.3643 ], [ -91.766, 32.353 ], [ -91.769, 32.3417 ], [ -91.7718, 32.3303 ], [ -91.7743, 32.3189 ], [ -91.7766, 32.3075 ], [ -91.7786, 32.296 ], [ -91.7804, 32.2845 ], [ -91.782, 32.2729 ], [ -91.7833, 32.2614 ], [ -91.7844, 32.2498 ], [ -91.7853, 32.2382 ], [ -91.7859, 32.2266 ], [ -91.7863, 32.215 ], [ -91.7864, 32.2034 ], [ -91.7863, 32.1918 ], [ -91.786, 32.1801 ], [ -91.7854, 32.1685 ], [ -91.7846, 32.157 ], [ -91.7835, 32.1454 ], [ -91.7823, 32.1338 ], [ -91.7807, 32.1223 ], [ -91.779, 32.1107 ], [ -91.7769, 32.0993 ], [ -91.7747, 32.0878 ], [ -91.7722, 32.0764 ], [ -91.7695, 32.065 ], [ -91.7666, 32.0537 ], [ -91.7634, 32.0424 ], [ -91.76, 32.0311 ], [ -91.7563, 32.0199 ], [ -91.7525, 32.0088 ], [ -91.7484, 31.9977 ], [ -91.7441, 31.9867 ], [ -91.7395, 31.9757 ], [ -91.7347, 31.9648 ], [ -91.7298, 31.954 ], [ -91.7245, 31.9433 ], [ -91.7191, 31.9326 ], [ -91.7135, 31.922 ], [ -91.7076, 31.9115 ], [ -91.7015, 31.9011 ], [ -91.6952, 31.8908 ], [ -91.6887, 31.8806 ], [ -91.682, 31.8705 ], [ -91.6751, 31.8605 ], [ -91.668, 31.8505 ], [ -91.6607, 31.8407 ], [ -91.6532, 31.831 ], [ -91.6454, 31.8214 ], [ -91.6375, 31.812 ], [ -91.6294, 31.8026 ], [ -91.6212, 31.7934 ], [ -91.6127, 31.7843 ], [ -91.604, 31.7753 ], [ -91.5952, 31.7664 ], [ -91.5862, 31.7577 ], [ -91.577, 31.7491 ], [ -91.5676, 31.7406 ], [ -91.5581, 31.7323 ], [ -91.5484, 31.7242 ], [ -91.5385, 31.7161 ], [ -91.5285, 31.7083 ], [ -91.5183, 31.7005 ], [ -91.5079, 31.693 ], [ -91.4974, 31.6855 ], [ -91.4868, 31.6783 ], [ -91.476, 31.6712 ], [ -91.4651, 31.6642 ], [ -91.454, 31.6574 ], [ -91.4428, 31.6508 ], [ -91.4314, 31.6443 ], [ -91.42, 31.6381 ], [ -91.4084, 31.6319 ], [ -91.3967, 31.626 ], [ -91.3848, 31.6202 ], [ -91.3729, 31.6146 ], [ -91.3608, 31.6092 ], [ -91.3486, 31.604 ], [ -91.3364, 31.5989 ], [ -91.324, 31.594 ], [ -91.3115, 31.5893 ], [ -91.2989, 31.5848 ], [ -91.2863, 31.5805 ], [ -91.2736, 31.5764 ], [ -91.2607, 31.5724 ], [ -91.2478, 31.5687 ], [ -91.2349, 31.5651 ], [ -91.2218, 31.5617 ], [ -91.2087, 31.5586 ], [ -91.1955, 31.5556 ], [ -91.1823, 31.5528 ], [ -91.169, 31.5502 ], [ -91.1557, 31.5478 ], [ -91.1423, 31.5456 ], [ -91.1289, 31.5436 ], [ -91.1154, 31.5418 ], [ -91.1019, 31.5402 ], [ -91.0884, 31.5388 ], [ -91.0748, 31.5376 ], [ -91.0613, 31.5366 ], [ -91.0477, 31.5358 ], [ -91.0341, 31.5352 ], [ -91.0204, 31.5348 ], [ -91.0068, 31.5346 ], [ -90.9798, 30.2036 ], [ -90.9395, 30.2042 ], [ -90.8993, 30.2054 ], [ -90.859, 30.2072 ], [ -90.8188, 30.2096 ], [ -90.7786, 30.2126 ], [ -90.7385, 30.2161 ], [ -90.6985, 30.2203 ], [ -90.6585, 30.225 ], [ -90.6187, 30.2304 ], [ -90.579, 30.2363 ], [ -90.5394, 30.2428 ], [ -90.4999, 30.2499 ], [ -90.4605, 30.2576 ], [ -90.4214, 30.2658 ], [ -90.3823, 30.2747 ], [ -90.3435, 30.2841 ], [ -90.3048, 30.2941 ], [ -90.2664, 30.3046 ], [ -90.2281, 30.3157 ], [ -90.1901, 30.3274 ], [ -90.1523, 30.3397 ], [ -90.1148, 30.3525 ], [ -90.0775, 30.3658 ], [ -90.0405, 30.3797 ], [ -90.0037, 30.3941 ], [ -89.9673, 30.4091 ], [ -89.9311, 30.4246 ], [ -89.8952, 30.4407 ], [ -89.8597, 30.4573 ], [ -89.8245, 30.4744 ], [ -89.7896, 30.492 ], [ -89.7551, 30.5101 ], [ -89.7209, 30.5288 ], [ -89.6871, 30.5479 ], [ -89.6537, 30.5675 ], [ -89.6207, 30.5877 ], [ -89.588, 30.6083 ], [ -89.5558, 30.6294 ], [ -89.524, 30.6509 ], [ -89.4926, 30.6729 ], [ -89.4617, 30.6954 ], [ -89.4312, 30.7184 ], [ -89.4012, 30.7418 ], [ -89.3716, 30.7656 ], [ -89.3425, 30.7899 ], [ -89.3139, 30.8145 ], [ -89.2858, 30.8396 ], [ -89.2581, 30.8652 ], [ -89.231, 30.8911 ], [ -89.2044, 30.9174 ], [ -89.1784, 30.9441 ], [ -89.1528, 30.9712 ], [ -89.1278, 30.9987 ], [ -89.1034, 31.0265 ], [ -89.0795, 31.0547 ], [ -89.0561, 31.0832 ], [ -89.0333, 31.1121 ], [ -89.0112, 31.1413 ], [ -88.9896, 31.1708 ], [ -88.9686, 31.2007 ], [ -88.9481, 31.2308 ], [ -88.9283, 31.2612 ], [ -88.9091, 31.292 ], [ -88.8906, 31.323 ], [ -88.8726, 31.3543 ], [ -88.8553, 31.3858 ], [ -88.8386, 31.4176 ], [ -88.8225, 31.4496 ], [ -88.8071, 31.4819 ], [ -88.7924, 31.5144 ], [ -88.7783, 31.5471 ], [ -88.7649, 31.58 ], [ -88.7521, 31.6131 ], [ -88.74, 31.6464 ], [ -88.7286, 31.6798 ], [ -88.7179, 31.7134 ], [ -88.7078, 31.7472 ], [ -88.6984, 31.7811 ], [ -88.6898, 31.8152 ], [ -88.6818, 31.8493 ], [ -88.6745, 31.8836 ], [ -88.6679, 31.918 ], [ -88.662, 31.9525 ], [ -88.6569, 31.987 ], [ -88.6524, 32.0217 ], [ -88.6486, 32.0564 ], [ -88.6456, 32.0911 ], [ -88.6432, 32.1259 ], [ -88.6416, 32.1607 ], [ -90.0169, 32.2035 ], [ -90.0171, 32.218 ], [ -90.0175, 32.2325 ], [ -90.0183, 32.247 ], [ -90.0193, 32.2615 ], [ -90.0207, 32.276 ], [ -90.0223, 32.2904 ], [ -90.0242, 32.3048 ], [ -90.0265, 32.3192 ], [ -90.029, 32.3336 ], [ -90.0318, 32.3479 ], [ -90.035, 32.3622 ], [ -90.0384, 32.3764 ], [ -90.0421, 32.3906 ], [ -90.0461, 32.4047 ], [ -90.0504, 32.4188 ], [ -90.055, 32.4328 ], [ -90.0599, 32.4467 ], [ -90.0651, 32.4605 ], [ -90.0705, 32.4743 ], [ -90.0763, 32.488 ], [ -90.0823, 32.5016 ], [ -90.0886, 32.5151 ], [ -90.0952, 32.5285 ], [ -90.1021, 32.5418 ], [ -90.1092, 32.555 ], [ -90.1166, 32.5681 ], [ -90.1243, 32.5811 ], [ -90.1323, 32.594 ], [ -90.1405, 32.6067 ], [ -90.149, 32.6194 ], [ -90.1578, 32.6319 ], [ -90.1668, 32.6442 ], [ -90.1761, 32.6565 ], [ -90.1856, 32.6686 ], [ -90.1954, 32.6805 ], [ -90.2055, 32.6923 ], [ -90.2157, 32.704 ], [ -90.2262, 32.7155 ], [ -90.237, 32.7268 ], [ -90.248, 32.738 ], [ -90.2592, 32.749 ], [ -90.2707, 32.7599 ], [ -90.2824, 32.7706 ], [ -90.2943, 32.7811 ], [ -90.3064, 32.7914 ], [ -90.3188, 32.8016 ], [ -90.3313, 32.8116 ], [ -90.3441, 32.8213 ], [ -90.3571, 32.8309 ], [ -90.3702, 32.8403 ], [ -90.3836, 32.8495 ], [ -90.3972, 32.8585 ], [ -90.4109, 32.8673 ], [ -90.4248, 32.8759 ], [ -90.4389, 32.8843 ], [ -90.4532, 32.8925 ], [ -90.4677, 32.9005 ], [ -90.4823, 32.9082 ], [ -90.4971, 32.9158 ], [ -90.512, 32.9231 ], [ -90.5271, 32.9302 ], [ -90.5424, 32.937 ], [ -90.5577, 32.9437 ], [ -90.5732, 32.9501 ], [ -90.5889, 32.9563 ], [ -90.6047, 32.9622 ], [ -90.6206, 32.968 ], [ -90.6366, 32.9734 ], [ -90.6527, 32.9787 ], [ -90.669, 32.9837 ], [ -90.6853, 32.9885 ], [ -90.7018, 32.993 ], [ -90.7183, 32.9973 ], [ -90.7349, 33.0013 ], [ -90.7517, 33.0051 ], [ -90.7684, 33.0087 ], [ -90.7853, 33.012 ], [ -90.8022, 33.015 ], [ -90.8192, 33.0178 ], [ -90.8363, 33.0203 ], [ -90.8534, 33.0226 ], [ -90.8705, 33.0247 ], [ -90.8877, 33.0265 ], [ -90.9049, 33.028 ], [ -90.9222, 33.0293 ], [ -90.9394, 33.0303 ], [ -90.9567, 33.0311 ], [ -90.974, 33.0316 ], [ -90.9913, 33.0318 ] ] ] } }
]
}
