{"type":"FeatureCollection","features":[{"type":"Feature","id":1,"geometry":{"type":"Polygon","coordinates":[[[-93.636301768311853,11.13251243310242],[-93.638719529082891,11.227220819285492],[-93.64441635023428,11.318932206656143],[-93.653390193002906,11.407742684177663],[-93.66563902132367,11.493748340813397],[-93.681160795534197,11.577045262828733],[-93.699953479569331,11.657729540086336],[-93.722015035565335,11.735897260650177],[-93.747343424759151,11.811644511685017],[-93.775936611085626,11.88506738395273],[-93.807792554882383,11.956261963718816],[-93.842909220983643,12.025324339946451],[-93.881284569727029,12.092350600699774],[-93.922916563248691,12.157436834942132],[-93.967803166382907,12.220679130737437],[-94.015942338567982,12.282173576149773],[-94.067332043738702,12.34201625924311],[-94.121970244031445,12.400303268980792],[-94.17985490158236,12.457130693426905],[-94.240983978527709,12.512594620645359],[-94.305355437003698,12.566791139599559],[-94.372967240945286,12.619816338353473],[-94.443817350690097,12.671766304971129],[-94.517903730172918,12.722737127516552],[-94.595224339731374,12.772824894953089],[-94.675777144199742,12.822125696244029],[-94.759560103915589,12.870735617654759],[-94.846571181914385,12.918750749047945],[-94.936808341231881,12.966267178487612],[-95.030269543104851,13.013380994037789],[-95.126952736179703,13.060188276567828],[-95.226838157854615,13.106774139714901],[-95.329853410006763,13.153191121872908],[-95.435916365647643,13.199485734179405],[-95.544944895990056,13.245704490470018],[-95.656856874045388,13.29189390188219],[-95.771570171026497,13.338100482251605],[-95.889002659944708,13.38437074271576],[-96.009072212912201,13.430751198009546],[-96.13169670114172,13.477288359270517],[-96.256793998544083,13.524028739434925],[-96.384281975432714,13.571018851438964],[-96.514078504819054,13.618305208218942],[-96.646101458815167,13.665934320912299],[-96.780268710432551,13.713952703354721],[-96.916498129984632,13.762406868482344],[-97.054707591382112,13.8113433283321],[-97.194814965837907,13.860808594940863],[-97.336738126363343,13.910849182144204],[-97.480394943271904,13.961511601978998],[-97.625703291373725,14.012842367381495],[-97.772581040982175,14.06488799038857],[-97.920946064209375,14.117694983936474],[-98.070716234066822,14.171309860961458],[-98.221809422666638,14.225779133500339],[-98.37414350212083,14.281149314489426],[-98.527636343642257,14.337466916864855],[-98.682205821141622,14.394778452663616],[-98.837769804932464,14.453130434821844],[-98.994246168925429,14.512569375376529],[-99.151552710589044,14.573141565131266],[-99.309591756354394,14.634845977060309],[-99.468231104981385,14.697576017219546],[-99.627333885949952,14.76121080683339],[-99.786763227840595,14.825629469824321],[-99.946382259233758,14.890711126517431],[-100.10605410781073,14.956334899935825],[-100.26564190215197,15.022379912203348],[-100.42500877263666,15.088725285443729],[-100.58401784604666,15.155250140881435],[-100.74253225096254,15.221833601539629],[-100.90041511686405,15.288354788642721],[-101.05752957233182,15.354692825213874],[-101.21373874504695,15.420726832477499],[-101.36890576359002,15.486335933456701],[-101.52289375744084,15.551399249376004],[-101.67556585517997,15.615795902359139],[-101.82678518448859,15.679405015429268],[-101.97641487394719,15.742105709810801],[-102.12431805303561,15.803777107627582],[-102.27035784943513,15.86429833100334],[-102.41439739172614,15.923548502061863],[-102.55629980938858,15.981406742926993],[-102.69592823010362,16.03775217572246],[-102.83314578245182,16.092463922572108],[-102.9678155959129,16.145421105599667],[-103.09980079816819,16.196502846928979],[-103.22896451779815,16.245588267784456],[-103.35516988338333,16.292556491189259],[-103.47828002440349,16.33728663926712],[-103.59815976466132,16.379658103938482],[-103.71480517681738,16.419571163878231],[-103.82843480782003,16.456961504070307],[-103.93928875417259,16.491768237714155],[-104.04760711327754,16.523930479807916],[-104.15362997983959,16.553387343551208],[-104.25759745126129,16.580077943042795],[-104.35974962494515,16.603941391482181],[-104.46032659649512,16.624916803867563],[-104.55956846331384,16.642943293398389],[-104.65771532010586,16.657959974173593],[-104.75500726607237,16.669905960291999],[-104.85168439501871,16.678720365852314],[-104.9479868061461,16.684342304054212],[-105.04415459325975,16.686710889895778],[-105.14042785556097,16.685765235677252],[-105.23704668775434,16.681444457295981],[-105.33425118724239,16.67368766705232],[-105.43228145052842,16.662433979045034],[-105.53137757411565,16.647622508272264],[-105.63177965450734,16.62919236703425],[-105.73372778820675,16.607082671228454],[-105.83746207171714,16.581232533155003],[-105.94322260154172,16.551581066912831],[-106.05124947508313,16.518067386600762],[-106.16178278704587,16.480630607216881],[-106.27506263573196,16.439209841061427],[-106.39132911764455,16.393744203132599],[-106.51082232748831,16.344172806629842],[-106.63378236446442,16.290434765652037],[-106.76044307388867,16.232471948921443],[-106.89079539239333,16.170333297543777],[-107.02451470159212,16.104206845369731],[-107.16125529309721,16.034289923441349],[-107.30067146031956,15.960779860102605],[-107.44241749577071,15.883873985496166],[-107.58614769286163,15.803769628865439],[-107.73151634320459,15.720664121252355],[-107.87817774110977,15.634754791900264],[-108.02578617818949,15.54623897005257],[-108.17399594785462,15.455313985851888],[-108.32246134261675,15.362177168541621],[-108.4708366540882,15.267025849163758],[-108.61877617747854,15.170057356062273],[-108.76593420350059,15.07146901937989],[-108.91196502556539,14.971458169259222],[-109.0565229370838,14.870222134943731],[-109.1992622305674,14.767958246575972],[-109.33983719762847,14.664863834298671],[-109.47790213167792,14.561136226455801],[-109.61311132612673,14.456972754089463],[-109.74511907348636,14.35257074644295],[-109.87357966626848,14.248127533658874],[-109.998147397884,14.143840444980697],[-110.11847655904586,14.039906810551031],[-110.23422144496362,13.936523960512488],[-110.34503634814882,13.833889223209212],[-110.45057555931453,13.732199929683134],[-110.55049337367018,13.631653409177602],[-110.64444408192873,13.532446990936023],[-110.73209113080094,13.434773032749376],[-110.81330848389933,13.338709504040537],[-110.88818062083891,13.244219988561781],[-110.95680117453446,13.151263098613242],[-111.01926377790096,13.059797443797152],[-111.07566206475241,12.969781635514209],[-111.12608966890298,12.881174285165287],[-111.17064022236826,12.793934002352444],[-111.209407358063,12.708019399375928],[-111.24248471070075,12.62338908673712],[-111.26996591229693,12.540001674937514],[-111.2919445966657,12.457815774478547],[-111.30851439582261,12.37678999766041],[-111.3197689444811,12.29688295498454],[-111.32580187555601,12.218053256053054],[-111.32670682106283,12.140259513166143],[-111.32257741481573,12.063460336825244],[-111.31350729062888,11.987614337531795],[-111.2995900805177,11.912680127585929],[-111.28091941919575,11.838616315690558],[-111.25758893867845,11.765381515045021],[-111.22969227278008,11.692934334352174],[-111.19732305351602,11.621233385912149],[-111.1605749155998,11.55023728112576],[-111.1195414910469,11.479904629595126],[-111.07431641367145,11.410194041821683],[-111.02499331638836,11.341064131004998],[-110.97166583301168,11.272473505847756],[-110.91442759555702,11.204380778650147],[-110.85337223783841,11.136744559014346],[-110.78859272457447,11.069526883858714],[-110.72017200653278,11.002741031673395],[-110.64818532729095,10.936439728810569],[-110.572707733475,10.870676716057744],[-110.49381427081187,10.805505736001066],[-110.41157998412888,10.740980528528723],[-110.32607991915285,10.677154835327542],[-110.23738912250991,10.61408239718503],[-110.14558263992677,10.551816955788013],[-110.05073551623099,10.490412251923999],[-109.95292279714926,10.429922027279872],[-109.85221952930772,10.370400022643082],[-109.74870075753381,10.311899978801137],[-109.64244152755435,10.254475637440862],[-109.53351688599537,10.198180740249086],[-109.42200187768441,10.143069028013372],[-109.30797154834818,10.08919424152117],[-109.19150094461281,10.036610121559988],[-109.07266511040643,9.9853704107160297],[-108.95153909325444,9.9355288488774249],[-108.82819793798433,9.8871391777310009],[-108.70271669032292,9.8402551389636415],[-108.57517039689623,9.7949304733627969],[-108.44563410163238,9.7512189217159744],[-108.31418285115757,9.7091742257100577],[-108.18089169209782,9.6688501252332344],[-108.0458356683813,9.6303003637709139],[-107.90908982753342,9.5935786812112838],[-107.7707292134823,9.558738818341908],[-107.63082887285412,9.5258345168496135],[-107.48945486265171,9.4949087526369453],[-107.34658043523882,9.4658933678847461],[-107.20212409674957,9.4386546397000188],[-107.0560036455517,9.4130579998269468],[-106.90813687731492,9.3889688782113012],[-106.75844159040696,9.3662527056979457],[-106.6068355831955,9.3447749131318574],[-106.45323665314891,9.3244009313580136],[-106.29756259683626,9.3049961912213917],[-106.13973121262529,9.2864261226675353],[-105.97966029888357,9.2685561565415355],[-105.81726765218031,9.2512517245875756],[-105.65247106998379,9.2343782567512562],[-105.48518835066176,9.2178011829783486],[-105.31533729078325,9.201385935013036],[-105.14283568961531,9.1849979437002958],[-104.96760134372693,9.1685026398850482],[-104.78955205058656,9.151765452613688],[-104.60860560766258,9.134651814529775],[-104.42467981332265,9.11702715557891],[-104.23769246503514,9.0987569066060701],[-104.04756136026845,9.0797064975569697],[-103.85420429649099,9.0597413601757921],[-103.65753907117107,9.0387269253075146],[-103.45748348267648,9.0165286219984182],[-103.25395532847551,8.9930118828922332],[-103.04687240513726,8.9680421370351269],[-102.83615251102947,8.9414848170707728],[-102.62171344451974,8.9132053520455088],[-102.40347300127786,8.8830691728041984],[-102.18138917307181,8.8509784421015638],[-101.95571699144591,8.8171067803537539],[-101.72684462447972,8.7817494799546694],[-101.49516086887888,8.7452024070655625],[-101.26105452134897,8.7077614278477427],[-101.02491437769629,8.6697224084625191],[-100.7871292355257,8.6313812132725047],[-100.54808788974424,8.5930337084390089],[-100.30817913795676,8.5549757610227175],[-100.06779177507025,8.5175032362854495],[-99.827314598689668,8.4809120003886278],[-99.587136405520596,8.4454979185941852],[-99.347645990469971,8.4115568561641112],[-99.109232151142749,8.3793846810582977],[-98.872283684244508,8.3492772567401516],[-98.637189384682245,8.3215304511695081],[-98.404338050060858,8.2964401278097739],[-98.174118476186607,8.2743021555202176],[-97.946919458865807,8.2554123977640756],[-97.723129796602734,8.2400667207027141],[-97.503138283404951,8.2285609913967619],[-97.287333716877413,8.2211910751081518],[-97.076104893725756,8.2182528370988734],[-96.869840608856919,8.220042143530236],[-96.66892966077512,8.2268548605634919],[-96.473760843488037,8.2389868543599505],[-96.284722955499888,8.2567339892823384],[-96.102204791717668,8.2803921332904338],[-95.926595149746277,8.3102571507470202],[-95.758282825391973,8.3466249078134069],[-95.597591317385309,8.3897150081412519],[-95.444490951695968,8.4393345615409316],[-95.298833190898961,8.4951518575722957],[-95.16046941033494,8.5568350814739915],[-95.029250985344618,8.6240524184844389],[-94.905029289470008,8.6964720511443829],[-94.787655698951255,8.7737621664909398],[-94.676981586430941,8.8555909479640036],[-94.572858328149209,8.941626579902902],[-94.475137298547395,9.0315372475460549],[-94.383669872066832,9.1249911352328468],[-94.298307424048289,9.2216564282017544],[-94.21890132803378,9.3212013107919915],[-94.14530296026328,9.4232939673428291],[-94.077363694278972,9.5276025821935377],[-94.014934905421455,9.6337953414819708],[-93.957867967232801,9.7415404277487028],[-93.906014255953039,9.8505060280309067],[-93.859225146023562,9.9603603248692139],[-93.81735201098644,10.070771504401534],[-93.780246227081591,10.181407750067763],[-93.7477591678512,10.291937247106432],[-93.719742209535241,10.402028180756076],[-93.696046724776409,10.511348734456647],[-93.676524089814791,10.619567093446733],[-93.661025678192402,10.726351442964869],[-93.649402866149273,10.83136996735027],[-93.641507027227419,10.934290850042828],[-93.637189535868288,11.034782277180511],[-93.636301768311853,11.13251243310242]]]},"properties":{"objectid":1,"basin":"Pacific","prob2day":"0%","risk2day":"Low","prob7day":"70%","risk7day":"High","idp_source":"gtwo_areas_202610101151","idp_filedate":1791633472000,"idp_ingestdate":1791633541000,"st_area(shape)":101.48001588893659,"st_perimeter(shape)":41.871448546568537}}]}